STATION,DATE,REPORT_TYPE,SOURCE,AWND,BackupDirection,BackupDistance,BackupDistanceUnit,BackupElements,BackupElevation,BackupElevationUnit,BackupEquipment,BackupLatitude,BackupLongitude,BackupName,CDSD,CLDD,DSNW,DYHF,DYTS,DailyAverageDewPointTemperature,DailyAverageDryBulbTemperature,DailyAverageRelativeHumidity,DailyAverageSeaLevelPressure,DailyAverageStationPressure,DailyAverageWetBulbTemperature,DailyAverageWindSpeed,DailyCoolingDegreeDays,DailyDepartureFromNormalAverageTemperature,DailyHeatingDegreeDays,DailyMaximumDryBulbTemperature,DailyMinimumDryBulbTemperature,DailyPeakWindDirection,DailyPeakWindSpeed,DailyPrecipitation,DailySnowDepth,DailySnowfall,DailySustainedWindDirection,DailySustainedWindSpeed,DailyWeather,HDSD,HTDD,HourlyAltimeterSetting,HourlyDewPointTemperature,HourlyDryBulbTemperature,HourlyPrecipitation,HourlyPresentWeatherType,HourlyPressureChange,HourlyPressureTendency,HourlyRelativeHumidity,HourlySeaLevelPressure,HourlySkyConditions,HourlyStationPressure,HourlyVisibility,HourlyWetBulbTemperature,HourlyWindDirection,HourlyWindGustSpeed,HourlyWindSpeed,MonthlyAverageRH,MonthlyDaysWithGT001Precip,MonthlyDaysWithGT010Precip,MonthlyDaysWithGT32Temp,MonthlyDaysWithGT90Temp,MonthlyDaysWithLT0Temp,MonthlyDaysWithLT32Temp,MonthlyDepartureFromNormalAverageTemperature,MonthlyDepartureFromNormalCoolingDegreeDays,MonthlyDepartureFromNormalHeatingDegreeDays,MonthlyDepartureFromNormalMaximumTemperature,MonthlyDepartureFromNormalMinimumTemperature,MonthlyDepartureFromNormalPrecipitation,MonthlyDewpointTemperature,MonthlyGreatestPrecip,MonthlyGreatestPrecipDate,MonthlyGreatestSnowDepth,MonthlyGreatestSnowDepthDate,MonthlyGreatestSnowfall,MonthlyGreatestSnowfallDate,MonthlyMaxSeaLevelPressureValue,MonthlyMaxSeaLevelPressureValueDate,MonthlyMaxSeaLevelPressureValueTime,MonthlyMaximumTemperature,MonthlyMeanTemperature,MonthlyMinSeaLevelPressureValue,MonthlyMinSeaLevelPressureValueDate,MonthlyMinSeaLevelPressureValueTime,MonthlyMinimumTemperature,MonthlySeaLevelPressure,MonthlyStationPressure,MonthlyTotalLiquidPrecipitation,MonthlyTotalSnowfall,MonthlyWetBulb,NormalsCoolingDegreeDay,NormalsHeatingDegreeDay,REM,REPORT_TYPE,SOURCE,ShortDurationEndDate005,ShortDurationEndDate010,ShortDurationEndDate015,ShortDurationEndDate020,ShortDurationEndDate030,ShortDurationEndDate045,ShortDurationEndDate060,ShortDurationEndDate080,ShortDurationEndDate100,ShortDurationEndDate120,ShortDurationEndDate150,ShortDurationEndDate180,ShortDurationPrecipitationValue005,ShortDurationPrecipitationValue010,ShortDurationPrecipitationValue015,ShortDurationPrecipitationValue020,ShortDurationPrecipitationValue030,ShortDurationPrecipitationValue045,ShortDurationPrecipitationValue060,ShortDurationPrecipitationValue080,ShortDurationPrecipitationValue100,ShortDurationPrecipitationValue120,ShortDurationPrecipitationValue150,ShortDurationPrecipitationValue180,Sunrise,Sunset,WindEquipmentChangeDate
72219013874,2020-01-01T00:52:00,FM-15,7,,,,,,,,,,,,,,,,,,,,,,,,,,,,,,,,,,,,,,,30.03,29,40,0,,0,0,65,30.03,FEW:02 250,28.93,10,36,280,,9,,,,,,,,,,,,,,,,,,,,,,,,,,,,,,,,,,,,,MET11201/01/20 00:52:02 METAR KATL 010552Z 28008KT 10SM FEW250 04/M02 A3003 RMK AO2 SLP171 T00441017 10089 20044 50000,FM-15,7,,,,,,,,,,,,,,,,,,,,,,,,,,,3/27/2007
72219013874,2020-01-01T01:00:00,FM-12,4,,,,,,,,,,,,,,,,,,,,,,,,,,,,,,,,,,,,,,,,29,40,,,0,9,65,30.03,,28.92,9.94,36,280,,9,,,,,,,,,,,,,,,,,,,,,,,,,,,,,,,,,,,,,SYN08072219 32966 22808 10044 21017 39795 40171 50000 90552 333 10117 20033 555 90106=,FM-12,4,,,,,,,,,,,,,,,,,,,,,,,,,,,3/27/2007
72219013874,2020-01-01T01:52:00,FM-15,7,,,,,,,,,,,,,,,,,,,,,,,,,,,,,,,,,,,,,,,30.02,28,41,0,,,,60,30.03,FEW:02 250,28.92,10,36,290,,11,,,,,,,,,,,,,,,,,,,,,,,,,,,,,,,,,,,,,MET09601/01/20 01:52:02 METAR KATL 010652Z 29010KT 10SM FEW250 05/M02 A3002 RMK AO2 SLP169 T00501022 $,FM-15,7,,,,,,,,,,,,,,,,,,,,,,,,,,,3/27/2007
72219013874,2020-01-01T02:52:00,FM-15,7,,,,,,,,,,,,,,,,,,,,,,,,,,,,,,,,,,,,,,,30.02,28,40,0,,,,63,30.03,FEW:02 200 SCT:04 250,28.92,10,35,290,,11,,,,,,,,,,,,,,,,,,,,,,,,,,,,,,,,,,,,,MET10301/01/20 02:52:02 METAR KATL 010752Z 29010KT 10SM FEW200 SCT250 04/M02 A3002 RMK AO2 SLP168 T00441022 $,FM-15,7,,,,,,,,,,,,,,,,,,,,,,,,,,,3/27/2007
72219013874,2020-01-01T03:52:00,FM-15,7,,,,,,,,,,,,,,,,,,,,,,,,,,,,,,,,,,,,,,,30.02,27,39,0,,0,5,62,30.03,SCT:04 200 SCT:04 250,28.92,10,34,300,,9,,,,,,,,,,,,,,,,,,,,,,,,,,,,,,,,,,,,,MET10901/01/20 03:52:02 METAR KATL 010852Z 30008KT 10SM SCT200 SCT250 04/M03 A3002 RMK AO2 SLP169 T00391028 55001 $,FM-15,7,,,,,,,,,,,,,,,,,,,,,,,,,,,3/27/2007
72219013874,2020-01-01T04:52:00,FM-15,7,,,,,,,,,,,,,,,,,,,,,,,,,,,,,,,,,,,,,,,30.02,26,39,0,,,,60,30.03,SCT:04 200 BKN:07 250,28.92,10,34,280,,8,,,,,,,,,,,,,,,,,,,,,,,,,,,,,,,,,,,,,MET10301/01/20 04:52:02 METAR KATL 010952Z 28007KT 10SM SCT200 BKN250 04/M03 A3002 RMK AO2 SLP168 T00391033 $,FM-15,7,,,,,,,,,,,,,,,,,,,,,,,,,,,3/27/2007
72219013874,2020-01-01T05:52:00,FM-15,7,,,,,,,,,,,,,,,,,,,,,,,,,,,,,,,,,,,,,,,30.04,26,39,0,,,,60,30.05,SCT:04 200 BKN:07 250,28.94,10,34,290,,9,,,,,,,,,,,,,,,,,,,,,,,,,,,,,,,,,,,,,MET10301/01/20 05:52:02 METAR KATL 011052Z 29008KT 10SM SCT200 BKN250 04/M03 A3004 RMK AO2 SLP175 T00391033 $,FM-15,7,,,,,,,,,,,,,,,,,,,,,,,,,,,3/27/2007
72219013874,2020-01-01T06:52:00,FM-15,7,,,,,,,,,,,,,,,,,,,,,,,,,,,,,,,,,,,,,,,30.06,26,37,0,,-0.03,3,65,30.07,SCT:04 200 BKN:07 250,28.96,10,33,270,,7,,,,,,,,,,,,,,,,,,,,,,,,,,,,,,,,,,,,,MET12101/01/20 06:52:02 METAR KATL 011152Z 27006KT 10SM SCT200 BKN250 03/M03 A3006 RMK AO2 SLP182 T00281033 10050 20028 53011 $,FM-15,7,,,,,,,,,,,,,,,,,,,,,,,,,,,3/27/2007
72219013874,2020-01-01T07:00:00,FM-12,4,,,,,,,,,,,,,,,,,,,,,,,,,,,,,,,,,,,,,,,,26,37,,,-0.03,3,65,30.07,,28.95,9.94,33,270,,7,,,,,,,,,,,,,,,,,,,,,,,,,,,,,,,,,,,,,SYN08072219 32966 62706 10028 21033 39805 40182 53011 91152 333 10133 20028 555 90112=,FM-12,4,,,,,,,,,,,,,,,,,,,,,,,,,,,3/27/2007
72219013874,2020-01-01T07:52:00,FM-15,7,,,,,,,,,,,,,,,,,,,,,,,,,,,,,,,,,,,,,,,30.07,25,36,0,,,,64,30.09,FEW:02 150 SCT:04 200 BKN:07 250,28.97,10,32,260,,5,,,,,,,,,,,,,,,,,,,,,,,,,,,,,,,,,,,,,MET11001/01/20 07:52:02 METAR KATL 011252Z 26004KT 10SM FEW150 SCT200 BKN250 02/M04 A3007 RMK AO2 SLP188 T00221039 $,FM-15,7,,,,,,,,,,,,,,,,,,,,,,,,,,,3/27/2007
72219013874,2020-01-01T08:52:00,FM-15,7,,,,,,,,,,,,,,,,,,,,,,,,,,,,,,,,,,,,,,,30.09,27,39,0,,,,62,30.1,FEW:02 150 SCT:04 200 BKN:07 250,28.99,10,34,280,,7,,,,,,,,,,,,,,,,,,,,,,,,,,,,,,,,,,,,,MET11001/01/20 08:52:02 METAR KATL 011352Z 28006KT 10SM FEW150 SCT200 BKN250 04/M03 A3009 RMK AO2 SLP193 T00391028 $,FM-15,7,,,,,,,,,,,,,,,,,,,,,,,,,,,3/27/2007
72219013874,2020-01-01T09:52:00,FM-15,7,,,,,,,,,,,,,,,,,,,,,,,,,,,,,,,,,,,,,,,30.09,26,42,0,,-0.03,1,53,30.1,FEW:02 150 SCT:04 200 BKN:07 250,28.99,10,36,290,,9,,,,,,,,,,,,,,,,,,,,,,,,,,,,,,,,,,,,,MET11601/01/20 09:52:02 METAR KATL 011452Z 29008KT 10SM FEW150 SCT200 BKN250 06/M03 A3009 RMK AO2 SLP194 T00561033 51011 $,FM-15,7,,,,,,,,,,,,,,,,,,,,,,,,,,,3/27/2007
72219013874,2020-01-01T10:52:00,FM-15,7,,,,,,,,,,,,,,,,,,,,,,,,,,,,,,,,,,,,,,,30.1,28,47,0,,,,48,30.11,FEW:02 150 SCT:04 200 BKN:07 250,29,10,39,310,,8,,,,,,,,,,,,,,,,,,,,,,,,,,,,,,,,,,,,,MET10801/01/20 10:52:02 METAR KATL 011552Z 31007KT 10SM FEW150 SCT200 BKN250 08/M02 A3010 RMK AO2 SLP196 T00831022,FM-15,7,,,,,,,,,,,,,,,,,,,,,,,,,,,3/27/2007
72219013874,2020-01-01T11:52:00,FM-15,7,,,,,,,,,,,,,,,,,,,,,,,,,,,,,,,,,,,,,,,30.08,24,50,0,,,,36,30.09,FEW:02 150 SCT:04 200 BKN:07 250,28.98,10,39,330,,13,,,,,,,,,,,,,,,,,,,,,,,,,,,,,,,,,,,,,MET10801/01/20 11:52:02 METAR KATL 011652Z 33011KT 10SM FEW150 SCT200 BKN250 10/M04 A3008 RMK AO2 SLP191 T01001044,FM-15,7,,,,,,,,,,,,,,,,,,,,,,,,,,,3/27/2007
72219013874,2020-01-01T12:52:00,FM-15,7,,,,,,,,,,,,,,,,,,,,,,,,,,,,,,,,,,,,,,,30.04,24,52,0,,,,34,30.05,FEW:02 150 SCT:04 200 BKN:07 250,28.94,10,40,290,,8,,,,,,,,,,,,,,,,,,,,,,,,,,,,,,,,,,,,,MET12001/01/20 12:52:02 METAR KATL 011752Z 29007KT 10SM FEW150 SCT200 BKN250 11/M04 A3004 RMK AO2 SLP176 T01111044 10117 20022,FM-15,7,,,,,,,,,,,,,,,,,,,,,,,,,,,3/27/2007
72219013874,2020-01-01T13:00:00,FM-12,4,,,,,,,,,,,,,,,,,,,,,,,,,,,,,,,,,,,,,,,,24,52,,,,,34,30.05,,28.93,9.94,40,290,,8,,,,,,,,,,,,,,,,,,,,,,,,,,,,,,,,,,,,,SYN07472219 32966 62907 10111 21044 39798 40176 91752 333 10117 20022 555 90118=,FM-12,4,,,,,,,,,,,,,,,,,,,,,,,,,,,3/27/2007
72219013874,2020-01-01T13:52:00,FM-15,7,,,,,,,,,,,,,,,,,,,,,,,,,,,,,,,,,,,,,,,30.02,22,53,0,,,,30,30.03,SCT:04 150 BKN:07 200 BKN:07 250,28.92,10,40,270,,8,,,,,,,,,,,,,,,,,,,,,,,,,,,,,,,,,,,,,MET10801/01/20 13:52:02 METAR KATL 011852Z 27007KT 10SM SCT150 BKN200 BKN250 12/M06 A3002 RMK AO2 SLP169 T01171056,FM-15,7,,,,,,,,,,,,,,,,,,,,,,,,,,,3/27/2007
72219013874,2020-01-01T14:52:00,FM-15,7,,,,,,,,,,,,,,,,,,,,,,,,,,,,,,,,,,,,,,,30,21,55,0,,,,26,30.01,BKN:07 170 BKN:07 250,28.9,10,41,VRB,,7,,,,,,,,,,,,,,,,,,,,,,,,,,,,,,,,,,,,,MET10101/01/20 14:52:02 METAR KATL 011952Z VRB06KT 10SM BKN170 BKN250 13/M06 A3000 RMK AO2 SLP161 T01281061,FM-15,7,,,,,,,,,,,,,,,,,,,,,,,,,,,3/27/2007
72219013874,2020-01-01T15:52:00,FM-15,7,,,,,,,,,,,,,,,,,,,,,,,,,,,,,,,,,,,,,,,30.01,22,55,0,,0.04,5,28,30.01,FEW:02 170 BKN:07 250,28.91,10,41,220,,7,,,,,,,,,,,,,,,,,,,,,,,,,,,,,,,,,,,,,MET10701/01/20 15:52:02 METAR KATL 012052Z 22006KT 10SM FEW170 BKN250 13/M06 A3001 RMK AO2 SLP163 T01281056 55012,FM-15,7,,,,,,,,,,,,,,,,,,,,,,,,,,,3/27/2007
72219013874,2020-01-01T16:52:00,FM-15,7,,,,,,,,,,,,,,,,,,,,,,,,,,,,,,,,,,,,,,,30,23,53,0,,,,31,30.01,FEW:02 170 SCT:04 200 BKN:07 250,28.9,10,41,210,,7,,,,,,,,,,,,,,,,,,,,,,,,,,,,,,,,,,,,,MET10801/01/20 16:52:02 METAR KATL 012152Z 21006KT 10SM FEW170 SCT200 BKN250 12/M05 A3000 RMK AO2 SLP163 T01171050,FM-15,7,,,,,,,,,,,,,,,,,,,,,,,,,,,3/27/2007
72219013874,2020-01-01T17:52:00,FM-15,7,,,,,,,,,,,,,,,,,,,,,,,,,,,,,,,,,,,,,,,30.02,25,51,0,,,,36,30.03,SCT:04 170 BKN:07 200 BKN:07 250,28.92,10,40,230,,6,,,,,,,,,,,,,,,,,,,,,,,,,,,,,,,,,,,,,MET11301/01/20 17:52:02 METAR KATL 012252Z 23005KT 10SM SCT170 BKN200 BKN250 11/M04 A3002 RMK AO2 SLP168 T01061039 (RF),FM-15,7,,,,,,,,,,,,,,,,,,,,,,,,,,,3/27/2007
72219013874,2020-01-01T18:52:00,FM-15,7,,,,,,,,,,,,,,,,,,,,,,,,,,,,,,,,,,,,,,,30.01,26,49,0,,0,0,41,30.02,SCT:04 180 BKN:07 250,28.91,10,39,200,,6,,,,,,,,,,,,,,,,,,,,,,,,,,,,,,,,,,,,,MET12401/01/20 18:52:02 METAR KATL 012352Z 20005KT 10SM SCT180 BKN250 09/M03 A3001 RMK AO2 SLP165 T00941033 10139 20094 50000 (RF),FM-15,7,,,,,,,,,,,,,,,,,,,,,,,,,,,3/27/2007
72219013874,2020-01-01T19:00:00,FM-12,4,,,,,,,,,,,,,,,,,,,,,,,,,,,,,,,,,,,,,,,,26,49,,,0,9,41,30.02,,28.9,9.94,39,200,,6,,,,,,,,,,,,,,,,,,,,,,,,,,,,,,,,,,,,,SYN08072219 32966 62005 10094 21033 39788 40165 50000 92352 333 10139 20028 555 90200=,FM-12,4,,,,,,,,,,,,,,,,,,,,,,,,,,,3/27/2007
72219013874,2020-01-01T19:52:00,FM-15,7,,,,,,,,,,,,,,,,,,,,,,,,,,,,,,,,,,,,,,,30.02,26,49,0,,,,41,30.03,BKN:07 180 BKN:07 250,28.92,10,39,220,,6,,,,,,,,,,,,,,,,,,,,,,,,,,,,,,,,,,,,,MET10101/01/20 19:52:01 METAR KATL 020052Z 22005KT 10SM BKN180 BKN250 09/M03 A3002 RMK AO2 SLP171 T00941033,FM-15,7,,,,,,,,,,,,,,,,,,,,,,,,,,,3/27/2007
72219013874,2020-01-01T20:52:00,FM-15,7,,,,,,,,,,,,,,,,,,,,,,,,,,,,,,,,,,,,,,,30.04,26,48,0,,,,42,30.05,BKN:07 200,28.94,10,39,230,,5,,,,,,,,,,,,,,,,,,,,,,,,,,,,,,,,,,,,,MET09401/01/20 20:52:01 METAR KATL 020152Z 23004KT 10SM BKN200 09/M03 A3004 RMK AO2 SLP176 T00891033,FM-15,7,,,,,,,,,,,,,,,,,,,,,,,,,,,3/27/2007
72219013874,2020-01-01T21:52:00,FM-15,7,,,,,,,,,,,,,,,,,,,,,,,,,,,,,,,,,,,,,,,30.03,28,47,0,,-0.02,0,48,30.04,BKN:07 200,28.93,10,39,220,,3,,,,,,,,,,,,,,,,,,,,,,,,,,,,,,,,,,,,,MET10001/01/20 21:52:01 METAR KATL 020252Z 22003KT 10SM BKN200 08/M02 A3003 RMK AO2 SLP172 T00831022 50008,FM-15,7,,,,,,,,,,,,,,,,,,,,,,,,,,,3/27/2007
72219013874,2020-01-01T22:52:00,FM-15,7,,,,,,,,,,,,,,,,,,,,,,,,,,,,,,,,,,,,,,,30.02,27,47,0,,,,46,30.03,BKN:07 200,28.92,10,39,200,,3,,,,,,,,,,,,,,,,,,,,,,,,,,,,,,,,,,,,,MET09401/01/20 22:52:01 METAR KATL 020352Z 20003KT 10SM BKN200 08/M03 A3002 RMK AO2 SLP170 T00831028,FM-15,7,,,,,,,,,,,,,,,,,,,,,,,,,,,3/27/2007
72219013874,2020-01-01T23:52:00,FM-15,7,,,,,,,,,,,,,,,,,,,,,,,,,,,,,,,,,,,,,,,30.02,27,47,0,,,,46,30.03,BKN:07 150 OVC:08 200,28.92,10,39,0,,0,,,,,,,,,,,,,,,,,,,,,,,,,,,,,,,,,,,,,MET11101/01/20 23:52:02 METAR KATL 020452Z 00000KT 10SM BKN150 OVC200 08/M03 A3002 RMK AO2 SLP169 T00831028 401390022,FM-15,7,,,,,,,,,,,,,,,,,,,,,,,,,,,3/27/2007
72219013874,2020-01-01T23:59:00,SOD  ,6,,,,,,,,,,,,,,,,,26,47,48,30.05,28.94,37,7.2,0,4,18,57,36,330,17,0,0,0,280,13,,,,,,,,,,,,,,,,,,,,,,,,,,,,,,,,,,,,,,,,,,,,,,,,,,,,,,,,SOD74324 HR PRECIPITATION (IN): 0.00 SNOW DEPTH (IN):0     24 HR SNOWFALL (IN):0.0  24 HR MAX TEMP (F): 5724 HR MIN TEMP (F): 36AVERAGE STATION PRESSURE(D):28.939 MINIMUM SEA LEVEL PRESSURE:30.00 TIME OF OCCURRENCE:1644 PEAK WIND SPEED (MPH): 17 PEAK WIND DIR (DEG):330 PEAK WIND TIME (LST):      FASTEST 2MIN SPEED (MPH): 13FASTEST 2MIN DIR (DEG):280 FASTEST 2MIN TIME (LST):     AVERAGE WIND SPEED (MPH): 7.2 24 HR AVG TEMP (F): 47DEPART FROM NORMAL:  4  HEATING DEGREE DAYS: 18 COOLING DEGREE DAYS:  0 LATEST DAY MAX TEMP (0700-1900 LST): 57 LATEST NIGHT MIN TEMP(1900-0800 LST):36 HOURLY INCREMENTAL PRECIPITATION VALUES (IN):0.00 0.00 0.00 0.00 0.00 0.00 0.00 0.00 0.00 0.00 0.00 0.00 0.00 0.00 0.00 0.00 0.00 0.00 0.00 0.00 0.00 0.00 0.00 0.00,SOD  ,6,,,,,,,,,,,,,,,,,,,,,,,,,742,1741,3/27/2007
72219013874,2020-01-02T00:52:00,FM-15,7,,,,,,,,,,,,,,,,,,,,,,,,,,,,,,,,,,,,,,,30,28,46,0,,0.03,8,50,30,BKN:07 150 OVC:08 200,28.9,10,39,0,,0,,,,,,,,,,,,,,,,,,,,,,,,,,,,,,,,,,,,,MET12401/02/20 00:52:02 METAR KATL 020552Z 00000KT 10SM BKN150 OVC200 08/M02 A3000 RMK AO2 SLP160 T00781022 10094 20078 58009 (RF),FM-15,7,,,,,,,,,,,,,,,,,,,,,,,,,,,3/27/2007
72219013874,2020-01-02T01:00:00,FM-12,4,,,,,,,,,,,,,,,,,,,,,,,,,,,,,,,,,,,,,,,,28,46,,,0.03,8,50,30,,28.9,9.94,39,0,,0,,,,,,,,,,,,,,,,,,,,,,,,,,,,,,,,,,,,,SYN08072219 32966 80000 10078 21022 39785 40160 58009 90552 333 10094 20028 555 90206=,FM-12,4,,,,,,,,,,,,,,,,,,,,,,,,,,,3/27/2007
72219013874,2020-01-02T01:52:00,FM-15,7,,,,,,,,,,,,,,,,,,,,,,,,,,,,,,,,,,,,,,,30,29,47,0,,,,50,30,BKN:07 130 OVC:08 200,28.9,10,39,200,,3,,,,,,,,,,,,,,,,,,,,,,,,,,,,,,,,,,,,,MET12201/02/20 01:52:02 METAR KATL 020652Z 20003KT 10SM BKN130 OVC200 08/M02 A3000 RMK AO2 SLP160 VIRGA SE-SW-NW T00831017 (KAF),FM-15,7,,,,,,,,,,,,,,,,,,,,,,,,,,,3/27/2007
72219013874,2020-01-02T02:52:00,FM-15,7,,,,,,,,,,,,,,,,,,,,,,,,,,,,,,,,,,,,,,,30.01,29,47,0,,,,50,30.01,FEW:02 60 SCT:04 130 OVC:08 180,28.91,10,39,0,,0,,,,,,,,,,,,,,,,,,,,,,,,,,,,,,,,,,,,,MET12901/02/20 02:52:02 METAR KATL 020752Z 00000KT 10SM FEW060 SCT130 OVC180 08/M02 A3001 RMK AO2 SLP161 VIRGA SW-NW-NE T00831017 (KAF),FM-15,7,,,,,,,,,,,,,,,,,,,,,,,,,,,3/27/2007
72219013874,2020-01-02T03:52:00,FM-15,7,,,,,,,,,,,,,,,,,,,,,,,,,,,,,,,,,,,,,,,30.02,30,48,0,,-0.01,3,50,30.02,BKN:07 50 OVC:08 130,28.92,10,40,0,,0,,,,,,,,,,,,,,,,,,,,,,,,,,,,,,,,,,,,,MET12901/02/20 03:52:02 METAR KATL 020852Z 00000KT 10SM BKN050 OVC130 09/M01 A3002 RMK AO2 SLP165 VIRGA OHD-ALQDS T00891011 53005 (KAF),FM-15,7,,,,,,,,,,,,,,,,,,,,,,,,,,,3/27/2007
72219013874,2020-01-02T04:52:00,FM-15,7,,,,,,,,,,,,,,,,,,,,,,,,,,,,,,,,,,,,,,,30.02,32,47,T,-RA:02 |RA |RA,,,56,30.02,OVC:08 45,28.92,10,40,0,,0,,,,,,,,,,,,,,,,,,,,,,,,,,,,,,,,,,,,,MET11501/02/20 04:52:02 METAR KATL 020952Z 00000KT 10SM -RA OVC045 08/00 A3002 RMK AO2 RAB14 SLP166 P0000 T00830000 (KAF),FM-15,7,,,,,,,,,,,,,,,,,,,,,,,,,,,3/27/2007
72219013874,2020-01-02T05:52:00,FM-15,7,,,,,,,,,,,,,,,,,,,,,,,,,,,,,,,,,,,,,,,30.01,35,46,T,-RA:02 |RA |RA,,,66,30.01,BKN:07 38 OVC:08 60,28.91,10,41,0,,0,,,,,,,,,,,,,,,,,,,,,,,,,,,,,,,,,,,,,MET12901/02/20 05:52:02 METAR KATL 021052Z 00000KT 10SM -RA BKN038 OVC060 08/02 A3001 RMK AO2 SLP164 PCPN VRY LGT P0000 T00780017 (KAF),FM-15,7,,,,,,,,,,,,,,,,,,,,,,,,,,,3/27/2007
72219013874,2020-01-02T06:52:00,FM-15,7,,,,,,,,,,,,,,,,,,,,,,,,,,,,,,,,,,,,,,,30,36,46,0.01,-RA:02 |RA |RA,0.01,8,68,30.01,FEW:02 36 SCT:04 65 OVC:08 100,28.9,10,42,160,,3,,,,,,,,,,,,,,,,,,,,,,,,,,,,,,,,,,,,,MET15301/02/20 06:52:02 METAR KATL 021152Z 16003KT 10SM -RA FEW036 SCT065 OVC100 08/02 A3000 RMK AO2 SLP163 P0001 60001 70001 T00780022 10089 20078 58004 (KAF),FM-15,7,,,,,,,,,,,,,,,,,,,,,,,,,,,3/27/2007
72219013874,2020-01-02T07:00:00,FM-12,4,,,,,,,,,,,,,,,,,,,,,,,,,,,,,,,,,,,,,,,,36,46,,||RA,0.01,8,68,30.01,41,28.9,9.94,42,160,,3,,,,,,,,,,,,,,,,,,,,,,,,,,,,,,,,,,,,,SYN09872219 11666 81603 10078 20022 39785 40163 58004 69931 761// 91152 333 10139 20078 70003 555 90212=,FM-12,4,,,,,,,,,,,,,,,,,,,,,,,,,,,3/27/2007
72219013874,2020-01-02T07:52:00,FM-15,7,,,,,,,,,,,,,,,,,,,,,,,,,,,,,,,,,,,,,,,30.02,37,46,0.01,-RA:02 |RA |RA,,,71,30.02,FEW:02 46 FEW:02 75 OVC:08 110,28.92,10,42,190,,6,,,,,,,,,,,,,,,,,,,,,,,,,,,,,,,,,,,,,MET13501/02/20 07:52:02 METAR KATL 021252Z 19005KT 10SM -RA FEW046 FEW075 OVC110 08/03 A3002 RMK AO2 SLP167 ACC SW NW-N P0001 T00780028 (KAF),FM-15,7,,,,,,,,,,,,,,,,,,,,,,,,,,,3/27/2007
72219013874,2020-01-02T08:14:00,FM-16,7,,,,,,,,,,,,,,,,,,,,,,,,,,,,,,,,,,,,,,,30.02,38,46,T,,,,73,,BKN:07 27 BKN:07 50 OVC:08 100,28.92,10,42,0,,0,,,,,,,,,,,,,,,,,,,,,,,,,,,,,,,,,,,,,MET12001/02/20 08:14:02 SPECI KATL 021314Z 00000KT 10SM BKN027 BKN050 OVC100 08/03 A3002 RMK AO2 RAE1253 P0000 T00780033 (KAF),FM-16,7,,,,,,,,,,,,,,,,,,,,,,,,,,,3/27/2007
72219013874,2020-01-02T08:52:00,FM-15,7,,,,,,,,,,,,,,,,,,,,,,,,,,,,,,,,,,,,,,,30.02,38,47,T,,,,71,30.03,FEW:02 22 OVC:08 28,28.92,10,43,160,,6,,,,,,,,,,,,,,,,,,,,,,,,,,,,,,,,,,,,,MET12601/02/20 08:52:02 METAR KATL 021352Z 16005KT 10SM FEW022 OVC028 08/03 A3002 RMK AO2 RAE1253B21E43 SLP169 P0000 T00830033 (KAF),FM-15,7,,,,,,,,,,,,,,,,,,,,,,,,,,,3/27/2007
72219013874,2020-01-02T09:52:00,FM-15,7,,,,,,,,,,,,,,,,,,,,,,,,,,,,,,,,,,,,,,,30.04,39,48,T,,-0.04,3,71,30.05,FEW:02 20 BKN:07 27 OVC:08 30,28.94,10,44,160,,5,,,,,,,,,,,,,,,,,,,,,,,,,,,,,,,,,,,,,MET14001/02/20 09:52:02 METAR KATL 021452Z 16004KT 10SM FEW020 BKN027 OVC030 09/04 A3004 RMK AO2 RAB26E36 SLP176 P0000 60001 T00890039 53013 (CJL),FM-15,7,,,,,,,,,,,,,,,,,,,,,,,,,,,3/27/2007
72219013874,2020-01-02T10:17:00,FM-16,7,,,,,,,,,,,,,,,,,,,,,,,,,,,,,,,,,,,,,,,30.05,40,48,T,-RA:02 |RA |RA,,,74,,FEW:02 30 BKN:07 40 OVC:08 70,28.95,9,44,170,,5,,,,,,,,,,,,,,,,,,,,,,,,,,,,,,,,,,,,,MET12301/02/20 10:17:02 SPECI KATL 021517Z 17004KT 9SM -RA FEW030 BKN040 OVC070 09/04 A3005 RMK AO2 RAB1457 P0000 T00890044 (CJL),FM-16,7,,,,,,,,,,,,,,,,,,,,,,,,,,,3/27/2007
72219013874,2020-01-02T10:52:00,FM-15,7,,,,,,,,,,,,,,,,,,,,,,,,,,,,,,,,,,,,,,,30.05,40,48,0.01,-RA:02 |RA |RA,,,74,30.06,FEW:02 30 SCT:04 40 OVC:08 80,28.95,10,44,140,,5,,,,,,,,,,,,,,,,,,,,,,,,,,,,,,,,,,,,,MET13101/02/20 10:52:02 METAR KATL 021552Z 14004KT 10SM -RA FEW030 SCT040 OVC080 09/04 A3005 RMK AO2 RAB1457 SLP180 P0000 T00890044 (CJL),FM-15,7,,,,,,,,,,,,,,,,,,,,,,,,,,,3/27/2007
72219013874,2020-01-02T11:39:00,FM-16,7,,,,,,,,,,,,,,,,,,,,,,,,,,,,,,,,,,,,,,,30.04,42,47,0.04,-RA:02 |RA |RA,,,83,,FEW:02 18 BKN:07 24 OVC:08 50,28.94,4,45,120,,5,,,,,,,,,,,,,,,,,,,,,,,,,,,,,,,,,,,,,MET11501/02/20 11:39:02 SPECI KATL 021639Z 12004KT 4SM -RA FEW018 BKN024 OVC050 08/06 A3004 RMK AO2 P0004 T00830056 (CJL),FM-16,7,,,,,,,,,,,,,,,,,,,,,,,,,,,3/27/2007
72219013874,2020-01-02T11:52:00,FM-15,7,,,,,,,,,,,,,,,,,,,,,,,,,,,,,,,,,,,,,,,30.04,43,47,0.07,-RA:02 BR:1 |RA |RA,,,86,30.05,FEW:02 18 BKN:07 24 OVC:08 50,28.94,4,45,140,,6,,,,,,,,,,,,,,,,,,,,,,,,,,,,,,,,,,,,,MET12501/02/20 11:52:02 METAR KATL 021652Z 14005KT 4SM -RA BR FEW018 BKN024 OVC050 08/06 A3004 RMK AO2 SLP175 P0006 T00830061 (CJL),FM-15,7,,,,,,,,,,,,,,,,,,,,,,,,,,,3/27/2007
72219013874,2020-01-02T11:55:00,FM-16,7,,,,,,,,,,,,,,,,,,,,,,,,,,,,,,,,,,,,,,,30.04,43,47,T,RA:02 BR:1 |RA |RA,,,86,,BKN:07 18 BKN:07 30 OVC:08 50,28.94,3,45,140,,5,,,,,,,,,,,,,,,,,,,,,,,,,,,,,,,,,,,,,MET11701/02/20 11:55:02 SPECI KATL 021655Z 14004KT 3SM RA BR BKN018 BKN030 OVC050 08/06 A3004 RMK AO2 P0000 T00830061 (CJL),FM-16,7,,,,,,,,,,,,,,,,,,,,,,,,,,,3/27/2007
72219013874,2020-01-02T12:42:00,FM-16,7,,,,,,,,,,,,,,,,,,,,,,,,,,,,,,,,,,,,,,,29.98,45,48,0.15,+RA:02 BR:1 |RA |RA,,,89,,FEW:02 5 BKN:07 13 OVC:08 20,28.88,2,47,90,,11,,,,,,,,,,,,,,,,,,,,,,,,,,,,,,,,,,,,,MET13501/02/20 12:42:02 SPECI KATL 021742Z 09010KT 2SM +RA BR FEW005 BKN013 OVC020 09/07 A2998 RMK AO2 SFC VIS 3 PRESFR P0015 T00890072 (CJL),FM-16,7,,,,,,,,,,,,,,,,,,,,,,,,,,,3/27/2007
72219013874,2020-01-02T12:45:00,FM-16,7,,,,,,,,,,,,,,,,,,,,,,,,,,,,,,,,,,,,,,,29.98,45,48,0.16,RA:02 BR:1 |RA |RA,,,89,,SCT:04 5 BKN:07 13 OVC:08 20,28.88,1,47,80,,9,,,,,,,,,,,,,,,,,,,,,,,,,,,,,,,,,,,,,MET14001/02/20 12:45:02 SPECI KATL 021745Z 08008KT 1SM R09R/P6000FT RA BR SCT005 BKN013 OVC020 09/07 A2998 RMK AO2 SFC VIS 2 P0016 T00890072 (CJL),FM-16,7,,,,,,,,,,,,,,,,,,,,,,,,,,,3/27/2007
72219013874,2020-01-02T12:52:00,FM-15,7,,,,,,,,,,,,,,,,,,,,,,,,,,,,,,,,,,,,,,,29.98,45,48,0.17,-RA:02 BR:1 |RA |RA,0.06,8,89,29.98,SCT:04 5 OVC:08 13,28.88,1,47,80,,9,,,,,,,,,,,,,,,,,,,,,,,,,,,,,,,,,,,,,MET16501/02/20 12:52:02 METAR KATL 021752Z 08008KT 1SM R09R/P6000FT -RA BR SCT005 OVC013 09/07 A2998 RMK AO2 SFC VIS 3 SLP154 P0019 60026 T00890072 10089 20078 58021 (CJL),FM-15,7,,,,,,,,,,,,,,,,,,,,,,,,,,,3/27/2007
72219013874,2020-01-02T13:00:00,FM-12,4,,,,,,,,,,,,,,,,,,,,,,,,,,,,,,,,,,,,,,,,45,48,,||RA,0.06,8,89,29.98,5,28.88,0.99,47,80,,9,,,,,,,,,,,,,,,,,,,,,,,,,,,,,,,,,,,,,SYN09872219 11216 80808 10089 20072 39779 40154 58021 60071 761// 91752 333 10089 20078 96010 555 90218=,FM-12,4,,,,,,,,,,,,,,,,,,,,,,,,,,,3/27/2007
72219013874,2020-01-02T13:00:00,FM-16,7,,,,,,,,,,,,,,,,,,,,,,,,,,,,,,,,,,,,,,,29.99,45,47,T,-RA:02 BR:1 |RA |RA,,,93,,FEW:02 5 BKN:07 13 OVC:08 20,28.89,2,46,100,,7,,,,,,,,,,,,,,,,,,,,,,,,,,,,,,,,,,,,,MET12801/02/20 13:00:02 SPECI KATL 021800Z 10006KT 2SM -RA BR FEW005 BKN013 OVC020 08/07 A2999 RMK AO2 SFC VIS 5 P0000 T00830072 (CJL),FM-16,7,,,,,,,,,,,,,,,,,,,,,,,,,,,3/27/2007
72219013874,2020-01-02T13:30:00,FM-16,7,,,,,,,,,,,,,,,,,,,,,,,,,,,,,,,,,,,,,,,29.98,45,48,0.04,-RA:02 BR:1 |s RA s |RA s,,,89,,BKN:07 5 BKN:07 13 OVC:08 20,28.88,0.5,47,110,,6,,,,,,,,,,,,,,,,,,,,,,,,,,,,,,,,,,,,,MET14301/02/20 13:30:02 SPECI KATL 021830Z 11005KT 1/2SM R09R/P6000FT -RA BR BKN005 BKN013 OVC020 09/07 A2998 RMK AO2 SFC VIS 3 P0004 T00890072 (CJL),FM-16,7,,,,,,,,,,,,,,,,,,,,,,,,,,,3/27/2007
72219013874,2020-01-02T13:52:00,FM-15,7,,,,,,,,,,,,,,,,,,,,,,,,,,,,,,,,,,,,,,,29.96,45,48,0.19,+RA:02 BR:1 |RA |RA,,,89,29.97,BKN:07 5 BKN:07 9 OVC:08 20,28.87,1.5,47,60,,13,,,,,,,,,,,,,,,,,,,,,,,,,,,,,,,,,,,,,MET13901/02/20 13:52:02 METAR KATL 021852Z 06011KT 1 1/2SM +RA BR BKN005 BKN009 OVC020 09/07 A2996 RMK AO2 SFC VIS 3 SLP148 P0015 T00890072 (CJL),FM-15,7,,,,,,,,,,,,,,,,,,,,,,,,,,,3/27/2007
72219013874,2020-01-02T14:52:00,FM-15,7,,,,,,,,,,,,,,,,,,,,,,,,,,,,,,,,,,,,,,,29.91,44,47,0.13,RA:02 BR:1 |RA |RA,,,90,29.92,BKN:07 5 BKN:07 10 OVC:08 20,28.82,1.5,46,90,,11,,,,,,,,,,,,,,,,,,,,,,,,,,,,,,,,,,,,,MET13801/02/20 14:52:02 METAR KATL 021952Z 09010KT 1 1/2SM RA BR BKN005 BKN010 OVC020 08/07 A2991 RMK AO2 SFC VIS 3 SLP131 P0016 T00830067 (CJL),FM-15,7,,,,,,,,,,,,,,,,,,,,,,,,,,,3/27/2007
72219013874,2020-01-02T15:17:00,FM-16,7,,,,,,,,,,,,,,,,,,,,,,,,,,,,,,,,,,,,,,,29.91,45,47,0.07,RA:02 BR:1 |s RA s |RA s,,,93,,BKN:07 5 BKN:07 10 OVC:08 20,28.82,0.5,46,80,,8,,,,,,,,,,,,,,,,,,,,,,,,,,,,,,,,,,,,,MET14601/02/20 15:17:02 SPECI KATL 022017Z 08007KT 1/2SM R09R/P6000FT RA BR BKN005 BKN010 OVC020 08/07 A2991 RMK AO2 SFC VIS 2 1/2 P0007 T00830072 (CJL),FM-16,7,,,,,,,,,,,,,,,,,,,,,,,,,,,3/27/2007
72219013874,2020-01-02T15:52:00,FM-15,7,,,,,,,,,,,,,,,,,,,,,,,,,,,,,,,,,,,,,,,29.91,44,48,0.17,RA:02 BR:1 |s RA s |RA s,0.06,5,86,29.92,BKN:07 5 BKN:07 10 OVC:08 30,28.82,0.5,46,60,,14,,,,,,,,,,,,,,,,,,,,,,,,,,,,,,,,,,,,,MET16601/02/20 15:52:02 METAR KATL 022052Z 06012KT 1/2SM R09R/6000VP6000FT RA BR BKN005 BKN010 OVC030 09/07 A2991 RMK AO2 SFC VIS 2 SLP132 P0015 60046 T00890067 55021 (CJL),FM-15,7,,,,,,,,,,,,,,,,,,,,,,,,,,,3/27/2007
72219013874,2020-01-02T16:52:00,FM-15,7,,,,,,,,,,,,,,,,,,,,,,,,,,,,,,,,,,,,,,,29.91,44,47,0.05,-RA:02 BR:1 |s RA s |RA s,,,90,29.92,BKN:07 5 BKN:07 10 OVC:08 40,28.82,0.5,46,110,,10,,,,,,,,,,,,,,,,,,,,,,,,,,,,,,,,,,,,,MET17101/02/20 16:52:02 METAR KATL 022152Z 11009KT 1/2SM R09R/P6000FT -RA BR BKN005 BKN010 OVC040 08/07 A2991 RMK AO2 SFC VIS 4 LTG DSNT N SLP132 CB DSNT N P0007 T00830067 (CJL),FM-15,7,,,,,,,,,,,,,,,,,,,,,,,,,,,3/27/2007
72219013874,2020-01-02T17:31:00,FM-16,7,,,,,,,,,,,,,,,,,,,,,,,,,,,,,,,,,,,,,,,29.91,45,47,0.01,-RA:02 |RA |RA,,,93,,BKN:07 5 OVC:08 35,28.82,2.5,46,100,,7,,,,,,,,,,,,,,,,,,,,,,,,,,,,,,,,,,,,,MET13301/02/20 17:31:02 SPECI KATL 022231Z 10006KT 2 1/2SM -RA BKN005 OVC035 08/07 A2991 RMK AO2 SFC VIS 7 CIG 004V007 P0001 T00830072 (RF),FM-16,7,,,,,,,,,,,,,,,,,,,,,,,,,,,3/27/2007
72219013874,2020-01-02T17:52:00,FM-15,7,,,,,,,,,,,,,,,,,,,,,,,,,,,,,,,,,,,,,,,29.91,45,47,T,-RA:02 BR:1 |RA |RA,,,93,29.91,BKN:07 5 OVC:08 35,28.82,2.5,46,110,,10,,,,,,,,,,,,,,,,,,,,,,,,,,,,,,,,,,,,,MET14301/02/20 17:52:02 METAR KATL 022252Z 11009KT 2 1/2SM -RA BR BKN005 OVC035 08/07 A2991 RMK AO2 SFC VIS 6 SLP129 CIG 004V007 P0001 T00830072 (RF),FM-15,7,,,,,,,,,,,,,,,,,,,,,,,,,,,3/27/2007
72219013874,2020-01-02T18:52:00,FM-15,7,,,,,,,,,,,,,,,,,,,,,,,,,,,,,,,,,,,,,,,29.91,45,48,0.01,-RA:02 BR:1 |RA |RA,0.01,5,89,29.91,BKN:07 5 OVC:08 30,28.82,2.5,47,90,,10,,,,,,,,,,,,,,,,,,,,,,,,,,,,,,,,,,,,,MET16701/02/20 18:52:02 METAR KATL 022352Z 09009KT 2 1/2SM -RA BR BKN005 OVC030 09/07 A2991 RMK AO2 SFC VIS 5 SLP130 CIG 004V007 P0001 60055 T00890072 10089 20083 55002 (RF),FM-15,7,,,,,,,,,,,,,,,,,,,,,,,,,,,3/27/2007
72219013874,2020-01-02T19:00:00,FM-12,4,,,,,,,,,,,,,,,,,,,,,,,,,,,,,,,,,,,,,,,,45,48,,||RA,0.01,5,89,29.91,5,28.81,2.49,47,90,,10,,,,,,,,,,,,,,,,,,,,,,,,,,,,,,,,,,,,,SYN09872219 11240 80909 10089 20072 39756 40130 55002 60141 761// 92352 333 10089 20078 96010 555 90300=,FM-12,4,,,,,,,,,,,,,,,,,,,,,,,,,,,3/27/2007
72219013874,2020-01-02T19:50:00,FM-16,6,,,,,,,,,,,,,,,,,,,,,,,,,,,,,,,,,,,,,,,29.91,45,48,,-RA:02 |RA |RA,,,87,,SCT:04 4 BKN:07 10 OVC:08 28,28.82,2.5,47,110,,11,,,,,,,,,,,,,,,,,,,,,,,,,,,,,,,,,,,,,MET13601/02/20 19:50:03 SPECI KATL 030050Z 11010KT 2 1/2SM -RA SCT004 BKN010 OVC028 09/07 A2991 RMK AO2 SFC VIS 8 SCT004 V BKN P0002 FIBI (RF),FM-16,6,,,,,,,,,,,,,,,,,,,,,,,,,,,3/27/2007
72219013874,2020-01-02T19:52:00,FM-15,7,,,,,,,,,,,,,,,,,,,,,,,,,,,,,,,,,,,,,,,29.91,45,48,0.02,-RA:02 |RA |RA,,,89,29.91,SCT:04 4 BKN:07 9 OVC:08 28,28.82,2.5,47,110,,9,,,,,,,,,,,,,,,,,,,,,,,,,,,,,,,,,,,,,MET14301/02/20 19:52:01 METAR KATL 030052Z 11008KT 2 1/2SM -RA SCT004 BKN009 OVC028 09/07 A2991 RMK AO2 SFC VIS 8 SLP130 SCT004 V BKN P0002 T00890072,FM-15,7,,,,,,,,,,,,,,,,,,,,,,,,,,,3/27/2007
72219013874,2020-01-02T20:52:00,FM-15,7,,,,,,,,,,,,,,,,,,,,,,,,,,,,,,,,,,,,,,,29.9,45,49,T,,,,86,29.91,SCT:04 4 BKN:07 20 OVC:08 35,28.81,2.5,47,120,,13,,,,,,,,,,,,,,,,,,,,,,,,,,,,,,,,,,,,,MET14501/02/20 20:52:01 METAR KATL 030152Z 12011KT 2 1/2SM SCT004 BKN020 OVC035 09/07 A2990 RMK AO2 SFC VIS 9 RAE52 SLP127 SCT004 V BKN P0000 T00940072,FM-15,7,,,,,,,,,,,,,,,,,,,,,,,,,,,3/27/2007
72219013874,2020-01-02T21:52:00,FM-15,7,,,,,,,,,,,,,,,,,,,,,,,,,,,,,,,,,,,,,,,29.91,46,49,0.07s,-RA:02 BR:1 |RA |RA,0,3,90,29.91,SCT:04 5 BKN:07 16 OVC:08 30,28.82,2.5,47,110,,9,,,,,,,,,,,,,,,,,,,,,,,,,,,,,,,,,,,,,MET15101/02/20 21:52:01 METAR KATL 030252Z 11008KT 2 1/2SM -RA BR SCT005 BKN016 OVC030 09/08 A2991 RMK AO2 SFC VIS 3 RAB22 SLP130 P0003 60005 T00940078 53001,FM-15,7,,,,,,,,,,,,,,,,,,,,,,,,,,,3/27/2007
72219013874,2020-01-02T22:52:00,FM-15,7,,,,,,,,,,,,,,,,,,,,,,,,,,,,,,,,,,,,,,,29.9,47,49,0.01,,,,93,29.9,FEW:02 5 BKN:07 15 OVC:08 30,28.81,2.5,48,110,,8,,,,,,,,,,,,,,,,,,,,,,,,,,,,,,,,,,,,,MET13201/02/20 22:52:01 METAR KATL 030352Z 11007KT 2 1/2SM FEW005 BKN015 OVC030 09/08 A2990 RMK AO2 SFC VIS 8 RAE25 SLP125 P0005 T00940083,FM-15,7,,,,,,,,,,,,,,,,,,,,,,,,,,,3/27/2007
72219013874,2020-01-02T23:50:00,FM-16,6,,,,,,,,,,,,,,,,,,,,,,,,,,,,,,,,,,,,,,,29.89,46,50,,-RA:02 |RA |RA,,,88,,FEW:02 4 OVC:08 12,28.8,2.5,48,110,,7,,,,,,,,,,,,,,,,,,,,,,,,,,,,,,,,,,,,,MET12201/02/20 23:50:03 SPECI KATL 030450Z 11006KT 2 1/2SM -RA FEW004 OVC012 10/08 A2989 RMK AO2 SFC VIS 8 RAB50 P0000 FIBI (RF),FM-16,6,,,,,,,,,,,,,,,,,,,,,,,,,,,3/27/2007
72219013874,2020-01-02T23:52:00,FM-15,7,,,,,,,,,,,,,,,,,,,,,,,,,,,,,,,,,,,,,,,29.9,47,50,T,-RA:02 |RA |RA,,,89,29.9,FEW:02 4 OVC:08 12,28.81,2.5,48,110,,7,,,,,,,,,,,,,,,,,,,,,,,,,,,,,,,,,,,,,MET13901/02/20 23:52:02 METAR KATL 030452Z 11006KT 2 1/2SM -RA FEW004 OVC012 10/08 A2990 RMK AO2 SFC VIS 8 RAB50 SLP125 P0000 T01000083 401000078,FM-15,7,,,,,,,,,,,,,,,,,,,,,,,,,,,3/27/2007
72219013874,2020-01-02T23:59:00,SOD  ,6,,,,,,,,,,,,,,,,,40,48,78,29.97,28.87,44,6.6,0,5.1,17,50,46,30,21,0.92,0,0,40,16,RA BR,,,,,,,,,,,,,,,,,,,,,,,,,,,,,,,,,,,,,,,,,,,,,,,,,,,,,,,SOD78024 HR PRECIPITATION (IN): 0.92 SNOW DEPTH (IN):0     24 HR SNOWFALL (IN):0.0  WEATHER(CODE):1  24 HR MAX TEMP (F): 5024 HR MIN TEMP (F): 46AVERAGE STATION PRESSURE:28.875 MINIMUM SEA LEVEL PRESSURE:29.89 TIME OF OCCURRENCE:2356 PEAK WIND SPEED (MPH): 21 PEAK WIND DIR (DEG): 30 PEAK WIND TIME (LST):      FASTEST 2MIN SPEED (MPH): 16FASTEST 2MIN DIR (DEG): 40 FASTEST 2MIN TIME (LST):     AVERAGE WIND SPEED (MPH): 6.6 24 HR AVG TEMP (F): 48DEPART FROM NORMAL:  5  SKY COVER SR-SS (TENTHS): 1HEATING DEGREE DAYS: 17 COOLING DEGREE DAYS:  0 LATEST DAY MAX TEMP (0700-1900 LST):48  LATEST NIGHT MIN TEMP(1900-0800 LST):46 HOURLY INCREMENTAL PRECIPITATION VALUES (IN):.00 0.00 0.00 0.00 T    T    0.01 0.01 T    T    0.01 0.07 0.17 0.19 0.13 0.17 0.05 T    0.01 0.02 T    0.07 0.01 T,SOD  ,6,,,,,,,,,,,,,,,,,,,,,,,,,743,1741,3/27/2007
72219013874,2020-01-03T00:35:00,FM-16,7,,,,,,,,,,,,,,,,,,,,,,,,,,,,,,,,,,,,,,,29.89,48,50,T,,,,93,,FEW:02 3 OVC:08 8,28.8,2.5,49,110,,7,,,,,,,,,,,,,,,,,,,,,,,,,,,,,,,,,,,,,MET12301/03/20 00:35:02 SPECI KATL 030535Z 11006KT 2 1/2SM FEW003 OVC008 10/09 A2989 RMK AO2 SFC VIS 8 RAE16 P0000 T01000089 (RF),FM-16,7,,,,,,,,,,,,,,,,,,,,,,,,,,,3/27/2007
72219013874,2020-01-03T00:52:00,FM-15,7,,,,,,,,,,,,,,,,,,,,,,,,,,,,,,,,,,,,,,,29.88,48,51,T,,0.03,6,89,29.89,FEW:02 3 OVC:08 7,28.79,2.5,49,120,,7,,,,,,,,,,,,,,,,,,,,,,,,,,,,,,,,,,,,,MET15401/03/20 00:52:02 METAR KATL 030552Z 12006KT 2 1/2SM FEW003 OVC007 11/09 A2988 RMK AO2 SFC VIS 8 RAE16 SLP121 P0000 60010 T01060089 10106 20089 56009 (RF),FM-15,7,,,,,,,,,,,,,,,,,,,,,,,,,,,3/27/2007
72219013874,2020-01-03T01:00:00,FM-12,4,,,,,,,,,,,,,,,,,,,,,,,,,,,,,,,,,,,,,,,,48,51,,,0.03,6,89,29.89,2,28.78,2.49,49,120,,7,,,,,,,,,,,,,,,,,,,,,,,,,,,,,,,,,,,,,SYN08672219 12140 81206 10106 20089 39746 40121 56009 60031 90552 333 10106 20078 555 90306=,FM-12,4,,,,,,,,,,,,,,,,,,,,,,,,,,,3/27/2007
72219013874,2020-01-03T01:39:00,FM-16,7,,,,,,,,,,,,,,,,,,,,,,,,,,,,,,,,,,,,,,,29.87,49,51,T,-DZ:01 BR:1 |DZ |DZ,,,92,,OVC:08 4,28.78,2.5,50,110,,6,,,,,,,,,,,,,,,,,,,,,,,,,,,,,,,,,,,,,MET13601/03/20 01:39:02 SPECI KATL 030639Z 11005KT 2 1/2SM -DZ BR OVC004 11/09 A2987 RMK AO2 SFC VIS 5 DZB39 CIG 003V005 P0000 T01060094 (KAF),FM-16,7,,,,,,,,,,,,,,,,,,,,,,,,,,,3/27/2007
72219013874,2020-01-03T01:50:00,FM-16,6,,,,,,,,,,,,,,,,,,,,,,,,,,,,,,,,,,,,,,,29.87,48,52,,BR:1 ||,,,88,,OVC:08 4,28.78,1,50,VRB,,5,,,,,,,,,,,,,,,,,,,,,,,,,,,,,,,,,,,,,MET13901/03/20 01:50:02 SPECI KATL 030650Z VRB04KT 1SM R09R/P6000FT BR OVC004 11/09 A2987 RMK AO2 SFC VIS 4 DZB39E50 CIG 003V005 P0000 FIBI (KAF),FM-16,6,,,,,,,,,,,,,,,,,,,,,,,,,,,3/27/2007
72219013874,2020-01-03T01:52:00,FM-15,7,,,,,,,,,,,,,,,,,,,,,,,,,,,,,,,,,,,,,,,29.86,49,51,T,BR:1 ||,,,92,29.87,OVC:08 3,28.77,1,50,120,,5,,,,,,,,,,,,,,,,,,,,,,,,,,,,,,,,,,,,,MET15801/03/20 01:52:02 METAR KATL 030652Z 12004KT 1SM R09R/P6000FT BR OVC003 11/09 A2986 RMK AO2 SFC VIS 4 DZB39E50 SLP114 CIG 002V004 TWRINC P0000 T01060094 (KAF),FM-15,7,,,,,,,,,,,,,,,,,,,,,,,,,,,3/27/2007
72219013874,2020-01-03T02:37:00,FM-16,7,,,,,,,,,,,,,,,,,,,,,,,,,,,,,,,,,,,,,,,29.86,50,52,,BR:1 |s |,,,93,,VV:09 2,28.77,0.25,51,110,,6,,,,,,,,,,,,,,,,,,,,,,,,,,,,,,,,,,,,,MET12401/03/20 02:37:02 SPECI KATL 030737Z 11005KT 1/4SM R09R/4000V5000FT BR VV002 11/10 A2986 RMK AO2 SFC VIS 3/4 T01110100 (KAF),FM-16,7,,,,,,,,,,,,,,,,,,,,,,,,,,,3/27/2007
72219013874,2020-01-03T02:52:00,FM-15,7,,,,,,,,,,,,,,,,,,,,,,,,,,,,,,,,,,,,,,,29.86,51,52,0,FG:2 |FG |,,,97,29.86,VV:09 2,28.77,0.25,51,140,,5,,,,,,,,,,,,,,,,,,,,,,,,,,,,,,,,,,,,,MET13101/03/20 02:52:02 METAR KATL 030752Z 14004KT 1/4SM R09R/2800V3500FT FG VV002 11/11 A2986 RMK AO2 SFC VIS 1/2 SLP112 T01110106 (KAF),FM-15,7,,,,,,,,,,,,,,,,,,,,,,,,,,,3/27/2007
72219013874,2020-01-03T03:19:00,FM-16,7,,,,,,,,,,,,,,,,,,,,,,,,,,,,,,,,,,,,,,,29.85,52,53,,FG:2 |FG |,,,96,,VV:09 2,28.76,0.25,52,0,,0,,,,,,,,,,,,,,,,,,,,,,,,,,,,,,,,,,,,,MET11201/03/20 03:19:02 SPECI KATL 030819Z 00000KT 1/4SM R09R/2000V2200FT FG VV002 12/11 A2985 RMK AO2 T01170111 (KAF),FM-16,7,,,,,,,,,,,,,,,,,,,,,,,,,,,3/27/2007
72219013874,2020-01-03T03:52:00,FM-15,7,,,,,,,,,,,,,,,,,,,,,,,,,,,,,,,,,,,,,,,29.87,53,55,0,FG:2 |FG |,0,3,93,29.87,VV:09 2,28.78,0.25,54,80,,3,,,,,,,,,,,,,,,,,,,,,,,,,,,,,,,,,,,,,MET13101/03/20 03:52:02 METAR KATL 030852Z 08003KT 1/4SM R09R/1800V2000FT FG VV002 13/12 A2987 RMK AO2 SLP114 60000 T01280117 53001 (KAF),FM-15,7,,,,,,,,,,,,,,,,,,,,,,,,,,,3/27/2007
72219013874,2020-01-03T04:50:00,FM-16,7,,,,,,,,,,,,,,,,,,,,,,,,,,,,,,,,,,,,,,,29.86,52,54,T,FG:2 |FG |,,,94,,VV:09 2,28.77,0.25,53,70,,7,,,,,,,,,,,,,,,,,,,,,,,,,,,,,,,,,,,,,MET12901/03/20 04:50:02 SPECI KATL 030950Z 07006KT 1/4SM R09R/2000V2400FT FG VV002 12/11 A2986 RMK AO2 SFC VIS 1/2 RAB22E31 P0000 (KAF),FM-16,7,,,,,,,,,,,,,,,,,,,,,,,,,,,3/27/2007
72219013874,2020-01-03T04:52:00,FM-15,7,,,,,,,,,,,,,,,,,,,,,,,,,,,,,,,,,,,,,,,29.86,52,54,T,FG:2 |FG |,,,93,29.86,VV:09 2,28.77,0.25,53,60,,7,,,,,,,,,,,,,,,,,,,,,,,,,,,,,,,,,,,,,MET14601/03/20 04:52:02 METAR KATL 030952Z 06006KT 1/4SM R09R/2200V2400FT FG VV002 12/11 A2986 RMK AO2 SFC VIS 1/2 RAB22E31 SLP111 P0000 T01220111 (KAF),FM-15,7,,,,,,,,,,,,,,,,,,,,,,,,,,,3/27/2007
72219013874,2020-01-03T05:52:00,FM-15,7,,,,,,,,,,,,,,,,,,,,,,,,,,,,,,,,,,,,,,,29.86,53,55,0,FG:2 |FG |,,,93,29.86,VV:09 2,28.77,0.25,54,60,,7,,,,,,,,,,,,,,,,,,,,,,,,,,,,,,,,,,,,,MET11901/03/20 05:52:02 METAR KATL 031052Z 06006KT 1/4SM R09R/2600V3500FT FG VV002 13/12 A2986 RMK AO2 SLP111 T01280117 (KAF),FM-15,7,,,,,,,,,,,,,,,,,,,,,,,,,,,3/27/2007
72219013874,2020-01-03T06:52:00,FM-15,7,,,,,,,,,,,,,,,,,,,,,,,,,,,,,,,,,,,,,,,29.86,54,55,0,FG:2 |FG |,0,6,96,29.86,VV:09 2,28.77,0.25,54,80,,6,,,,,,,,,,,,,,,,,,,,,,,,,,,,,,,,,,,,,MET16101/03/20 06:52:02 METAR KATL 031152Z 08005KT 1/4SM R09R/2400V2600FT FG VV002 13/12 A2986 RMK AO2 SFC VIS 1/2 SLP111 60000 70091 T01280122 10133 20106 56000 (KAF),FM-15,7,,,,,,,,,,,,,,,,,,,,,,,,,,,3/27/2007
72219013874,2020-01-03T07:00:00,FM-12,4,,,,,,,,,,,,,,,,,,,,,,,,,,,,,,,,,,,,,,,,54,55,,||FG,,,96,29.86,2,28.76,0.25,54,80,,6,,,,,,,,,,,,,,,,,,,,,,,,,,,,,,,,,,,,,SYN09872219 11104 90805 10128 20122 39739 40111 56000 69901 741// 91152 333 10100 20089 70231 555 90312=,FM-12,4,,,,,,,,,,,,,,,,,,,,,,,,,,,3/27/2007
72219013874,2020-01-03T07:52:00,FM-15,7,,,,,,,,,,,,,,,,,,,,,,,,,,,,,,,,,,,,,,,29.85,55,57,0.04,-RA:02 BR:1 |s RA s |RA s,,,93,29.85,BKN:07 3 OVC:08 11,28.76,0.25,56,70,,6,,,,,,,,,,,,,,,,,,,,,,,,,,,,,,,,,,,,,MET17301/03/20 07:52:02 METAR KATL 031252Z 07005KT 1/4SM R09R/5500VP6000FT -RA BR BKN003 OVC011 14/13 A2985 RMK AO2 SFC VIS 1 RAB09 SLP109 CIG 002V004 TWRINC P0004 T01390128 (KAF),FM-15,7,,,,,,,,,,,,,,,,,,,,,,,,,,,3/27/2007
72219013874,2020-01-03T08:52:00,FM-15,7,,,,,,,,,,,,,,,,,,,,,,,,,,,,,,,,,,,,,,,29.83,57,59,0.35,+RA:02 BR:1 |s RA s |RA s,,,93,29.83,OVC:08 3,28.74,0.25,58,VRB,28,15,,,,,,,,,,,,,,,,,,,,,,,,,,,,,,,,,,,,,MET18001/03/20 08:52:02 METAR KATL 031352Z 32013G24KT 1/4SM R09R/P6000FT +RA BR OVC003CB 15/14 A2983 RMK AO2 SFC VIS 1 SLP101 CIG 002V004 CB NE-OHD-SW MOV NE TWRINC P0009 T01500139 (KAF),FM-15,7,,,,,,,,,,,,,,,,,,,,,,,,,,,3/27/2007
72219013874,2020-01-03T09:19:00,FM-16,7,,,,,,,,,,,,,,,,,,,,,,,,,,,,,,,,,,,,,,,29.87,57,59,0.49,-RA:02 BR:1 |RA |RA,,,93,,FEW:02 4 BKN:07 16 OVC:08 40,28.78,6,58,330,,3,,,,,,,,,,,,,,,,,,,,,,,,,,,,,,,,,,,,,MET16101/03/20 09:19:02 SPECI KATL 031419Z 33003KT 6SM -RA BR FEW004 BKN016CB OVC040 15/14 A2987 RMK AO2 VIS LWR NE-SE-SW SHRA CB NE-SE-SW MOV NE P0049 T01500139 (CJL),FM-16,7,,,,,,,,,,,,,,,,,,,,,,,,,,,3/27/2007
72219013874,2020-01-03T09:25:00,FM-16,7,,,,,,,,,,,,,,,,,,,,,,,,,,,,,,,,,,,,,,,29.86,57,59,0.49,-RA:02 BR:1 |RA |RA,,,93,,FEW:02 5 SCT:04 20 OVC:08 50,28.77,4,58,0,,0,,,,,,,,,,,,,,,,,,,,,,,,,,,,,,,,,,,,,MET16101/03/20 09:25:02 SPECI KATL 031425Z 00000KT 4SM -RA BR FEW005 SCT020CB OVC050 15/14 A2986 RMK AO2 VIS LWR NE-SE-SW SHRA CB NE-SE-SW MOV NE P0049 T01500139 (CJL),FM-16,7,,,,,,,,,,,,,,,,,,,,,,,,,,,3/27/2007
72219013874,2020-01-03T09:29:00,FM-16,7,,,,,,,,,,,,,,,,,,,,,,,,,,,,,,,,,,,,,,,29.86,57,59,0.52,+RA:02 BR:1 |RA |RA,,,93,,FEW:02 5 SCT:04 20 OVC:08 50,28.77,1.75V,58,0,,0,,,,,,,,,,,,,,,,,,,,,,,,,,,,,,,,,,,,,MET17501/03/20 09:29:02 SPECI KATL 031429Z 00000KT 1 3/4SM +RA BR FEW005 SCT020CB OVC050 15/14 A2986 RMK AO2 TWR VIS 4 VIS LWR NE-SE-SW SHRA CB NE-SE-SW MOV NE P0052 T01500139 (CJL),FM-16,7,,,,,,,,,,,,,,,,,,,,,,,,,,,3/27/2007
72219013874,2020-01-03T09:36:00,FM-16,7,,,,,,,,,,,,,,,,,,,,,,,,,,,,,,,,,,,,,,,29.87,57,59,0.53,-RA:02 BR:1 |RA |RA,,,93,,FEW:02 5 SCT:04 20 OVC:08 50,28.78,3.00V,58,0,,0,,,,,,,,,,,,,,,,,,,,,,,,,,,,,,,,,,,,,MET17101/03/20 09:36:02 SPECI KATL 031436Z 00000KT 3SM -RA BR FEW005 SCT020CB OVC050 15/14 A2987 RMK AO2 TWR VIS 4 VIS LWR NE-SE-SW SHRA CB NE-SE-SW MOV NE P0053 T01500139 (CJL),FM-16,7,,,,,,,,,,,,,,,,,,,,,,,,,,,3/27/2007
72219013874,2020-01-03T09:40:00,FM-16,7,,,,,,,,,,,,,,,,,,,,,,,,,,,,,,,,,,,,,,,29.88,57,59,0.53,-RA:02 BR:1 |RA |RA,,,93,,FEW:02 5 SCT:04 20 OVC:08 60,28.79,4,58,290,,3,,,,,,,,,,,,,,,,,,,,,,,,,,,,,,,,,,,,,MET15501/03/20 09:40:02 SPECI KATL 031440Z 29003KT 4SM -RA BR FEW005 SCT020CB OVC060 15/14 A2988 RMK AO2 VIS LWR NE-SE SHRA CB NE-SE MOV NE P0053 T01500139 (CJL),FM-16,7,,,,,,,,,,,,,,,,,,,,,,,,,,,3/27/2007
72219013874,2020-01-03T09:52:00,FM-15,7,,,,,,,,,,,,,,,,,,,,,,,,,,,,,,,,,,,,,,,29.89,58,59,0.28,-RA:02 BR:1 |RA |RA,-0.03,3,96,29.88,SCT:04 4 SCT:04 25 OVC:08 40,28.8,4,58,0,,0,,,,,,,,,,,,,,,,,,,,,,,,,,,,,,,,,,,,,MET13701/03/20 09:52:02 METAR KATL 031452Z 00000KT 4SM -RA BR SCT004 SCT025 OVC040 15/14 A2989 RMK AO2 SLP120 P0053 60066 T01500144 53010 (CJL),FM-15,7,,,,,,,,,,,,,,,,,,,,,,,,,,,3/27/2007
72219013874,2020-01-03T09:59:00,FM-16,7,,,,,,,,,,,,,,,,,,,,,,,,,,,,,,,,,,,,,,,29.89,58,59,0.01,-RA:02 BR:1 |RA |RA,,,96,,SCT:04 4 BKN:07 25 OVC:08 40,28.8,5,58,0,,0,,,,,,,,,,,,,,,,,,,,,,,,,,,,,,,,,,,,,MET11801/03/20 09:59:02 SPECI KATL 031459Z 00000KT 5SM -RA BR SCT004 BKN025 OVC040 15/14 A2989 RMK AO2 P0001 T01500144 (CJL),FM-16,7,,,,,,,,,,,,,,,,,,,,,,,,,,,3/27/2007
72219013874,2020-01-03T10:50:00,FM-16,6,,,,,,,,,,,,,,,,,,,,,,,,,,,,,,,,,,,,,,,29.88,59,61,,-RA:02 |RA |RA,,,94,,FEW:02 5 BKN:07 40 OVC:08 70,28.79,7,60,0,,0,,,,,,,,,,,,,,,,,,,,,,,,,,,,,,,,,,,,,MET11001/03/20 10:50:02 SPECI KATL 031550Z 00000KT 7SM -RA FEW005 BKN040 OVC070 16/15 A2988 RMK AO2 P0002 FIBI (CJL),FM-16,6,,,,,,,,,,,,,,,,,,,,,,,,,,,3/27/2007
72219013874,2020-01-03T10:52:00,FM-15,7,,,,,,,,,,,,,,,,,,,,,,,,,,,,,,,,,,,,,,,29.88,59,61,0.01,,,,93,29.88,FEW:02 5 BKN:07 40 OVC:08 70,28.79,8,60,130,,3,,,,,,,,,,,,,,,,,,,,,,,,,,,,,,,,,,,,,MET12401/03/20 10:52:02 METAR KATL 031552Z 13003KT 8SM FEW005 BKN040 OVC070 16/15 A2988 RMK AO2 RAE52 SLP118 P0002 T01610150 (CJL),FM-15,7,,,,,,,,,,,,,,,,,,,,,,,,,,,3/27/2007
72219013874,2020-01-03T11:07:00,FM-16,7,,,,,,,,,,,,,,,,,,,,,,,,,,,,,,,,,,,,,,,29.88,59,61,,BR:1 ||,,,93,,SCT:04 4 BKN:07 40 OVC:08 60,28.79,1.5,60,0,,0,,,,,,,,,,,,,,,,,,,,,,,,,,,,,,,,,,,,,MET12201/03/20 11:07:02 SPECI KATL 031607Z 00000KT 1 1/2SM BR SCT004 BKN040 OVC060 16/15 A2988 RMK AO2 SFC VIS 6 T01610150 (CJL),FM-16,7,,,,,,,,,,,,,,,,,,,,,,,,,,,3/27/2007
72219013874,2020-01-03T11:50:00,FM-16,6,,,,,,,,,,,,,,,,,,,,,,,,,,,,,,,,,,,,,,,29.87,59,63,,RA:02 BR:1 |RA |RA,,,88,,BKN:07 5 BKN:07 40 OVC:08 60,28.78,1.5,61,0,,0,,,,,,,,,,,,,,,,,,,,,,,,,,,,,,,,,,,,,MET13201/03/20 11:50:02 SPECI KATL 031650Z 00000KT 1 1/2SM RA BR BKN005 BKN040 OVC060 17/15 A2987 RMK AO2 SFC VIS 4 RAB22 P0001 FIBI (CJL),FM-16,6,,,,,,,,,,,,,,,,,,,,,,,,,,,3/27/2007
72219013874,2020-01-03T11:52:00,FM-15,7,,,,,,,,,,,,,,,,,,,,,,,,,,,,,,,,,,,,,,,29.87,60,62,0.01,-RA:02 BR:1 |RA |RA,,,93,29.87,BKN:07 5 BKN:07 40 OVC:08 60,28.78,1.5,61,0,,0,,,,,,,,,,,,,,,,,,,,,,,,,,,,,,,,,,,,,MET14501/03/20 11:52:02 METAR KATL 031652Z 00000KT 1 1/2SM -RA BR BKN005 BKN040 OVC060 17/16 A2987 RMK AO2 SFC VIS 4 RAB22 SLP115 P0001 T01670156 (CJL),FM-15,7,,,,,,,,,,,,,,,,,,,,,,,,,,,3/27/2007
72219013874,2020-01-03T12:50:00,FM-16,6,,,,,,,,,,,,,,,,,,,,,,,,,,,,,,,,,,,,,,,29.85,61,63,,-RA:02 BR:1 |RA |RA,,,94,,SCT:04 5 BKN:07 20 OVC:08 40,28.76,1.5,62,310,,6,,,,,,,,,,,,,,,,,,,,,,,,,,,,,,,,,,,,,MET12701/03/20 12:50:02 SPECI KATL 031750Z 31005KT 1 1/2SM -RA BR SCT005 BKN020 OVC040 17/16 A2985 RMK AO2 SFC VIS 4 P0006 FIBI (CJL),FM-16,6,,,,,,,,,,,,,,,,,,,,,,,,,,,3/27/2007
72219013874,2020-01-03T12:52:00,FM-15,7,,,,,,,,,,,,,,,,,,,,,,,,,,,,,,,,,,,,,,,29.85,60,62,0.06,-RA:02 BR:1 |RA |RA,0.03,8,93,29.85,SCT:04 5 BKN:07 20 OVC:08 40,28.76,1.5,61,310,,7,,,,,,,,,,,,,,,,,,,,,,,,,,,,,,,,,,,,,MET16301/03/20 12:52:02 METAR KATL 031752Z 31006KT 1 1/2SM -RA BR SCT005 BKN020 OVC040 17/16 A2985 RMK AO2 SFC VIS 5 SLP108 P0006 60075 T01670156 10167 20128 58010 (CJL),FM-15,7,,,,,,,,,,,,,,,,,,,,,,,,,,,3/27/2007
72219013874,2020-01-03T12:59:00,FM-16,7,,,,,,,,,,,,,,,,,,,,,,,,,,,,,,,,,,,,,,,29.85,60,62,T,-RA:02 BR:1 |RA |RA,,,93,,FEW:02 5 SCT:04 25 OVC:08 40,28.76,1.5,61,310,,7,,,,,,,,,,,,,,,,,,,,,,,,,,,,,,,,,,,,,MET13201/03/20 12:59:02 SPECI KATL 031759Z 31006KT 1 1/2SM -RA BR FEW005 SCT025 OVC040 17/16 A2985 RMK AO2 SFC VIS 4 P0000 T01670156 (CJL),FM-16,7,,,,,,,,,,,,,,,,,,,,,,,,,,,3/27/2007
72219013874,2020-01-03T13:00:00,FM-12,4,,,,,,,,,,,,,,,,,,,,,,,,,,,,,,,,,,,,,,,,60,62,,||RA,0.03,8,93,29.85,5,28.75,1.49,61,310,,7,,,,,,,,,,,,,,,,,,,,,,,,,,,,,,,,,,,,,SYN09872219 11224 83106 10167 20156 39736 40108 58010 60191 761// 91752 333 10167 20083 96010 555 90318=,FM-12,4,,,,,,,,,,,,,,,,,,,,,,,,,,,3/27/2007
72219013874,2020-01-03T13:22:00,FM-16,7,,,,,,,,,,,,,,,,,,,,,,,,,,,,,,,,,,,,,,,29.85,60,62,0.02,RA:02 BR:1 |RA |RA,,,93,,FEW:02 3 BKN:07 25 OVC:08 35,28.76,1.50V,61,310,,7,,,,,,,,,,,,,,,,,,,,,,,,,,,,,,,,,,,,,MET14701/03/20 13:22:02 SPECI KATL 031822Z 31006KT 1 1/2SM RA BR FEW003 BKN025 OVC035 17/16 A2985 RMK AO2 SFC VIS 2 1/2 VIS 1 1/4V5 P0002 T01670156 (JRN),FM-16,7,,,,,,,,,,,,,,,,,,,,,,,,,,,3/27/2007
72219013874,2020-01-03T13:41:00,FM-16,7,,,,,,,,,,,,,,,,,,,,,,,,,,,,,,,,,,,,,,,29.83,60,63,0.07,-RA:02 BR:1 |RA |RA,,,90,,BKN:07 3 BKN:07 17 BKN:07 29,28.74,1.5,61,330,,10,,,,,,,,,,,,,,,,,,,,,,,,,,,,,,,,,,,,,MET13201/03/20 13:41:02 SPECI KATL 031841Z 33009KT 1 1/2SM -RA BR BKN003 BKN017 BKN029 17/16 A2983 RMK AO2 SFC VIS 5 P0007 T01720156 (JRN),FM-16,7,,,,,,,,,,,,,,,,,,,,,,,,,,,3/27/2007
72219013874,2020-01-03T13:50:00,FM-16,6,,,,,,,,,,,,,,,,,,,,,,,,,,,,,,,,,,,,,,,29.83,59,63,,BR:1 |s |,,,88,,OVC:08 3,28.74,0.5,61,320,,10,,,,,,,,,,,,,,,,,,,,,,,,,,,,,,,,,,,,,MET13301/03/20 13:50:02 SPECI KATL 031850Z 32009KT 1/2SM R09R/P6000FT BR OVC003 17/15 A2983 RMK AO2 SFC VIS 5 RAE47 TWRINC P0007 FIBI (JRN),FM-16,6,,,,,,,,,,,,,,,,,,,,,,,,,,,3/27/2007
72219013874,2020-01-03T13:52:00,FM-15,7,,,,,,,,,,,,,,,,,,,,,,,,,,,,,,,,,,,,,,,29.83,59,62,0.07,-RA:02 BR:1 |s RA s |RA s,,,90,29.82,OVC:08 3,28.74,0.5,60,320,,10,,,,,,,,,,,,,,,,,,,,,,,,,,,,,,,,,,,,,MET14301/03/20 13:52:02 METAR KATL 031852Z 32009KT 1/2SM R09R/P6000FT -RA BR OVC003 17/15 A2983 RMK AO2 SFC VIS 5 SLP099 TWRINC P0007 T01670150 (JRN),FM-15,7,,,,,,,,,,,,,,,,,,,,,,,,,,,3/27/2007
72219013874,2020-01-03T14:21:00,FM-16,7,,,,,,,,,,,,,,,,,,,,,,,,,,,,,,,,,,,,,,,29.83,59,61,T,,,,93,,FEW:02 2 BKN:07 9 BKN:07 70,28.74,2,60,320,,8,,,,,,,,,,,,,,,,,,,,,,,,,,,,,,,,,,,,,MET12701/03/20 14:21:02 SPECI KATL 031921Z 32007KT 2SM FEW002 BKN009 BKN070 16/15 A2983 RMK AO2 SFC VIS 7 RAE18 P0000 T01610150 (JRN),FM-16,7,,,,,,,,,,,,,,,,,,,,,,,,,,,3/27/2007
72219013874,2020-01-03T14:39:00,FM-16,7,,,,,,,,,,,,,,,,,,,,,,,,,,,,,,,,,,,,,,,29.84,58,61,T,,,,90,,SCT:04 4 OVC:08 40,28.75,2,59,310,,9,,,,,,,,,,,,,,,,,,,,,,,,,,,,,,,,,,,,,MET12101/03/20 14:39:02 SPECI KATL 031939Z 31008KT 2SM SCT004 OVC040 16/14 A2984 RMK AO2 SFC VIS 10 RAE18 P0000 T01610144 (JRN),FM-16,7,,,,,,,,,,,,,,,,,,,,,,,,,,,3/27/2007
72219013874,2020-01-03T14:52:00,FM-15,7,,,,,,,,,,,,,,,,,,,,,,,,,,,,,,,,,,,,,,,29.84,59,61,T,,,,93,29.83,SCT:04 4 OVC:08 40,28.75,2,60,320,,9,,,,,,,,,,,,,,,,,,,,,,,,,,,,,,,,,,,,,MET12701/03/20 14:52:02 METAR KATL 031952Z 32008KT 2SM SCT004 OVC040 16/15 A2984 RMK AO2 SFC VIS 7 RAE18 SLP103 P0000 T01610150 (JRN),FM-15,7,,,,,,,,,,,,,,,,,,,,,,,,,,,3/27/2007
72219013874,2020-01-03T15:52:00,FM-15,7,,,,,,,,,,,,,,,,,,,,,,,,,,,,,,,,,,,,,,,29.87,59,61,0.01,-RA:02 |RA |RA,-0.01,3,93,29.86,FEW:02 5 BKN:07 46 OVC:08 80,28.78,2,60,310,,9,,,,,,,,,,,,,,,,,,,,,,,,,,,,,,,,,,,,,MET15201/03/20 15:52:02 METAR KATL 032052Z 31008KT 2SM -RA FEW005 BKN046 OVC080 16/15 A2987 RMK AO2 SFC VIS 7 RAB1958 SLP112 P0000 60007 T01610150 53005 (JRN),FM-15,7,,,,,,,,,,,,,,,,,,,,,,,,,,,3/27/2007
72219013874,2020-01-03T16:52:00,FM-15,7,,,,,,,,,,,,,,,,,,,,,,,,,,,,,,,,,,,,,,,29.89,58,61,0.05,-RA:02 |RA |RA,,,90,29.88,FEW:02 5 BKN:07 44 BKN:07 120,28.8,2,59,320,,6,,,,,,,,,,,,,,,,,,,,,,,,,,,,,,,,,,,,,MET13301/03/20 16:52:02 METAR KATL 032152Z 32005KT 2SM -RA FEW005 BKN044 BKN120 16/14 A2989 RMK AO2 SFC VIS 10 SLP119 P0005 T01610144 (JRN),FM-15,7,,,,,,,,,,,,,,,,,,,,,,,,,,,3/27/2007
72219013874,2020-01-03T17:02:00,FM-16,7,,,,,,,,,,,,,,,,,,,,,,,,,,,,,,,,,,,,,,,29.9,58,61,0.01,|RA |RA,,,90,,FEW:02 6 SCT:04 31 BKN:07 110,28.81,10,59,270,,5,,,,,,,,,,,,,,,,,,,,,,,,,,,,,,,,,,,,,MET11601/03/20 17:02:02 SPECI KATL 032202Z 27004KT 10SM -RA FEW006 SCT031 BKN110 16/14 A2990 RMK AO2 P0001 T01610144 (JRN),FM-16,7,,,,,,,,,,,,,,,,,,,,,,,,,,,3/27/2007
72219013874,2020-01-03T17:52:00,FM-15,7,,,,,,,,,,,,,,,,,,,,,,,,,,,,,,,,,,,,,,,29.89,58,61,0.02,|RA |RA,,,90,29.88,FEW:02 6 SCT:04 30 BKN:07 50,28.8,8,59,0,,0,,,,,,,,,,,,,,,,,,,,,,,,,,,,,,,,,,,,,MET12101/03/20 17:52:02 METAR KATL 032252Z 00000KT 8SM -RA FEW006 SCT030 BKN050 16/14 A2989 RMK AO2 SLP120 P0002 T01610144 (RF),FM-15,7,,,,,,,,,,,,,,,,,,,,,,,,,,,3/27/2007
72219013874,2020-01-03T18:52:00,FM-15,7,,,,,,,,,,,,,,,,,,,,,,,,,,,,,,,,,,,,,,,29.88,57,60,T,,-0.01,0,90,29.88,FEW:02 5 BKN:07 50 OVC:08 100,28.79,10,58,150,,6,,,,,,,,,,,,,,,,,,,,,,,,,,,,,,,,,,,,,MET15401/03/20 18:52:02 METAR KATL 032352Z 15005KT 10SM FEW005 BKN050 OVC100 16/14 A2988 RMK AO2 RAE09B29E43 SLP117 P0001 60015 T01560139 10172 20156 50004 (RF),FM-15,7,,,,,,,,,,,,,,,,,,,,,,,,,,,3/27/2007
72219013874,2020-01-03T19:00:00,FM-12,4,,,,,,,,,,,,,,,,,,,,,,,,,,,,,,,,,,,,,,,,57,60,,,0.01,9,90,29.88,5,28.78,9.94,58,150,,6,,,,,,,,,,,,,,,,,,,,,,,,,,,,,,,,,,,,,SYN08672219 12266 81505 10156 20139 39746 40117 50004 60041 92352 333 10172 20106 555 90400=,FM-12,4,,,,,,,,,,,,,,,,,,,,,,,,,,,3/27/2007
72219013874,2020-01-03T19:52:00,FM-15,7,,,,,,,,,,,,,,,,,,,,,,,,,,,,,,,,,,,,,,,29.92,57,60,0,,,,90,29.91,FEW:02 5 BKN:07 55 OVC:08 100,28.82,10,58,230,,5,,,,,,,,,,,,,,,,,,,,,,,,,,,,,,,,,,,,,MET11401/03/20 19:52:01 METAR KATL 040052Z 23004KT 10SM FEW005 BKN055 OVC100 16/14 A2992 RMK AO2 PRESRR SLP128 T01560139,FM-15,7,,,,,,,,,,,,,,,,,,,,,,,,,,,3/27/2007
72219013874,2020-01-03T20:52:00,FM-15,7,,,,,,,,,,,,,,,,,,,,,,,,,,,,,,,,,,,,,,,29.93,57,59,0,,,,93,29.92,FEW:02 4 BKN:07 50 OVC:08 90,28.84,9,58,280,,5,,,,,,,,,,,,,,,,,,,,,,,,,,,,,,,,,,,,,MET10601/03/20 20:52:01 METAR KATL 040152Z 28004KT 9SM FEW004 BKN050 OVC090 15/14 A2993 RMK AO2 SLP133 T01500139,FM-15,7,,,,,,,,,,,,,,,,,,,,,,,,,,,3/27/2007
72219013874,2020-01-03T21:52:00,FM-15,7,,,,,,,,,,,,,,,,,,,,,,,,,,,,,,,,,,,,,,,29.93,57,59,T,,-0.04,0,93,29.92,FEW:02 4 BKN:07 55 OVC:08 80,28.84,10,58,200,,6,,,,,,,,,,,,,,,,,,,,,,,,,,,,,,,,,,,,,MET13401/03/20 21:52:01 METAR KATL 040252Z 20005KT 10SM FEW004 BKN055 OVC080 15/14 A2993 RMK AO2 RAB05E50 SLP132 P0000 60000 T01500139 50014,FM-15,7,,,,,,,,,,,,,,,,,,,,,,,,,,,3/27/2007
72219013874,2020-01-03T22:46:00,FM-16,7,,,,,,,,,,,,,,,,,,,,,,,,,,,,,,,,,,,,,,,29.92,57,59,T,-RA:02 BR:1 |RA |RA,,,94,,SCT:04 3 BKN:07 25 OVC:08 60,28.82,6,58,190,,6,,,,,,,,,,,,,,,,,,,,,,,,,,,,,,,,,,,,,MET10801/03/20 22:46:01 SPECI KATL 040346Z 19005KT 6SM -RA BR SCT003 BKN025 OVC060 15/14 A2992 RMK AO2 RAB43 P0000,FM-16,7,,,,,,,,,,,,,,,,,,,,,,,,,,,3/27/2007
72219013874,2020-01-03T22:52:00,FM-15,7,,,,,,,,,,,,,,,,,,,,,,,,,,,,,,,,,,,,,,,29.92,57,59,0.01,-RA:02 BR:1 |RA |RA,,,93,29.91,SCT:04 3 BKN:07 7 OVC:08 60,28.82,2.5,58,190,,6,,,,,,,,,,,,,,,,,,,,,,,,,,,,,,,,,,,,,MET13901/03/20 22:52:01 METAR KATL 040352Z 19005KT 2 1/2SM -RA BR SCT003 BKN007 OVC060 15/14 A2992 RMK AO2 SFC VIS 5 RAB43 SLP130 P0000 T01500139,FM-15,7,,,,,,,,,,,,,,,,,,,,,,,,,,,3/27/2007
72219013874,2020-01-03T23:52:00,FM-15,7,,,,,,,,,,,,,,,,,,,,,,,,,,,,,,,,,,,,,,,29.91,57,59,0.06,-RA:02 |RA |RA,,,93,29.9,SCT:04 3 BKN:07 8 OVC:08 80,28.82,2.5,58,230,,5,,,,,,,,,,,,,,,,,,,,,,,,,,,,,,,,,,,,,MET14001/03/20 23:52:02 METAR KATL 040452Z 23004KT 2 1/2SM -RA SCT003 BKN008 OVC080 15/14 A2991 RMK AO2 SFC VIS 7 SLP125 P0006 T01500139 401720100,FM-15,7,,,,,,,,,,,,,,,,,,,,,,,,,,,3/27/2007
72219013874,2020-01-03T23:59:00,SOD  ,6,,,,,,,,,,,,,,,,,56,57,93,29.87,28.77,57,5.7,0,14.1,8,63,50,280,28,0.97,0,0,300,23,RA DZ FG BR,,,,,,,,,,,,,,,,,,,,,,,,,,,,,,,,,,,,,,,,,,,,,,,,,,,,,,,SOD75724 HR PRECIPITATION (IN): 0.97 SNOW DEPTH (IN):0     24 HR SNOWFALL (IN):0.0  WEATHER(CODE):12  24 HR MAX TEMP (F): 6324 HR MIN TEMP (F): 50AVERAGE STATION PRESSURE:28.775 MINIMUM SEA LEVEL PRESSURE:29.82 TIME OF OCCURRENCE:1430 PEAK WIND SPEED (MPH): 28 PEAK WIND DIR (DEG):280 PEAK WIND TIME (LST):      FASTEST 2MIN SPEED (MPH): 23FASTEST 2MIN DIR (DEG):300 FASTEST 2MIN TIME (LST):     AVERAGE WIND SPEED (MPH): 5.7 24 HR AVG TEMP (F): 57DEPART FROM NORMAL: 14  HEATING DEGREE DAYS:  8 COOLING DEGREE DAYS:  0 LATEST DAY MAX TEMP (0700-1900 LST):63  LATEST NIGHT MIN TEMP(1900-0800 LST):48 HOURLY INCREMENTAL PRECIPITATION VALUES (IN):    T    0.00 0.00 T    0.00 0.00 0.04 0.35 0.28 0.01 0.01 0.06 0.07 T    0.01 0.05 0.02 T    0.00 0.00 T    0.01 0.06,SOD  ,6,,,,,,,,,,,,,,,,,,,,,,,,,743,1742,3/27/2007
72219013874,2020-01-04T00:52:00,FM-15,7,,,,,,,,,,,,,,,,,,,,,,,,,,,,,,,,,,,,,,,29.9,56,59,0.01,-RA:02 |RA |RA,0.03,8,90,29.88,BKN:07 5 BKN:07 15 OVC:08 80,28.81,2.5,57,210,,6,,,,,,,,,,,,,,,,,,,,,,,,,,,,,,,,,,,,,MET15901/04/20 00:52:02 METAR KATL 040552Z 21005KT 2 1/2SM -RA BKN005 BKN015 OVC080 15/13 A2990 RMK AO2 SFC VIS 8 SLP120 P0001 60007 T01500133 10156 20150 58010 (RF),FM-15,7,,,,,,,,,,,,,,,,,,,,,,,,,,,3/27/2007
72219013874,2020-01-04T01:00:00,FM-12,4,,,,,,,,,,,,,,,,,,,,,,,,,,,,,,,,,,,,,,,,56,59,,||RA,0.03,8,90,29.88,5,28.8,2.49,57,210,,6,,,,,,,,,,,,,,,,,,,,,,,,,,,,,,,,,,,,,SYN09272219 11240 82105 10150 20133 39752 40120 58010 60021 761// 90552 333 10156 20106 555 90406=,FM-12,4,,,,,,,,,,,,,,,,,,,,,,,,,,,3/27/2007
72219013874,2020-01-04T01:19:00,FM-16,7,,,,,,,,,,,,,,,,,,,,,,,,,,,,,,,,,,,,,,,29.9,56,58,0.01,-RA:02 BR:1 |RA |RA,,,93,,SCT:04 5 BKN:07 33 OVC:08 70,28.81,2.5,57,250,,7,,,,,,,,,,,,,,,,,,,,,,,,,,,,,,,,,,,,,MET14401/04/20 01:19:02 SPECI KATL 040619Z 25006KT 2 1/2SM -RA BR SCT005 BKN033 OVC070 14/13 A2990 RMK AO2 SFC VIS 6 SCT005 V BKN P0001 T01440133 (DB),FM-16,7,,,,,,,,,,,,,,,,,,,,,,,,,,,3/27/2007
72219013874,2020-01-04T01:37:00,FM-16,7,,,,,,,,,,,,,,,,,,,,,,,,,,,,,,,,,,,,,,,29.89,56,58,0.05,-RA:02 |RA |RA,,,93,,BKN:07 5 BKN:07 33 OVC:08 75,28.8,2.5,57,250,,6,,,,,,,,,,,,,,,,,,,,,,,,,,,,,,,,,,,,,MET14101/04/20 01:37:02 SPECI KATL 040637Z 25005KT 2 1/2SM -RA BKN005 BKN033 OVC075 14/13 A2989 RMK AO2 SFC VIS 7 BKN005 V SCT P0005 T01440133 (DB),FM-16,7,,,,,,,,,,,,,,,,,,,,,,,,,,,3/27/2007
72219013874,2020-01-04T01:52:00,FM-15,7,,,,,,,,,,,,,,,,,,,,,,,,,,,,,,,,,,,,,,,29.9,55,58,0.04,-RA:02 |RA |RA,,,90,29.9,BKN:07 7 BKN:07 21 OVC:08 80,28.81,2.5,56,230,,7,,,,,,,,,,,,,,,,,,,,,,,,,,,,,,,,,,,,,MET14801/04/20 01:52:02 METAR KATL 040652Z 23006KT 2 1/2SM -RA BKN007 BKN021 OVC080 14/13 A2990 RMK AO2 SFC VIS 7 SLP124 BKN007 V SCT P0005 T01440128 (DB),FM-15,7,,,,,,,,,,,,,,,,,,,,,,,,,,,3/27/2007
72219013874,2020-01-04T02:52:00,FM-15,7,,,,,,,,,,,,,,,,,,,,,,,,,,,,,,,,,,,,,,,29.9,55,58,0.01,-RA:02 |RA |RA,,,90,29.89,BKN:07 7 OVC:08 80,28.81,2.5,56,240,,5,,,,,,,,,,,,,,,,,,,,,,,,,,,,,,,,,,,,,MET14001/04/20 02:52:02 METAR KATL 040752Z 24004KT 2 1/2SM -RA BKN007 OVC080 14/13 A2990 RMK AO2 SFC VIS 7 SLP123 CIG 004V010 P0000 T01440128 (DB),FM-15,7,,,,,,,,,,,,,,,,,,,,,,,,,,,3/27/2007
72219013874,2020-01-04T03:07:00,FM-16,7,,,,,,,,,,,,,,,,,,,,,,,,,,,,,,,,,,,,,,,29.9,55,58,0.01,-RA:02 BR:1 |RA |RA,,,90,,SCT:04 7 BKN:07 60 OVC:08 80,28.81,2.5,56,250,,6,,,,,,,,,,,,,,,,,,,,,,,,,,,,,,,,,,,,,MET14401/04/20 03:07:02 SPECI KATL 040807Z 25005KT 2 1/2SM -RA BR SCT007 BKN060 OVC080 14/13 A2990 RMK AO2 SFC VIS 6 SCT007 V BKN P0001 T01440128 (DB),FM-16,7,,,,,,,,,,,,,,,,,,,,,,,,,,,3/27/2007
72219013874,2020-01-04T03:21:00,FM-16,7,,,,,,,,,,,,,,,,,,,,,,,,,,,,,,,,,,,,,,,29.9,55,58,0.04,RA:02 BR:1 |RA |RA,,,90,,BKN:07 7 BKN:07 55 OVC:08 85,28.81,2.5,56,250,,7,,,,,,,,,,,,,,,,,,,,,,,,,,,,,,,,,,,,,MET14301/04/20 03:21:02 SPECI KATL 040821Z 25006KT 2 1/2SM RA BR BKN007 BKN055 OVC085 14/13 A2990 RMK AO2 SFC VIS 5 BKN007 V SCT P0004 T01440128 (DB),FM-16,7,,,,,,,,,,,,,,,,,,,,,,,,,,,3/27/2007
72219013874,2020-01-04T03:49:00,FM-16,7,,,,,,,,,,,,,,,,,,,,,,,,,,,,,,,,,,,,,,,29.89,54,57,0.06,-RA:02 BR:1 |RA |RA,,,88,,BKN:07 8 BKN:07 19 OVC:08 39,28.8,5,55,270,,7,,,,,,,,,,,,,,,,,,,,,,,,,,,,,,,,,,,,,MET12001/04/20 03:49:02 SPECI KATL 040849Z 27006KT 5SM -RA BR BKN008 BKN019 OVC039 14/12 A2989 RMK AO2 BKN008 V SCT P0006 (DB),FM-16,7,,,,,,,,,,,,,,,,,,,,,,,,,,,3/27/2007
72219013874,2020-01-04T03:52:00,FM-15,7,,,,,,,,,,,,,,,,,,,,,,,,,,,,,,,,,,,,,,,29.88,54,57,0.06,-RA:02 BR:1 |RA |RA,0.02,8,90,29.87,BKN:07 6 BKN:07 19 OVC:08 39,28.79,5,55,280,,7,,,,,,,,,,,,,,,,,,,,,,,,,,,,,,,,,,,,,MET16801/04/20 03:52:02 METAR KATL 040852Z 28006KT 5SM -RA BR BKN006 BKN019 OVC039 14/12 A2988 RMK AO2 PRESFR SLP114 CIG 004V008 BKN006 V SCT P0006 60011 T01390122 58006 (DB),FM-15,7,,,,,,,,,,,,,,,,,,,,,,,,,,,3/27/2007
72219013874,2020-01-04T04:52:00,FM-15,7,,,,,,,,,,,,,,,,,,,,,,,,,,,,,,,,,,,,,,,29.88,54,57,T,-RA:02 |RA |RA,,,90,29.87,BKN:07 6 BKN:07 41 OVC:08 100,28.79,7,55,260,,7,,,,,,,,,,,,,,,,,,,,,,,,,,,,,,,,,,,,,MET15501/04/20 04:52:02 METAR KATL 040952Z 26006KT 7SM -RA BKN006 BKN041 OVC100 14/12 A2988 RMK AO2 RAE16B47 SLP114 CIG 004V009 BKN006 V SCT P0001 T01390122 (DB),FM-15,7,,,,,,,,,,,,,,,,,,,,,,,,,,,3/27/2007
72219013874,2020-01-04T05:52:00,FM-15,7,,,,,,,,,,,,,,,,,,,,,,,,,,,,,,,,,,,,,,,29.89,54,57,T,,,,90,29.88,BKN:07 7 BKN:07 19 OVC:08 24,28.8,7,55,250,,6,,,,,,,,,,,,,,,,,,,,,,,,,,,,,,,,,,,,,MET14801/04/20 05:52:02 METAR KATL 041052Z 25005KT 7SM BKN007 BKN019 OVC024 14/12 A2989 RMK AO2 RAE00 SLP120 CIG 005V010 BKN007 V SCT P0000 T01390122 (DB),FM-15,7,,,,,,,,,,,,,,,,,,,,,,,,,,,3/27/2007
72219013874,2020-01-04T06:52:00,FM-15,7,,,,,,,,,,,,,,,,,,,,,,,,,,,,,,,,,,,,,,,29.89,53,56,0,,-0.02,3,90,29.89,SCT:04 7 SCT:04 26 BKN:07 250,28.8,7,54,250,,8,,,,,,,,,,,,,,,,,,,,,,,,,,,,,,,,,,,,,MET15401/04/20 06:52:02 METAR KATL 041152Z 25007KT 7SM SCT007 SCT026 BKN250 13/12 A2989 RMK AO2 SLP121 SCT007 V BKN 60012 70109 T01330117 10150 20133 53006 (DB),FM-15,7,,,,,,,,,,,,,,,,,,,,,,,,,,,3/27/2007
72219013874,2020-01-04T07:00:00,FM-12,4,,,,,,,,,,,,,,,,,,,,,,,,,,,,,,,,,,,,,,,,53,56,,,-0.02,3,90,29.89,8,28.79,6.84,54,250,,8,,,,,,,,,,,,,,,,,,,,,,,,,,,,,,,,,,,,,SYN09272219 12361 62507 10133 20117 39749 40121 53006 60031 91152 333 10172 20133 70277 555 90412=,FM-12,4,,,,,,,,,,,,,,,,,,,,,,,,,,,3/27/2007
72219013874,2020-01-04T07:48:00,FM-16,7,,,,,,,,,,,,,,,,,,,,,,,,,,,,,,,,,,,,,,,29.9,52,55,,,,,88,,BKN:07 8 BKN:07 19 BKN:07 200,28.81,8,53,260,,9,,,,,,,,,,,,,,,,,,,,,,,,,,,,,,,,,,,,,MET10701/04/20 07:48:02 SPECI KATL 041248Z 26008KT 8SM BKN008 BKN019 BKN200 13/11 A2990 RMK AO2 BKN008 V SCT (DB),FM-16,7,,,,,,,,,,,,,,,,,,,,,,,,,,,3/27/2007
72219013874,2020-01-04T07:52:00,FM-15,7,,,,,,,,,,,,,,,,,,,,,,,,,,,,,,,,,,,,,,,29.9,52,55,0,,,,90,29.89,BKN:07 8 BKN:07 19 BKN:07 200,28.81,8,53,260,20,14,,,,,,,,,,,,,,,,,,,,,,,,,,,,,,,,,,,,,MET12701/04/20 07:52:02 METAR KATL 041252Z 26012G17KT 8SM BKN008 BKN019 BKN200 13/11 A2990 RMK AO2 SLP121 BKN008 V SCT T01280111 (DB),FM-15,7,,,,,,,,,,,,,,,,,,,,,,,,,,,3/27/2007
72219013874,2020-01-04T08:07:00,FM-16,7,,,,,,,,,,,,,,,,,,,,,,,,,,,,,,,,,,,,,,,29.9,51,55,,,,,87,,FEW:02 8 FEW:02 15 SCT:04 21,28.81,10,53,260,,9,,,,,,,,,,,,,,,,,,,,,,,,,,,,,,,,,,,,,MET10501/04/20 08:07:02 SPECI KATL 041307Z 26008KT 10SM FEW008 FEW015 SCT021 13/11 A2990 RMK AO2 T01280106 (DB),FM-16,7,,,,,,,,,,,,,,,,,,,,,,,,,,,3/27/2007
72219013874,2020-01-04T08:52:00,FM-15,7,,,,,,,,,,,,,,,,,,,,,,,,,,,,,,,,,,,,,,,29.91,53,56,0,,,,90,29.9,FEW:02 9 BKN:07 30 BKN:07 200,28.82,10,54,250,,9,,,,,,,,,,,,,,,,,,,,,,,,,,,,,,,,,,,,,MET11201/04/20 08:52:02 METAR KATL 041352Z 25008KT 10SM FEW009 BKN030 BKN200 13/12 A2991 RMK AO2 SLP126 T01330117 (DB),FM-15,7,,,,,,,,,,,,,,,,,,,,,,,,,,,3/27/2007
72219013874,2020-01-04T09:04:00,FM-16,7,,,,,,,,,,,,,,,,,,,,,,,,,,,,,,,,,,,,,,,29.91,52,56,,,,,87,,FEW:02 9 BKN:07 28 BKN:07 200,28.82,10,54,250,18,10,,,,,,,,,,,,,,,,,,,,,,,,,,,,,,,,,,,,,MET10901/04/20 09:04:02 SPECI KATL 041404Z 25009G16KT 10SM FEW009 BKN028 BKN200 13/11 A2991 RMK AO2 T01330111 (JRN),FM-16,7,,,,,,,,,,,,,,,,,,,,,,,,,,,3/27/2007
72219013874,2020-01-04T09:19:00,FM-16,7,,,,,,,,,,,,,,,,,,,,,,,,,,,,,,,,,,,,,,,29.92,52,57,,,,,83,,SCT:04 30 SCT:04 150 SCT:04 250,28.82,10,54,250,,13,,,,,,,,,,,,,,,,,,,,,,,,,,,,,,,,,,,,,MET10601/04/20 09:19:02 SPECI KATL 041419Z 25011KT 10SM SCT030 SCT150 SCT250 14/11 A2992 RMK AO2 T01390111 (JRN),FM-16,7,,,,,,,,,,,,,,,,,,,,,,,,,,,3/27/2007
72219013874,2020-01-04T09:34:00,FM-16,7,,,,,,,,,,,,,,,,,,,,,,,,,,,,,,,,,,,,,,,29.93,52,57,,,,,83,,FEW:02 9 FEW:02 19 BKN:07 29,28.84,10,54,250,22,10,,,,,,,,,,,,,,,,,,,,,,,,,,,,,,,,,,,,,MET10901/04/20 09:34:02 SPECI KATL 041434Z 25009G19KT 10SM FEW009 FEW019 BKN029 14/11 A2993 RMK AO2 T01390111 (JRN),FM-16,7,,,,,,,,,,,,,,,,,,,,,,,,,,,3/27/2007
72219013874,2020-01-04T09:50:00,FM-16,6,,,,,,,,,,,,,,,,,,,,,,,,,,,,,,,,,,,,,,,29.94,52,57,,,,,82,,BKN:07 14 BKN:07 19 OVC:08 29,28.84,10,54,260,,16,,,,,,,,,,,,,,,,,,,,,,,,,,,,,,,,,,,,,MET10101/04/20 09:50:02 SPECI KATL 041450Z 26014KT 10SM BKN014 BKN019 OVC029 14/11 A2994 RMK AO2 FIBI (JRN),FM-16,6,,,,,,,,,,,,,,,,,,,,,,,,,,,3/27/2007
72219013874,2020-01-04T09:52:00,FM-15,7,,,,,,,,,,,,,,,,,,,,,,,,,,,,,,,,,,,,,,,29.94,51,57,0,,-0.04,3,81,29.93,BKN:07 14 BKN:07 19 OVC:08 29,28.84,10,54,270,,15,,,,,,,,,,,,,,,,,,,,,,,,,,,,,,,,,,,,,MET11901/04/20 09:52:02 METAR KATL 041452Z 27013KT 10SM BKN014 BKN019 OVC029 14/11 A2994 RMK AO2 SLP135 T01390106 53014 (JRN),FM-15,7,,,,,,,,,,,,,,,,,,,,,,,,,,,3/27/2007
72219013874,2020-01-04T09:56:00,FM-16,7,,,,,,,,,,,,,,,,,,,,,,,,,,,,,,,,,,,,,,,29.94,52,57,,HZ:7 |FU |HZ,,,83,,OVC:08 14,28.84,2,54,260,,13,,,,,,,,,,,,,,,,,,,,,,,,,,,,,,,,,,,,,MET10401/04/20 09:56:02 SPECI KATL 041456Z 26011KT 2SM HZ OVC014 14/11 A2994 RMK AO2 SFC VIS 6 T01390111 (JRN),FM-16,7,,,,,,,,,,,,,,,,,,,,,,,,,,,3/27/2007
72219013874,2020-01-04T10:05:00,FM-16,7,,,,,,,,,,,,,,,,,,,,,,,,,,,,,,,,,,,,,,,29.95,51,55,T,-RA:02 BR:1 |RA |RA,,,87,,BKN:07 14 BKN:07 21 OVC:08 29,28.85,2,53,280,32,18,,,,,,,,,,,,,,,,,,,,,,,,,,,,,,,,,,,,,MET15501/04/20 10:05:02 SPECI KATL 041505Z 28016G28KT 2SM -RA BR BKN014 BKN021 OVC029 13/11 A2995 RMK AO2 PK WND 25028/1502 SFC VIS 3 RAB01 P0000 T01280106 (JRN),FM-16,7,,,,,,,,,,,,,,,,,,,,,,,,,,,3/27/2007
72219013874,2020-01-04T10:16:00,FM-16,7,,,,,,,,,,,,,,,,,,,,,,,,,,,,,,,,,,,,,,,29.96,50,55,0.01,-RA:02 |RA |RA,,,83,,SCT:04 14 BKN:07 29 OVC:08 37,28.87,2,52,290,,15,,,,,,,,,,,,,,,,,,,,,,,,,,,,,,,,,,,,,MET14901/04/20 10:16:02 SPECI KATL 041516Z 29013KT 2SM -RA SCT014 BKN029 OVC037 13/10 A2996 RMK AO2 PK WND 25028/1502 SFC VIS 5 RAB01 P0001 T01280100 (JRN),FM-16,7,,,,,,,,,,,,,,,,,,,,,,,,,,,3/27/2007
72219013874,2020-01-04T10:24:00,FM-16,7,,,,,,,,,,,,,,,,,,,,,,,,,,,,,,,,,,,,,,,29.95,51,55,0.01,-RA:02 |RA |RA,,,87,,FEW:02 9 SCT:04 34 BKN:07 41,28.85,2,53,290,,11,,,,,,,,,,,,,,,,,,,,,,,,,,,,,,,,,,,,,MET14901/04/20 10:24:02 SPECI KATL 041524Z 29010KT 2SM -RA FEW009 SCT034 BKN041 13/11 A2995 RMK AO2 PK WND 25028/1502 SFC VIS 7 RAB01 P0001 T01280106 (JRN),FM-16,7,,,,,,,,,,,,,,,,,,,,,,,,,,,3/27/2007
72219013874,2020-01-04T10:50:00,FM-16,6,,,,,,,,,,,,,,,,,,,,,,,,,,,,,,,,,,,,,,,29.95,52,55,,,,,88,,FEW:02 12 FEW:02 22 BKN:07 45,28.85,10,53,290,,10,,,,,,,,,,,,,,,,,,,,,,,,,,,,,,,,,,,,,MET13401/04/20 10:50:02 SPECI KATL 041550Z 29009KT 10SM FEW012 FEW022 BKN045 13/11 A2995 RMK AO2 PK WND 25028/1502 RAB01E42 P0001 FIBI (JRN),FM-16,6,,,,,,,,,,,,,,,,,,,,,,,,,,,3/27/2007
72219013874,2020-01-04T10:52:00,FM-15,7,,,,,,,,,,,,,,,,,,,,,,,,,,,,,,,,,,,,,,,29.95,51,56,0.01,,,,84,29.94,FEW:02 12 FEW:02 22 BKN:07 45,28.85,10,53,280,,13,,,,,,,,,,,,,,,,,,,,,,,,,,,,,,,,,,,,,MET14601/04/20 10:52:02 METAR KATL 041552Z 28011KT 10SM FEW012 FEW022 BKN045 13/11 A2995 RMK AO2 PK WND 25028/1502 RAB01E42 SLP140 P0001 T01330106 (JRN),FM-15,7,,,,,,,,,,,,,,,,,,,,,,,,,,,3/27/2007
72219013874,2020-01-04T11:00:00,FM-16,7,,,,,,,,,,,,,,,,,,,,,,,,,,,,,,,,,,,,,,,29.95,51,56,,,,,84,,FEW:02 12 BKN:07 19 BKN:07 46,28.85,10,53,290,,11,,,,,,,,,,,,,,,,,,,,,,,,,,,,,,,,,,,,,MET10601/04/20 11:00:02 SPECI KATL 041600Z 29010KT 10SM FEW012 BKN019 BKN046 13/11 A2995 RMK AO2 T01330106 (JRN),FM-16,7,,,,,,,,,,,,,,,,,,,,,,,,,,,3/27/2007
72219013874,2020-01-04T11:50:00,FM-16,6,,,,,,,,,,,,,,,,,,,,,,,,,,,,,,,,,,,,,,,29.95,46,54,,-RA:02 |RA |RA,,,77,,FEW:02 19 BKN:07 32 BKN:07 45,28.85,10,50,280,,17,,,,,,,,,,,,,,,,,,,,,,,,,,,,,,,,,,,,,MET13501/04/20 11:50:02 SPECI KATL 041650Z 28015KT 10SM -RA FEW019 BKN032 BKN045 12/08 A2995 RMK AO2 PK WND 28027/1631 RAB29 P0001 FIBI (JRN),FM-16,6,,,,,,,,,,,,,,,,,,,,,,,,,,,3/27/2007
72219013874,2020-01-04T11:52:00,FM-15,7,,,,,,,,,,,,,,,,,,,,,,,,,,,,,,,,,,,,,,,29.95,47,53,0.01,-RA:02 |RA |RA,,,80,29.95,FEW:02 19 BKN:07 32 BKN:07 45,28.85,10,50,290,,16,,,,,,,,,,,,,,,,,,,,,,,,,,,,,,,,,,,,,MET14701/04/20 11:52:02 METAR KATL 041652Z 29014KT 10SM -RA FEW019 BKN032 BKN045 12/08 A2995 RMK AO2 PK WND 28027/1631 RAB29 SLP141 P0001 T01170083 (JRN),FM-15,7,,,,,,,,,,,,,,,,,,,,,,,,,,,3/27/2007
72219013874,2020-01-04T12:52:00,FM-15,7,,,,,,,,,,,,,,,,,,,,,,,,,,,,,,,,,,,,,,,29.95,40,55,0,,-0.01,0,57,29.94,FEW:02 30 FEW:02 50,28.85,10,48,300,32,20,,,,,,,,,,,,,,,,,,,,,,,,,,,,,,,,,,,,,MET16501/04/20 12:52:02 METAR KATL 041752Z 30017G28KT 10SM FEW030 FEW050 13/04 A2995 RMK AO2 PK WND 31028/1747 RAE1655 SLP140 P0000 60002 T01280044 10144 20117 50003 (JRN),FM-15,7,,,,,,,,,,,,,,,,,,,,,,,,,,,3/27/2007
72219013874,2020-01-04T13:00:00,FM-12,4,,,,,,,,,,,,,,,,,,,,,,,,,,,,,,,,,,,,,,,,40,55,,,0.01,9,57,29.94,26,28.85,9.94,48,300,,20,,,,,,,,,,,,,,,,,,,,,,,,,,,,,,,,,,,,,SYN09272219 12566 23017 10128 20044 39769 40140 50003 69951 91752 333 10150 20117 91028 555 90418=,FM-12,4,,,,,,,,,,,,,,,,,,,,,,,,,,,3/27/2007
72219013874,2020-01-04T13:52:00,FM-15,7,,,,,,,,,,,,,,,,,,,,,,,,,,,,,,,,,,,,,,,29.94,36,56,0,,,,47,29.93,FEW:02 45,28.84,10,47,290,,21,,,,,,,,,,,,,,,,,,,,,,,,,,,,,,,,,,,,,MET11701/04/20 13:52:02 METAR KATL 041852Z 29018KT 10SM FEW045 13/02 A2994 RMK AO2 PK WND 30026/1836 SLP136 T01330022 (JRN),FM-15,7,,,,,,,,,,,,,,,,,,,,,,,,,,,3/27/2007
72219013874,2020-01-04T14:52:00,FM-15,7,,,,,,,,,,,,,,,,,,,,,,,,,,,,,,,,,,,,,,,29.93,32,56,0,,,,40,29.93,FEW:02 50,28.84,10,45,300,32,23,,,,,,,,,,,,,,,,,,,,,,,,,,,,,,,,,,,,,MET12001/04/20 14:52:02 METAR KATL 041952Z 30020G28KT 10SM FEW050 13/00 A2993 RMK AO2 PK WND 27028/1911 SLP134 T01330000 (JRN),FM-15,7,,,,,,,,,,,,,,,,,,,,,,,,,,,3/27/2007
72219013874,2020-01-04T15:52:00,FM-15,7,,,,,,,,,,,,,,,,,,,,,,,,,,,,,,,,,,,,,,,29.97,34,53,0,,-0.02,3,48,29.96,BKN:07 55 BKN:07 75,28.87,10,44,310,31,20,,,,,,,,,,,,,,,,,,,,,,,,,,,,,,,,,,,,,MET13301/04/20 15:52:02 METAR KATL 042052Z 31017G27KT 10SM BKN055 BKN075 12/01 A2997 RMK AO2 PK WND 28031/2026 SLP147 T01170011 53006 (JRN),FM-15,7,,,,,,,,,,,,,,,,,,,,,,,,,,,3/27/2007
72219013874,2020-01-04T16:52:00,FM-15,7,,,,,,,,,,,,,,,,,,,,,,,,,,,,,,,,,,,,,,,30,32,50,0,,,,50,30,BKN:07 50 BKN:07 70,28.9,10,42,290,36,26,,,,,,,,,,,,,,,,,,,,,,,,,,,,,,,,,,,,,MET12701/04/20 16:52:02 METAR KATL 042152Z 29023G31KT 10SM BKN050 BKN070 10/00 A3000 RMK AO2 PK WND 30031/2150 SLP159 T01000000 (JRN),FM-15,7,,,,,,,,,,,,,,,,,,,,,,,,,,,3/27/2007
72219013874,2020-01-04T17:52:00,FM-15,7,,,,,,,,,,,,,,,,,,,,,,,,,,,,,,,,,,,,,,,30.05,28,48,T,,,,46,30.05,FEW:02 38 SCT:04 50 BKN:07 80,28.95,10,40,300,34,22,,,,,,,,,,,,,,,,,,,,,,,,,,,,,,,,,,,,,MET17701/04/20 17:52:02 METAR KATL 042252Z 30019G30KT 10SM FEW038 SCT050 BKN080 09/M02 A3005 RMK AO2 PK WND 30036/2237 RAB24E33 PRESRR SLP175 MDT CU E-S SHRA E-S P0000 T00891022 (KAF),FM-15,7,,,,,,,,,,,,,,,,,,,,,,,,,,,3/27/2007
72219013874,2020-01-04T18:52:00,FM-15,7,,,,,,,,,,,,,,,,,,,,,,,,,,,,,,,,,,,,,,,30.1,26,45,0,,-0.12,3,48,30.1,FEW:02 50 SCT:04 80,29,10,37,300,32,20,,,,,,,,,,,,,,,,,,,,,,,,,,,,,,,,,,,,,MET15901/04/20 18:52:02 METAR KATL 042352Z 30017G28KT 10SM FEW050 SCT080 07/M03 A3010 RMK AO2 PK WND 30031/2255 PRESRR SLP192 60000 T00721033 10139 20072 53042 (KAF),FM-15,7,,,,,,,,,,,,,,,,,,,,,,,,,,,3/27/2007
72219013874,2020-01-04T19:00:00,FM-12,4,,,,,,,,,,,,,,,,,,,,,,,,,,,,,,,,,,,,,,,,26,45,,,-0.12,3,48,30.1,57,28.99,9.94,37,300,,20,,,,,,,,,,,,,,,,,,,,,,,,,,,,,,,,,,,,,SYN09272219 12766 43017 10072 21033 39818 40192 53042 69901 92352 333 10144 20072 91028 555 90500=,FM-12,4,,,,,,,,,,,,,,,,,,,,,,,,,,,3/27/2007
72219013874,2020-01-04T19:52:00,FM-15,7,,,,,,,,,,,,,,,,,,,,,,,,,,,,,,,,,,,,,,,30.13,25,42,0,,,,51,30.14,SCT:04 42 SCT:04 75,29.03,10,35,300,39,28,,,,,,,,,,,,,,,,,,,,,,,,,,,,,,,,,,,,,MET12201/04/20 19:52:01 METAR KATL 050052Z 30024G34KT 10SM SCT042 SCT075 06/M04 A3013 RMK AO2 PK WND 31037/0012 SLP206 T00561039,FM-15,7,,,,,,,,,,,,,,,,,,,,,,,,,,,3/27/2007
72219013874,2020-01-04T20:52:00,FM-15,7,,,,,,,,,,,,,,,,,,,,,,,,,,,,,,,,,,,,,,,30.18,25,40,0,,,,55,30.19,FEW:02 40,29.08,10,34,300,30,17,,,,,,,,,,,,,,,,,,,,,,,,,,,,,,,,,,,,,MET11501/04/20 20:52:01 METAR KATL 050152Z 30015G26KT 10SM FEW040 04/M04 A3018 RMK AO2 PK WND 31033/0101 SLP222 T00441039,FM-15,7,,,,,,,,,,,,,,,,,,,,,,,,,,,3/27/2007
72219013874,2020-01-04T21:52:00,FM-15,7,,,,,,,,,,,,,,,,,,,,,,,,,,,,,,,,,,,,,,,30.22,23,39,0,,-0.12,3,53,30.23,FEW:02 38 SCT:04 60,29.12,10,33,320,,16,,,,,,,,,,,,,,,,,,,,,,,,,,,,,,,,,,,,,MET12501/04/20 21:52:01 METAR KATL 050252Z 32014KT 10SM FEW038 SCT060 04/M05 A3022 RMK AO2 PK WND 29028/0158 SLP236 T00391050 53040,FM-15,7,,,,,,,,,,,,,,,,,,,,,,,,,,,3/27/2007
72219013874,2020-01-04T22:52:00,FM-15,7,,,,,,,,,,,,,,,,,,,,,,,,,,,,,,,,,,,,,,,30.23,24,38,0,,,,57,30.23,FEW:02 38,29.13,10,33,320,,13,,,,,,,,,,,,,,,,,,,,,,,,,,,,,,,,,,,,,MET09401/04/20 22:52:01 METAR KATL 050352Z 32011KT 10SM FEW038 03/M04 A3023 RMK AO2 SLP238 T00331044,FM-15,7,,,,,,,,,,,,,,,,,,,,,,,,,,,3/27/2007
72219013874,2020-01-04T23:52:00,FM-15,7,,,,,,,,,,,,,,,,,,,,,,,,,,,,,,,,,,,,,,,30.22,24,37,0,,,,59,30.23,FEW:02 38,29.12,10,32,330,,11,,,,,,,,,,,,,,,,,,,,,,,,,,,,,,,,,,,,,MET12201/04/20 23:52:02 METAR KATL 050452Z 33010KT 10SM FEW038 03/M04 A3022 RMK AO2 PK WND 32026/0402 SLP238 T00281044 401500028,FM-15,7,,,,,,,,,,,,,,,,,,,,,,,,,,,3/27/2007
72219013874,2020-01-04T23:59:00,SOD  ,6,,,,,,,,,,,,,,,,,41,48,69,29.99,28.86,47,14.5,0,5.1,17,59,37,310,42,0.14,0,0,300,33,RA BR HZ,,,,,,,,,,,,,,,,,,,,,,,,,,,,,,,,,,,,,,,,,,,,,,,,,,,,,,,SOD75724 HR PRECIPITATION (IN): 0.14 SNOW DEPTH (IN):0     24 HR SNOWFALL (IN):0.0  WEATHER(CODE):18  24 HR MAX TEMP (F): 5924 HR MIN TEMP (F): 37AVERAGE STATION PRESSURE:28.860 MINIMUM SEA LEVEL PRESSURE:29.86 TIME OF OCCURRENCE:0449 PEAK WIND SPEED (MPH): 42 PEAK WIND DIR (DEG):310 PEAK WIND TIME (LST):      FASTEST 2MIN SPEED (MPH): 33FASTEST 2MIN DIR (DEG):300 FASTEST 2MIN TIME (LST):     AVERAGE WIND SPEED (MPH):14.5 24 HR AVG TEMP (F): 48DEPART FROM NORMAL:  5  HEATING DEGREE DAYS: 17 COOLING DEGREE DAYS:  0 LATEST DAY MAX TEMP (0700-1900 LST):58  LATEST NIGHT MIN TEMP(1900-0800 LST):55 HOURLY INCREMENTAL PRECIPITATION VALUES (IN):.01 0.04 0.01 0.06 T    T    0.00 0.00 0.00 0.00 0.01 0.01 0.00 0.00 0.00 0.00 0.00 T    0.00 0.00 0.00 0.00 0.00 0.00,SOD  ,6,,,,,,,,,,,,,,,,,,,,,,,,,743,1743,3/27/2007
72219013874,2020-01-05T00:52:00,FM-15,7,,,,,,,,,,,,,,,,,,,,,,,,,,,,,,,,,,,,,,,30.21,24,36,0,,0.01,8,62,30.22,CLR:00,29.11,10,32,310,,9,,,,,,,,,,,,,,,,,,,,,,,,,,,,,,,,,,,,,MET11501/05/20 00:52:02 METAR KATL 050552Z 31008KT 10SM CLR 02/M04 A3021 RMK AO2 SLP235 T00221044 10072 20022 58002 (KAF),FM-15,7,,,,,,,,,,,,,,,,,,,,,,,,,,,3/27/2007
72219013874,2020-01-05T01:00:00,FM-12,4,,,,,,,,,,,,,,,,,,,,,,,,,,,,,,,,,,,,,,,,24,36,,,0.01,8,62,30.22,,29.1,9.94,32,310,,9,,,,,,,,,,,,,,,,,,,,,,,,,,,,,,,,,,,,,SYN08072219 32966 03108 10022 21044 39854 40235 58002 90552 333 10150 20022 555 90506=,FM-12,4,,,,,,,,,,,,,,,,,,,,,,,,,,,3/27/2007
72219013874,2020-01-05T01:52:00,FM-15,7,,,,,,,,,,,,,,,,,,,,,,,,,,,,,,,,,,,,,,,30.22,25,35,0,,,,67,30.24,CLR:00,29.12,10,31,290,,7,,,,,,,,,,,,,,,,,,,,,,,,,,,,,,,,,,,,,MET09601/05/20 01:52:02 METAR KATL 050652Z 29006KT 10SM CLR 02/M04 A3022 RMK AO2 SLP239 T00171039 (DB),FM-15,7,,,,,,,,,,,,,,,,,,,,,,,,,,,3/27/2007
72219013874,2020-01-05T02:52:00,FM-15,7,,,,,,,,,,,,,,,,,,,,,,,,,,,,,,,,,,,,,,,30.23,24,33,0,,,,70,30.24,CLR:00,29.13,10,30,280,,7,,,,,,,,,,,,,,,,,,,,,,,,,,,,,,,,,,,,,MET09601/05/20 02:52:02 METAR KATL 050752Z 28006KT 10SM CLR 01/M04 A3023 RMK AO2 SLP240 T00061044 (DB),FM-15,7,,,,,,,,,,,,,,,,,,,,,,,,,,,3/27/2007
72219013874,2020-01-05T03:52:00,FM-15,7,,,,,,,,,,,,,,,,,,,,,,,,,,,,,,,,,,,,,,,30.26,24,32,0,,-0.05,3,73,30.28,CLR:00,29.15,10,29,270,,8,,,,,,,,,,,,,,,,,,,,,,,,,,,,,,,,,,,,,MET10201/05/20 03:52:02 METAR KATL 050852Z 27007KT 10SM CLR 00/M04 A3026 RMK AO2 SLP253 T00001044 53016 (DB),FM-15,7,,,,,,,,,,,,,,,,,,,,,,,,,,,3/27/2007
72219013874,2020-01-05T04:52:00,FM-15,7,,,,,,,,,,,,,,,,,,,,,,,,,,,,,,,,,,,,,,,30.28,24,32,0,,,,73,30.29,CLR:00,29.18,10,29,270,,7,,,,,,,,,,,,,,,,,,,,,,,,,,,,,,,,,,,,,MET09601/05/20 04:52:02 METAR KATL 050952Z 27006KT 10SM CLR 00/M04 A3028 RMK AO2 SLP259 T00001044 (DB),FM-15,7,,,,,,,,,,,,,,,,,,,,,,,,,,,3/27/2007
72219013874,2020-01-05T05:52:00,FM-15,7,,,,,,,,,,,,,,,,,,,,,,,,,,,,,,,,,,,,,,,30.29,25,32,0,,,,75,30.3,CLR:00,29.18,10,29,280,,10,,,,,,,,,,,,,,,,,,,,,,,,,,,,,,,,,,,,,MET09601/05/20 05:52:02 METAR KATL 051052Z 28009KT 10SM CLR 00/M04 A3029 RMK AO2 SLP262 T00001039 (DB),FM-15,7,,,,,,,,,,,,,,,,,,,,,,,,,,,3/27/2007
72219013874,2020-01-05T06:52:00,FM-15,7,,,,,,,,,,,,,,,,,,,,,,,,,,,,,,,,,,,,,,,30.31,25,32,0,,-0.05,3,75,30.33,CLR:00,29.21,10,29,290,,8,,,,,,,,,,,,,,,,,,,,,,,,,,,,,,,,,,,,,MET12001/05/20 06:52:02 METAR KATL 051152Z 29007KT 10SM CLR 00/M04 A3031 RMK AO2 SLP271 70002 T00001039 10022 20000 53016 (DB),FM-15,7,,,,,,,,,,,,,,,,,,,,,,,,,,,3/27/2007
72219013874,2020-01-05T07:00:00,FM-12,4,,,,,,,,,,,,,,,,,,,,,,,,,,,,,,,,,,,,,,,,25,32,,,-0.05,3,75,30.33,,29.2,9.94,29,290,,8,,,,,,,,,,,,,,,,,,,,,,,,,,,,,,,,,,,,,SYN08672219 32966 02907 10000 21039 39887 40271 53016 91152 333 10150 20000 70005 555 90512=,FM-12,4,,,,,,,,,,,,,,,,,,,,,,,,,,,3/27/2007
72219013874,2020-01-05T07:52:00,FM-15,7,,,,,,,,,,,,,,,,,,,,,,,,,,,,,,,,,,,,,,,30.31,25,32,0,,,,75,30.34,CLR:00,29.21,10,29,290,,8,,,,,,,,,,,,,,,,,,,,,,,,,,,,,,,,,,,,,MET09601/05/20 07:52:02 METAR KATL 051252Z 29007KT 10SM CLR 00/M04 A3031 RMK AO2 SLP274 T00001039 (DB),FM-15,7,,,,,,,,,,,,,,,,,,,,,,,,,,,3/27/2007
72219013874,2020-01-05T08:52:00,FM-15,7,,,,,,,,,,,,,,,,,,,,,,,,,,,,,,,,,,,,,,,30.33,27,34,0,,,,75,30.35,CLR:00,29.22,10,31,290,,9,,,,,,,,,,,,,,,,,,,,,,,,,,,,,,,,,,,,,MET09601/05/20 08:52:02 METAR KATL 051352Z 29008KT 10SM CLR 01/M03 A3033 RMK AO2 SLP279 T00111028 (DB),FM-15,7,,,,,,,,,,,,,,,,,,,,,,,,,,,3/27/2007
72219013874,2020-01-05T09:52:00,FM-15,7,,,,,,,,,,,,,,,,,,,,,,,,,,,,,,,,,,,,,,,30.37,28,38,0,,-0.06,3,68,30.39,CLR:00,29.26,10,34,310,,11,,,,,,,,,,,,,,,,,,,,,,,,,,,,,,,,,,,,,MET10301/05/20 09:52:02 METAR KATL 051452Z 31010KT 10SM CLR 03/M02 A3037 RMK AO2 SLP292 T00331022 53020 (JRN),FM-15,7,,,,,,,,,,,,,,,,,,,,,,,,,,,3/27/2007
72219013874,2020-01-05T10:52:00,FM-15,7,,,,,,,,,,,,,,,,,,,,,,,,,,,,,,,,,,,,,,,30.38,28,42,0,,,,58,30.39,CLR:00,29.27,10,36,330,,16,,,,,,,,,,,,,,,,,,,,,,,,,,,,,,,,,,,,,MET09701/05/20 10:52:02 METAR KATL 051552Z 33014KT 10SM CLR 06/M02 A3038 RMK AO2 SLP292 T00561022 (JRN),FM-15,7,,,,,,,,,,,,,,,,,,,,,,,,,,,3/27/2007
72219013874,2020-01-05T11:52:00,FM-15,7,,,,,,,,,,,,,,,,,,,,,,,,,,,,,,,,,,,,,,,30.36,29,45,0,,,,54,30.37,CLR:00,29.25,10,38,310,,13,,,,,,,,,,,,,,,,,,,,,,,,,,,,,,,,,,,,,MET09701/05/20 11:52:02 METAR KATL 051652Z 31011KT 10SM CLR 07/M02 A3036 RMK AO2 SLP286 T00721017 (JRN),FM-15,7,,,,,,,,,,,,,,,,,,,,,,,,,,,3/27/2007
72219013874,2020-01-05T12:52:00,FM-15,7,,,,,,,,,,,,,,,,,,,,,,,,,,,,,,,,,,,,,,,30.32,29,48,0,,0.05,8,48,30.33,CLR:00,29.21,10,40,300,,13,,,,,,,,,,,,,,,,,,,,,,,,,,,,,,,,,,,,,MET11501/05/20 12:52:02 METAR KATL 051752Z 30011KT 10SM CLR 09/M02 A3032 RMK AO2 SLP271 T00891017 10089 20000 58018 (JRN),FM-15,7,,,,,,,,,,,,,,,,,,,,,,,,,,,3/27/2007
72219013874,2020-01-05T13:00:00,FM-12,4,,,,,,,,,,,,,,,,,,,,,,,,,,,,,,,,,,,,,,,,29,48,,,0.05,8,48,30.33,,29.21,9.94,40,300,,13,,,,,,,,,,,,,,,,,,,,,,,,,,,,,,,,,,,,,SYN08072219 32966 03011 10089 21017 39890 40271 58018 91752 333 10089 20000 555 90518=,FM-12,4,,,,,,,,,,,,,,,,,,,,,,,,,,,3/27/2007
72219013874,2020-01-05T13:52:00,FM-15,7,,,,,,,,,,,,,,,,,,,,,,,,,,,,,,,,,,,,,,,30.28,28,51,0,,,,41,30.29,CLR:00,29.18,10,41,300,,10,,,,,,,,,,,,,,,,,,,,,,,,,,,,,,,,,,,,,MET09701/05/20 13:52:02 METAR KATL 051852Z 30009KT 10SM CLR 11/M02 A3028 RMK AO2 SLP259 T01061022 (JRN),FM-15,7,,,,,,,,,,,,,,,,,,,,,,,,,,,3/27/2007
72219013874,2020-01-05T14:52:00,FM-15,7,,,,,,,,,,,,,,,,,,,,,,,,,,,,,,,,,,,,,,,30.25,27,52,0,,,,38,30.27,CLR:00,29.15,10,41,310,,14,,,,,,,,,,,,,,,,,,,,,,,,,,,,,,,,,,,,,MET09701/05/20 14:52:02 METAR KATL 051952Z 31012KT 10SM CLR 11/M03 A3025 RMK AO2 SLP249 T01111028 (JRN),FM-15,7,,,,,,,,,,,,,,,,,,,,,,,,,,,3/27/2007
72219013874,2020-01-05T15:52:00,FM-15,7,,,,,,,,,,,,,,,,,,,,,,,,,,,,,,,,,,,,,,,30.24,28,54,0,,0.07,6,37,30.26,CLR:00,29.14,10,43,290,,9,,,,,,,,,,,,,,,,,,,,,,,,,,,,,,,,,,,,,MET10301/05/20 15:52:02 METAR KATL 052052Z 29008KT 10SM CLR 12/M02 A3024 RMK AO2 SLP246 T01221022 56024 (JRN),FM-15,7,,,,,,,,,,,,,,,,,,,,,,,,,,,3/27/2007
72219013874,2020-01-05T16:52:00,FM-15,7,,,,,,,,,,,,,,,,,,,,,,,,,,,,,,,,,,,,,,,30.24,26,54,0,,,,34,30.25,CLR:00,29.14,10,42,250,,5,,,,,,,,,,,,,,,,,,,,,,,,,,,,,,,,,,,,,MET09701/05/20 16:52:02 METAR KATL 052152Z 25004KT 10SM CLR 12/M03 A3024 RMK AO2 SLP244 T01221033 (JRN),FM-15,7,,,,,,,,,,,,,,,,,,,,,,,,,,,3/27/2007
72219013874,2020-01-05T17:52:00,FM-15,7,,,,,,,,,,,,,,,,,,,,,,,,,,,,,,,,,,,,,,,30.24,27,51,0,,,,39,30.25,CLR:00,29.14,10,41,260,,3,,,,,,,,,,,,,,,,,,,,,,,,,,,,,,,,,,,,,MET09701/05/20 17:52:02 METAR KATL 052252Z 26003KT 10SM CLR 11/M03 A3024 RMK AO2 SLP245 T01061028 (KAF),FM-15,7,,,,,,,,,,,,,,,,,,,,,,,,,,,3/27/2007
72219013874,2020-01-05T18:52:00,FM-15,7,,,,,,,,,,,,,,,,,,,,,,,,,,,,,,,,,,,,,,,30.24,28,48,0,,0,3,46,30.26,CLR:00,29.14,10,40,240,,3,,,,,,,,,,,,,,,,,,,,,,,,,,,,,,,,,,,,,MET11501/05/20 18:52:02 METAR KATL 052352Z 24003KT 10SM CLR 09/M02 A3024 RMK AO2 SLP247 T00891022 10128 20089 53000 (KAF),FM-15,7,,,,,,,,,,,,,,,,,,,,,,,,,,,3/27/2007
72219013874,2020-01-05T19:00:00,FM-12,4,,,,,,,,,,,,,,,,,,,,,,,,,,,,,,,,,,,,,,,,28,48,,,,,46,30.26,,29.13,9.94,40,240,,3,,,,,,,,,,,,,,,,,,,,,,,,,,,,,,,,,,,,,SYN08072219 32966 02403 10089 21022 39864 40247 53000 92352 333 10128 20000 555 90600=,FM-12,4,,,,,,,,,,,,,,,,,,,,,,,,,,,3/27/2007
72219013874,2020-01-05T19:52:00,FM-15,7,,,,,,,,,,,,,,,,,,,,,,,,,,,,,,,,,,,,,,,30.23,28,47,0,,,,48,30.25,CLR:00,29.13,10,39,230,,6,,,,,,,,,,,,,,,,,,,,,,,,,,,,,,,,,,,,,MET09101/05/20 19:52:01 METAR KATL 060052Z 23005KT 10SM CLR 08/M02 A3023 RMK AO2 SLP243 T00831022,FM-15,7,,,,,,,,,,,,,,,,,,,,,,,,,,,3/27/2007
72219013874,2020-01-05T20:52:00,FM-15,7,,,,,,,,,,,,,,,,,,,,,,,,,,,,,,,,,,,,,,,30.23,26,47,0,,,,44,30.24,CLR:00,29.13,10,38,260,,6,,,,,,,,,,,,,,,,,,,,,,,,,,,,,,,,,,,,,MET09101/05/20 20:52:01 METAR KATL 060152Z 26005KT 10SM CLR 08/M03 A3023 RMK AO2 SLP242 T00831033,FM-15,7,,,,,,,,,,,,,,,,,,,,,,,,,,,3/27/2007
72219013874,2020-01-05T21:52:00,FM-15,7,,,,,,,,,,,,,,,,,,,,,,,,,,,,,,,,,,,,,,,30.22,28,44,0,,0.02,6,53,30.24,CLR:00,29.12,10,37,240,,5,,,,,,,,,,,,,,,,,,,,,,,,,,,,,,,,,,,,,MET09701/05/20 21:52:01 METAR KATL 060252Z 24004KT 10SM CLR 07/M02 A3022 RMK AO2 SLP240 T00671022 56007,FM-15,7,,,,,,,,,,,,,,,,,,,,,,,,,,,3/27/2007
72219013874,2020-01-05T22:52:00,FM-15,7,,,,,,,,,,,,,,,,,,,,,,,,,,,,,,,,,,,,,,,30.22,28,44,0,,,,53,30.23,CLR:00,29.12,10,37,240,,6,,,,,,,,,,,,,,,,,,,,,,,,,,,,,,,,,,,,,MET09101/05/20 22:52:01 METAR KATL 060352Z 24005KT 10SM CLR 07/M02 A3022 RMK AO2 SLP237 T00671022,FM-15,7,,,,,,,,,,,,,,,,,,,,,,,,,,,3/27/2007
72219013874,2020-01-05T23:52:00,FM-15,7,,,,,,,,,,,,,,,,,,,,,,,,,,,,,,,,,,,,,,,30.21,29,43,0,,,,58,30.22,CLR:00,29.11,10,37,250,,5,,,,,,,,,,,,,,,,,,,,,,,,,,,,,,,,,,,,,MET10101/05/20 23:52:02 METAR KATL 060452Z 25004KT 10SM CLR 06/M02 A3021 RMK AO2 SLP234 T00611017 401280000,FM-15,7,,,,,,,,,,,,,,,,,,,,,,,,,,,3/27/2007
72219013874,2020-01-05T23:59:00,SOD  ,6,,,,,,,,,,,,,,,,,27,44,57,30.28,29.16,36,8.2,0,1.1,21,55,32,320,28,0,0,0,320,22,,,,,,,,,,,,,,,,,,,,,,,,,,,,,,,,,,,,,,,,,,,,,,,,,,,,,,,,SOD73924 HR PRECIPITATION (IN): 0.00 SNOW DEPTH (IN):0     24 HR SNOWFALL (IN):0.0  24 HR MAX TEMP (F): 5524 HR MIN TEMP (F): 32AVERAGE STATION PRESSURE:29.165 MINIMUM SEA LEVEL PRESSURE:30.22 TIME OF OCCURRENCE:2359 PEAK WIND SPEED (MPH): 28 PEAK WIND DIR (DEG):320 PEAK WIND TIME (LST):      FASTEST 2MIN SPEED (MPH): 22FASTEST 2MIN DIR (DEG):320 FASTEST 2MIN TIME (LST):     AVERAGE WIND SPEED (MPH): 8.2 24 HR AVG TEMP (F): 44DEPART FROM NORMAL:  1  HEATING DEGREE DAYS: 21 COOLING DEGREE DAYS:  0 LATEST DAY MAX TEMP (0700-1900 LST):55  LATEST NIGHT MIN TEMP(1900-0800 LST):32 HOURLY INCREMENTAL PRECIPITATION VALUES (IN):.00 0.00 0.00 0.00 0.00 0.00 0.00 0.00 0.00 0.00 0.00 0.00 0.00 0.00 0.00 0.00 0.00 0.00 0.00 0.00 0.00 0.00 0.00 0.00,SOD  ,6,,,,,,,,,,,,,,,,,,,,,,,,,743,1744,3/27/2007
72219013874,2020-01-06T00:52:00,FM-15,7,,,,,,,,,,,,,,,,,,,,,,,,,,,,,,,,,,,,,,,30.19,30,43,0,,0.03,8,60,30.2,CLR:00,29.09,10,38,260,,7,,,,,,,,,,,,,,,,,,,,,,,,,,,,,,,,,,,,,MET11501/06/20 00:52:02 METAR KATL 060552Z 26006KT 10SM CLR 06/M01 A3019 RMK AO2 SLP228 T00611011 10089 20061 58010 (KAF),FM-15,7,,,,,,,,,,,,,,,,,,,,,,,,,,,3/27/2007
72219013874,2020-01-06T01:00:00,FM-12,4,,,,,,,,,,,,,,,,,,,,,,,,,,,,,,,,,,,,,,,,30,43,,,0.03,8,60,30.2,,29.08,9.94,38,260,,7,,,,,,,,,,,,,,,,,,,,,,,,,,,,,,,,,,,,,SYN08072219 32966 02606 10061 21011 39848 40228 58010 90552 333 10089 20000 555 90606=,FM-12,4,,,,,,,,,,,,,,,,,,,,,,,,,,,3/27/2007
72219013874,2020-01-06T01:52:00,FM-15,7,,,,,,,,,,,,,,,,,,,,,,,,,,,,,,,,,,,,,,,30.19,30,41,0,,,,65,30.2,CLR:00,29.09,10,36,280,,8,,,,,,,,,,,,,,,,,,,,,,,,,,,,,,,,,,,,,MET09601/06/20 01:52:02 METAR KATL 060652Z 28007KT 10SM CLR 05/M01 A3019 RMK AO2 SLP228 T00501011 (DB),FM-15,7,,,,,,,,,,,,,,,,,,,,,,,,,,,3/27/2007
72219013874,2020-01-06T02:52:00,FM-15,7,,,,,,,,,,,,,,,,,,,,,,,,,,,,,,,,,,,,,,,30.19,29,41,0,,,,62,30.19,CLR:00,29.09,10,36,260,,6,,,,,,,,,,,,,,,,,,,,,,,,,,,,,,,,,,,,,MET09601/06/20 02:52:02 METAR KATL 060752Z 26005KT 10SM CLR 05/M02 A3019 RMK AO2 SLP225 T00501017 (DB),FM-15,7,,,,,,,,,,,,,,,,,,,,,,,,,,,3/27/2007
72219013874,2020-01-06T03:52:00,FM-15,7,,,,,,,,,,,,,,,,,,,,,,,,,,,,,,,,,,,,,,,30.18,30,40,0,,0.01,8,68,30.19,CLR:00,29.08,10,36,270,,6,,,,,,,,,,,,,,,,,,,,,,,,,,,,,,,,,,,,,MET10201/06/20 03:52:02 METAR KATL 060852Z 27005KT 10SM CLR 04/M01 A3018 RMK AO2 SLP223 T00441011 58003 (DB),FM-15,7,,,,,,,,,,,,,,,,,,,,,,,,,,,3/27/2007
72219013874,2020-01-06T04:52:00,FM-15,7,,,,,,,,,,,,,,,,,,,,,,,,,,,,,,,,,,,,,,,30.17,30,41,0,,,,65,30.18,CLR:00,29.07,10,36,280,,8,,,,,,,,,,,,,,,,,,,,,,,,,,,,,,,,,,,,,MET09601/06/20 04:52:02 METAR KATL 060952Z 28007KT 10SM CLR 05/M01 A3017 RMK AO2 SLP220 T00501011 (DB),FM-15,7,,,,,,,,,,,,,,,,,,,,,,,,,,,3/27/2007
72219013874,2020-01-06T05:52:00,FM-15,7,,,,,,,,,,,,,,,,,,,,,,,,,,,,,,,,,,,,,,,30.17,31,40,0,,,,70,30.18,CLR:00,29.07,10,36,290,,7,,,,,,,,,,,,,,,,,,,,,,,,,,,,,,,,,,,,,MET09601/06/20 05:52:02 METAR KATL 061052Z 29006KT 10SM CLR 04/M01 A3017 RMK AO2 SLP221 T00441006 (DB),FM-15,7,,,,,,,,,,,,,,,,,,,,,,,,,,,3/27/2007
72219013874,2020-01-06T06:52:00,FM-15,7,,,,,,,,,,,,,,,,,,,,,,,,,,,,,,,,,,,,,,,30.18,30,38,0,,0,3,73,30.2,CLR:00,29.08,10,35,310,,8,,,,,,,,,,,,,,,,,,,,,,,,,,,,,,,,,,,,,MET11401/06/20 06:52:02 METAR KATL 061152Z 31007KT 10SM CLR 03/M01 A3018 RMK AO2 SLP226 T00331011 10061 20033 53000 (DB),FM-15,7,,,,,,,,,,,,,,,,,,,,,,,,,,,3/27/2007
72219013874,2020-01-06T07:00:00,FM-12,4,,,,,,,,,,,,,,,,,,,,,,,,,,,,,,,,,,,,,,,,30,38,,,,,73,30.2,,29.07,9.94,35,310,,8,,,,,,,,,,,,,,,,,,,,,,,,,,,,,,,,,,,,,SYN08072219 32966 03107 10033 21011 39844 40226 53000 91152 333 10128 20033 555 90612=,FM-12,4,,,,,,,,,,,,,,,,,,,,,,,,,,,3/27/2007
72219013874,2020-01-06T07:52:00,FM-15,7,,,,,,,,,,,,,,,,,,,,,,,,,,,,,,,,,,,,,,,30.2,31,39,0,,,,73,30.21,CLR:00,29.1,10,36,280,,5,,,,,,,,,,,,,,,,,,,,,,,,,,,,,,,,,,,,,MET09601/06/20 07:52:02 METAR KATL 061252Z 28004KT 10SM CLR 04/M01 A3020 RMK AO2 SLP231 T00391006 (DB),FM-15,7,,,,,,,,,,,,,,,,,,,,,,,,,,,3/27/2007
72219013874,2020-01-06T08:52:00,FM-15,7,,,,,,,,,,,,,,,,,,,,,,,,,,,,,,,,,,,,,,,30.22,33,43,0,,,,68,30.23,CLR:00,29.12,10,39,280,,5,,,,,,,,,,,,,,,,,,,,,,,,,,,,,,,,,,,,,MET09501/06/20 08:52:02 METAR KATL 061352Z 28004KT 10SM CLR 06/01 A3022 RMK AO2 SLP236 T00610006 (DB),FM-15,7,,,,,,,,,,,,,,,,,,,,,,,,,,,3/27/2007
72219013874,2020-01-06T09:52:00,FM-15,7,,,,,,,,,,,,,,,,,,,,,,,,,,,,,,,,,,,,,,,30.23,35,48,0,,-0.05,1,61,30.24,CLR:00,29.13,10,42,290,,9,,,,,,,,,,,,,,,,,,,,,,,,,,,,,,,,,,,,,MET10201/06/20 09:52:02 METAR KATL 061452Z 29008KT 10SM CLR 09/02 A3023 RMK AO2 SLP241 T00890017 51016 (JRN),FM-15,7,,,,,,,,,,,,,,,,,,,,,,,,,,,3/27/2007
72219013874,2020-01-06T10:52:00,FM-15,7,,,,,,,,,,,,,,,,,,,,,,,,,,,,,,,,,,,,,,,30.23,36,51,0,,,,56,30.24,CLR:00,29.13,10,44,320,,6,,,,,,,,,,,,,,,,,,,,,,,,,,,,,,,,,,,,,MET09601/06/20 10:52:02 METAR KATL 061552Z 32005KT 10SM CLR 11/02 A3023 RMK AO2 SLP241 T01060022 (JRN),FM-15,7,,,,,,,,,,,,,,,,,,,,,,,,,,,3/27/2007
72219013874,2020-01-06T11:52:00,FM-15,7,,,,,,,,,,,,,,,,,,,,,,,,,,,,,,,,,,,,,,,30.21,36,54,0,,,,51,30.22,CLR:00,29.11,10,46,0,,0,,,,,,,,,,,,,,,,,,,,,,,,,,,,,,,,,,,,,MET09601/06/20 11:52:02 METAR KATL 061652Z 00000KT 10SM CLR 12/02 A3021 RMK AO2 SLP233 T01220022 (JRN),FM-15,7,,,,,,,,,,,,,,,,,,,,,,,,,,,3/27/2007
72219013874,2020-01-06T12:52:00,FM-15,7,,,,,,,,,,,,,,,,,,,,,,,,,,,,,,,,,,,,,,,30.17,36,57,0,,0.06,8,45,30.17,CLR:00,29.07,10,47,220,,3,,,,,,,,,,,,,,,,,,,,,,,,,,,,,,,,,,,,,MET11401/06/20 12:52:02 METAR KATL 061752Z 22003KT 10SM CLR 14/02 A3017 RMK AO2 SLP218 T01390022 10144 20033 58021 (JRN),FM-15,7,,,,,,,,,,,,,,,,,,,,,,,,,,,3/27/2007
72219013874,2020-01-06T13:00:00,FM-12,4,,,,,,,,,,,,,,,,,,,,,,,,,,,,,,,,,,,,,,,,36,57,,,0.06,8,45,30.17,,29.06,9.94,47,220,,3,,,,,,,,,,,,,,,,,,,,,,,,,,,,,,,,,,,,,SYN08072219 32966 02203 10139 20022 39841 40218 58021 91752 333 10144 20033 555 90618=,FM-12,4,,,,,,,,,,,,,,,,,,,,,,,,,,,3/27/2007
72219013874,2020-01-06T13:52:00,FM-15,7,,,,,,,,,,,,,,,,,,,,,,,,,,,,,,,,,,,,,,,30.13,37,59,0,,,,44,30.14,CLR:00,29.03,10,48,270,,7,,,,,,,,,,,,,,,,,,,,,,,,,,,,,,,,,,,,,MET09601/06/20 13:52:02 METAR KATL 061852Z 27006KT 10SM CLR 15/03 A3013 RMK AO2 SLP206 T01500028 (JRN),FM-15,7,,,,,,,,,,,,,,,,,,,,,,,,,,,3/27/2007
72219013874,2020-01-06T14:52:00,FM-15,7,,,,,,,,,,,,,,,,,,,,,,,,,,,,,,,,,,,,,,,30.12,40,63,0,,,,43,30.12,CLR:00,29.02,10,51,260,,5,,,,,,,,,,,,,,,,,,,,,,,,,,,,,,,,,,,,,MET09601/06/20 14:52:02 METAR KATL 061952Z 26004KT 10SM CLR 17/04 A3012 RMK AO2 SLP199 T01720044 (JRN),FM-15,7,,,,,,,,,,,,,,,,,,,,,,,,,,,3/27/2007
72219013874,2020-01-06T15:52:00,FM-15,7,,,,,,,,,,,,,,,,,,,,,,,,,,,,,,,,,,,,,,,30.11,39,62,0,,0.06,6,43,30.11,FEW:02 50 FEW:02 250,29.01,10,51,240,,8,,,,,,,,,,,,,,,,,,,,,,,,,,,,,,,,,,,,,MET11201/06/20 15:52:02 METAR KATL 062052Z 24007KT 10SM FEW050 FEW250 17/04 A3011 RMK AO2 SLP196 T01670039 56020 (JRN),FM-15,7,,,,,,,,,,,,,,,,,,,,,,,,,,,3/27/2007
72219013874,2020-01-06T16:52:00,FM-15,7,,,,,,,,,,,,,,,,,,,,,,,,,,,,,,,,,,,,,,,30.11,39,61,0,,,,44,30.11,FEW:02 50 SCT:04 250,29.01,10,50,230,,7,,,,,,,,,,,,,,,,,,,,,,,,,,,,,,,,,,,,,MET10601/06/20 16:52:02 METAR KATL 062152Z 23006KT 10SM FEW050 SCT250 16/04 A3011 RMK AO2 SLP196 T01610039 (JRN),FM-15,7,,,,,,,,,,,,,,,,,,,,,,,,,,,3/27/2007
72219013874,2020-01-06T17:52:00,FM-15,7,,,,,,,,,,,,,,,,,,,,,,,,,,,,,,,,,,,,,,,30.11,41,58,0,,,,53,30.11,FEW:02 50 BKN:07 250,29.01,10,50,210,,6,,,,,,,,,,,,,,,,,,,,,,,,,,,,,,,,,,,,,MET10501/06/20 17:52:02 METAR KATL 062252Z 21005KT 10SM FEW050 BKN250 14/05 A3011 RMK AO2 SLP198 T01440050 (RF),FM-15,7,,,,,,,,,,,,,,,,,,,,,,,,,,,3/27/2007
72219013874,2020-01-06T18:52:00,FM-15,7,,,,,,,,,,,,,,,,,,,,,,,,,,,,,,,,,,,,,,,30.11,41,56,0,,0,8,57,30.11,FEW:02 50 BKN:07 250,29.01,10,49,200,,3,,,,,,,,,,,,,,,,,,,,,,,,,,,,,,,,,,,,,MET12301/06/20 18:52:02 METAR KATL 062352Z 20003KT 10SM FEW050 BKN250 13/05 A3011 RMK AO2 SLP197 T01330050 10172 20133 58001 (RF),FM-15,7,,,,,,,,,,,,,,,,,,,,,,,,,,,3/27/2007
72219013874,2020-01-06T19:00:00,FM-12,4,,,,,,,,,,,,,,,,,,,,,,,,,,,,,,,,,,,,,,,,41,56,,,0,8,57,30.11,57,29,9.94,49,200,,3,,,,,,,,,,,,,,,,,,,,,,,,,,,,,,,,,,,,,SYN08072219 32766 62003 10133 20050 39821 40197 58001 92352 333 10172 20033 555 90700=,FM-12,4,,,,,,,,,,,,,,,,,,,,,,,,,,,3/27/2007
72219013874,2020-01-06T19:52:00,FM-15,7,,,,,,,,,,,,,,,,,,,,,,,,,,,,,,,,,,,,,,,30.12,41,55,0,,,,59,30.12,BKN:07 55 BKN:07 250,29.02,10,48,210,,3,,,,,,,,,,,,,,,,,,,,,,,,,,,,,,,,,,,,,MET10001/06/20 19:52:01 METAR KATL 070052Z 21003KT 10SM BKN055 BKN250 13/05 A3012 RMK AO2 SLP201 T01280050,FM-15,7,,,,,,,,,,,,,,,,,,,,,,,,,,,3/27/2007
72219013874,2020-01-06T20:52:00,FM-15,7,,,,,,,,,,,,,,,,,,,,,,,,,,,,,,,,,,,,,,,30.11,41,55,0,,,,59,30.11,BKN:07 60 BKN:07 250,29.01,10,48,220,,5,,,,,,,,,,,,,,,,,,,,,,,,,,,,,,,,,,,,,MET10001/06/20 20:52:01 METAR KATL 070152Z 22004KT 10SM BKN060 BKN250 13/05 A3011 RMK AO2 SLP198 T01280050,FM-15,7,,,,,,,,,,,,,,,,,,,,,,,,,,,3/27/2007
72219013874,2020-01-06T21:52:00,FM-15,7,,,,,,,,,,,,,,,,,,,,,,,,,,,,,,,,,,,,,,,30.11,42,53,0,,0,0,66,30.11,FEW:02 60 BKN:07 250,29.01,10,48,230,,6,,,,,,,,,,,,,,,,,,,,,,,,,,,,,,,,,,,,,MET10601/06/20 21:52:01 METAR KATL 070252Z 23005KT 10SM FEW060 BKN250 12/06 A3011 RMK AO2 SLP195 T01170056 50000,FM-15,7,,,,,,,,,,,,,,,,,,,,,,,,,,,3/27/2007
72219013874,2020-01-06T22:52:00,FM-15,7,,,,,,,,,,,,,,,,,,,,,,,,,,,,,,,,,,,,,,,30.1,42,51,0,,,,71,30.1,FEW:02 55 BKN:07 250,29,10,47,220,,6,,,,,,,,,,,,,,,,,,,,,,,,,,,,,,,,,,,,,MET10001/06/20 22:52:01 METAR KATL 070352Z 22005KT 10SM FEW055 BKN250 11/06 A3010 RMK AO2 SLP193 T01060056,FM-15,7,,,,,,,,,,,,,,,,,,,,,,,,,,,3/27/2007
72219013874,2020-01-06T23:52:00,FM-15,7,,,,,,,,,,,,,,,,,,,,,,,,,,,,,,,,,,,,,,,30.1,43,51,0,,,,74,30.1,FEW:02 60 BKN:07 250,29,10,47,230,,7,,,,,,,,,,,,,,,,,,,,,,,,,,,,,,,,,,,,,MET11001/06/20 23:52:02 METAR KATL 070452Z 23006KT 10SM FEW060 BKN250 11/06 A3010 RMK AO2 SLP193 T01060061 401720033,FM-15,7,,,,,,,,,,,,,,,,,,,,,,,,,,,3/27/2007
72219013874,2020-01-06T23:59:00,SOD  ,6,,,,,,,,,,,,,,,,,36,51,60,30.16,29.06,44,5.8,0,8.1,14,63,38,200,14,0,0,0,300,10,,,,,,,,,,,,,,,,,,,,,,,,,,,,,,,,,,,,,,,,,,,,,,,,,,,,,,,,SOD73924 HR PRECIPITATION (IN): 0.00 SNOW DEPTH (IN):0     24 HR SNOWFALL (IN):0.0  24 HR MAX TEMP (F): 6324 HR MIN TEMP (F): 38AVERAGE STATION PRESSURE:29.060 MINIMUM SEA LEVEL PRESSURE:30.10 TIME OF OCCURRENCE:2359 PEAK WIND SPEED (MPH): 14 PEAK WIND DIR (DEG):200 PEAK WIND TIME (LST):      FASTEST 2MIN SPEED (MPH): 10FASTEST 2MIN DIR (DEG):300 FASTEST 2MIN TIME (LST):     AVERAGE WIND SPEED (MPH): 5.8 24 HR AVG TEMP (F): 51DEPART FROM NORMAL:  8  HEATING DEGREE DAYS: 14 COOLING DEGREE DAYS:  0 LATEST DAY MAX TEMP (0700-1900 LST):63  LATEST NIGHT MIN TEMP(1900-0800 LST):38 HOURLY INCREMENTAL PRECIPITATION VALUES (IN):.00 0.00 0.00 0.00 0.00 0.00 0.00 0.00 0.00 0.00 0.00 0.00 0.00 0.00 0.00 0.00 0.00 0.00 0.00 0.00 0.00 0.00 0.00 0.00,SOD  ,6,,,,,,,,,,,,,,,,,,,,,,,,,743,1745,3/27/2007
72219013874,2020-01-07T00:52:00,FM-15,7,,,,,,,,,,,,,,,,,,,,,,,,,,,,,,,,,,,,,,,30.09,43,51,0,,0.02,8,74,30.09,BKN:07 55 BKN:07 250,28.99,10,47,220,,6,,,,,,,,,,,,,,,,,,,,,,,,,,,,,,,,,,,,,MET12301/07/20 00:52:02 METAR KATL 070552Z 22005KT 10SM BKN055 BKN250 11/06 A3009 RMK AO2 SLP188 T01060061 10133 20100 58006 (RF),FM-15,7,,,,,,,,,,,,,,,,,,,,,,,,,,,3/27/2007
72219013874,2020-01-07T01:00:00,FM-12,4,,,,,,,,,,,,,,,,,,,,,,,,,,,,,,,,,,,,,,,,43,51,,,0.02,8,74,30.09,57,28.98,9.94,47,220,,6,,,,,,,,,,,,,,,,,,,,,,,,,,,,,,,,,,,,,SYN08072219 32766 62205 10106 20061 39815 40188 58006 90552 333 10133 20033 555 90706=,FM-12,4,,,,,,,,,,,,,,,,,,,,,,,,,,,3/27/2007
72219013874,2020-01-07T01:52:00,FM-15,7,,,,,,,,,,,,,,,,,,,,,,,,,,,,,,,,,,,,,,,30.06,43,49,0,,,,80,30.06,SCT:04 60 SCT:04 200 BKN:07 250,28.96,10,46,190,,7,,,,,,,,,,,,,,,,,,,,,,,,,,,,,,,,,,,,,MET11201/07/20 01:52:02 METAR KATL 070652Z 19006KT 10SM SCT060 SCT200 BKN250 09/06 A3006 RMK AO2 SLP180 T00940061 (DB),FM-15,7,,,,,,,,,,,,,,,,,,,,,,,,,,,3/27/2007
72219013874,2020-01-07T02:52:00,FM-15,7,,,,,,,,,,,,,,,,,,,,,,,,,,,,,,,,,,,,,,,30.04,43,51,0,,,,74,30.04,FEW:02 60 BKN:07 85 BKN:07 200,28.94,10,47,210,,9,,,,,,,,,,,,,,,,,,,,,,,,,,,,,,,,,,,,,MET11201/07/20 02:52:02 METAR KATL 070752Z 21008KT 10SM FEW060 BKN085 BKN200 11/06 A3004 RMK AO2 SLP173 T01060061 (DB),FM-15,7,,,,,,,,,,,,,,,,,,,,,,,,,,,3/27/2007
72219013874,2020-01-07T03:52:00,FM-15,7,,,,,,,,,,,,,,,,,,,,,,,,,,,,,,,,,,,,,,,30.03,44,51,0,,0.05,6,77,30.03,FEW:02 70 FEW:02 85 SCT:04 200,28.93,10,48,220,,9,,,,,,,,,,,,,,,,,,,,,,,,,,,,,,,,,,,,,MET11801/07/20 03:52:02 METAR KATL 070852Z 22008KT 10SM FEW070 FEW085 SCT200 11/07 A3003 RMK AO2 SLP168 T01060067 56018 (DB),FM-15,7,,,,,,,,,,,,,,,,,,,,,,,,,,,3/27/2007
72219013874,2020-01-07T04:52:00,FM-15,7,,,,,,,,,,,,,,,,,,,,,,,,,,,,,,,,,,,,,,,30.01,44,52,0,,,,75,30.01,BKN:07 70 BKN:07 100 BKN:07 250,28.91,10,48,220,,11,,,,,,,,,,,,,,,,,,,,,,,,,,,,,,,,,,,,,MET11201/07/20 04:52:02 METAR KATL 070952Z 22010KT 10SM BKN070 BKN100 BKN250 11/07 A3001 RMK AO2 SLP162 T01110067 (DB),FM-15,7,,,,,,,,,,,,,,,,,,,,,,,,,,,3/27/2007
72219013874,2020-01-07T05:52:00,FM-15,7,,,,,,,,,,,,,,,,,,,,,,,,,,,,,,,,,,,,,,,30.01,44,51,0.01,-RA:02 |RA |RA,,,77,30.01,SCT:04 26 BKN:07 39 OVC:08 50,28.91,7,48,240,18,10,,,,,,,,,,,,,,,,,,,,,,,,,,,,,,,,,,,,,MET13001/07/20 05:52:02 METAR KATL 071052Z 24009G16KT 7SM -RA SCT026 BKN039 OVC050 11/07 A3001 RMK AO2 RAB17 SLP161 P0001 T01060067 (DB),FM-15,7,,,,,,,,,,,,,,,,,,,,,,,,,,,3/27/2007
72219013874,2020-01-07T06:26:00,FM-16,7,,,,,,,,,,,,,,,,,,,,,,,,,,,,,,,,,,,,,,,30,44,50,0.01,,,,80,,BKN:07 24 BKN:07 44 OVC:08 60,28.9,10,47,220,,10,,,,,,,,,,,,,,,,,,,,,,,,,,,,,,,,,,,,,MET11701/07/20 06:26:02 SPECI KATL 071126Z 22009KT 10SM BKN024 BKN044 OVC060 10/07 A3000 RMK AO2 RAE21 P0001 T01000067 (DB),FM-16,7,,,,,,,,,,,,,,,,,,,,,,,,,,,3/27/2007
72219013874,2020-01-07T06:52:00,FM-15,7,,,,,,,,,,,,,,,,,,,,,,,,,,,,,,,,,,,,,,,30,44,51,0.01,,0.03,6,77,30,BKN:07 19 BKN:07 44 OVC:08 60,28.9,10,48,230,21,11,,,,,,,,,,,,,,,,,,,,,,,,,,,,,,,,,,,,,MET17001/07/20 06:52:02 METAR KATL 071152Z 23010G18KT 10SM BKN019 BKN044 OVC060 11/07 A3000 RMK AO2 RAE21 SLP160 BKN019 V SCT P0001 60002 70002 T01060067 10117 20094 56009 (DB),FM-15,7,,,,,,,,,,,,,,,,,,,,,,,,,,,3/27/2007
72219013874,2020-01-07T07:00:00,FM-12,4,,,,,,,,,,,,,,,,,,,,,,,,,,,,,,,,,,,,,,,,44,51,,,0.03,6,77,30,15,28.9,9.94,48,230,,11,,,,,,,,,,,,,,,,,,,,,,,,,,,,,,,,,,,,,SYN09872219 12466 82310 10106 20067 39785 40160 56009 69951 91152 333 10172 20094 70005 91018 555 90712=,FM-12,4,,,,,,,,,,,,,,,,,,,,,,,,,,,3/27/2007
72219013874,2020-01-07T07:43:00,FM-16,7,,,,,,,,,,,,,,,,,,,,,,,,,,,,,,,,,,,,,,,30.02,44,50,,,,,80,,SCT:04 15 BKN:07 75,28.92,10,47,260,,10,,,,,,,,,,,,,,,,,,,,,,,,,,,,,,,,,,,,,MET09801/07/20 07:43:02 SPECI KATL 071243Z 26009KT 10SM SCT015 BKN075 10/07 A3002 RMK AO2 T01000067 (DB),FM-16,7,,,,,,,,,,,,,,,,,,,,,,,,,,,3/27/2007
72219013874,2020-01-07T07:52:00,FM-15,7,,,,,,,,,,,,,,,,,,,,,,,,,,,,,,,,,,,,,,,30.02,45,50,0,,,,83,30.03,FEW:02 15 BKN:07 70,28.92,10,48,260,,13,,,,,,,,,,,,,,,,,,,,,,,,,,,,,,,,,,,,,MET10501/07/20 07:52:02 METAR KATL 071252Z 26011KT 10SM FEW015 BKN070 10/07 A3002 RMK AO2 SLP168 T01000072 (DB),FM-15,7,,,,,,,,,,,,,,,,,,,,,,,,,,,3/27/2007
72219013874,2020-01-07T08:52:00,FM-15,7,,,,,,,,,,,,,,,,,,,,,,,,,,,,,,,,,,,,,,,30.05,46,52,0,,,,80,30.05,FEW:02 14 FEW:02 80 SCT:04 250,28.95,10,49,270,,13,,,,,,,,,,,,,,,,,,,,,,,,,,,,,,,,,,,,,MET11201/07/20 08:52:02 METAR KATL 071352Z 27011KT 10SM FEW014 FEW080 SCT250 11/08 A3005 RMK AO2 SLP175 T01110078 (DB),FM-15,7,,,,,,,,,,,,,,,,,,,,,,,,,,,3/27/2007
72219013874,2020-01-07T09:52:00,FM-15,7,,,,,,,,,,,,,,,,,,,,,,,,,,,,,,,,,,,,,,,30.08,43,54,0,,-0.07,3,67,30.08,FEW:02 26 FEW:02 85 SCT:04 250,28.98,10,49,300,,18,,,,,,,,,,,,,,,,,,,,,,,,,,,,,,,,,,,,,MET11901/07/20 09:52:02 METAR KATL 071452Z 30016KT 10SM FEW026 FEW085 SCT250 12/06 A3008 RMK AO2 SLP186 T01220061 53025 (KAF),FM-15,7,,,,,,,,,,,,,,,,,,,,,,,,,,,3/27/2007
72219013874,2020-01-07T10:52:00,FM-15,7,,,,,,,,,,,,,,,,,,,,,,,,,,,,,,,,,,,,,,,30.09,36,55,0,,,,49,30.1,FEW:02 38,28.99,10,46,310,28,22,,,,,,,,,,,,,,,,,,,,,,,,,,,,,,,,,,,,,MET10201/07/20 10:52:02 METAR KATL 071552Z 31019G24KT 10SM FEW038 13/02 A3009 RMK AO2 SLP192 T01280022 (KAF),FM-15,7,,,,,,,,,,,,,,,,,,,,,,,,,,,3/27/2007
72219013874,2020-01-07T11:52:00,FM-15,7,,,,,,,,,,,,,,,,,,,,,,,,,,,,,,,,,,,,,,,30.1,30,56,0,,,,37,30.1,FEW:02 50,29,10,44,300,28,20,,,,,,,,,,,,,,,,,,,,,,,,,,,,,,,,,,,,,MET10301/07/20 11:52:02 METAR KATL 071652Z 30017G24KT 10SM FEW050 13/M01 A3010 RMK AO2 SLP194 T01331011 (KAF),FM-15,7,,,,,,,,,,,,,,,,,,,,,,,,,,,3/27/2007
72219013874,2020-01-07T12:52:00,FM-15,7,,,,,,,,,,,,,,,,,,,,,,,,,,,,,,,,,,,,,,,30.1,28,56,0,,-0.02,0,34,30.1,FEW:02 60,29,10,44,310,26,17,,,,,,,,,,,,,,,,,,,,,,,,,,,,,,,,,,,,,MET13901/07/20 12:52:02 METAR KATL 071752Z 31015G23KT 10SM FEW060 13/M02 A3010 RMK AO2 PK WND 31028/1716 SLP193 T01331022 10133 20100 50007 (KAF),FM-15,7,,,,,,,,,,,,,,,,,,,,,,,,,,,3/27/2007
72219013874,2020-01-07T13:00:00,FM-12,4,,,,,,,,,,,,,,,,,,,,,,,,,,,,,,,,,,,,,,,,28,56,,,0.02,9,34,30.1,57,28.99,9.94,44,310,,17,,,,,,,,,,,,,,,,,,,,,,,,,,,,,,,,,,,,,SYN08672219 32766 23115 10133 21022 39818 40193 50007 91752 333 10133 20100 91023 555 90718=,FM-12,4,,,,,,,,,,,,,,,,,,,,,,,,,,,3/27/2007
72219013874,2020-01-07T13:52:00,FM-15,7,,,,,,,,,,,,,,,,,,,,,,,,,,,,,,,,,,,,,,,30.1,28,56,0,,,,34,30.1,FEW:02 65 FEW:02 250,29,10,44,280,26,14,,,,,,,,,,,,,,,,,,,,,,,,,,,,,,,,,,,,,MET12801/07/20 13:52:02 METAR KATL 071852Z 28012G23KT 10SM FEW065 FEW250 13/M02 A3010 RMK AO2 PK WND 32026/1833 SLP193 T01331022 (KAF),FM-15,7,,,,,,,,,,,,,,,,,,,,,,,,,,,3/27/2007
72219013874,2020-01-07T14:52:00,FM-15,7,,,,,,,,,,,,,,,,,,,,,,,,,,,,,,,,,,,,,,,30.1,27,57,0,,,,32,30.1,FEW:02 200,29,10,44,290,28,16,,,,,,,,,,,,,,,,,,,,,,,,,,,,,,,,,,,,,MET12101/07/20 14:52:02 METAR KATL 071952Z 29014G24KT 10SM FEW200 14/M03 A3010 RMK AO2 PK WND 31026/1904 SLP194 T01391028 (KAF),FM-15,7,,,,,,,,,,,,,,,,,,,,,,,,,,,3/27/2007
72219013874,2020-01-07T15:52:00,FM-15,7,,,,,,,,,,,,,,,,,,,,,,,,,,,,,,,,,,,,,,,30.12,26,56,0,,-0.01,3,32,30.12,CLR:00,29.02,10,43,290,,16,,,,,,,,,,,,,,,,,,,,,,,,,,,,,,,,,,,,,MET10301/07/20 15:52:02 METAR KATL 072052Z 29014KT 10SM CLR 13/M03 A3012 RMK AO2 SLP199 T01331033 53005 (KAF),FM-15,7,,,,,,,,,,,,,,,,,,,,,,,,,,,3/27/2007
72219013874,2020-01-07T16:52:00,FM-15,7,,,,,,,,,,,,,,,,,,,,,,,,,,,,,,,,,,,,,,,30.15,25,55,0,,,,31,30.15,CLR:00,29.05,10,42,320,,16,,,,,,,,,,,,,,,,,,,,,,,,,,,,,,,,,,,,,MET09701/07/20 16:52:02 METAR KATL 072152Z 32014KT 10SM CLR 13/M04 A3015 RMK AO2 SLP209 T01281039 (KAF),FM-15,7,,,,,,,,,,,,,,,,,,,,,,,,,,,3/27/2007
72219013874,2020-01-07T17:52:00,FM-15,7,,,,,,,,,,,,,,,,,,,,,,,,,,,,,,,,,,,,,,,30.18,25,53,0,,,,34,30.18,CLR:00,29.08,10,41,290,23,14,,,,,,,,,,,,,,,,,,,,,,,,,,,,,,,,,,,,,MET09901/07/20 17:52:02 METAR KATL 072252Z 29012G20KT 10SM CLR 12/M04 A3018 RMK AO2 SLP221 T01171039 (RF),FM-15,7,,,,,,,,,,,,,,,,,,,,,,,,,,,3/27/2007
72219013874,2020-01-07T18:52:00,FM-15,7,,,,,,,,,,,,,,,,,,,,,,,,,,,,,,,,,,,,,,,30.21,25,50,0,,-0.09,2,38,30.22,CLR:00,29.11,10,40,290,,11,,,,,,,,,,,,,,,,,,,,,,,,,,,,,,,,,,,,,MET11401/07/20 18:52:02 METAR KATL 072352Z 29010KT 10SM CLR 10/M04 A3021 RMK AO2 SLP232 T01001039 10139 20100 52031 (RF),FM-15,7,,,,,,,,,,,,,,,,,,,,,,,,,,,3/27/2007
72219013874,2020-01-07T19:00:00,FM-12,4,,,,,,,,,,,,,,,,,,,,,,,,,,,,,,,,,,,,,,,,25,50,,,-0.09,2,38,30.22,,29.1,9.94,40,290,,11,,,,,,,,,,,,,,,,,,,,,,,,,,,,,,,,,,,,,SYN08072219 32966 02910 10100 21039 39854 40232 52031 92352 333 10139 20094 555 90800=,FM-12,4,,,,,,,,,,,,,,,,,,,,,,,,,,,3/27/2007
72219013874,2020-01-07T19:52:00,FM-15,7,,,,,,,,,,,,,,,,,,,,,,,,,,,,,,,,,,,,,,,30.24,26,49,0,,,,41,30.25,CLR:00,29.14,10,40,290,,11,,,,,,,,,,,,,,,,,,,,,,,,,,,,,,,,,,,,,MET09101/07/20 19:52:01 METAR KATL 080052Z 29010KT 10SM CLR 09/M03 A3024 RMK AO2 SLP244 T00941033,FM-15,7,,,,,,,,,,,,,,,,,,,,,,,,,,,3/27/2007
72219013874,2020-01-07T20:52:00,FM-15,7,,,,,,,,,,,,,,,,,,,,,,,,,,,,,,,,,,,,,,,30.25,26,47,0,,,,44,30.26,CLR:00,29.15,10,38,290,,10,,,,,,,,,,,,,,,,,,,,,,,,,,,,,,,,,,,,,MET09101/07/20 20:52:01 METAR KATL 080152Z 29009KT 10SM CLR 08/M03 A3025 RMK AO2 SLP247 T00831033,FM-15,7,,,,,,,,,,,,,,,,,,,,,,,,,,,3/27/2007
72219013874,2020-01-07T21:52:00,FM-15,7,,,,,,,,,,,,,,,,,,,,,,,,,,,,,,,,,,,,,,,30.27,26,46,0,,-0.06,1,46,30.27,CLR:00,29.16,10,38,290,,13,,,,,,,,,,,,,,,,,,,,,,,,,,,,,,,,,,,,,MET09701/07/20 21:52:01 METAR KATL 080252Z 29011KT 10SM CLR 08/M03 A3027 RMK AO2 SLP252 T00781033 51019,FM-15,7,,,,,,,,,,,,,,,,,,,,,,,,,,,3/27/2007
72219013874,2020-01-07T22:52:00,FM-15,7,,,,,,,,,,,,,,,,,,,,,,,,,,,,,,,,,,,,,,,30.28,26,45,0,,,,48,30.29,CLR:00,29.18,10,37,300,,10,,,,,,,,,,,,,,,,,,,,,,,,,,,,,,,,,,,,,MET09101/07/20 22:52:01 METAR KATL 080352Z 30009KT 10SM CLR 07/M03 A3028 RMK AO2 SLP256 T00721033,FM-15,7,,,,,,,,,,,,,,,,,,,,,,,,,,,3/27/2007
72219013874,2020-01-07T23:52:00,FM-15,7,,,,,,,,,,,,,,,,,,,,,,,,,,,,,,,,,,,,,,,30.28,26,43,0,,,,51,30.29,CLR:00,29.18,10,36,300,,9,,,,,,,,,,,,,,,,,,,,,,,,,,,,,,,,,,,,,MET10301/07/20 23:52:02 METAR KATL 080452Z 30008KT 10SM CLR 06/M03 A3028 RMK AO2 SLP257 T00611033 401390061 $,FM-15,7,,,,,,,,,,,,,,,,,,,,,,,,,,,3/27/2007
72219013874,2020-01-07T23:59:00,SOD  ,6,,,,,,,,,,,,,,,,,34,50,54,30.12,29,44,12.8,0,7.2,15,57,43,310,32,0.02,0,0,300,26,RA,,,,,,,,,,,,,,,,,,,,,,,,,,,,,,,,,,,,,,,,,,,,,,,,,,,,,,,SOD73924 HR PRECIPITATION (IN): 0.02 SNOW DEPTH (IN):0     24 HR SNOWFALL (IN):0.0  24 HR MAX TEMP (F): 5724 HR MIN TEMP (F): 43AVERAGE STATION PRESSURE:29.000 MINIMUM SEA LEVEL PRESSURE:30.00 TIME OF OCCURRENCE:0705 PEAK WIND SPEED (MPH): 32 PEAK WIND DIR (DEG):310 PEAK WIND TIME (LST):      FASTEST 2MIN SPEED (MPH): 26FASTEST 2MIN DIR (DEG):300 FASTEST 2MIN TIME (LST):     AVERAGE WIND SPEED (MPH):12.8 24 HR AVG TEMP (F): 50DEPART FROM NORMAL:  7  HEATING DEGREE DAYS: 15 COOLING DEGREE DAYS:  0 LATEST DAY MAX TEMP (0700-1900 LST):57  LATEST NIGHT MIN TEMP(1900-0800 LST):49 HOURLY INCREMENTAL PRECIPITATION VALUES (IN):.00 0.00 0.00 0.00 0.00 0.01 0.01 0.00 0.00 0.00 0.00 0.00 0.00 0.00 0.00 0.00 0.00 0.00 0.00 0.00 0.00 0.00 0.00 0.00,SOD  ,6,,,,,,,,,,,,,,,,,,,,,,,,,743,1745,3/27/2007
72219013874,2020-01-08T00:52:00,FM-15,7,,,,,,,,,,,,,,,,,,,,,,,,,,,,,,,,,,,,,,,30.29,26,42,0,,-0.01,1,53,30.29,CLR:00,29.18,10,36,300,,9,,,,,,,,,,,,,,,,,,,,,,,,,,,,,,,,,,,,,MET11601/08/20 00:52:02 METAR KATL 080552Z 30008KT 10SM CLR 06/M03 A3029 RMK AO2 SLP258 T00561033 10100 20050 51005 $ (RF),FM-15,7,,,,,,,,,,,,,,,,,,,,,,,,,,,3/27/2007
72219013874,2020-01-08T01:00:00,FM-12,4,,,,,,,,,,,,,,,,,,,,,,,,,,,,,,,,,,,,,,,,26,42,,,-0.01,1,53,30.29,,29.18,9.94,36,300,,9,,,,,,,,,,,,,,,,,,,,,,,,,,,,,,,,,,,,,SYN08072219 32966 03008 10056 21033 39880 40258 51005 90552 333 10117 20050 555 90806=,FM-12,4,,,,,,,,,,,,,,,,,,,,,,,,,,,3/27/2007
72219013874,2020-01-08T01:52:00,FM-15,7,,,,,,,,,,,,,,,,,,,,,,,,,,,,,,,,,,,,,,,30.28,26,41,0,,,,55,30.29,CLR:00,29.18,10,35,290,,8,,,,,,,,,,,,,,,,,,,,,,,,,,,,,,,,,,,,,MET09801/08/20 01:52:02 METAR KATL 080652Z 29007KT 10SM CLR 05/M03 A3028 RMK AO2 SLP257 T00501033 $ (DB),FM-15,7,,,,,,,,,,,,,,,,,,,,,,,,,,,3/27/2007
72219013874,2020-01-08T02:52:00,FM-15,7,,,,,,,,,,,,,,,,,,,,,,,,,,,,,,,,,,,,,,,30.3,25,40,0,,,,55,30.31,CLR:00,29.19,10,34,300,,9,,,,,,,,,,,,,,,,,,,,,,,,,,,,,,,,,,,,,MET09801/08/20 02:52:02 METAR KATL 080752Z 30008KT 10SM CLR 04/M04 A3030 RMK AO2 SLP264 T00441039 $ (DB),FM-15,7,,,,,,,,,,,,,,,,,,,,,,,,,,,3/27/2007
72219013874,2020-01-08T03:52:00,FM-15,7,,,,,,,,,,,,,,,,,,,,,,,,,,,,,,,,,,,,,,,30.31,25,39,0,,-0.02,3,57,30.32,CLR:00,29.21,10,34,300,,6,,,,,,,,,,,,,,,,,,,,,,,,,,,,,,,,,,,,,MET10401/08/20 03:52:02 METAR KATL 080852Z 30005KT 10SM CLR 04/M04 A3031 RMK AO2 SLP266 T00391039 53007 $ (DB),FM-15,7,,,,,,,,,,,,,,,,,,,,,,,,,,,3/27/2007
72219013874,2020-01-08T04:52:00,FM-15,7,,,,,,,,,,,,,,,,,,,,,,,,,,,,,,,,,,,,,,,30.32,25,38,0,,,,60,30.33,CLR:00,29.21,10,33,300,,8,,,,,,,,,,,,,,,,,,,,,,,,,,,,,,,,,,,,,MET09601/08/20 04:52:02 METAR KATL 080952Z 30007KT 10SM CLR 03/M04 A3032 RMK AO2 SLP270 T00331039 (DB),FM-15,7,,,,,,,,,,,,,,,,,,,,,,,,,,,3/27/2007
72219013874,2020-01-08T05:52:00,FM-15,7,,,,,,,,,,,,,,,,,,,,,,,,,,,,,,,,,,,,,,,30.34,25,37,0,,,,62,30.35,CLR:00,29.23,10,32,280,,7,,,,,,,,,,,,,,,,,,,,,,,,,,,,,,,,,,,,,MET09601/08/20 05:52:02 METAR KATL 081052Z 28006KT 10SM CLR 03/M04 A3034 RMK AO2 SLP278 T00281039 (DB),FM-15,7,,,,,,,,,,,,,,,,,,,,,,,,,,,3/27/2007
72219013874,2020-01-08T06:52:00,FM-15,7,,,,,,,,,,,,,,,,,,,,,,,,,,,,,,,,,,,,,,,30.37,25,37,0,,-0.06,3,62,30.39,CLR:00,29.26,10,32,280,,8,,,,,,,,,,,,,,,,,,,,,,,,,,,,,,,,,,,,,MET11401/08/20 06:52:02 METAR KATL 081152Z 28007KT 10SM CLR 03/M04 A3037 RMK AO2 SLP290 T00281039 10056 20028 53021 (DB),FM-15,7,,,,,,,,,,,,,,,,,,,,,,,,,,,3/27/2007
72219013874,2020-01-08T07:00:00,FM-12,4,,,,,,,,,,,,,,,,,,,,,,,,,,,,,,,,,,,,,,,,25,37,,,-0.06,3,62,30.39,,29.26,9.94,32,280,,8,,,,,,,,,,,,,,,,,,,,,,,,,,,,,,,,,,,,,SYN08072219 32966 02807 10028 21039 39907 40290 53021 91152 333 10139 20028 555 90812=,FM-12,4,,,,,,,,,,,,,,,,,,,,,,,,,,,3/27/2007
72219013874,2020-01-08T07:52:00,FM-15,7,,,,,,,,,,,,,,,,,,,,,,,,,,,,,,,,,,,,,,,30.4,25,37,0,,,,62,30.41,CLR:00,29.29,10,32,280,,7,,,,,,,,,,,,,,,,,,,,,,,,,,,,,,,,,,,,,MET09601/08/20 07:52:02 METAR KATL 081252Z 28006KT 10SM CLR 03/M04 A3040 RMK AO2 SLP299 T00281039 (DB),FM-15,7,,,,,,,,,,,,,,,,,,,,,,,,,,,3/27/2007
72219013874,2020-01-08T08:52:00,FM-15,7,,,,,,,,,,,,,,,,,,,,,,,,,,,,,,,,,,,,,,,30.42,26,41,0,,,,55,30.43,CLR:00,29.31,10,35,290,,7,,,,,,,,,,,,,,,,,,,,,,,,,,,,,,,,,,,,,MET09601/08/20 08:52:02 METAR KATL 081352Z 29006KT 10SM CLR 05/M03 A3042 RMK AO2 SLP306 T00501033 (DB),FM-15,7,,,,,,,,,,,,,,,,,,,,,,,,,,,3/27/2007
72219013874,2020-01-08T09:52:00,FM-15,7,,,,,,,,,,,,,,,,,,,,,,,,,,,,,,,,,,,,,,,30.44,27,45,0,,-0.06,1,49,30.45,CLR:00,29.33,10,38,310,,9,,,,,,,,,,,,,,,,,,,,,,,,,,,,,,,,,,,,,MET10301/08/20 09:52:02 METAR KATL 081452Z 31008KT 10SM CLR 07/M03 A3044 RMK AO2 SLP311 T00721028 51021 (JRN),FM-15,7,,,,,,,,,,,,,,,,,,,,,,,,,,,3/27/2007
72219013874,2020-01-08T10:52:00,FM-15,7,,,,,,,,,,,,,,,,,,,,,,,,,,,,,,,,,,,,,,,30.45,28,50,0,,,,43,30.45,CLR:00,29.34,10,41,310,,7,,,,,,,,,,,,,,,,,,,,,,,,,,,,,,,,,,,,,MET09701/08/20 10:52:02 METAR KATL 081552Z 31006KT 10SM CLR 10/M02 A3045 RMK AO2 SLP313 T01001022 (JRN),FM-15,7,,,,,,,,,,,,,,,,,,,,,,,,,,,3/27/2007
72219013874,2020-01-08T11:52:00,FM-15,7,,,,,,,,,,,,,,,,,,,,,,,,,,,,,,,,,,,,,,,30.44,26,54,0,,,,34,30.45,CLR:00,29.33,10,42,330,,13,,,,,,,,,,,,,,,,,,,,,,,,,,,,,,,,,,,,,MET09701/08/20 11:52:02 METAR KATL 081652Z 33011KT 10SM CLR 12/M03 A3044 RMK AO2 SLP311 T01221033 (JRN),FM-15,7,,,,,,,,,,,,,,,,,,,,,,,,,,,3/27/2007
72219013874,2020-01-08T12:52:00,FM-15,7,,,,,,,,,,,,,,,,,,,,,,,,,,,,,,,,,,,,,,,30.42,25,56,0,,0.02,8,30,30.42,CLR:00,29.31,10,43,320,,8,,,,,,,,,,,,,,,,,,,,,,,,,,,,,,,,,,,,,MET11501/08/20 12:52:02 METAR KATL 081752Z 32007KT 10SM CLR 13/M04 A3042 RMK AO2 SLP302 T01331039 10139 20022 58006 (JRN),FM-15,7,,,,,,,,,,,,,,,,,,,,,,,,,,,3/27/2007
72219013874,2020-01-08T13:00:00,FM-12,4,,,,,,,,,,,,,,,,,,,,,,,,,,,,,,,,,,,,,,,,25,56,,,0.02,8,30,30.42,,29.3,9.94,43,320,,8,,,,,,,,,,,,,,,,,,,,,,,,,,,,,,,,,,,,,SYN08072219 32966 03207 10133 21039 39923 40302 58006 91752 333 10139 20022 555 90818=,FM-12,4,,,,,,,,,,,,,,,,,,,,,,,,,,,3/27/2007
72219013874,2020-01-08T13:52:00,FM-15,7,,,,,,,,,,,,,,,,,,,,,,,,,,,,,,,,,,,,,,,30.39,24,59,0,,,,26,30.4,FEW:02 250,29.28,10,44,300,,9,,,,,,,,,,,,,,,,,,,,,,,,,,,,,,,,,,,,,MET10001/08/20 13:52:02 METAR KATL 081852Z 30008KT 10SM FEW250 15/M04 A3039 RMK AO2 SLP293 T01501044 (JRN),FM-15,7,,,,,,,,,,,,,,,,,,,,,,,,,,,3/27/2007
72219013874,2020-01-08T14:52:00,FM-15,7,,,,,,,,,,,,,,,,,,,,,,,,,,,,,,,,,,,,,,,30.38,24,61,0,,,,24,30.39,FEW:02 250,29.27,10,45,310,,10,,,,,,,,,,,,,,,,,,,,,,,,,,,,,,,,,,,,,MET10001/08/20 14:52:02 METAR KATL 081952Z 31009KT 10SM FEW250 16/M04 A3038 RMK AO2 SLP290 T01611044 (JRN),FM-15,7,,,,,,,,,,,,,,,,,,,,,,,,,,,3/27/2007
72219013874,2020-01-08T15:52:00,FM-15,7,,,,,,,,,,,,,,,,,,,,,,,,,,,,,,,,,,,,,,,30.39,23,61,0,,0.03,5,23,30.4,FEW:02 250,29.28,10,45,290,,10,,,,,,,,,,,,,,,,,,,,,,,,,,,,,,,,,,,,,MET10601/08/20 15:52:02 METAR KATL 082052Z 29009KT 10SM FEW250 16/M05 A3039 RMK AO2 SLP293 T01611050 55009 (JRN),FM-15,7,,,,,,,,,,,,,,,,,,,,,,,,,,,3/27/2007
72219013874,2020-01-08T16:52:00,FM-15,7,,,,,,,,,,,,,,,,,,,,,,,,,,,,,,,,,,,,,,,30.4,23,60,0,,,,24,30.41,FEW:02 250,29.29,10,44,280,,8,,,,,,,,,,,,,,,,,,,,,,,,,,,,,,,,,,,,,MET10001/08/20 16:52:02 METAR KATL 082152Z 28007KT 10SM FEW250 16/M05 A3040 RMK AO2 SLP297 T01561050 (JRN),FM-15,7,,,,,,,,,,,,,,,,,,,,,,,,,,,3/27/2007
72219013874,2020-01-08T17:52:00,FM-15,7,,,,,,,,,,,,,,,,,,,,,,,,,,,,,,,,,,,,,,,30.41,22,57,0,,,,26,30.42,FEW:02 250,29.3,10,43,330,,5,,,,,,,,,,,,,,,,,,,,,,,,,,,,,,,,,,,,,MET10001/08/20 17:52:02 METAR KATL 082252Z 33004KT 10SM FEW250 14/M06 A3041 RMK AO2 SLP302 T01391056 (JRN),FM-15,7,,,,,,,,,,,,,,,,,,,,,,,,,,,3/27/2007
72219013874,2020-01-08T18:52:00,FM-15,7,,,,,,,,,,,,,,,,,,,,,,,,,,,,,,,,,,,,,,,30.43,22,55,0,,-0.04,3,28,30.44,SCT:04 250,29.32,10,42,330,,5,,,,,,,,,,,,,,,,,,,,,,,,,,,,,,,,,,,,,MET11901/08/20 18:52:02 METAR KATL 082352Z 33004KT 10SM SCT250 13/M06 A3043 RMK AO2 SLP307 T01281056 10161 20128 53012 $ (RF),FM-15,7,,,,,,,,,,,,,,,,,,,,,,,,,,,3/27/2007
72219013874,2020-01-08T19:00:00,FM-12,4,,,,,,,,,,,,,,,,,,,,,,,,,,,,,,,,,,,,,,,,22,55,,,-0.04,3,28,30.44,,29.31,9.94,42,330,,5,,,,,,,,,,,,,,,,,,,,,,,,,,,,,,,,,,,,,SYN08072219 32966 43304 10128 21056 39926 40307 53012 92352 333 10161 20028 555 90900=,FM-12,4,,,,,,,,,,,,,,,,,,,,,,,,,,,3/27/2007
72219013874,2020-01-08T19:52:00,FM-15,7,,,,,,,,,,,,,,,,,,,,,,,,,,,,,,,,,,,,,,,30.43,25,51,0,,,,36,30.45,SCT:04 250,29.32,10,40,340,,6,,,,,,,,,,,,,,,,,,,,,,,,,,,,,,,,,,,,,MET09601/08/20 19:52:01 METAR KATL 090052Z 34005KT 10SM SCT250 11/M04 A3043 RMK AO2 SLP312 T01061039 $,FM-15,7,,,,,,,,,,,,,,,,,,,,,,,,,,,3/27/2007
72219013874,2020-01-08T20:52:00,FM-15,7,,,,,,,,,,,,,,,,,,,,,,,,,,,,,,,,,,,,,,,30.44,27,48,0,,,,44,30.45,FEW:02 250,29.33,10,39,330,,3,,,,,,,,,,,,,,,,,,,,,,,,,,,,,,,,,,,,,MET09601/08/20 20:52:01 METAR KATL 090152Z 33003KT 10SM FEW250 09/M03 A3044 RMK AO2 SLP313 T00891028 $,FM-15,7,,,,,,,,,,,,,,,,,,,,,,,,,,,3/27/2007
72219013874,2020-01-08T21:52:00,FM-15,7,,,,,,,,,,,,,,,,,,,,,,,,,,,,,,,,,,,,,,,30.44,27,47,0,,-0.02,1,46,30.46,FEW:02 250,29.33,10,39,0,,0,,,,,,,,,,,,,,,,,,,,,,,,,,,,,,,,,,,,,MET10201/08/20 21:52:01 METAR KATL 090252Z 00000KT 10SM FEW250 08/M03 A3044 RMK AO2 SLP314 T00831028 51006 $,FM-15,7,,,,,,,,,,,,,,,,,,,,,,,,,,,3/27/2007
72219013874,2020-01-08T22:52:00,FM-15,7,,,,,,,,,,,,,,,,,,,,,,,,,,,,,,,,,,,,,,,30.44,28,45,0,,,,52,30.45,FEW:02 250,29.33,10,38,0,,0,,,,,,,,,,,,,,,,,,,,,,,,,,,,,,,,,,,,,MET09601/08/20 22:52:01 METAR KATL 090352Z 00000KT 10SM FEW250 07/M02 A3044 RMK AO2 SLP311 T00721022 $,FM-15,7,,,,,,,,,,,,,,,,,,,,,,,,,,,3/27/2007
72219013874,2020-01-08T23:52:00,FM-15,7,,,,,,,,,,,,,,,,,,,,,,,,,,,,,,,,,,,,,,,30.44,28,44,0,,,,53,30.45,SCT:04 250,29.33,10,37,0,,0,,,,,,,,,,,,,,,,,,,,,,,,,,,,,,,,,,,,,MET10601/08/20 23:52:02 METAR KATL 090452Z 00000KT 10SM SCT250 07/M02 A3044 RMK AO2 SLP311 T00671022 401610022 $,FM-15,7,,,,,,,,,,,,,,,,,,,,,,,,,,,3/27/2007
72219013874,2020-01-08T23:59:00,SOD  ,6,,,,,,,,,,,,,,,,,25,49,44,30.4,29.26,38,6.8,0,6.2,16,61,36,280,18,0,0,0,320,14,,,,,,,,,,,,,,,,,,,,,,,,,,,,,,,,,,,,,,,,,,,,,,,,,,,,,,,,SOD73924 HR PRECIPITATION (IN): 0.00 SNOW DEPTH (IN):0     24 HR SNOWFALL (IN):0.0  24 HR MAX TEMP (F): 6124 HR MIN TEMP (F): 36AVERAGE STATION PRESSURE:29.265 MINIMUM SEA LEVEL PRESSURE:30.28 TIME OF OCCURRENCE:0137 PEAK WIND SPEED (MPH): 18 PEAK WIND DIR (DEG):280 PEAK WIND TIME (LST):      FASTEST 2MIN SPEED (MPH): 14FASTEST 2MIN DIR (DEG):320 FASTEST 2MIN TIME (LST):     AVERAGE WIND SPEED (MPH): 6.8 24 HR AVG TEMP (F): 49DEPART FROM NORMAL:  6  HEATING DEGREE DAYS: 16 COOLING DEGREE DAYS:  0 LATEST DAY MAX TEMP (0700-1900 LST):61  LATEST NIGHT MIN TEMP(1900-0800 LST):36 HOURLY INCREMENTAL PRECIPITATION VALUES (IN):.00 0.00 0.00 0.00 0.00 0.00 0.00 0.00 0.00 0.00 0.00 0.00 0.00 0.00 0.00 0.00 0.00 0.00 0.00 0.00 0.00 0.00 0.00 0.00,SOD  ,6,,,,,,,,,,,,,,,,,,,,,,,,,743,1746,3/27/2007
72219013874,2020-01-09T00:52:00,FM-15,7,,,,,,,,,,,,,,,,,,,,,,,,,,,,,,,,,,,,,,,30.43,29,42,0,,0.01,8,60,30.44,SCT:04 250,29.32,10,37,0,,0,,,,,,,,,,,,,,,,,,,,,,,,,,,,,,,,,,,,,MET11901/09/20 00:52:02 METAR KATL 090552Z 00000KT 10SM SCT250 06/M02 A3043 RMK AO2 SLP308 T00561017 10128 20056 58004 $ (RF),FM-15,7,,,,,,,,,,,,,,,,,,,,,,,,,,,3/27/2007
72219013874,2020-01-09T01:00:00,FM-12,4,,,,,,,,,,,,,,,,,,,,,,,,,,,,,,,,,,,,,,,,29,42,,,0.01,8,60,30.44,,29.31,9.94,37,0,,0,,,,,,,,,,,,,,,,,,,,,,,,,,,,,,,,,,,,,SYN08072219 32966 40000 10056 21017 39926 40308 58004 90552 333 10128 20028 555 90906=,FM-12,4,,,,,,,,,,,,,,,,,,,,,,,,,,,3/27/2007
72219013874,2020-01-09T01:52:00,FM-15,7,,,,,,,,,,,,,,,,,,,,,,,,,,,,,,,,,,,,,,,30.43,29,41,0,,,,62,30.44,SCT:04 250,29.32,10,36,140,,3,,,,,,,,,,,,,,,,,,,,,,,,,,,,,,,,,,,,,MET10201/09/20 01:52:02 METAR KATL 090652Z 14003KT 10SM SCT250 05/M02 A3043 RMK AO2 SLP308 T00501017 $ (KAF),FM-15,7,,,,,,,,,,,,,,,,,,,,,,,,,,,3/27/2007
72219013874,2020-01-09T02:52:00,FM-15,7,,,,,,,,,,,,,,,,,,,,,,,,,,,,,,,,,,,,,,,30.45,28,42,0,,,,58,30.46,FEW:02 250,29.34,10,36,0,,0,,,,,,,,,,,,,,,,,,,,,,,,,,,,,,,,,,,,,MET10201/09/20 02:52:02 METAR KATL 090752Z 00000KT 10SM FEW250 06/M02 A3045 RMK AO2 SLP314 T00561022 $ (KAF),FM-15,7,,,,,,,,,,,,,,,,,,,,,,,,,,,3/27/2007
72219013874,2020-01-09T03:52:00,FM-15,7,,,,,,,,,,,,,,,,,,,,,,,,,,,,,,,,,,,,,,,30.45,27,41,0,,-0.01,0,57,30.45,CLR:00,29.34,10,35,110,,3,,,,,,,,,,,,,,,,,,,,,,,,,,,,,,,,,,,,,MET10501/09/20 03:52:02 METAR KATL 090852Z 11003KT 10SM CLR 05/M03 A3045 RMK AO2 SLP312 T00501028 50005 $ (KAF),FM-15,7,,,,,,,,,,,,,,,,,,,,,,,,,,,3/27/2007
72219013874,2020-01-09T04:52:00,FM-15,7,,,,,,,,,,,,,,,,,,,,,,,,,,,,,,,,,,,,,,,30.45,28,39,0,,,,65,30.45,CLR:00,29.34,10,35,80,,5,,,,,,,,,,,,,,,,,,,,,,,,,,,,,,,,,,,,,MET09701/09/20 04:52:02 METAR KATL 090952Z 08004KT 10SM CLR 04/M02 A3045 RMK AO2 SLP313 T00391022 (KAF),FM-15,7,,,,,,,,,,,,,,,,,,,,,,,,,,,3/27/2007
72219013874,2020-01-09T05:52:00,FM-15,7,,,,,,,,,,,,,,,,,,,,,,,,,,,,,,,,,,,,,,,30.46,27,39,0,,,,62,30.47,CLR:00,29.35,10,34,100,,6,,,,,,,,,,,,,,,,,,,,,,,,,,,,,,,,,,,,,MET09701/09/20 05:52:02 METAR KATL 091052Z 10005KT 10SM CLR 04/M03 A3046 RMK AO2 SLP318 T00391028 (KAF),FM-15,7,,,,,,,,,,,,,,,,,,,,,,,,,,,3/27/2007
72219013874,2020-01-09T06:52:00,FM-15,7,,,,,,,,,,,,,,,,,,,,,,,,,,,,,,,,,,,,,,,30.48,27,38,0,,-0.03,3,65,30.49,FEW:02 250,29.37,10,34,110,,6,,,,,,,,,,,,,,,,,,,,,,,,,,,,,,,,,,,,,MET11801/09/20 06:52:02 METAR KATL 091152Z 11005KT 10SM FEW250 03/M03 A3048 RMK AO2 SLP324 T00331028 10061 20033 53009 (KAF),FM-15,7,,,,,,,,,,,,,,,,,,,,,,,,,,,3/27/2007
72219013874,2020-01-09T07:00:00,FM-12,4,,,,,,,,,,,,,,,,,,,,,,,,,,,,,,,,,,,,,,,,27,38,,,-0.03,3,65,30.49,,29.36,9.94,34,110,,6,,,,,,,,,,,,,,,,,,,,,,,,,,,,,,,,,,,,,SYN08072219 32966 21105 10033 21028 39943 40324 53009 91152 333 10161 20033 555 90912=,FM-12,4,,,,,,,,,,,,,,,,,,,,,,,,,,,3/27/2007
72219013874,2020-01-09T07:52:00,FM-15,7,,,,,,,,,,,,,,,,,,,,,,,,,,,,,,,,,,,,,,,30.49,28,37,0,,,,70,30.5,FEW:02 250,29.38,10,33,110,,6,,,,,,,,,,,,,,,,,,,,,,,,,,,,,,,,,,,,,MET10001/09/20 07:52:02 METAR KATL 091252Z 11005KT 10SM FEW250 03/M02 A3049 RMK AO2 SLP330 T00281022 (KAF),FM-15,7,,,,,,,,,,,,,,,,,,,,,,,,,,,3/27/2007
72219013874,2020-01-09T08:52:00,FM-15,7,,,,,,,,,,,,,,,,,,,,,,,,,,,,,,,,,,,,,,,30.51,29,44,0,,,,55,30.53,SCT:04 250,29.4,10,38,110,,9,,,,,,,,,,,,,,,,,,,,,,,,,,,,,,,,,,,,,MET10001/09/20 08:52:02 METAR KATL 091352Z 11008KT 10SM SCT250 07/M02 A3051 RMK AO2 SLP337 T00671017 (KAF),FM-15,7,,,,,,,,,,,,,,,,,,,,,,,,,,,3/27/2007
72219013874,2020-01-09T09:52:00,FM-15,7,,,,,,,,,,,,,,,,,,,,,,,,,,,,,,,,,,,,,,,30.53,29,49,0,,-0.06,3,46,30.54,BKN:07 250,29.42,10,41,130,,8,,,,,,,,,,,,,,,,,,,,,,,,,,,,,,,,,,,,,MET10601/09/20 09:52:02 METAR KATL 091452Z 13007KT 10SM BKN250 09/M02 A3053 RMK AO2 SLP343 T00941017 53019 (JRN),FM-15,7,,,,,,,,,,,,,,,,,,,,,,,,,,,3/27/2007
72219013874,2020-01-09T10:52:00,FM-15,7,,,,,,,,,,,,,,,,,,,,,,,,,,,,,,,,,,,,,,,30.55,29,53,0,,,,40,30.56,BKN:07 250,29.44,10,43,120,,11,,,,,,,,,,,,,,,,,,,,,,,,,,,,,,,,,,,,,MET10001/09/20 10:52:02 METAR KATL 091552Z 12010KT 10SM BKN250 12/M02 A3055 RMK AO2 SLP349 T01171017 (JRN),FM-15,7,,,,,,,,,,,,,,,,,,,,,,,,,,,3/27/2007
72219013874,2020-01-09T11:52:00,FM-15,7,,,,,,,,,,,,,,,,,,,,,,,,,,,,,,,,,,,,,,,30.54,29,57,0,,,,34,30.55,BKN:07 250,29.43,10,45,120,17,11,,,,,,,,,,,,,,,,,,,,,,,,,,,,,,,,,,,,,MET10301/09/20 11:52:02 METAR KATL 091652Z 12010G15KT 10SM BKN250 14/M02 A3054 RMK AO2 SLP344 T01391017 (JRN),FM-15,7,,,,,,,,,,,,,,,,,,,,,,,,,,,3/27/2007
72219013874,2020-01-09T12:52:00,FM-15,7,,,,,,,,,,,,,,,,,,,,,,,,,,,,,,,,,,,,,,,30.51,29,60,0,,0.03,8,31,30.51,BKN:07 250,29.4,10,46,140,21,13,,,,,,,,,,,,,,,,,,,,,,,,,,,,,,,,,,,,,MET12101/09/20 12:52:02 METAR KATL 091752Z 14011G18KT 10SM BKN250 16/M02 A3051 RMK AO2 SLP332 T01561017 10156 20028 58009 (JRN),FM-15,7,,,,,,,,,,,,,,,,,,,,,,,,,,,3/27/2007
72219013874,2020-01-09T13:00:00,FM-12,4,,,,,,,,,,,,,,,,,,,,,,,,,,,,,,,,,,,,,,,,29,60,,,0.03,8,31,30.51,,29.39,9.94,46,140,,13,,,,,,,,,,,,,,,,,,,,,,,,,,,,,,,,,,,,,SYN08672219 32966 61411 10156 21017 39953 40332 58009 91752 333 10156 20028 91018 555 90918=,FM-12,4,,,,,,,,,,,,,,,,,,,,,,,,,,,3/27/2007
72219013874,2020-01-09T13:52:00,FM-15,7,,,,,,,,,,,,,,,,,,,,,,,,,,,,,,,,,,,,,,,30.47,30,60,0,,,,32,30.47,BKN:07 250,29.36,10,46,140,22,15,,,,,,,,,,,,,,,,,,,,,,,,,,,,,,,,,,,,,MET10301/09/20 13:52:02 METAR KATL 091852Z 14013G19KT 10SM BKN250 16/M01 A3047 RMK AO2 SLP319 T01561011 (JRN),FM-15,7,,,,,,,,,,,,,,,,,,,,,,,,,,,3/27/2007
72219013874,2020-01-09T14:52:00,FM-15,7,,,,,,,,,,,,,,,,,,,,,,,,,,,,,,,,,,,,,,,30.45,36,62,0,,,,38,30.45,FEW:02 150 BKN:07 250,29.34,10,49,140,,10,,,,,,,,,,,,,,,,,,,,,,,,,,,,,,,,,,,,,MET10601/09/20 14:52:02 METAR KATL 091952Z 14009KT 10SM FEW150 BKN250 17/02 A3045 RMK AO2 SLP312 T01670022 (JRN),FM-15,7,,,,,,,,,,,,,,,,,,,,,,,,,,,3/27/2007
72219013874,2020-01-09T15:52:00,FM-15,7,,,,,,,,,,,,,,,,,,,,,,,,,,,,,,,,,,,,,,,30.43,42,63,0,,0.08,6,47,30.43,FEW:02 50 BKN:07 250,29.32,10,52,170,28,15,,,,,,,,,,,,,,,,,,,,,,,,,,,,,,,,,,,,,MET11501/09/20 15:52:02 METAR KATL 092052Z 17013G24KT 10SM FEW050 BKN250 17/06 A3043 RMK AO2 SLP305 T01720056 56026 (JRN),FM-15,7,,,,,,,,,,,,,,,,,,,,,,,,,,,3/27/2007
72219013874,2020-01-09T16:52:00,FM-15,7,,,,,,,,,,,,,,,,,,,,,,,,,,,,,,,,,,,,,,,30.44,44,62,0,,,,52,30.44,FEW:02 45 BKN:07 250,29.33,10,53,160,21,13,,,,,,,,,,,,,,,,,,,,,,,,,,,,,,,,,,,,,MET10901/09/20 16:52:02 METAR KATL 092152Z 16011G18KT 10SM FEW045 BKN250 17/07 A3044 RMK AO2 SLP308 T01670067 (JRN),FM-15,7,,,,,,,,,,,,,,,,,,,,,,,,,,,3/27/2007
72219013874,2020-01-09T17:52:00,FM-15,7,,,,,,,,,,,,,,,,,,,,,,,,,,,,,,,,,,,,,,,30.46,44,61,0,,,,54,30.47,BKN:07 45 BKN:07 250,29.35,10,52,160,,9,,,,,,,,,,,,,,,,,,,,,,,,,,,,,,,,,,,,,MET10501/09/20 17:52:02 METAR KATL 092252Z 16008KT 10SM BKN045 BKN250 16/07 A3046 RMK AO2 SLP317 T01610067 (RF),FM-15,7,,,,,,,,,,,,,,,,,,,,,,,,,,,3/27/2007
72219013874,2020-01-09T18:52:00,FM-15,7,,,,,,,,,,,,,,,,,,,,,,,,,,,,,,,,,,,,,,,30.48,44,60,0,,-0.05,3,56,30.48,BKN:07 50 BKN:07 250,29.37,10,52,140,,6,,,,,,,,,,,,,,,,,,,,,,,,,,,,,,,,,,,,,MET12301/09/20 18:52:02 METAR KATL 092352Z 14005KT 10SM BKN050 BKN250 16/07 A3048 RMK AO2 SLP322 T01560067 10178 20156 53016 (RF),FM-15,7,,,,,,,,,,,,,,,,,,,,,,,,,,,3/27/2007
72219013874,2020-01-09T19:00:00,FM-12,4,,,,,,,,,,,,,,,,,,,,,,,,,,,,,,,,,,,,,,,,44,60,,,-0.05,3,56,30.48,57,29.36,9.94,52,140,,6,,,,,,,,,,,,,,,,,,,,,,,,,,,,,,,,,,,,,SYN08072219 32766 61405 10156 20067 39943 40322 53016 92352 333 10178 20033 555 91000=,FM-12,4,,,,,,,,,,,,,,,,,,,,,,,,,,,3/27/2007
72219013874,2020-01-09T19:52:00,FM-15,7,,,,,,,,,,,,,,,,,,,,,,,,,,,,,,,,,,,,,,,30.48,44,59,0,,,,58,30.49,BKN:07 55 BKN:07 150 OVC:08 250,29.37,10,51,120,,5,,,,,,,,,,,,,,,,,,,,,,,,,,,,,,,,,,,,,MET10701/09/20 19:52:01 METAR KATL 100052Z 12004KT 10SM BKN055 BKN150 OVC250 15/07 A3048 RMK AO2 SLP324 T01500067,FM-15,7,,,,,,,,,,,,,,,,,,,,,,,,,,,3/27/2007
72219013874,2020-01-09T20:52:00,FM-15,7,,,,,,,,,,,,,,,,,,,,,,,,,,,,,,,,,,,,,,,30.49,43,59,0,,,,56,30.5,SCT:04 40 BKN:07 55 BKN:07 150,29.38,10,51,120,,5,,,,,,,,,,,,,,,,,,,,,,,,,,,,,,,,,,,,,MET10701/09/20 20:52:01 METAR KATL 100152Z 12004KT 10SM SCT040 BKN055 BKN150 15/06 A3049 RMK AO2 SLP327 T01500061,FM-15,7,,,,,,,,,,,,,,,,,,,,,,,,,,,3/27/2007
72219013874,2020-01-09T21:52:00,FM-15,7,,,,,,,,,,,,,,,,,,,,,,,,,,,,,,,,,,,,,,,30.49,42,59,0,,-0.02,1,54,30.49,BKN:07 38 BKN:07 60 OVC:08 200,29.38,10,50,120,,6,,,,,,,,,,,,,,,,,,,,,,,,,,,,,,,,,,,,,MET11301/09/20 21:52:01 METAR KATL 100252Z 12005KT 10SM BKN038 BKN060 OVC200 15/06 A3049 RMK AO2 SLP326 T01500056 51006,FM-15,7,,,,,,,,,,,,,,,,,,,,,,,,,,,3/27/2007
72219013874,2020-01-09T22:52:00,FM-15,7,,,,,,,,,,,,,,,,,,,,,,,,,,,,,,,,,,,,,,,30.49,43,58,0,,,,58,30.49,BKN:07 35 BKN:07 60 OVC:08 200,29.38,10,50,100,,7,,,,,,,,,,,,,,,,,,,,,,,,,,,,,,,,,,,,,MET10701/09/20 22:52:01 METAR KATL 100352Z 10006KT 10SM BKN035 BKN060 OVC200 14/06 A3049 RMK AO2 SLP326 T01440061,FM-15,7,,,,,,,,,,,,,,,,,,,,,,,,,,,3/27/2007
72219013874,2020-01-09T23:52:00,FM-15,7,,,,,,,,,,,,,,,,,,,,,,,,,,,,,,,,,,,,,,,30.47,43,57,0,,,,60,30.47,SCT:04 35 BKN:07 60 OVC:08 200,29.36,10,50,110,,10,,,,,,,,,,,,,,,,,,,,,,,,,,,,,,,,,,,,,MET11701/09/20 23:52:02 METAR KATL 100452Z 11009KT 10SM SCT035 BKN060 OVC200 14/06 A3047 RMK AO2 SLP317 T01390061 401780028,FM-15,7,,,,,,,,,,,,,,,,,,,,,,,,,,,3/27/2007
72219013874,2020-01-09T23:59:00,SOD  ,6,,,,,,,,,,,,,,,,,34,51,53,30.48,29.36,44,7.6,0,8.1,14,64,37,160,29,0,0,0,160,21,,,,,,,,,,,,,,,,,,,,,,,,,,,,,,,,,,,,,,,,,,,,,,,,,,,,,,,,SOD73924 HR PRECIPITATION (IN): 0.00 SNOW DEPTH (IN):0     24 HR SNOWFALL (IN):0.0  24 HR MAX TEMP (F): 6424 HR MIN TEMP (F): 37AVERAGE STATION PRESSURE:29.360 MINIMUM SEA LEVEL PRESSURE:30.43 TIME OF OCCURRENCE:1557 PEAK WIND SPEED (MPH): 29 PEAK WIND DIR (DEG):160 PEAK WIND TIME (LST):      FASTEST 2MIN SPEED (MPH): 21FASTEST 2MIN DIR (DEG):160 FASTEST 2MIN TIME (LST):     AVERAGE WIND SPEED (MPH): 7.6 24 HR AVG TEMP (F): 51DEPART FROM NORMAL:  8  HEATING DEGREE DAYS: 14 COOLING DEGREE DAYS:  0 LATEST DAY MAX TEMP (0700-1900 LST):64  LATEST NIGHT MIN TEMP(1900-0800 LST):37 HOURLY INCREMENTAL PRECIPITATION VALUES (IN):.00 0.00 0.00 0.00 0.00 0.00 0.00 0.00 0.00 0.00 0.00 0.00 0.00 0.00 0.00 0.00 0.00 0.00 0.00 0.00 0.00 0.00 0.00 0.00,SOD  ,6,,,,,,,,,,,,,,,,,,,,,,,,,743,1747,3/27/2007
72219013874,2020-01-10T00:52:00,FM-15,7,,,,,,,,,,,,,,,,,,,,,,,,,,,,,,,,,,,,,,,30.44,44,56,0,,0.05,8,65,30.44,FEW:02 35 SCT:04 65 OVC:08 180,29.33,10,50,110,,11,,,,,,,,,,,,,,,,,,,,,,,,,,,,,,,,,,,,,MET13001/10/20 00:52:02 METAR KATL 100552Z 11010KT 10SM FEW035 SCT065 OVC180 13/07 A3044 RMK AO2 SLP307 T01330067 10156 20133 58017 (RF),FM-15,7,,,,,,,,,,,,,,,,,,,,,,,,,,,3/27/2007
72219013874,2020-01-10T01:00:00,FM-12,4,,,,,,,,,,,,,,,,,,,,,,,,,,,,,,,,,,,,,,,,44,56,,,0.05,8,65,30.44,41,29.32,9.94,50,110,,11,,,,,,,,,,,,,,,,,,,,,,,,,,,,,,,,,,,,,SYN08072219 32666 81110 10133 20067 39930 40307 58017 90552 333 10156 20033 555 91006=,FM-12,4,,,,,,,,,,,,,,,,,,,,,,,,,,,3/27/2007
72219013874,2020-01-10T01:52:00,FM-15,7,,,,,,,,,,,,,,,,,,,,,,,,,,,,,,,,,,,,,,,30.45,44,55,0,,,,67,30.44,FEW:02 65 BKN:07 180 BKN:07 250,29.34,10,49,100,,9,,,,,,,,,,,,,,,,,,,,,,,,,,,,,,,,,,,,,MET11301/10/20 01:52:02 METAR KATL 100652Z 10008KT 10SM FEW065 BKN180 BKN250 13/07 A3045 RMK AO2 SLP309 T01280067 (KAF),FM-15,7,,,,,,,,,,,,,,,,,,,,,,,,,,,3/27/2007
72219013874,2020-01-10T02:52:00,FM-15,7,,,,,,,,,,,,,,,,,,,,,,,,,,,,,,,,,,,,,,,30.45,44,54,0,,,,69,30.45,FEW:02 65 BKN:07 180 OVC:08 250,29.34,10,49,90,,7,,,,,,,,,,,,,,,,,,,,,,,,,,,,,,,,,,,,,MET11301/10/20 02:52:02 METAR KATL 100752Z 09006KT 10SM FEW065 BKN180 OVC250 12/07 A3045 RMK AO2 SLP310 T01220067 (KAF),FM-15,7,,,,,,,,,,,,,,,,,,,,,,,,,,,3/27/2007
72219013874,2020-01-10T03:52:00,FM-15,7,,,,,,,,,,,,,,,,,,,,,,,,,,,,,,,,,,,,,,,30.43,45,54,0,,0.01,8,72,30.42,FEW:02 65 BKN:07 180 OVC:08 250,29.32,10,49,110,,10,,,,,,,,,,,,,,,,,,,,,,,,,,,,,,,,,,,,,MET11901/10/20 03:52:02 METAR KATL 100852Z 11009KT 10SM FEW065 BKN180 OVC250 12/07 A3043 RMK AO2 SLP302 T01220072 58004 (KAF),FM-15,7,,,,,,,,,,,,,,,,,,,,,,,,,,,3/27/2007
72219013874,2020-01-10T04:52:00,FM-15,7,,,,,,,,,,,,,,,,,,,,,,,,,,,,,,,,,,,,,,,30.4,45,54,0,,,,72,30.4,SCT:04 180 BKN:07 250,29.29,10,49,120,,13,,,,,,,,,,,,,,,,,,,,,,,,,,,,,,,,,,,,,MET10601/10/20 04:52:02 METAR KATL 100952Z 12011KT 10SM SCT180 BKN250 12/07 A3040 RMK AO2 SLP293 T01220072 (KAF),FM-15,7,,,,,,,,,,,,,,,,,,,,,,,,,,,3/27/2007
72219013874,2020-01-10T05:52:00,FM-15,7,,,,,,,,,,,,,,,,,,,,,,,,,,,,,,,,,,,,,,,30.41,44,53,0,,,,72,30.41,SCT:04 70 SCT:04 180 BKN:07 250,29.3,10,49,110,,8,,,,,,,,,,,,,,,,,,,,,,,,,,,,,,,,,,,,,MET11301/10/20 05:52:02 METAR KATL 101052Z 11007KT 10SM SCT070 SCT180 BKN250 12/07 A3041 RMK AO2 SLP298 T01170067 (KAF),FM-15,7,,,,,,,,,,,,,,,,,,,,,,,,,,,3/27/2007
72219013874,2020-01-10T06:52:00,FM-15,7,,,,,,,,,,,,,,,,,,,,,,,,,,,,,,,,,,,,,,,30.42,44,51,0,,0.01,5,77,30.42,FEW:02 70 SCT:04 180 BKN:07 250,29.31,10,48,100,,9,,,,,,,,,,,,,,,,,,,,,,,,,,,,,,,,,,,,,MET13101/10/20 06:52:02 METAR KATL 101152Z 10008KT 10SM FEW070 SCT180 BKN250 11/07 A3042 RMK AO2 SLP301 T01060067 10133 20106 55003 (KAF),FM-15,7,,,,,,,,,,,,,,,,,,,,,,,,,,,3/27/2007
72219013874,2020-01-10T07:00:00,FM-12,4,,,,,,,,,,,,,,,,,,,,,,,,,,,,,,,,,,,,,,,,44,51,,,0.01,5,77,30.42,74,29.3,9.94,48,100,,9,,,,,,,,,,,,,,,,,,,,,,,,,,,,,,,,,,,,,SYN08072219 32866 61008 10106 20067 39923 40301 55003 91152 333 10178 20106 555 91012=,FM-12,4,,,,,,,,,,,,,,,,,,,,,,,,,,,3/27/2007
72219013874,2020-01-10T07:52:00,FM-15,7,,,,,,,,,,,,,,,,,,,,,,,,,,,,,,,,,,,,,,,30.43,44,51,0,,,,77,30.43,FEW:02 38 SCT:04 70 BKN:07 200,29.32,10,48,100,,10,,,,,,,,,,,,,,,,,,,,,,,,,,,,,,,,,,,,,MET11301/10/20 07:52:02 METAR KATL 101252Z 10009KT 10SM FEW038 SCT070 BKN200 11/07 A3043 RMK AO2 SLP304 T01060067 (KAF),FM-15,7,,,,,,,,,,,,,,,,,,,,,,,,,,,3/27/2007
72219013874,2020-01-10T08:52:00,FM-15,7,,,,,,,,,,,,,,,,,,,,,,,,,,,,,,,,,,,,,,,30.43,46,52,0,,,,80,30.43,FEW:02 65 SCT:04 120 BKN:07 200,29.32,10,49,90,,13,,,,,,,,,,,,,,,,,,,,,,,,,,,,,,,,,,,,,MET11301/10/20 08:52:02 METAR KATL 101352Z 09011KT 10SM FEW065 SCT120 BKN200 11/08 A3043 RMK AO2 SLP304 T01110078 (KAF),FM-15,7,,,,,,,,,,,,,,,,,,,,,,,,,,,3/27/2007
72219013874,2020-01-10T09:52:00,FM-15,7,,,,,,,,,,,,,,,,,,,,,,,,,,,,,,,,,,,,,,,30.45,46,54,0,,-0.03,3,75,30.45,FEW:02 50 SCT:04 120 BKN:07 200,29.34,10,50,100,,11,,,,,,,,,,,,,,,,,,,,,,,,,,,,,,,,,,,,,MET13801/10/20 09:52:02 METAR KATL 101452Z 10010KT 10SM FEW050 SCT120 BKN200 12/08 A3045 RMK AO2 SLP312 VIRGA E-SE & SW-NW T01220078 53011 (CPS),FM-15,7,,,,,,,,,,,,,,,,,,,,,,,,,,,3/27/2007
72219013874,2020-01-10T10:52:00,FM-15,7,,,,,,,,,,,,,,,,,,,,,,,,,,,,,,,,,,,,,,,30.47,47,56,0,,,,72,30.46,SCT:04 55 SCT:04 65 BKN:07 180,29.36,10,51,90,,10,,,,,,,,,,,,,,,,,,,,,,,,,,,,,,,,,,,,,MET12501/10/20 10:52:02 METAR KATL 101552Z 09009KT 10SM SCT055 SCT065 BKN180 13/08 A3047 RMK AO2 SLP316 VIRGA ALQDS T01330083 (CPS),FM-15,7,,,,,,,,,,,,,,,,,,,,,,,,,,,3/27/2007
72219013874,2020-01-10T11:52:00,FM-15,7,,,,,,,,,,,,,,,,,,,,,,,,,,,,,,,,,,,,,,,30.44,48,59,0,,,,67,30.43,SCT:04 45 BKN:07 60 BKN:07 180,29.33,10,53,120,,7,,,,,,,,,,,,,,,,,,,,,,,,,,,,,,,,,,,,,MET12601/10/20 11:52:02 METAR KATL 101652Z 12006KT 10SM SCT045 BKN060 BKN180 15/09 A3044 RMK AO2 SLP306 SCT045 V BKN T01500089 (CPS),FM-15,7,,,,,,,,,,,,,,,,,,,,,,,,,,,3/27/2007
72219013874,2020-01-10T12:52:00,FM-15,7,,,,,,,,,,,,,,,,,,,,,,,,,,,,,,,,,,,,,,,30.39,50,62,0,,0.06,8,65,30.39,SCT:04 50 SCT:04 70 BKN:07 180,29.28,10,55,110,,14,,,,,,,,,,,,,,,,,,,,,,,,,,,,,,,,,,,,,MET14201/10/20 12:52:02 METAR KATL 101752Z 11012KT 10SM SCT050 SCT070 BKN180 17/10 A3039 RMK AO2 SLP290 VIRGA W-NW T01670100 10167 20100 58020 (CPS),FM-15,7,,,,,,,,,,,,,,,,,,,,,,,,,,,3/27/2007
72219013874,2020-01-10T13:00:00,FM-12,4,,,,,,,,,,,,,,,,,,,,,,,,,,,,,,,,,,,,,,,,50,62,,,0.06,8,65,30.39,57,29.27,9.94,55,110,,14,,,,,,,,,,,,,,,,,,,,,,,,,,,,,,,,,,,,,SYN08072219 32766 81112 10167 20100 39913 40290 58020 91752 333 10167 20100 555 91018=,FM-12,4,,,,,,,,,,,,,,,,,,,,,,,,,,,3/27/2007
72219013874,2020-01-10T13:52:00,FM-15,7,,,,,,,,,,,,,,,,,,,,,,,,,,,,,,,,,,,,,,,30.36,51,65,0,,,,61,30.35,FEW:02 50 FEW:02 70 BKN:07 190,29.25,10,57,120,18,9,,,,,,,,,,,,,,,,,,,,,,,,,,,,,,,,,,,,,MET12501/10/20 13:52:02 METAR KATL 101852Z 12008G16KT 10SM FEW050 FEW070 BKN190 18/11 A3036 RMK AO2 SLP278 VIRGA NW T01830106 (CPS),FM-15,7,,,,,,,,,,,,,,,,,,,,,,,,,,,3/27/2007
72219013874,2020-01-10T14:52:00,FM-15,7,,,,,,,,,,,,,,,,,,,,,,,,,,,,,,,,,,,,,,,30.33,52,64,0,,,,65,30.32,BKN:07 35 BKN:07 55 BKN:07 190,29.22,10,57,130,,11,,,,,,,,,,,,,,,,,,,,,,,,,,,,,,,,,,,,,MET12101/10/20 14:52:02 METAR KATL 101952Z 13010KT 10SM BKN035 BKN055 BKN190 18/11 A3033 RMK AO2 SLP269 VIRGA S T01780111 (CPS),FM-15,7,,,,,,,,,,,,,,,,,,,,,,,,,,,3/27/2007
72219013874,2020-01-10T15:52:00,FM-15,7,,,,,,,,,,,,,,,,,,,,,,,,,,,,,,,,,,,,,,,30.32,52,64,0,,0.07,6,65,30.32,FEW:02 28 BKN:07 32 BKN:07 55,29.21,10,57,130,,10,,,,,,,,,,,,,,,,,,,,,,,,,,,,,,,,,,,,,MET11901/10/20 15:52:02 METAR KATL 102052Z 13009KT 10SM FEW028 BKN032 BKN055 18/11 A3032 RMK AO2 SLP266 T01780111 56024 (CPS),FM-15,7,,,,,,,,,,,,,,,,,,,,,,,,,,,3/27/2007
72219013874,2020-01-10T16:52:00,FM-15,7,,,,,,,,,,,,,,,,,,,,,,,,,,,,,,,,,,,,,,,30.32,52,63,0,,,,68,30.32,SCT:04 30 BKN:07 50 BKN:07 170,29.21,10,57,110,,13,,,,,,,,,,,,,,,,,,,,,,,,,,,,,,,,,,,,,MET13301/10/20 16:52:02 METAR KATL 102152Z 11011KT 10SM SCT030 BKN050 BKN170 17/11 A3032 RMK AO2 SLP266 SCT030 V BKN BINOVC T01720111 (CPS),FM-15,7,,,,,,,,,,,,,,,,,,,,,,,,,,,3/27/2007
72219013874,2020-01-10T17:52:00,FM-15,7,,,,,,,,,,,,,,,,,,,,,,,,,,,,,,,,,,,,,,,30.32,52,62,0,,,,70,30.32,FEW:02 30 SCT:04 60 BKN:07 150,29.21,10,56,100,,8,,,,,,,,,,,,,,,,,,,,,,,,,,,,,,,,,,,,,MET11201/10/20 17:52:02 METAR KATL 102252Z 10007KT 10SM FEW030 SCT060 BKN150 17/11 A3032 RMK AO2 SLP266 T01670111 (RF),FM-15,7,,,,,,,,,,,,,,,,,,,,,,,,,,,3/27/2007
72219013874,2020-01-10T18:52:00,FM-15,7,,,,,,,,,,,,,,,,,,,,,,,,,,,,,,,,,,,,,,,30.33,52,61,0,,-0.01,3,72,30.32,BKN:07 60 BKN:07 150 OVC:08 250,29.22,10,56,100,,9,,,,,,,,,,,,,,,,,,,,,,,,,,,,,,,,,,,,,MET13001/10/20 18:52:02 METAR KATL 102352Z 10008KT 10SM BKN060 BKN150 OVC250 16/11 A3033 RMK AO2 SLP269 T01610111 10189 20161 53003 (RF),FM-15,7,,,,,,,,,,,,,,,,,,,,,,,,,,,3/27/2007
72219013874,2020-01-10T19:00:00,FM-12,4,,,,,,,,,,,,,,,,,,,,,,,,,,,,,,,,,,,,,,,,52,61,,,-0.01,3,72,30.32,57,29.22,9.94,56,100,,9,,,,,,,,,,,,,,,,,,,,,,,,,,,,,,,,,,,,,SYN08072219 32766 81008 10161 20111 39894 40269 53003 92352 333 10189 20106 555 91100=,FM-12,4,,,,,,,,,,,,,,,,,,,,,,,,,,,3/27/2007
72219013874,2020-01-10T19:52:00,FM-15,7,,,,,,,,,,,,,,,,,,,,,,,,,,,,,,,,,,,,,,,30.32,52,60,0,,,,75,30.32,FEW:02 60 BKN:07 90 BKN:07 250,29.21,10,56,100,,10,,,,,,,,,,,,,,,,,,,,,,,,,,,,,,,,,,,,,MET10701/10/20 19:52:01 METAR KATL 110052Z 10009KT 10SM FEW060 BKN090 BKN250 16/11 A3032 RMK AO2 SLP266 T01560111,FM-15,7,,,,,,,,,,,,,,,,,,,,,,,,,,,3/27/2007
72219013874,2020-01-10T20:52:00,FM-15,7,,,,,,,,,,,,,,,,,,,,,,,,,,,,,,,,,,,,,,,30.3,52,60,0,,,,75,30.29,FEW:02 60 SCT:04 150 BKN:07 250,29.19,10,56,100,,9,,,,,,,,,,,,,,,,,,,,,,,,,,,,,,,,,,,,,MET10701/10/20 20:52:01 METAR KATL 110152Z 10008KT 10SM FEW060 SCT150 BKN250 16/11 A3030 RMK AO2 SLP259 T01560111,FM-15,7,,,,,,,,,,,,,,,,,,,,,,,,,,,3/27/2007
72219013874,2020-01-10T21:52:00,FM-15,7,,,,,,,,,,,,,,,,,,,,,,,,,,,,,,,,,,,,,,,30.28,53,59,0,,0.05,8,81,30.28,FEW:02 20 SCT:04 60 BKN:07 250,29.18,10,56,100,,10,,,,,,,,,,,,,,,,,,,,,,,,,,,,,,,,,,,,,MET11301/10/20 21:52:01 METAR KATL 110252Z 10009KT 10SM FEW020 SCT060 BKN250 15/12 A3028 RMK AO2 SLP253 T01500117 58016,FM-15,7,,,,,,,,,,,,,,,,,,,,,,,,,,,3/27/2007
72219013874,2020-01-10T22:52:00,FM-15,7,,,,,,,,,,,,,,,,,,,,,,,,,,,,,,,,,,,,,,,30.28,55,60,0,,,,84,30.27,FEW:02 12 SCT:04 20 BKN:07 70,29.18,10,57,120,,13,,,,,,,,,,,,,,,,,,,,,,,,,,,,,,,,,,,,,MET10701/10/20 22:52:01 METAR KATL 110352Z 12011KT 10SM FEW012 SCT020 BKN070 16/13 A3028 RMK AO2 SLP251 T01560128,FM-15,7,,,,,,,,,,,,,,,,,,,,,,,,,,,3/27/2007
72219013874,2020-01-10T23:17:00,FM-16,7,,,,,,,,,,,,,,,,,,,,,,,,,,,,,,,,,,,,,,,30.27,55,60,,,,,84,,BKN:07 11 BKN:07 70 BKN:07 250,29.16,10,57,120,,10,,,,,,,,,,,,,,,,,,,,,,,,,,,,,,,,,,,,,MET10001/10/20 23:17:01 SPECI KATL 110417Z 12009KT 10SM BKN011 BKN070 BKN250 16/13 A3027 RMK AO2 T01560128,FM-16,7,,,,,,,,,,,,,,,,,,,,,,,,,,,3/27/2007
72219013874,2020-01-10T23:52:00,FM-15,7,,,,,,,,,,,,,,,,,,,,,,,,,,,,,,,,,,,,,,,30.25,56,60,0,,,,86,30.24,BKN:07 10 BKN:07 60 OVC:08 250,29.15,10,58,130,,10,,,,,,,,,,,,,,,,,,,,,,,,,,,,,,,,,,,,,MET11701/10/20 23:52:02 METAR KATL 110452Z 13009KT 10SM BKN010 BKN060 OVC250 16/13 A3025 RMK AO2 SLP242 T01560133 401890100,FM-15,7,,,,,,,,,,,,,,,,,,,,,,,,,,,3/27/2007
72219013874,2020-01-10T23:59:00,SOD  ,6,,,,,,,,,,,,,,,,,49,58,72,30.37,29.28,53,10.3,0,15.1,7,66,50,100,22,0,0,0,110,14,,,,,,,,,,,,,,,,,,,,,,,,,,,,,,,,,,,,,,,,,,,,,,,,,,,,,,,,SOD73924 HR PRECIPITATION (IN): 0.00 SNOW DEPTH (IN):0     24 HR SNOWFALL (IN):0.0  24 HR MAX TEMP (F): 6624 HR MIN TEMP (F): 50AVERAGE STATION PRESSURE:29.285 MINIMUM SEA LEVEL PRESSURE:30.24 TIME OF OCCURRENCE:2356 PEAK WIND SPEED (MPH): 22 PEAK WIND DIR (DEG):100 PEAK WIND TIME (LST):      FASTEST 2MIN SPEED (MPH): 14FASTEST 2MIN DIR (DEG):110 FASTEST 2MIN TIME (LST):     AVERAGE WIND SPEED (MPH):10.3 24 HR AVG TEMP (F): 58DEPART FROM NORMAL: 15  HEATING DEGREE DAYS:  7 COOLING DEGREE DAYS:  0 LATEST DAY MAX TEMP (0700-1900 LST):66  LATEST NIGHT MIN TEMP(1900-0800 LST):50 HOURLY INCREMENTAL PRECIPITATION VALUES (IN):.00 0.00 0.00 0.00 0.00 0.00 0.00 0.00 0.00 0.00 0.00 0.00 0.00 0.00 0.00 0.00 0.00 0.00 0.00 0.00 0.00 0.00 0.00 0.00,SOD  ,6,,,,,,,,,,,,,,,,,,,,,,,,,743,1748,3/27/2007
72219013874,2020-01-11T00:50:00,FM-16,6,,,,,,,,,,,,,,,,,,,,,,,,,,,,,,,,,,,,,,,30.23,57,61,,,,,88,,BKN:07 7 BKN:07 12 OVC:08 50,29.13,10,59,130,,8,,,,,,,,,,,,,,,,,,,,,,,,,,,,,,,,,,,,,MET10701/11/20 00:50:02 SPECI KATL 110550Z 13007KT 10SM BKN007 BKN012 OVC050 16/14 A3023 RMK AO2 BINOVC FIBI (RF),FM-16,6,,,,,,,,,,,,,,,,,,,,,,,,,,,3/27/2007
72219013874,2020-01-11T00:52:00,FM-15,7,,,,,,,,,,,,,,,,,,,,,,,,,,,,,,,,,,,,,,,30.23,57,60,0,,0.05,8,90,30.22,BKN:07 7 BKN:07 12 OVC:08 50,29.13,10,58,130,,11,,,,,,,,,,,,,,,,,,,,,,,,,,,,,,,,,,,,,MET13701/11/20 00:52:02 METAR KATL 110552Z 13010KT 10SM BKN007 BKN012 OVC050 16/14 A3023 RMK AO2 SLP233 BINOVC T01560139 10161 20150 58017 (RF),FM-15,7,,,,,,,,,,,,,,,,,,,,,,,,,,,3/27/2007
72219013874,2020-01-11T01:00:00,FM-12,4,,,,,,,,,,,,,,,,,,,,,,,,,,,,,,,,,,,,,,,,57,60,,,0.05,8,90,30.22,8,29.12,9.94,58,130,,11,,,,,,,,,,,,,,,,,,,,,,,,,,,,,,,,,,,,,SYN08072219 32366 81310 10156 20139 39861 40233 58017 90552 333 10161 20106 555 91106=,FM-12,4,,,,,,,,,,,,,,,,,,,,,,,,,,,3/27/2007
72219013874,2020-01-11T01:52:00,FM-15,7,,,,,,,,,,,,,,,,,,,,,,,,,,,,,,,,,,,,,,,30.21,58,61,0,,,,90,30.19,BKN:07 6 OVC:08 12,29.11,10,59,130,,7,,,,,,,,,,,,,,,,,,,,,,,,,,,,,,,,,,,,,MET10501/11/20 01:52:02 METAR KATL 110652Z 13006KT 10SM BKN006 OVC012 16/14 A3021 RMK AO2 SLP225 T01610144 (DB),FM-15,7,,,,,,,,,,,,,,,,,,,,,,,,,,,3/27/2007
72219013874,2020-01-11T02:52:00,FM-15,7,,,,,,,,,,,,,,,,,,,,,,,,,,,,,,,,,,,,,,,30.19,59,63,0,,,,87,30.18,OVC:08 7,29.09,10,61,140,18,13,,,,,,,,,,,,,,,,,,,,,,,,,,,,,,,,,,,,,MET10101/11/20 02:52:02 METAR KATL 110752Z 14011G16KT 10SM OVC007 17/15 A3019 RMK AO2 SLP219 T01720150 (DB),FM-15,7,,,,,,,,,,,,,,,,,,,,,,,,,,,3/27/2007
72219013874,2020-01-11T03:45:00,FM-16,7,,,,,,,,,,,,,,,,,,,,,,,,,,,,,,,,,,,,,,,30.17,59,63,,,,,87,,BKN:07 13 OVC:08 55,29.07,10,61,150,,13,,,,,,,,,,,,,,,,,,,,,,,,,,,,,,,,,,,,,MET09801/11/20 03:45:02 SPECI KATL 110845Z 15011KT 10SM BKN013 OVC055 17/15 A3017 RMK AO2 T01720150 (DB),FM-16,7,,,,,,,,,,,,,,,,,,,,,,,,,,,3/27/2007
72219013874,2020-01-11T03:52:00,FM-15,7,,,,,,,,,,,,,,,,,,,,,,,,,,,,,,,,,,,,,,,30.17,59,63,0,,0.05,6,87,30.16,BKN:07 11 BKN:07 16 BKN:07 55,29.07,10,61,150,,11,,,,,,,,,,,,,,,,,,,,,,,,,,,,,,,,,,,,,MET11801/11/20 03:52:02 METAR KATL 110852Z 15010KT 10SM BKN011 BKN016 BKN055 17/15 A3017 RMK AO2 SLP213 T01720150 56018 (DB),FM-15,7,,,,,,,,,,,,,,,,,,,,,,,,,,,3/27/2007
72219013874,2020-01-11T03:59:00,FM-16,7,,,,,,,,,,,,,,,,,,,,,,,,,,,,,,,,,,,,,,,30.17,59,63,,,,,87,,SCT:04 11 BKN:07 17 BKN:07 55,29.07,10,61,150,20,14,,,,,,,,,,,,,,,,,,,,,,,,,,,,,,,,,,,,,MET10801/11/20 03:59:02 SPECI KATL 110859Z 15012G17KT 10SM SCT011 BKN017 BKN055 17/15 A3017 RMK AO2 T01720150 (DB),FM-16,7,,,,,,,,,,,,,,,,,,,,,,,,,,,3/27/2007
72219013874,2020-01-11T04:52:00,FM-15,7,,,,,,,,,,,,,,,,,,,,,,,,,,,,,,,,,,,,,,,30.15,59,65,0,,,,81,30.13,OVC:08 15,29.05,10,61,170,22,15,,,,,,,,,,,,,,,,,,,,,,,,,,,,,,,,,,,,,MET11301/11/20 04:52:02 METAR KATL 110952Z 17013G19KT 10SM OVC015 18/15 A3015 RMK AO2 SLP204 CIG 014V018 T01830150 (DB),FM-15,7,,,,,,,,,,,,,,,,,,,,,,,,,,,3/27/2007
72219013874,2020-01-11T05:38:00,FM-16,7,,,,,,,,,,,,,,,,,,,,,,,,,,,,,,,,,,,,,,,30.13,60,65,,,,,84,,BKN:07 13 OVC:08 50,29.03,10,62,170,24,15,,,,,,,,,,,,,,,,,,,,,,,,,,,,,,,,,,,,,MET10101/11/20 05:38:02 SPECI KATL 111038Z 17013G21KT 10SM BKN013 OVC050 18/16 A3013 RMK AO2 T01830156 (DB),FM-16,7,,,,,,,,,,,,,,,,,,,,,,,,,,,3/27/2007
72219013874,2020-01-11T05:52:00,FM-15,7,,,,,,,,,,,,,,,,,,,,,,,,,,,,,,,,,,,,,,,30.12,60,66,0,,,,81,30.11,BKN:07 13 OVC:08 50,29.02,10,62,170,25,13,,,,,,,,,,,,,,,,,,,,,,,,,,,,,,,,,,,,,MET10801/11/20 05:52:02 METAR KATL 111052Z 17011G22KT 10SM BKN013 OVC050 19/16 A3012 RMK AO2 SLP197 T01890156 (DB),FM-15,7,,,,,,,,,,,,,,,,,,,,,,,,,,,3/27/2007
72219013874,2020-01-11T06:52:00,FM-15,7,,,,,,,,,,,,,,,,,,,,,,,,,,,,,,,,,,,,,,,30.13,60,65,T,-RA:02 |RA |RA,0.04,5,84,30.12,OVC:08 13,29.03,10,62,160,,14,,,,,,,,,,,,,,,,,,,,,,,,,,,,,,,,,,,,,MET15001/11/20 06:52:02 METAR KATL 111152Z 16012KT 10SM -RA OVC013 18/16 A3013 RMK AO2 RAB02 SLP200 CIG 011V015 P0000 60000 T01830156 10189 20156 55013 (DB),FM-15,7,,,,,,,,,,,,,,,,,,,,,,,,,,,3/27/2007
72219013874,2020-01-11T07:52:00,FM-15,7,,,,,,,,,,,,,,,,,,,,,,,,,,,,,,,,,,,,,,,30.12,60,66,0,,,,81,30.11,OVC:08 13,29.02,10,62,160,22,15,,,,,,,,,,,,,,,,,,,,,,,,,,,,,,,,,,,,,MET12701/11/20 07:52:02 METAR KATL 111252Z 16013G19KT 10SM OVC013 19/16 A3012 RMK AO2 RAE1153 SLP197 CIG 012V016 P0000 T01890156 (DB),FM-15,7,,,,,,,,,,,,,,,,,,,,,,,,,,,3/27/2007
72219013874,2020-01-11T08:52:00,FM-15,6,,,,,,,,,,,,,,,,,,,,,,,,,,,,,,,,,,,,,,,30.13,61,67,0,,,,81,30.11,OVC:08 14,29.03,10,63,160,23,16,,,,,,,,,,,,,,,,,,,,,,,,,,,,,,,,,,,,,MET11301/11/20 08:52:02 METAR KATL 111352Z 16014G20KT 10SM OVC014 19/16 A3013 RMK AO2 SLP197 CIG 013V018 T01940161 (DB),FM-15,6,,,,,,,,,,,,,,,,,,,,,,,,,,,3/27/2007
72219013874,2020-01-11T09:52:00,FM-15,6,,,,,,,,,,,,,,,,,,,,,,,,,,,,,,,,,,,,,,,30.14,61,67,T,-DZ:01 |DZ |DZ,-0.01,3,81,30.13,BKN:07 14 OVC:08 20,29.04,8,63,180,28,17,,,,,,,,,,,,,,,,,,,,,,,,,,,,,,,,,,,,,MET15401/11/20 09:52:02 METAR KATL 111452Z 18015G24KT 8SM -DZ BKN014 OVC020 19/16 A3014 RMK AO2 PK WND 17027/1427 SLP204 DZB40 P0000 60000 T01940161 53004 (CPS),FM-15,6,,,,,,,,,,,,,,,,,,,,,,,,,,,3/27/2007
72219013874,2020-01-11T10:52:00,FM-15,7,,,,,,,,,,,,,,,,,,,,,,,,,,,,,,,,,,,,,,,30.15,62,67,T,-DZ:01 |DZ |DZ,,,84,30.14,BKN:07 11 OVC:08 15,29.05,7,64,180,24,17,,,,,,,,,,,,,,,,,,,,,,,,,,,,,,,,,,,,,MET13601/11/20 10:52:02 METAR KATL 111552Z 18015G21KT 7SM -DZ BKN011 OVC015 19/17 A3015 RMK AO2 PK WND 18026/1505 SLP206 P0000 T01940167 (CPS),FM-15,7,,,,,,,,,,,,,,,,,,,,,,,,,,,3/27/2007
72219013874,2020-01-11T11:31:00,FM-16,6,,,,,,,,,,,,,,,,,,,,,,,,,,,,,,,,,,,,,,,30.14,63,67,,-RA:02 BR:1 |RA |RA,,,87,,OVC:08 12,29.04,2,65,170,21,14,,,,,,,,,,,,,,,,,,,,,,,,,,,,,,,,,,,,,MET13001/11/20 11:31:02 SPECI KATL 111631Z 17012G18KT 2SM -RA BR OVC012 19/17 A3014 RMK AO2 DZE11RAB11 CIG 010V015 P0001 T01940172 (CPS),FM-16,6,,,,,,,,,,,,,,,,,,,,,,,,,,,3/27/2007
72219013874,2020-01-11T11:39:00,FM-16,7,,,,,,,,,,,,,,,,,,,,,,,,,,,,,,,,,,,,,,,30.13,63,67,0.02,-RA:02 BR:1 |RA |RA,,,87,,FEW:02 8 OVC:08 13,29.03,2,65,160,23,14,,,,,,,,,,,,,,,,,,,,,,,,,,,,,,,,,,,,,MET13701/11/20 11:39:02 SPECI KATL 111639Z 16012G20KT 2SM -RA BR FEW008 OVC013 19/17 A3013 RMK AO2 DZE11RAB11 CIG 010V016 P0002 T01940172 (CPS),FM-16,7,,,,,,,,,,,,,,,,,,,,,,,,,,,3/27/2007
72219013874,2020-01-11T11:52:00,FM-15,6,,,,,,,,,,,,,,,,,,,,,,,,,,,,,,,,,,,,,,,30.12,64,67,0.02,-RA:02 BR:1 |RA |RA,,,91,30.11,SCT:04 8 BKN:07 13 OVC:08 20,29.02,2,65,160,24,14,,,,,,,,,,,,,,,,,,,,,,,,,,,,,,,,,,,,,MET15101/11/20 11:52:02 METAR KATL 111652Z 16012G21KT 2SM -RA BR SCT008 BKN013 OVC020 19/18 A3012 RMK AO2 SLP195 DZE11RAB11 CIG 010V016 P0002 T01940178 (CPS),FM-15,6,,,,,,,,,,,,,,,,,,,,,,,,,,,3/27/2007
72219013874,2020-01-11T12:10:00,FM-16,7,,,,,,,,,,,,,,,,,,,,,,,,,,,,,,,,,,,,,,,30.1,64,67,T,-RA:02 BR:1 |RA |RA,,,91,,SCT:04 6 BKN:07 10 OVC:08 20,29,4,65,180,23,14,,,,,,,,,,,,,,,,,,,,,,,,,,,,,,,,,,,,,MET12101/11/20 12:10:02 SPECI KATL 111710Z 18012G20KT 4SM -RA BR SCT006 BKN010 OVC020 19/18 A3010 RMK AO2 P0000 T01940178 (CPS),FM-16,7,,,,,,,,,,,,,,,,,,,,,,,,,,,3/27/2007
72219013874,2020-01-11T12:18:00,FM-16,6,,,,,,,,,,,,,,,,,,,,,,,,,,,,,,,,,,,,,,,30.1,64,68,,-DZ:01 |DZ |DZ,,,87,,BKN:07 8 OVC:08 15,29,7,65,170,22,14,,,,,,,,,,,,,,,,,,,,,,,,,,,,,,,,,,,,,MET13401/11/20 12:18:02 SPECI KATL 111718Z 17012G19KT 7SM -DZ BKN008 OVC015 20/18 A3010 RMK AO2 RAE11DZB11 CIG 006V010 P0000 T02000178 (CPS),FM-16,6,,,,,,,,,,,,,,,,,,,,,,,,,,,3/27/2007
72219013874,2020-01-11T12:52:00,FM-15,7,,,,,,,,,,,,,,,,,,,,,,,,,,,,,,,,,,,,,,,30.07,64,68,T,-DZ:01 |DZ |DZ,0.07,8,87,30.06,BKN:07 9 OVC:08 15,28.97,8,65,170,24,15,,,,,,,,,,,,,,,,,,,,,,,,,,,,,,,,,,,,,MET16501/11/20 12:52:02 METAR KATL 111752Z 17013G21KT 8SM -DZ BKN009 OVC015 20/18 A3007 RMK AO2 SLP179 RAE11DZB11 CIG 007V011 P0000 60002 T02000178 10200 20183 58024 (CPS),FM-15,7,,,,,,,,,,,,,,,,,,,,,,,,,,,3/27/2007
72219013874,2020-01-11T13:00:00,FM-12,4,,,,,,,,,,,,,,,,,,,,,,,,,,,,,,,,,,,,,,,,64,68,,||DZ,0.07,8,87,30.06,8,28.96,7.46,65,170,,15,,,,,,,,,,,,,,,,,,,,,,,,,,,,,,,,,,,,,SYN09872219 11362 81713 10200 20178 39808 40179 58024 69951 751// 91752 333 10200 20161 91021 555 91118=,FM-12,4,,,,,,,,,,,,,,,,,,,,,,,,,,,3/27/2007
72219013874,2020-01-11T13:24:00,FM-16,7,,,,,,,,,,,,,,,,,,,,,,,,,,,,,,,,,,,,,,,30.05,64,68,0.01,-RA:02 BR:1 |RA |RA,,,87,,BKN:07 9 OVC:08 15,28.95,2,65,170,32,15,,,,,,,,,,,,,,,,,,,,,,,,,,,,,,,,,,,,,MET15501/11/20 13:24:02 SPECI KATL 111824Z 17013G28KT 2SM -RA BR BKN009 OVC015 20/18 A3005 RMK AO2 PK WND 17028/1815 DZE12RAB12 CIG 007V011 P0001 T02000178 (CPS),FM-16,7,,,,,,,,,,,,,,,,,,,,,,,,,,,3/27/2007
72219013874,2020-01-11T13:50:00,FM-16,6,,,,,,,,,,,,,,,,,,,,,,,,,,,,,,,,,,,,,,,30.04,64,68,,RA:02 BR:1 |RA |RA,,,88,,OVC:08 8,28.94,1.75,65,170,,14,,,,,,,,,,,,,,,,,,,,,,,,,,,,,,,,,,,,,MET16101/11/20 13:50:02 SPECI KATL 111850Z 17012KT 1 3/4SM R09R/6000VP6000FT RA BR OVC008 20/18 A3004 RMK AO2 PK WND 17028/1815 DZE12RAB12 CIG 006V010 P0004 FIBI (CPS),FM-16,6,,,,,,,,,,,,,,,,,,,,,,,,,,,3/27/2007
72219013874,2020-01-11T13:52:00,FM-15,6,,,,,,,,,,,,,,,,,,,,,,,,,,,,,,,,,,,,,,,30.04,65,68,0.05,RA:02 BR:1 |RA |RA,,,90,30.02,OVC:08 8,28.94,1.75,66,170,21,15,,,,,,,,,,,,,,,,,,,,,,,,,,,,,,,,,,,,,MET17601/11/20 13:52:02 METAR KATL 111852Z 17013G18KT 1 3/4SM R09R/6000VP6000FT RA BR OVC008 20/18 A3004 RMK AO2 PK WND 17028/1815 DZE12RAB12 SLP167 CIG 006V010 P0005 T02000183 (CPS),FM-15,6,,,,,,,,,,,,,,,,,,,,,,,,,,,3/27/2007
72219013874,2020-01-11T13:58:00,FM-16,7,,,,,,,,,,,,,,,,,,,,,,,,,,,,,,,,,,,,,,,30.04,65,68,T,-RA:02 BR:1 |RA |RA,,,90,,OVC:08 8,28.94,2,66,170,,13,,,,,,,,,,,,,,,,,,,,,,,,,,,,,,,,,,,,,MET11601/11/20 13:58:02 SPECI KATL 111858Z 17011KT 2SM -RA BR OVC008 20/18 A3004 RMK AO2 CIG 006V010 P0000 T02000183 (CPS),FM-16,7,,,,,,,,,,,,,,,,,,,,,,,,,,,3/27/2007
72219013874,2020-01-11T14:18:00,FM-16,7,,,,,,,,,,,,,,,,,,,,,,,,,,,,,,,,,,,,,,,30.02,65,68,0.01,-RA:02 |RA |RA,,,90,,BKN:07 9 OVC:08 14,28.92,7,66,180,20,15,,,,,,,,,,,,,,,,,,,,,,,,,,,,,,,,,,,,,MET12301/11/20 14:18:02 SPECI KATL 111918Z 18013G17KT 7SM -RA BKN009 OVC014 20/18 A3002 RMK AO2 CIG 007V011 P0001 T02000183 (CPS),FM-16,7,,,,,,,,,,,,,,,,,,,,,,,,,,,3/27/2007
72219013874,2020-01-11T14:37:00,FM-16,7,,,,,,,,,,,,,,,,,,,,,,,,,,,,,,,,,,,,,,,30.01,65,68,0.06,-RA:02 BR:1 |RA |RA,,,90,,SCT:04 6 BKN:07 9 OVC:08 14,28.91,3,66,180,22,14,,,,,,,,,,,,,,,,,,,,,,,,,,,,,,,,,,,,,MET13901/11/20 14:37:02 SPECI KATL 111937Z 18012G19KT 3SM R09R/5000VP6000FT -RA BR SCT006 BKN009 OVC014 20/18 A3001 RMK AO2 P0006 T02000183 (CPS),FM-16,7,,,,,,,,,,,,,,,,,,,,,,,,,,,3/27/2007
72219013874,2020-01-11T14:52:00,FM-15,7,,,,,,,,,,,,,,,,,,,,,,,,,,,,,,,,,,,,,,,30.01,66,69,0.06,-RA:02 |RA |RA,,,90,30,BKN:07 8 OVC:08 19,28.91,7,67,170,22,14,,,,,,,,,,,,,,,,,,,,,,,,,,,,,,,,,,,,,MET13201/11/20 14:52:02 METAR KATL 111952Z 17012G19KT 7SM -RA BKN008 OVC019 21/19 A3001 RMK AO2 SLP158 CIG 006V010 P0006 T02060189 $ (CPS),FM-15,7,,,,,,,,,,,,,,,,,,,,,,,,,,,3/27/2007
72219013874,2020-01-11T15:49:00,FM-16,7,,,,,,,,,,,,,,,,,,,,,,,,,,,,,,,,,,,,,,,29.99,64,70,T,,,,83,,BKN:07 10 OVC:08 16,28.89,10,66,170,23,14,,,,,,,,,,,,,,,,,,,,,,,,,,,,,,,,,,,,,MET11801/11/20 15:49:02 SPECI KATL 112049Z 17012G20KT 10SM BKN010 OVC016 21/18 A2999 RMK AO2 RAE17 CIG 008V012 P0000 $ (CPS),FM-16,7,,,,,,,,,,,,,,,,,,,,,,,,,,,3/27/2007
72219013874,2020-01-11T15:52:00,FM-15,7,,,,,,,,,,,,,,,,,,,,,,,,,,,,,,,,,,,,,,,29.98,65,69,T,,0.05,6,87,29.97,BKN:07 10 OVC:08 16,28.88,10,66,170,24,20,,,,,,,,,,,,,,,,,,,,,,,,,,,,,,,,,,,,,MET14701/11/20 15:52:02 METAR KATL 112052Z 17017G21KT 10SM BKN010 OVC016 21/18 A2998 RMK AO2 RAE17 SLP148 CIG 008V012 P0000 60011 T02060183 56018 $ (CPS),FM-15,7,,,,,,,,,,,,,,,,,,,,,,,,,,,3/27/2007
72219013874,2020-01-11T16:52:00,FM-15,7,,,,,,,,,,,,,,,,,,,,,,,,,,,,,,,,,,,,,,,29.96,64,70,0,,,,82,29.94,BKN:07 14 BKN:07 23 BKN:07 30,28.87,10,66,170,28,21,,,,,,,,,,,,,,,,,,,,,,,,,,,,,,,,,,,,,MET16501/11/20 16:52:02 METAR KATL 112152Z 17018G24KT 10SM BKN014 BKN023 BKN030 21/18 A2996 RMK AO2 PK WND 18027/2139 SLP140 LTG DSNT SW-NW CB DSNT SW-NW T02110178 $ (CPS),FM-15,7,,,,,,,,,,,,,,,,,,,,,,,,,,,3/27/2007
72219013874,2020-01-11T17:23:00,FM-16,7,,,,,,,,,,,,,,,,,,,,,,,,,,,,,,,,,,,,,,,29.98,64,70,,TS:7 |TS |RA,,,82,,BKN:07 14 BKN:07 26 BKN:07 50,28.88,10,66,170,28,15,,,,,,,,,,,,,,,,,,,,,,,,,,,,,,,,,,,,,MET16001/11/20 17:23:02 SPECI KATL 112223Z 17013G24KT 10SM TS BKN014 BKN026CB BKN0 21/18 A2998 RMK AO2 TSB22 FRQ LTGICCGCA SW-NW-N TS SW-NW-N MOV NE T02110178 $ (KAF),FM-16,7,,,,,,,,,,,,,,,,,,,,,,,,,,,3/27/2007
72219013874,2020-01-11T17:38:00,FM-16,7,,,,,,,,,,,,,,,,,,,,,,,,,,,,,,,,,,,,,,,29.98,64,70,T,TS:7 -RA:02 |RA TS TS |RA,,,82,,SCT:04 10 BKN:07 18 OVC:08 28,28.88,10,66,180,25,16,,,,,,,,,,,,,,,,,,,,,,,,,,,,,,,,,,,,,MET17701/11/20 17:38:02 SPECI KATL 112238Z 18014G22KT 10SM -TSRA SCT010 BKN018 OVC028CB 21/18 A2998 RMK AO2 RAB27 TSB22 FRQ LTGICCGCA SW-NW-N TS SW-NW-N MOV NE P0000 T02110178 $ (KAF),FM-16,7,,,,,,,,,,,,,,,,,,,,,,,,,,,3/27/2007
72219013874,2020-01-11T17:52:00,FM-15,7,,,,,,,,,,,,,,,,,,,,,,,,,,,,,,,,,,,,,,,30.01,63,67,0.33,TS:7 +RA:02 BR:1 |RA TS |RA,,,87,29.99,SCT:04 8 OVC:08 15,28.91,0.75,65,260,37,22,,,,,,,,,,,,,,,,,,,,,,,,,,,,,,,,,,,,,MET22601/11/20 17:52:02 METAR KATL 112252Z 26019G32KT 3/4SM R09R/4000VP6000FT +TSRA BR SCT008 OVC015CB 19/17 A3001 RMK AO2 PK WND 22032/2248 RAB27 TSB22 PRESRR SLP156 FRQ LTGICCGCA N-OHD-SW TS N-OHD-SW MOV NE P0005 T01940172 $ (KAF),FM-15,7,,,,,,,,,,,,,,,,,,,,,,,,,,,3/27/2007
72219013874,2020-01-11T17:56:00,FM-16,7,,,,,,,,,,,,,,,,,,,,,,,,,,,,,,,,,,,,,,,30,62,65,0.2,TS:7 +RA:02 BR:1 |RA TS |RA,,,90,,SCT:04 10 OVC:08 16,28.9,0.75,63,240,37,11,,,,,,,,,,,,,,,,,,,,,,,,,,,,,,,,,,,,,MET19501/11/20 17:56:02 SPECI KATL 112256Z 24010G32KT 3/4SM R09R/4000VP6000FT +TSRA BR SCT010 OVC016CB 18/17 A3000 RMK AO2 WSHFT 2239 FRQ LTGICCGCA NE-OHD-SW TS NE-OHD-SW MOV NE P0020 T01830167 $ (KAF),FM-16,7,,,,,,,,,,,,,,,,,,,,,,,,,,,3/27/2007
72219013874,2020-01-11T17:58:00,FM-16,7,,,,,,,,,,,,,,,,,,,,,,,,,,,,,,,,,,,,,,,30.01,62,65,0.25,TS:7 +RA:02 BR:1 |RA TS |RA,,,90,,SCT:04 8 OVC:08 15,28.91,1,63,230,34,11,,,,,,,,,,,,,,,,,,,,,,,,,,,,,,,,,,,,,MET19301/11/20 17:58:02 SPECI KATL 112258Z 23010G30KT 1SM R09R/4000VP6000FT +TSRA BR SCT008 OVC015CB 18/17 A3001 RMK AO2 WSHFT 2239 FRQ LTGICCGCA NE-OHD-SW TS NE-OHD-SW MOV NE P0025 T01830167 $ (KAF),FM-16,7,,,,,,,,,,,,,,,,,,,,,,,,,,,3/27/2007
72219013874,2020-01-11T18:09:00,FM-16,7,,,,,,,,,,,,,,,,,,,,,,,,,,,,,,,,,,,,,,,30.01,62,65,0.53,TS:7 +RA:02 BR:1 |RA TS |RA,,,90,,SCT:04 8 OVC:08 15,28.91,0.75,63,VRB,21,9,,,,,,,,,,,,,,,,,,,,,,,,,,,,,,,,,,,,,MET19501/11/20 18:09:02 SPECI KATL 112309Z 21008G18KT 3/4SM R09R/3000VP6000FT +TSRA BR SCT008 OVC015CB 18/17 A3001 RMK AO2 WSHFT 2239 FRQ LTGICCGCA OHD-ALQDS TS OHD-ALQDS MOV NE P0053 T01830167 $ (KAF),FM-16,7,,,,,,,,,,,,,,,,,,,,,,,,,,,3/27/2007
72219013874,2020-01-11T18:13:00,FM-16,7,,,,,,,,,,,,,,,,,,,,,,,,,,,,,,,,,,,,,,,29.99,62,65,0.78,TS:7 +RA:02 BR:1 |RA TS |RA,,,90,,SCT:04 8 OVC:08 15,28.89,1.5,63,200,25,15,,,,,,,,,,,,,,,,,,,,,,,,,,,,,,,,,,,,,MET20401/11/20 18:13:02 SPECI KATL 112313Z 20013G22KT 1 1/2SM R09R/3000VP6000FT +TSRA BR SCT008 OVC015CB 18/17 A2999 RMK AO2 WSHFT 2239 PRESFR FRQ LTGICCGCA OHD-ALQDS TS OHD-ALQDS MOV NE P0078 T01830167 $ (KAF),FM-16,7,,,,,,,,,,,,,,,,,,,,,,,,,,,3/27/2007
72219013874,2020-01-11T18:16:00,FM-16,7,,,,,,,,,,,,,,,,,,,,,,,,,,,,,,,,,,,,,,,29.99,62,65,0.8,TS:7 +RA:02 BR:1 |RA TS |RA,,,90,,SCT:04 8 OVC:08 15,28.89,2.5,63,220,25,11,,,,,,,,,,,,,,,,,,,,,,,,,,,,,,,,,,,,,MET19701/11/20 18:16:02 SPECI KATL 112316Z 22010G22KT 2 1/2SM R09R/3000VP6000FT +TSRA BR SCT008 OVC015CB 18/17 A2999 RMK AO2 WSHFT 2239 FRQ LTGICCGCA OHD-ALQDS TS OHD-ALQDS MOV NE P0080 T01830167 $ (KAF),FM-16,7,,,,,,,,,,,,,,,,,,,,,,,,,,,3/27/2007
72219013874,2020-01-11T18:22:00,FM-16,7,,,,,,,,,,,,,,,,,,,,,,,,,,,,,,,,,,,,,,,30,62,65,0.83,TS:7 RA:02 BR:1 |RA TS |RA,,,90,,FEW:02 7 SCT:04 16 OVC:08 36,28.9,3,63,230,,10,,,,,,,,,,,,,,,,,,,,,,,,,,,,,,,,,,,,,MET17801/11/20 18:22:02 SPECI KATL 112322Z 23009KT 3SM TSRA BR FEW007 SCT016 OVC036CB 18/17 A3000 RMK AO2 WSHFT 2239 FRQ LTGICCGCA OHD-ALQDS TS OHD-ALQDS MOV NE P0083 T01830167 $ (KAF),FM-16,7,,,,,,,,,,,,,,,,,,,,,,,,,,,3/27/2007
72219013874,2020-01-11T18:52:00,FM-15,7,,,,,,,,,,,,,,,,,,,,,,,,,,,,,,,,,,,,,,,30,63,67,0.71,TS:7 RA:02 BR:1 |RA TS |RA,-0.02,3,87,29.99,FEW:02 11 BKN:07 46 OVC:08 85,28.9,5,65,200,23,17,,,,,,,,,,,,,,,,,,,,,,,,,,,,,,,,,,,,,MET21101/11/20 18:52:02 METAR KATL 112352Z 20015G20KT 5SM TSRA BR FEW011 BKN046CB OVC085 19/17 A3000 RMK AO2 WSHFT 2239 SLP155 OCNL LTGICCA OHD-ALQDS TS OHD-ALQDS MOV NE P0097 60113 T01940172 10211 20183 53007 $ (KAF),FM-15,7,,,,,,,,,,,,,,,,,,,,,,,,,,,3/27/2007
72219013874,2020-01-11T19:00:00,FM-12,4,,,,,,,,,,,,,,,,,,,,,,,,,,,,,,,,,,,,,,,,63,67,,||TS,-0.02,3,87,29.99,15,28.9,4.97,65,200,,17,,,,,,,,,,,,,,,,,,,,,,,,,,,,,,,,,,,,,SYN10472219 11458 82015 10194 20172 39785 40155 53007 60291 795// 92352 333 10211 20156 91020 96010 555 91200=,FM-12,4,,,,,,,,,,,,,,,,,,,,,,,,,,,3/27/2007
72219013874,2020-01-11T19:02:00,FM-16,7,,,,,,,,,,,,,,,,,,,,,,,,,,,,,,,,,,,,,,,30.01,63,66,0.03,RA:02 BR:1 |RA |RA,,,90,,FEW:02 8 BKN:07 80 OVC:08 110,28.91,5,64,190,22,14,,,,,,,,,,,,,,,,,,,,,,,,,,,,,,,,,,,,,MET13301/11/20 19:02:01 SPECI KATL 120002Z 19012G19KT 5SM RA BR FEW008 BKN080 OVC110 19/17 A3001 RMK AO2 TSE02 TS MOVD NE P0003 T01890172 $,FM-16,7,,,,,,,,,,,,,,,,,,,,,,,,,,,3/27/2007
72219013874,2020-01-11T19:33:00,FM-16,7,,,,,,,,,,,,,,,,,,,,,,,,,,,,,,,,,,,,,,,30.04,62,65,0.08,|RA |RA,,,90,,BKN:07 10 BKN:07 18 BKN:07 65,28.94,7,63,200,23,15,,,,,,,,,,,,,,,,,,,,,,,,,,,,,,,,,,,,,MET16401/11/20 19:33:01 SPECI KATL 120033Z 20013G20KT 7SM -RA BKN010 BKN018 BKN065 18/17 A3004 RMK AO2 LTG DSNT S TSE02 TS MOVD NE CIG 008V012 CB DSNT S P0008 T01830167 $,FM-16,7,,,,,,,,,,,,,,,,,,,,,,,,,,,3/27/2007
72219013874,2020-01-11T19:52:00,FM-15,7,,,,,,,,,,,,,,,,,,,,,,,,,,,,,,,,,,,,,,,30.02,62,65,0.1,-RA:02 BR:1 |RA |RA,,,90,30,BKN:07 10 OVC:08 20,28.92,6,63,190,,13,,,,,,,,,,,,,,,,,,,,,,,,,,,,,,,,,,,,,MET16601/11/20 19:52:01 METAR KATL 120052Z 19011KT 6SM -RA BR BKN010 OVC020 18/17 A3002 RMK AO2 LTG DSNT S TSE02 SLP160 TS MOVD NE CIG 008V012 CB DSNT E-S P0011 T01830167 $,FM-15,7,,,,,,,,,,,,,,,,,,,,,,,,,,,3/27/2007
72219013874,2020-01-11T20:52:00,FM-15,7,,,,,,,,,,,,,,,,,,,,,,,,,,,,,,,,,,,,,,,30.07,61,65,T,,,,87,30.05,BKN:07 12 BKN:07 18 OVC:08 38,28.97,10,63,210,21,13,,,,,,,,,,,,,,,,,,,,,,,,,,,,,,,,,,,,,MET13601/11/20 20:52:01 METAR KATL 120152Z 21011G18KT 10SM BKN012 BKN018 OVC038 18/16 A3007 RMK AO2 RAE15 SLP177 CIG 010V014 P0001 T01830161 $,FM-15,7,,,,,,,,,,,,,,,,,,,,,,,,,,,3/27/2007
72219013874,2020-01-11T21:16:00,FM-16,7,,,,,,,,,,,,,,,,,,,,,,,,,,,,,,,,,,,,,,,30.08,61,65,,,,,87,,SCT:04 14 BKN:07 38 OVC:08 80,28.98,10,63,210,,13,,,,,,,,,,,,,,,,,,,,,,,,,,,,,,,,,,,,,MET10201/11/20 21:16:01 SPECI KATL 120216Z 21011KT 10SM SCT014 BKN038 OVC080 18/16 A3008 RMK AO2 T01830161 $,FM-16,7,,,,,,,,,,,,,,,,,,,,,,,,,,,3/27/2007
72219013874,2020-01-11T21:52:00,FM-15,7,,,,,,,,,,,,,,,,,,,,,,,,,,,,,,,,,,,,,,,30.1,60,64,0,,-0.09,3,87,30.09,SCT:04 14 BKN:07 55 OVC:08 95,29,10,62,210,,8,,,,,,,,,,,,,,,,,,,,,,,,,,,,,,,,,,,,,MET13701/11/20 21:52:01 METAR KATL 120252Z 21007KT 10SM SCT014 BKN055 OVC095 18/16 A3010 RMK AO2 SLP188 MDT CU E-S W-NW 60012 T01780156 53032 $,FM-15,7,,,,,,,,,,,,,,,,,,,,,,,,,,,3/27/2007
72219013874,2020-01-11T22:16:00,FM-16,7,,,,,,,,,,,,,,,,,,,,,,,,,,,,,,,,,,,,,,,30.12,60,64,T,-RA:02 BR:1 |RA |RA,,,87,,SCT:04 14 BKN:07 28 OVC:08 60,29.02,4,62,210,,9,,,,,,,,,,,,,,,,,,,,,,,,,,,,,,,,,,,,,MET12001/11/20 22:16:01 SPECI KATL 120316Z 21008KT 4SM -RA BR SCT014 BKN028 OVC060 18/16 A3012 RMK AO2 RAB09 P0000 T01780156 $,FM-16,7,,,,,,,,,,,,,,,,,,,,,,,,,,,3/27/2007
72219013874,2020-01-11T22:41:00,FM-16,7,,,,,,,,,,,,,,,,,,,,,,,,,,,,,,,,,,,,,,,30.13,60,64,0.01,-RA:02 BR:1 |RA |RA,,,87,,FEW:02 14 BKN:07 36 OVC:08 65,29.03,6,62,230,,9,,,,,,,,,,,,,,,,,,,,,,,,,,,,,,,,,,,,,MET12001/11/20 22:41:01 SPECI KATL 120341Z 23008KT 6SM -RA BR FEW014 BKN036 OVC065 18/16 A3013 RMK AO2 RAB09 P0001 T01780156 $,FM-16,7,,,,,,,,,,,,,,,,,,,,,,,,,,,3/27/2007
72219013874,2020-01-11T22:52:00,FM-15,7,,,,,,,,,,,,,,,,,,,,,,,,,,,,,,,,,,,,,,,30.13,60,64,0.01,-RA:02 BR:1 |RA |RA,,,87,30.12,FEW:02 11 BKN:07 36 OVC:08 55,29.03,6,62,210,22,13,,,,,,,,,,,,,,,,,,,,,,,,,,,,,,,,,,,,,MET13001/11/20 22:52:01 METAR KATL 120352Z 21011G19KT 6SM -RA BR FEW011 BKN036 OVC055 18/16 A3013 RMK AO2 RAB09 SLP199 P0001 T01780156 $,FM-15,7,,,,,,,,,,,,,,,,,,,,,,,,,,,3/27/2007
72219013874,2020-01-11T23:52:00,FM-15,7,,,,,,,,,,,,,,,,,,,,,,,,,,,,,,,,,,,,,,,30.14,59,63,T,,,,87,30.12,FEW:02 12 SCT:04 38 SCT:04 90,29.04,10,61,220,,8,,,,,,,,,,,,,,,,,,,,,,,,,,,,,,,,,,,,,MET12901/11/20 23:52:02 METAR KATL 120452Z 22007KT 10SM FEW012 SCT038 SCT090 17/15 A3014 RMK AO2 RAE01 SLP201 P0000 T01720150 402110156,FM-15,7,,,,,,,,,,,,,,,,,,,,,,,,,,,3/27/2007
72219013874,2020-01-11T23:59:00,SOD  ,6,,,,,,,,,,,,,,,,,61,65,86,30.09,29,63,14.2,0,22.1,0,70,60,220,37,1.28,0,0,240,26,TS RA DZ BR,,,,,,,,,,,,,,,,,,,,,,,,,,,,,,,,,,,,,,,,,,,,,,,,,,,,,,,SOD78124 HR PRECIPITATION (IN): 1.28 SNOW DEPTH (IN):0     24 HR SNOWFALL (IN):0.0  WEATHER(CODE):13  24 HR MAX TEMP (F): 7024 HR MIN TEMP (F): 60AVERAGE STATION PRESSURE:29.005 MINIMUM SEA LEVEL PRESSURE:29.94 TIME OF OCCURRENCE:1708 PEAK WIND SPEED (MPH): 37 PEAK WIND DIR (DEG):220 PEAK WIND TIME (LST):      FASTEST 2MIN SPEED (MPH): 26FASTEST 2MIN DIR (DEG):240 FASTEST 2MIN TIME (LST):     AVERAGE WIND SPEED (MPH):14.2 24 HR AVG TEMP (F): 65DEPART FROM NORMAL: 22  SKY COVER SR-SS (TENTHS): 1HEATING DEGREE DAYS:  0 COOLING DEGREE DAYS:  0 LATEST DAY MAX TEMP (0700-1900 LST):70  LATEST NIGHT MIN TEMP(1900-0800 LST):59 HOURLY INCREMENTAL PRECIPITATION VALUES (IN):.00 0.00 0.00 0.00 0.00 0.00 T    0.00 0.00 T    T    0.02 T    0.05 0.06 T    0.00 0.33 0.71 0.10 T    0.00 0.01 T,SOD  ,6,,,,,,,,,,,,,,,,,,,,,,,,,743,1749,3/27/2007
72219013874,2020-01-12T00:16:00,FM-16,7,,,,,,,,,,,,,,,,,,,,,,,,,,,,,,,,,,,,,,,30.14,59,62,,,,,90,,SCT:04 14 BKN:07 26 BKN:07 50,29.04,10,60,250,,8,,,,,,,,,,,,,,,,,,,,,,,,,,,,,,,,,,,,,MET12701/12/20 00:16:02 SPECI KATL 120516Z 25007KT 10SM SCT014 BKN026TCU BKN 17/15 A3014 RMK AO2 TCU SW-NW SHRA SW-NW T01670150 (KAF),FM-16,7,,,,,,,,,,,,,,,,,,,,,,,,,,,3/27/2007
72219013874,2020-01-12T00:26:00,FM-16,7,,,,,,,,,,,,,,,,,,,,,,,,,,,,,,,,,,,,,,,30.15,55,61,T,-RA:02 |RA |RA,,,81,,SCT:04 10 BKN:07 24 OVC:08 90,29.05,8,58,300,23,16,,,,,,,,,,,,,,,,,,,,,,,,,,,,,,,,,,,,,MET14701/12/20 00:26:02 SPECI KATL 120526Z 30014G20KT 8SM -RA SCT010 BKN024TCU OVC090 16/13 A3015 RMK AO2 RAB25 FROPA TCU NE-OHD-SW P0000 T01610128 (KAF),FM-16,7,,,,,,,,,,,,,,,,,,,,,,,,,,,3/27/2007
72219013874,2020-01-12T00:50:00,FM-16,6,,,,,,,,,,,,,,,,,,,,,,,,,,,,,,,,,,,,,,,30.15,50,57,,,,,77,,FEW:02 15 SCT:04 28 BKN:07 100,29.05,10,53,300,,11,,,,,,,,,,,,,,,,,,,,,,,,,,,,,,,,,,,,,MET11601/12/20 00:50:02 SPECI KATL 120550Z 30010KT 10SM FEW015 SCT028 BKN100 14/10 A3015 RMK AO2 RAB25E47 P0000 FIBI (KAF),FM-16,6,,,,,,,,,,,,,,,,,,,,,,,,,,,3/27/2007
72219013874,2020-01-12T00:52:00,FM-15,7,,,,,,,,,,,,,,,,,,,,,,,,,,,,,,,,,,,,,,,30.15,49,58,T,,-0.04,1,72,30.14,FEW:02 15 SCT:04 28 BKN:07 100,29.05,10,53,300,,10,,,,,,,,,,,,,,,,,,,,,,,,,,,,,,,,,,,,,MET15201/12/20 00:52:02 METAR KATL 120552Z 30009KT 10SM FEW015 SCT028 BKN100 14/09 A3015 RMK AO2 RAB25E47 SLP205 P0000 60013 T01440094 10194 20144 51015 (KAF),FM-15,7,,,,,,,,,,,,,,,,,,,,,,,,,,,3/27/2007
72219013874,2020-01-12T01:00:00,FM-12,4,,,,,,,,,,,,,,,,,,,,,,,,,,,,,,,,,,,,,,,,49,58,,,-0.04,1,72,30.14,15,29.04,9.94,53,300,,10,,,,,,,,,,,,,,,,,,,,,,,,,,,,,,,,,,,,,SYN08672219 12466 83009 10144 20094 39834 40205 51015 60031 90552 333 10194 20144 555 91206=,FM-12,4,,,,,,,,,,,,,,,,,,,,,,,,,,,3/27/2007
72219013874,2020-01-12T01:52:00,FM-15,7,,,,,,,,,,,,,,,,,,,,,,,,,,,,,,,,,,,,,,,30.15,49,56,0,,,,77,30.14,FEW:02 17 FEW:02 26 SCT:04 100,29.05,10,52,290,,9,,,,,,,,,,,,,,,,,,,,,,,,,,,,,,,,,,,,,MET11201/12/20 01:52:02 METAR KATL 120652Z 29008KT 10SM FEW017 FEW026 SCT100 13/09 A3015 RMK AO2 SLP208 T01330094 (DB),FM-15,7,,,,,,,,,,,,,,,,,,,,,,,,,,,3/27/2007
72219013874,2020-01-12T02:52:00,FM-15,7,,,,,,,,,,,,,,,,,,,,,,,,,,,,,,,,,,,,,,,30.17,49,55,0,,,,80,30.16,FEW:02 26 BKN:07 200,29.07,10,52,290,,3,,,,,,,,,,,,,,,,,,,,,,,,,,,,,,,,,,,,,MET10501/12/20 02:52:02 METAR KATL 120752Z 29003KT 10SM FEW026 BKN200 13/09 A3017 RMK AO2 SLP214 T01280094 (DB),FM-15,7,,,,,,,,,,,,,,,,,,,,,,,,,,,3/27/2007
72219013874,2020-01-12T03:52:00,FM-15,7,,,,,,,,,,,,,,,,,,,,,,,,,,,,,,,,,,,,,,,30.18,49,53,0,,-0.04,3,86,30.17,FEW:02 15 BKN:07 200,29.08,10,51,0,,0,,,,,,,,,,,,,,,,,,,,,,,,,,,,,,,,,,,,,MET11101/12/20 03:52:02 METAR KATL 120852Z 00000KT 10SM FEW015 BKN200 12/09 A3018 RMK AO2 SLP218 T01170094 53012 (DB),FM-15,7,,,,,,,,,,,,,,,,,,,,,,,,,,,3/27/2007
72219013874,2020-01-12T04:52:00,FM-15,7,,,,,,,,,,,,,,,,,,,,,,,,,,,,,,,,,,,,,,,30.19,49,52,0,,,,89,30.19,FEW:02 15 BKN:07 200,29.09,10,50,290,,5,,,,,,,,,,,,,,,,,,,,,,,,,,,,,,,,,,,,,MET10501/12/20 04:52:02 METAR KATL 120952Z 29004KT 10SM FEW015 BKN200 11/09 A3019 RMK AO2 SLP222 T01110094 (DB),FM-15,7,,,,,,,,,,,,,,,,,,,,,,,,,,,3/27/2007
72219013874,2020-01-12T05:52:00,FM-15,7,,,,,,,,,,,,,,,,,,,,,,,,,,,,,,,,,,,,,,,30.22,48,51,0,,,,89,30.22,SCT:04 12 SCT:04 200,29.12,10,49,290,,3,,,,,,,,,,,,,,,,,,,,,,,,,,,,,,,,,,,,,MET10501/12/20 05:52:02 METAR KATL 121052Z 29003KT 10SM SCT012 SCT200 11/09 A3022 RMK AO2 SLP232 T01060089 (DB),FM-15,7,,,,,,,,,,,,,,,,,,,,,,,,,,,3/27/2007
72219013874,2020-01-12T06:52:00,FM-15,7,,,,,,,,,,,,,,,,,,,,,,,,,,,,,,,,,,,,,,,30.24,47,50,0,,-0.06,3,89,30.24,FEW:02 12 FEW:02 100 FEW:02 200,29.14,10,48,320,,7,,,,,,,,,,,,,,,,,,,,,,,,,,,,,,,,,,,,,MET13601/12/20 06:52:02 METAR KATL 121152Z 32006KT 10SM FEW012 FEW100 FEW200 10/08 A3024 RMK AO2 SLP240 70128 T01000083 10144 20100 53020 (DB),FM-15,7,,,,,,,,,,,,,,,,,,,,,,,,,,,3/27/2007
72219013874,2020-01-12T07:00:00,FM-12,4,,,,,,,,,,,,,,,,,,,,,,,,,,,,,,,,,,,,,,,,47,50,,,-0.06,3,89,30.24,15,29.13,9.94,48,320,,7,,,,,,,,,,,,,,,,,,,,,,,,,,,,,,,,,,,,,SYN08672219 32466 23206 10100 20083 39864 40240 53020 91152 333 10211 20100 70325 555 91212=,FM-12,4,,,,,,,,,,,,,,,,,,,,,,,,,,,3/27/2007
72219013874,2020-01-12T07:52:00,FM-15,7,,,,,,,,,,,,,,,,,,,,,,,,,,,,,,,,,,,,,,,30.26,47,50,0,,,,89,30.25,FEW:02 12 FEW:02 100 FEW:02 200,29.15,10,48,330,,3,,,,,,,,,,,,,,,,,,,,,,,,,,,,,,,,,,,,,MET11201/12/20 07:52:02 METAR KATL 121252Z 33003KT 10SM FEW012 FEW100 FEW200 10/08 A3026 RMK AO2 SLP245 T01000083 (DB),FM-15,7,,,,,,,,,,,,,,,,,,,,,,,,,,,3/27/2007
72219013874,2020-01-12T08:52:00,FM-15,7,,,,,,,,,,,,,,,,,,,,,,,,,,,,,,,,,,,,,,,30.27,48,52,0,,,,86,30.27,FEW:02 25 FEW:02 100 FEW:02 200,29.16,10,50,340,,7,,,,,,,,,,,,,,,,,,,,,,,,,,,,,,,,,,,,,MET10701/12/20 08:52:02 METAR KATL 121352Z 34006KT 10SM FEW025 FEW100 FEW200 11/09 A3027 RMK AO2 SLP250 T01110089,FM-15,7,,,,,,,,,,,,,,,,,,,,,,,,,,,3/27/2007
72219013874,2020-01-12T09:52:00,FM-15,7,,,,,,,,,,,,,,,,,,,,,,,,,,,,,,,,,,,,,,,30.3,49,55,0,,-0.06,3,80,30.3,FEW:02 12 FEW:02 200 FEW:02 250,29.19,10,52,340,,6,,,,,,,,,,,,,,,,,,,,,,,,,,,,,,,,,,,,,MET11301/12/20 09:52:02 METAR KATL 121452Z 34005KT 10SM FEW012 FEW200 FEW250 13/09 A3030 RMK AO2 SLP260 T01280094 53020,FM-15,7,,,,,,,,,,,,,,,,,,,,,,,,,,,3/27/2007
72219013874,2020-01-12T10:52:00,FM-15,7,,,,,,,,,,,,,,,,,,,,,,,,,,,,,,,,,,,,,,,30.32,49,58,0,,,,72,30.31,FEW:02 20 FEW:02 200 FEW:02 250,29.21,10,53,350,,5,,,,,,,,,,,,,,,,,,,,,,,,,,,,,,,,,,,,,MET10701/12/20 10:52:02 METAR KATL 121552Z 35004KT 10SM FEW020 FEW200 FEW250 14/09 A3032 RMK AO2 SLP263 T01440094,FM-15,7,,,,,,,,,,,,,,,,,,,,,,,,,,,3/27/2007
72219013874,2020-01-12T11:52:00,FM-15,7,,,,,,,,,,,,,,,,,,,,,,,,,,,,,,,,,,,,,,,30.3,49,61,0,,,,65,30.29,FEW:02 25 FEW:02 200 FEW:02 250,29.19,10,55,0,,0,,,,,,,,,,,,,,,,,,,,,,,,,,,,,,,,,,,,,MET10701/12/20 11:52:02 METAR KATL 121652Z 00000KT 10SM FEW025 FEW200 FEW250 16/09 A3030 RMK AO2 SLP258 T01610094,FM-15,7,,,,,,,,,,,,,,,,,,,,,,,,,,,3/27/2007
72219013874,2020-01-12T12:52:00,FM-15,7,,,,,,,,,,,,,,,,,,,,,,,,,,,,,,,,,,,,,,,30.28,50,64,0,,0.02,8,60,30.27,FEW:02 30 FEW:02 200 FEW:02 250,29.18,10,56,VRB,,6,,,,,,,,,,,,,,,,,,,,,,,,,,,,,,,,,,,,,MET12501/12/20 12:52:02 METAR KATL 121752Z VRB05KT 10SM FEW030 FEW200 FEW250 18/10 A3028 RMK AO2 SLP251 T01780100 10178 20094 58007,FM-15,7,,,,,,,,,,,,,,,,,,,,,,,,,,,3/27/2007
72219013874,2020-01-12T13:00:00,FM-12,4,,,,,,,,,,,,,,,,,,,,,,,,,,,,,,,,,,,,,,,,50,64,,,0.02,8,60,30.27,26,29.17,9.94,56,,,6,,,,,,,,,,,,,,,,,,,,,,,,,,,,,,,,,,,,,SYN08072219 32566 2//05 10178 20100 39877 40251 58007 91752 333 10178 20094 555 91218=,FM-12,4,,,,,,,,,,,,,,,,,,,,,,,,,,,3/27/2007
72219013874,2020-01-12T13:52:00,FM-15,7,,,,,,,,,,,,,,,,,,,,,,,,,,,,,,,,,,,,,,,30.25,51,65,0,,,,61,30.24,FEW:02 30 FEW:02 160 FEW:02 250,29.15,10,57,220,,3,,,,,,,,,,,,,,,,,,,,,,,,,,,,,,,,,,,,,MET10701/12/20 13:52:02 METAR KATL 121852Z 22003KT 10SM FEW030 FEW160 FEW250 18/11 A3025 RMK AO2 SLP242 T01830106,FM-15,7,,,,,,,,,,,,,,,,,,,,,,,,,,,3/27/2007
72219013874,2020-01-12T14:52:00,FM-15,7,,,,,,,,,,,,,,,,,,,,,,,,,,,,,,,,,,,,,,,30.24,51,67,0,,,,57,30.23,SCT:04 100 SCT:04 250,29.14,10,58,220,,5,,,,,,,,,,,,,,,,,,,,,,,,,,,,,,,,,,,,,MET10001/12/20 14:52:02 METAR KATL 121952Z 22004KT 10SM SCT100 SCT250 19/11 A3024 RMK AO2 SLP238 T01940106,FM-15,7,,,,,,,,,,,,,,,,,,,,,,,,,,,3/27/2007
72219013874,2020-01-12T15:52:00,FM-15,7,,,,,,,,,,,,,,,,,,,,,,,,,,,,,,,,,,,,,,,30.24,51,68,0,,0.04,6,55,30.23,FEW:02 80 SCT:04 100 SCT:04 250,29.14,10,58,0,,0,,,,,,,,,,,,,,,,,,,,,,,,,,,,,,,,,,,,,MET11301/12/20 15:52:02 METAR KATL 122052Z 00000KT 10SM FEW080 SCT100 SCT250 20/11 A3024 RMK AO2 SLP238 T02000106 56013,FM-15,7,,,,,,,,,,,,,,,,,,,,,,,,,,,3/27/2007
72219013874,2020-01-12T16:52:00,FM-15,7,,,,,,,,,,,,,,,,,,,,,,,,,,,,,,,,,,,,,,,30.26,51,67,0,,,,57,30.25,SCT:04 100 SCT:04 120 BKN:07 250,29.15,10,58,200,,5,,,,,,,,,,,,,,,,,,,,,,,,,,,,,,,,,,,,,MET10701/12/20 16:52:02 METAR KATL 122152Z 20004KT 10SM SCT100 SCT120 BKN250 19/11 A3026 RMK AO2 SLP244 T01940106,FM-15,7,,,,,,,,,,,,,,,,,,,,,,,,,,,3/27/2007
72219013874,2020-01-12T17:52:00,FM-15,7,,,,,,,,,,,,,,,,,,,,,,,,,,,,,,,,,,,,,,,30.26,52,66,0,,,,61,30.25,SCT:04 85 BKN:07 110 BKN:07 200,29.15,10,58,160,,3,,,,,,,,,,,,,,,,,,,,,,,,,,,,,,,,,,,,,MET13201/12/20 17:52:02 METAR KATL 122252Z 16003KT 10SM SCT085 BKN110 BKN200 19/11 A3026 RMK AO2 SLP245 VIRGA SE-S ACC OHD-ALQDS T01890111,FM-15,7,,,,,,,,,,,,,,,,,,,,,,,,,,,3/27/2007
72219013874,2020-01-12T18:52:00,FM-15,7,,,,,,,,,,,,,,,,,,,,,,,,,,,,,,,,,,,,,,,30.28,52,65,0,,-0.04,3,63,30.27,OVC:08 75,29.18,10,58,170,,7,,,,,,,,,,,,,,,,,,,,,,,,,,,,,,,,,,,,,MET11101/12/20 18:52:02 METAR KATL 122352Z 17006KT 10SM OVC075 18/11 A3028 RMK AO2 SLP252 T01830111 10206 20172 53013,FM-15,7,,,,,,,,,,,,,,,,,,,,,,,,,,,3/27/2007
72219013874,2020-01-12T19:00:00,FM-12,4,,,,,,,,,,,,,,,,,,,,,,,,,,,,,,,,,,,,,,,,52,65,,,-0.04,3,63,30.27,74,29.17,9.94,58,170,,7,,,,,,,,,,,,,,,,,,,,,,,,,,,,,,,,,,,,,SYN08072219 32866 81706 10183 20111 39877 40252 53013 92352 333 10206 20100 555 91300=,FM-12,4,,,,,,,,,,,,,,,,,,,,,,,,,,,3/27/2007
72219013874,2020-01-12T19:52:00,FM-15,7,,,,,,,,,,,,,,,,,,,,,,,,,,,,,,,,,,,,,,,30.27,52,64,0,,,,65,30.27,SCT:04 70 BKN:07 100 BKN:07 200,29.16,10,57,140,,3,,,,,,,,,,,,,,,,,,,,,,,,,,,,,,,,,,,,,MET11701/12/20 19:52:01 METAR KATL 130052Z 14003KT 10SM SCT070 BKN100 BKN200 18/11 A3027 RMK AO2 SLP251 ACC NE-SE T01780111,FM-15,7,,,,,,,,,,,,,,,,,,,,,,,,,,,3/27/2007
72219013874,2020-01-12T20:52:00,FM-15,7,,,,,,,,,,,,,,,,,,,,,,,,,,,,,,,,,,,,,,,30.3,54,63,0,,,,73,30.29,SCT:04 65 BKN:07 95 OVC:08 200,29.19,10,58,0,,0,,,,,,,,,,,,,,,,,,,,,,,,,,,,,,,,,,,,,MET12101/12/20 20:52:01 METAR KATL 130152Z 00000KT 10SM SCT065 BKN095 OVC200 17/12 A3030 RMK AO2 SLP258 ACC NE-OHD-SW T01720122,FM-15,7,,,,,,,,,,,,,,,,,,,,,,,,,,,3/27/2007
72219013874,2020-01-12T21:52:00,FM-15,7,,,,,,,,,,,,,,,,,,,,,,,,,,,,,,,,,,,,,,,30.29,54,62,0,,-0.01,0,75,30.28,SCT:04 38 BKN:07 75 BKN:07 110,29.18,10,57,160,,5,,,,,,,,,,,,,,,,,,,,,,,,,,,,,,,,,,,,,MET12501/12/20 21:52:01 METAR KATL 130252Z 16004KT 10SM SCT038 BKN075 BKN110 17/12 A3029 RMK AO2 SLP255 ACC E-OHD-W T01670122 50003,FM-15,7,,,,,,,,,,,,,,,,,,,,,,,,,,,3/27/2007
72219013874,2020-01-12T22:52:00,FM-15,7,,,,,,,,,,,,,,,,,,,,,,,,,,,,,,,,,,,,,,,30.3,55,61,0,,,,81,30.29,FEW:02 12 SCT:04 22 OVC:08 38,29.19,10,58,0,,0,,,,,,,,,,,,,,,,,,,,,,,,,,,,,,,,,,,,,MET10701/12/20 22:52:01 METAR KATL 130352Z 00000KT 10SM FEW012 SCT022 OVC038 16/13 A3030 RMK AO2 SLP259 T01610128,FM-15,7,,,,,,,,,,,,,,,,,,,,,,,,,,,3/27/2007
72219013874,2020-01-12T23:14:00,FM-16,7,,,,,,,,,,,,,,,,,,,,,,,,,,,,,,,,,,,,,,,30.31,56,61,,,,,84,,BKN:07 24 BKN:07 36 OVC:08 50,29.21,10,58,240,,3,,,,,,,,,,,,,,,,,,,,,,,,,,,,,,,,,,,,,MET10001/12/20 23:14:01 SPECI KATL 130414Z 24003KT 10SM BKN024 BKN036 OVC050 16/13 A3031 RMK AO2 T01610133,FM-16,7,,,,,,,,,,,,,,,,,,,,,,,,,,,3/27/2007
72219013874,2020-01-12T23:52:00,FM-15,7,,,,,,,,,,,,,,,,,,,,,,,,,,,,,,,,,,,,,,,30.3,56,61,0,,,,84,30.29,BKN:07 17 BKN:07 30 OVC:08 55,29.19,10,58,320,,5,,,,,,,,,,,,,,,,,,,,,,,,,,,,,,,,,,,,,MET14901/12/20 23:52:01 METAR KATL 130452Z 32004KT 10SM BKN017 BKN030 OVC055 16/13 A3030 RMK AO2 LTG DSNT SE AND S SLP257 CB DSNT SE-SW T01610133 402060094,FM-15,7,,,,,,,,,,,,,,,,,,,,,,,,,,,3/27/2007
72219013874,2020-01-12T23:59:00,SOD  ,6,,,,,,,,,,,,,,,,,50,59,74,30.24,29.14,54,4.2,0,16.1,6,69,49,300,27,T,0,0,310,21,RA,,,,,,,,,,,,,,,,,,,,,,,,,,,,,,,,,,,,,,,,,,,,,,,,,,,,,,,SOD74324 HR PRECIPITATION (IN):    T SNOW DEPTH (IN):0     24 HR SNOWFALL (IN):0.0  24 HR MAX TEMP (F): 6924 HR MIN TEMP (F): 49AVERAGE STATION PRESSURE(D):29.138 MINIMUM SEA LEVEL PRESSURE:30.12 TIME OF OCCURRENCE:0015 PEAK WIND SPEED (MPH): 27 PEAK WIND DIR (DEG):300 PEAK WIND TIME (LST):      FASTEST 2MIN SPEED (MPH): 21FASTEST 2MIN DIR (DEG):310 FASTEST 2MIN TIME (LST):     AVERAGE WIND SPEED (MPH): 4.2 24 HR AVG TEMP (F): 59DEPART FROM NORMAL: 16  HEATING DEGREE DAYS:  6 COOLING DEGREE DAYS:  0 LATEST DAY MAX TEMP (0700-1900 LST): 69 LATEST NIGHT MIN TEMP(1900-0800 LST):49 HOURLY INCREMENTAL PRECIPITATION VALUES (IN):     0.00 0.00 0.00 0.00 0.00 0.00 0.00 0.00 0.00 0.00 0.00 0.00 0.00 0.00 0.00 0.00 0.00 0.00 0.00 0.00 0.00 0.00 0.00,SOD  ,6,,,,,,,,,,,,,,,,,,,,,,,,,743,1750,3/27/2007
72219013874,2020-01-13T00:50:00,FM-16,6,,,,,,,,,,,,,,,,,,,,,,,,,,,,,,,,,,,,,,,30.28,55,61,,VCTS:7 ||,,,83,,OVC:08 22,29.18,10,58,0,,0,,,,,,,,,,,,,,,,,,,,,,,,,,,,,,,,,,,,,MET12701/13/20 00:50:02 SPECI KATL 130550Z 00000KT 10SM VCTS OVC022 16/13 A3028 RMK AO2 LTG DSNT SE-SW TSE50 CB DSNT SE-SW FIBI (KAF),FM-16,6,,,,,,,,,,,,,,,,,,,,,,,,,,,3/27/2007
72219013874,2020-01-13T00:52:00,FM-15,7,,,,,,,,,,,,,,,,,,,,,,,,,,,,,,,,,,,,,,,30.28,56,61,0,,0.01,8,84,30.27,OVC:08 22,29.18,10,58,0,,0,,,,,,,,,,,,,,,,,,,,,,,,,,,,,,,,,,,,,MET14701/13/20 00:52:02 METAR KATL 130552Z 00000KT 10SM OVC022 16/13 A3028 RMK AO2 LTG DSNT E-SW SLP250 CB DSNT E-SE-SW T01610133 10183 20161 58003 (KAF),FM-15,7,,,,,,,,,,,,,,,,,,,,,,,,,,,3/27/2007
72219013874,2020-01-13T01:00:00,FM-12,4,,,,,,,,,,,,,,,,,,,,,,,,,,,,,,,,,,,,,,,,56,61,,,0.01,8,84,30.27,26,29.17,9.94,58,0,,0,,,,,,,,,,,,,,,,,,,,,,,,,,,,,,,,,,,,,SYN08072219 32566 80000 10161 20133 39877 40250 58003 90552 333 10183 20100 555 91306=,FM-12,4,,,,,,,,,,,,,,,,,,,,,,,,,,,3/27/2007
72219013874,2020-01-13T01:14:00,FM-16,7,,,,,,,,,,,,,,,,,,,,,,,,,,,,,,,,,,,,,,,30.28,57,61,T,VCTS:7 -RA:02 |RA |RA,,,87,,BKN:07 20 OVC:08 26,29.18,10,59,160,,3,,,,,,,,,,,,,,,,,,,,,,,,,,,,,,,,,,,,,MET16501/13/20 01:14:02 SPECI KATL 130614Z 16003KT 10SM VCTS -RA BKN020CB OVC026 16/14 A3028 RMK AO2 RAB12 TSB12 OCNL LTGICCG SE-SW TS VC SE-SW MOV NE P0000 T01610139 (DB),FM-16,7,,,,,,,,,,,,,,,,,,,,,,,,,,,3/27/2007
72219013874,2020-01-13T01:43:00,FM-16,7,,,,,,,,,,,,,,,,,,,,,,,,,,,,,,,,,,,,,,,30.28,57,61,0.01,VCTS:7 -RA:02 |RA |RA,,,87,,BKN:07 9 BKN:07 18 OVC:08 24,29.18,8,59,170,,5,,,,,,,,,,,,,,,,,,,,,,,,,,,,,,,,,,,,,MET16501/13/20 01:43:02 SPECI KATL 130643Z 17004KT 8SM VCTS -RA BKN009 BKN018CB OVC024 16/14 A3028 RMK AO2 RAB12 TSB12 OCNL LTGICCG SE TS VC SE MOV NE P0001 T01610139 (DB),FM-16,7,,,,,,,,,,,,,,,,,,,,,,,,,,,3/27/2007
72219013874,2020-01-13T01:52:00,FM-15,7,,,,,,,,,,,,,,,,,,,,,,,,,,,,,,,,,,,,,,,30.29,57,60,0.01,VCTS:7 -RA:02 |RA |RA,,,90,30.28,BKN:07 9 BKN:07 18 OVC:08 24,29.18,10,58,190,,3,,,,,,,,,,,,,,,,,,,,,,,,,,,,,,,,,,,,,MET17701/13/20 01:52:02 METAR KATL 130652Z 19003KT 10SM VCTS -RA BKN009 BKN018CB OVC024 16/14 A3029 RMK AO2 RAB12 SLP253 TSB12 OCNL LTGICCG E-SE TS VC E-SE MOV NE P0001 T01560139 (DB),FM-15,7,,,,,,,,,,,,,,,,,,,,,,,,,,,3/27/2007
72219013874,2020-01-13T02:07:00,FM-16,7,,,,,,,,,,,,,,,,,,,,,,,,,,,,,,,,,,,,,,,30.29,58,60,T,-RA:02 |RA |RA,,,93,,BKN:07 9 OVC:08 18,29.18,10,59,0,,0,,,,,,,,,,,,,,,,,,,,,,,,,,,,,,,,,,,,,MET14501/13/20 02:07:02 SPECI KATL 130707Z 00000KT 10SM -RA BKN009 OVC018 16/14 A3029 RMK AO2 TSE05 OCNL LTGCG DSNT E-SE TS MOV SE P0000 T01560144 (DB),FM-16,7,,,,,,,,,,,,,,,,,,,,,,,,,,,3/27/2007
72219013874,2020-01-13T02:23:00,FM-16,7,,,,,,,,,,,,,,,,,,,,,,,,,,,,,,,,,,,,,,,30.29,57,60,0.08,+RA:02 BR:1 |RA |RA,,,90,,SCT:04 9 OVC:08 25,29.18,2.5,58,120,,3,,,,,,,,,,,,,,,,,,,,,,,,,,,,,,,,,,,,,MET15001/13/20 02:23:02 SPECI KATL 130723Z 12003KT 2 1/2SM +RA BR SCT009 OVC025 16/14 A3029 RMK AO2 TSE05 OCNL LTG DSNT E & SW TS MOV E P0008 T01560139 (DB),FM-16,7,,,,,,,,,,,,,,,,,,,,,,,,,,,3/27/2007
72219013874,2020-01-13T02:48:00,FM-16,7,,,,,,,,,,,,,,,,,,,,,,,,,,,,,,,,,,,,,,,30.28,57,61,0.26,+RA:02 BR:1 |RA |RA,,,88,,FEW:02 9 BKN:07 25 OVC:08 33,29.18,3,59,130,,5,,,,,,,,,,,,,,,,,,,,,,,,,,,,,,,,,,,,,MET17201/13/20 02:48:02 SPECI KATL 130748Z 13004KT 3SM +RA BR FEW009 BKN025TCU OVC033 16/14 A3028 RMK AO2 TSE05 OCNL LTG DSNT SE & S TS MOV E CB DSNT SE & S TCU OHD-NE P0026 (DB),FM-16,7,,,,,,,,,,,,,,,,,,,,,,,,,,,3/27/2007
72219013874,2020-01-13T02:52:00,FM-15,7,,,,,,,,,,,,,,,,,,,,,,,,,,,,,,,,,,,,,,,30.28,57,60,0.26,-RA:02 BR:1 |RA |RA,,,90,30.27,FEW:02 7 BKN:07 25 OVC:08 33,29.18,6,58,130,,6,,,,,,,,,,,,,,,,,,,,,,,,,,,,,,,,,,,,,MET18501/13/20 02:52:02 METAR KATL 130752Z 13005KT 6SM -RA BR FEW007 BKN025TCU OVC033 16/14 A3028 RMK AO2 SLP251 TSE05 OCNL LTG DSNT SE & S TS MOV E CB DSNT SE & S TCU NE P0026 T01560139 (DB),FM-15,7,,,,,,,,,,,,,,,,,,,,,,,,,,,3/27/2007
72219013874,2020-01-13T03:52:00,FM-15,7,,,,,,,,,,,,,,,,,,,,,,,,,,,,,,,,,,,,,,,30.28,58,60,0.01,BR:1 ||,0,8,93,30.27,FEW:02 4 BKN:07 17 OVC:08 50,29.18,6,59,160,,3,,,,,,,,,,,,,,,,,,,,,,,,,,,,,,,,,,,,,MET15601/13/20 03:52:02 METAR KATL 130852Z 16003KT 6SM BR FEW004 BKN017 OVC050 16/14 A3028 RMK AO2 LTG DSNT E AND SE RAE42 SLP249 P0000 60027 T01560144 58000 (DB),FM-15,7,,,,,,,,,,,,,,,,,,,,,,,,,,,3/27/2007
72219013874,2020-01-13T04:52:00,FM-15,7,,,,,,,,,,,,,,,,,,,,,,,,,,,,,,,,,,,,,,,30.28,58,61,0.06,VCTS:7 -RA:02 BR:1 |RA |RA,,,90,30.27,SCT:04 4 OVC:08 15,29.18,4,59,30,,6,,,,,,,,,,,,,,,,,,,,,,,,,,,,,,,,,,,,,MET16801/13/20 04:52:02 METAR KATL 130952Z 03005KT 4SM VCTS -RA BR SCT004 OVC015CB 16/14 A3028 RMK AO2 TSB52 RAB0853 SLP250 OCNL LTGICCG S TS VC S MOV NE P0007 T01610144 (DB),FM-15,7,,,,,,,,,,,,,,,,,,,,,,,,,,,3/27/2007
72219013874,2020-01-13T05:07:00,FM-16,7,,,,,,,,,,,,,,,,,,,,,,,,,,,,,,,,,,,,,,,30.29,58,61,T,VCTS:7 -RA:02 BR:1 |s RA s |RA s,,,90,,BKN:07 3 OVC:08 13,29.18,0.25,59,VRB,,5,,,,,,,,,,,,,,,,,,,,,,,,,,,,,,,,,,,,,MET18701/13/20 05:07:02 SPECI KATL 131007Z VRB04KT 1/4SM R09R/P6000FT VCTS -RA BR BKN003 OVC013CB 16/14 A3029 RMK AO2 SFC VIS 4 OCNL LTGICCG SE-S TS VC SE-S MOV NE TWRINC P0000 T01610144 $ (DB),FM-16,7,,,,,,,,,,,,,,,,,,,,,,,,,,,3/27/2007
72219013874,2020-01-13T05:32:00,FM-16,7,,,,,,,,,,,,,,,,,,,,,,,,,,,,,,,,,,,,,,,30.29,58,60,0.21,VCTS:7 +RA:02 FG:2 |FG RA |RA,,,93,,BKN:07 3 OVC:08 13,29.18,0.25,59,40,,8,,,,,,,,,,,,,,,,,,,,,,,,,,,,,,,,,,,,,MET20801/13/20 05:32:02 SPECI KATL 131032Z 04007KT 1/4SM R09R/5000VP6000FT VCTS +RA FG BKN003 OVC013CB 16/14 A3029 RMK AO2 SFC VIS 1/2 OCNL LTGICCG E-SE TS VC E-SE MOV NE CB OHD MOV NE TWRINC P0021 T01560144 $ (DB),FM-16,7,,,,,,,,,,,,,,,,,,,,,,,,,,,3/27/2007
72219013874,2020-01-13T05:47:00,FM-16,7,,,,,,,,,,,,,,,,,,,,,,,,,,,,,,,,,,,,,,,30.29,57,61,0.34,RA:02 BR:1 |s RA s |RA s,,,88,,BKN:07 3 BKN:07 16 OVC:08 31,29.18,0.25,59,40,,8,,,,,,,,,,,,,,,,,,,,,,,,,,,,,,,,,,,,,MET16901/13/20 05:47:02 SPECI KATL 131047Z 04007KT 1/4SM R09R/P6000FT RA BR BKN003 BKN016 OVC031 16/14 A3029 RMK AO2 SFC VIS 3 TSE46 BKN003 V SCT TS MOV NE TWRINC P0034 $ (DB),FM-16,7,,,,,,,,,,,,,,,,,,,,,,,,,,,3/27/2007
72219013874,2020-01-13T05:52:00,FM-15,7,,,,,,,,,,,,,,,,,,,,,,,,,,,,,,,,,,,,,,,30.29,58,60,0.35,-RA:02 BR:1 |s RA s |RA s,,,93,30.28,BKN:07 5 BKN:07 16 OVC:08 31,29.18,0.25,59,20,,9,,,,,,,,,,,,,,,,,,,,,,,,,,,,,,,,,,,,,MET22001/13/20 05:52:02 METAR KATL 131052Z 02008KT 1/4SM R09R/P6000FT -RA BR BKN005 BKN016 OVC031 16/14 A3029 RMK AO2 SFC VIS 4 SLP254 TSE46 CIG 003V007 BKN005 V SCT OCNL LTG DSNT NE-E-S TS MOV NE TWRINC P0035 T01560144 $ (DB),FM-15,7,,,,,,,,,,,,,,,,,,,,,,,,,,,3/27/2007
72219013874,2020-01-13T06:09:00,FM-16,7,,,,,,,,,,,,,,,,,,,,,,,,,,,,,,,,,,,,,,,30.31,58,60,T,VCTS:7 -RA:02 BR:1 |s RA s |RA s,,,93,,BKN:07 5 BKN:07 8 OVC:08 31,29.21,0.25,59,50,,6,,,,,,,,,,,,,,,,,,,,,,,,,,,,,,,,,,,,,MET20001/13/20 06:09:02 SPECI KATL 131109Z 05005KT 1/4SM R09R/P6000FT VCTS -RA BR BKN005 BKN008CB OVC031 16/14 A3031 RMK AO2 SFC VIS 5 CIG 003V007 OCNL LTGICCG S TS VC S MOV NE TWRINC P0000 T01560144 $ (DB),FM-16,7,,,,,,,,,,,,,,,,,,,,,,,,,,,3/27/2007
72219013874,2020-01-13T06:22:00,FM-16,7,,,,,,,,,,,,,,,,,,,,,,,,,,,,,,,,,,,,,,,30.33,58,61,0.01,VCTS:7 -RA:02 BR:1 |s RA s |RA s,,,90,,BKN:07 4 OVC:08 8,29.22,0.25,59,30,,5,,,,,,,,,,,,,,,,,,,,,,,,,,,,,,,,,,,,,MET21001/13/20 06:22:02 SPECI KATL 131122Z 03004KT 1/4SM R09R/P6000FT VCTS -RA BR BKN004 OVC008CB 16/14 A3033 RMK AO2 SFC VIS 4 PRESRR TSB12 CIG 003V006 OCNL LTGICCG E-S TS VC E-S MOV NE TWRINC P0001 T01610144 $ (DB),FM-16,7,,,,,,,,,,,,,,,,,,,,,,,,,,,3/27/2007
72219013874,2020-01-13T06:45:00,FM-16,7,,,,,,,,,,,,,,,,,,,,,,,,,,,,,,,,,,,,,,,30.33,58,61,0.08,-RA:02 BR:1 |s RA s |RA s,,,90,,BKN:07 4 BKN:07 9 OVC:08 14,29.22,0.25,59,350,,7,,,,,,,,,,,,,,,,,,,,,,,,,,,,,,,,,,,,,MET21101/13/20 06:45:02 SPECI KATL 131145Z 35006KT 1/4SM R09R/P6000FT -RA BR BKN004 BKN009 OVC014 16/14 A3033 RMK AO2 SFC VIS 4 LTG DSNT E-SW TSE42 CIG 003V006 OCNL LTG DSNT E-S-SW TS MOV E TWRINC P0008 T01610144 (DB),FM-16,7,,,,,,,,,,,,,,,,,,,,,,,,,,,3/27/2007
72219013874,2020-01-13T06:52:00,FM-15,7,,,,,,,,,,,,,,,,,,,,,,,,,,,,,,,,,,,,,,,30.33,57,61,0.09,-RA:02 BR:1 |s RA s |RA s,-0.05,3,87,30.32,BKN:07 4 OVC:08 9,29.22,0.25,59,10,,8,,,,,,,,,,,,,,,,,,,,,,,,,,,,,,,,,,,,,MET23701/13/20 06:52:02 METAR KATL 131152Z 01007KT 1/4SM R09R/P6000FT -RA BR BKN004 OVC009 16/14 A3033 RMK AO2 SFC VIS 4 SLP268 TSE42 CIG 003V006 BKN004 V SCT OCNL LTG DSNT E-S-SW TS MOV E TWRINC P0008 60077 70077 T01610144 10161 20156 53018 $,FM-15,7,,,,,,,,,,,,,,,,,,,,,,,,,,,3/27/2007
72219013874,2020-01-13T07:00:00,FM-12,4,,,,,,,,,,,,,,,,,,,,,,,,,,,,,,,,,,,,,,,,58,61,,||RA,-0.05,3,90,30.32,5,29.22,0.25,59,10,,8,,,,,,,,,,,,,,,,,,,,,,,,,,,,,,,,,,,,,SYN10472219 11204 80107 10161 20144 39894 40268 53018 60201 761// 91152 333 10206 20156 70196 96010 555 91312=,FM-12,4,,,,,,,,,,,,,,,,,,,,,,,,,,,3/27/2007
72219013874,2020-01-13T07:17:00,FM-16,7,,,,,,,,,,,,,,,,,,,,,,,,,,,,,,,,,,,,,,,30.35,58,61,0.03,VCTS:7 -RA:02 BR:1 |s RA s |RA s,,,90,,SCT:04 4 OVC:08 11,29.24,0.25,59,50,,3,,,,,,,,,,,,,,,,,,,,,,,,,,,,,,,,,,,,,MET22001/13/20 07:17:02 SPECI KATL 131217Z 05003KT 1/4SM R09R/P6000FT VCTS -RA BR SCT004 OVC011CB 16/14 A3035 RMK AO2 SFC VIS 4 LTG DSNT E-SW TSB13 SCT004 V BKN OCNL LTGICCG S-SW TS VC S-SW MOV NE TWRINC P0003 T01610144 $ (DB),FM-16,7,,,,,,,,,,,,,,,,,,,,,,,,,,,3/27/2007
72219013874,2020-01-13T07:31:00,FM-16,7,,,,,,,,,,,,,,,,,,,,,,,,,,,,,,,,,,,,,,,30.32,58,61,0.06,TS:7 RA:02 BR:1 |s RA s TS s |RA s,,,90,,BKN:07 4 OVC:08 14,29.21,0.25,59,50,,9,,,,,,,,,,,,,,,,,,,,,,,,,,,,,,,,,,,,,MET21701/13/20 07:31:02 SPECI KATL 131231Z 05008KT 1/4SM R09R/P6000FT TSRA BR BKN004 OVC014CB 16/14 A3032 RMK AO2 SFC VIS 2 1/2 LTG DSNT S AND SW TSB13 BKN004 V SCT OCNL LTGICCG SE TS SE MOV NE TWRINC P0006 T01610144 $ (DB),FM-16,7,,,,,,,,,,,,,,,,,,,,,,,,,,,3/27/2007
72219013874,2020-01-13T07:46:00,FM-16,7,,,,,,,,,,,,,,,,,,,,,,,,,,,,,,,,,,,,,,,30.35,57,61,0.09,-RA:02 BR:1 |s RA s |RA s,,,88,,BKN:07 5 OVC:08 14,29.24,0.25,59,330,,8,,,,,,,,,,,,,,,,,,,,,,,,,,,,,,,,,,,,,MET19201/13/20 07:46:02 SPECI KATL 131246Z 33007KT 1/4SM R09R/P6000FT -RA BR BKN005 OVC014CB 16/14 A3035 RMK AO2 SFC VIS 4 LTG DSNT NE-S TSB13E44 CIG 003V007 BKN005 V SCT TS MOV NE TWRINC P0009 (DB),FM-16,7,,,,,,,,,,,,,,,,,,,,,,,,,,,3/27/2007
72219013874,2020-01-13T07:49:00,FM-16,7,,,,,,,,,,,,,,,,,,,,,,,,,,,,,,,,,,,,,,,30.35,57,61,0.09,-RA:02 BR:1 |RA |RA,,,88,,BKN:07 4 OVC:08 14,29.24,2,59,340,,8,,,,,,,,,,,,,,,,,,,,,,,,,,,,,,,,,,,,,MET18201/13/20 07:49:02 SPECI KATL 131249Z 34007KT 2SM -RA BR BKN004 OVC014 16/14 A3035 RMK AO2 SFC VIS 4 LTG DSNT NE-S PRESRR TSB13E44 CIG 003V007 BKN004 V SCT TS MOV NE TWRINC P0009 (DB),FM-16,7,,,,,,,,,,,,,,,,,,,,,,,,,,,3/27/2007
72219013874,2020-01-13T07:52:00,FM-15,7,,,,,,,,,,,,,,,,,,,,,,,,,,,,,,,,,,,,,,,30.34,58,60,0.09,-RA:02 BR:1 |RA |RA,,,93,30.33,BKN:07 4 OVC:08 14,29.23,2,59,10,,9,,,,,,,,,,,,,,,,,,,,,,,,,,,,,,,,,,,,,MET19201/13/20 07:52:02 METAR KATL 131252Z 01008KT 2SM -RA BR BKN004 OVC014 16/14 A3034 RMK AO2 SFC VIS 4 LTG DSNT NE-S SLP272 TSB13E44 CIG 003V007 BKN004 V SCT TS MOV NE TWRINC P0009 T01560144 (DB),FM-15,7,,,,,,,,,,,,,,,,,,,,,,,,,,,3/27/2007
72219013874,2020-01-13T08:20:00,FM-16,7,,,,,,,,,,,,,,,,,,,,,,,,,,,,,,,,,,,,,,,30.36,57,60,0.04,-RA:02 BR:1 |RA |RA,,,90,,FEW:02 4 SCT:04 14 OVC:08 18,29.25,4,58,80,,6,,,,,,,,,,,,,,,,,,,,,,,,,,,,,,,,,,,,,MET15101/13/20 08:20:02 SPECI KATL 131320Z 08005KT 4SM -RA BR FEW004 SCT014 OVC018 16/14 A3036 RMK AO2 LTG DSNT SE AND S CB DSNT SE-SW-W P0004 T01560139 (DB),FM-16,7,,,,,,,,,,,,,,,,,,,,,,,,,,,3/27/2007
72219013874,2020-01-13T08:47:00,FM-16,7,,,,,,,,,,,,,,,,,,,,,,,,,,,,,,,,,,,,,,,30.38,52,61,0.09,-RA:02 |RA |RA,,,72,,SCT:04 18 BKN:07 35 OVC:08 75,29.27,8,56,320,,3,,,,,,,,,,,,,,,,,,,,,,,,,,,,,,,,,,,,,MET14001/13/20 08:47:02 SPECI KATL 131347Z 32003KT 8SM -RA SCT018 BKN035 OVC075 16/11 A3038 RMK AO2 LTG DSNT N AND SE CB DSNT SE & NW-N P0009 (DB),FM-16,7,,,,,,,,,,,,,,,,,,,,,,,,,,,3/27/2007
72219013874,2020-01-13T08:52:00,FM-15,7,,,,,,,,,,,,,,,,,,,,,,,,,,,,,,,,,,,,,,,30.38,54,60,0.11,RA:02 |RA |RA,,,80,30.38,BKN:07 18 BKN:07 32 OVC:08 75,29.27,4,57,280,,7,,,,,,,,,,,,,,,,,,,,,,,,,,,,,,,,,,,,,MET14401/13/20 08:52:02 METAR KATL 131352Z 28006KT 4SM RA BKN018 BKN032 OVC075 16/12 A3038 RMK AO2 LTG DSNT N SLP287 CB DSNT NW-N P0010 T01560122 (DB),FM-15,7,,,,,,,,,,,,,,,,,,,,,,,,,,,3/27/2007
72219013874,2020-01-13T09:19:00,FM-16,7,,,,,,,,,,,,,,,,,,,,,,,,,,,,,,,,,,,,,,,30.38,55,59,0.1,RA:02 BR:1 |RA |RA,,,87,,FEW:02 18 BKN:07 60 OVC:08 110,29.27,5,57,350,,10,,,,,,,,,,,,,,,,,,,,,,,,,,,,,,,,,,,,,MET12301/13/20 09:19:02 SPECI KATL 131419Z 35009KT 5SM RA BR FEW018 BKN060 OVC110 15/13 A3038 RMK AO2 PRESFR P0010 T01500128 (DB),FM-16,7,,,,,,,,,,,,,,,,,,,,,,,,,,,3/27/2007
72219013874,2020-01-13T09:52:00,FM-15,7,,,,,,,,,,,,,,,,,,,,,,,,,,,,,,,,,,,,,,,30.38,55,60,0.11,|RA |RA,-0.05,0,84,30.37,FEW:02 8 SCT:04 55 BKN:07 110,29.27,8,57,30,,9,,,,,,,,,,,,,,,,,,,,,,,,,,,,,,,,,,,,,MET13401/13/20 09:52:02 METAR KATL 131452Z 03008KT 8SM -RA FEW008 SCT055 BKN110 16/13 A3038 RMK AO2 SLP285 P0013 60032 T01560128 50016 (CPS),FM-15,7,,,,,,,,,,,,,,,,,,,,,,,,,,,3/27/2007
72219013874,2020-01-13T10:52:00,FM-15,7,,,,,,,,,,,,,,,,,,,,,,,,,,,,,,,,,,,,,,,30.38,56,62,T,,,,80,30.37,FEW:02 10 SCT:04 25 BKN:07 100,29.27,10,59,50,,6,,,,,,,,,,,,,,,,,,,,,,,,,,,,,,,,,,,,,MET12501/13/20 10:52:02 METAR KATL 131552Z 05005KT 10SM FEW010 SCT025 BKN100 17/13 A3038 RMK AO2 RAE03 SLP286 P0000 T01670133 (CPS),FM-15,7,,,,,,,,,,,,,,,,,,,,,,,,,,,3/27/2007
72219013874,2020-01-13T11:40:00,FM-16,7,,,,,,,,,,,,,,,,,,,,,,,,,,,,,,,,,,,,,,,30.37,57,62,,,,,84,,BKN:07 10 BKN:07 21 BKN:07 50,29.26,10,59,60,,5,,,,,,,,,,,,,,,,,,,,,,,,,,,,,,,,,,,,,MET11301/13/20 11:40:02 SPECI KATL 131640Z 06004KT 10SM BKN010 BKN021 BKN050 17/14 A3037 RMK AO2 BINOVC T01670139 (CPS),FM-16,7,,,,,,,,,,,,,,,,,,,,,,,,,,,3/27/2007
72219013874,2020-01-13T11:50:00,FM-16,7,,,,,,,,,,,,,,,,,,,,,,,,,,,,,,,,,,,,,,,30.35,57,63,,,,,83,,SCT:04 10 BKN:07 21 BKN:07 50,29.24,8,60,60,,7,,,,,,,,,,,,,,,,,,,,,,,,,,,,,,,,,,,,,MET10201/13/20 11:50:02 SPECI KATL 131650Z 06006KT 8SM SCT010 BKN021 BKN050 17/14 A3035 RMK AO2 PRESFR (CPS),FM-16,7,,,,,,,,,,,,,,,,,,,,,,,,,,,3/27/2007
72219013874,2020-01-13T11:52:00,FM-15,7,,,,,,,,,,,,,,,,,,,,,,,,,,,,,,,,,,,,,,,30.35,57,64,0,,,,78,30.34,SCT:04 10 BKN:07 21 BKN:07 50,29.24,8,60,70,,8,,,,,,,,,,,,,,,,,,,,,,,,,,,,,,,,,,,,,MET11901/13/20 11:52:02 METAR KATL 131652Z 07007KT 8SM SCT010 BKN021 BKN050 18/14 A3035 RMK AO2 PRESFR SLP275 T01780139 (CPS),FM-15,7,,,,,,,,,,,,,,,,,,,,,,,,,,,3/27/2007
72219013874,2020-01-13T12:34:00,FM-16,6,,,,,,,,,,,,,,,,,,,,,,,,,,,,,,,,,,,,,,,30.35,59,65,,,,,81,,SCT:04 8 BKN:07 18 BKN:07 25,29.24,10,61,150,,6,,,,,,,,,,,,,,,,,,,,,,,,,,,,,,,,,,,,,MET11301/13/20 12:34:02 SPECI KATL 131734Z 15005KT 10SM SCT008 BKN018 BKN025 18/15 A3035 RMK AO2 BINOVC T01830150 (CPS),FM-16,6,,,,,,,,,,,,,,,,,,,,,,,,,,,3/27/2007
72219013874,2020-01-13T12:52:00,FM-15,7,,,,,,,,,,,,,,,,,,,,,,,,,,,,,,,,,,,,,,,30.34,58,64,0,,0.04,8,81,30.33,SCT:04 8 BKN:07 18 BKN:07 110,29.23,10,60,140,,5,,,,,,,,,,,,,,,,,,,,,,,,,,,,,,,,,,,,,MET13701/13/20 12:52:02 METAR KATL 131752Z 14004KT 10SM SCT008 BKN018 BKN110 18/14 A3034 RMK AO2 SLP270 60032 T01780144 10183 20150 58013 (CPS),FM-15,7,,,,,,,,,,,,,,,,,,,,,,,,,,,3/27/2007
72219013874,2020-01-13T13:00:00,FM-12,4,,,,,,,,,,,,,,,,,,,,,,,,,,,,,,,,,,,,,,,,58,64,,,0.04,8,81,30.33,8,29.23,9.94,60,140,,5,,,,,,,,,,,,,,,,,,,,,,,,,,,,,,,,,,,,,SYN08672219 12366 81404 10178 20144 39897 40270 58013 60081 91752 333 10183 20150 555 91318=,FM-12,4,,,,,,,,,,,,,,,,,,,,,,,,,,,3/27/2007
72219013874,2020-01-13T13:52:00,FM-15,6,,,,,,,,,,,,,,,,,,,,,,,,,,,,,,,,,,,,,,,30.32,59,65,0.01,-RA:02 |RA |RA,,,81,30.31,FEW:02 8 BKN:07 12 OVC:08 250,29.21,10,61,120,,5,,,,,,,,,,,,,,,,,,,,,,,,,,,,,,,,,,,,,MET12901/13/20 13:52:02 METAR KATL 131852Z 12004KT 10SM -RA FEW008 BKN012 OVC250 18/15 A3032 RMK AO2 RAB23 SLP263 P0001 T01830150 (CPS),FM-15,6,,,,,,,,,,,,,,,,,,,,,,,,,,,3/27/2007
72219013874,2020-01-13T14:52:00,FM-15,6,,,,,,,,,,,,,,,,,,,,,,,,,,,,,,,,,,,,,,,30.3,60,66,T,,,,81,30.29,OVC:08 11,29.19,10,62,130,,5,,,,,,,,,,,,,,,,,,,,,,,,,,,,,,,,,,,,,MET11101/13/20 14:52:02 METAR KATL 131952Z 13004KT 10SM OVC011 19/16 A3030 RMK AO2 RAE02 SLP256 P0000 T01890156 (CPS),FM-15,6,,,,,,,,,,,,,,,,,,,,,,,,,,,3/27/2007
72219013874,2020-01-13T15:52:00,FM-15,6,,,,,,,,,,,,,,,,,,,,,,,,,,,,,,,,,,,,,,,30.3,60,66,0,,0.04,6,81,30.29,OVC:08 10,29.19,10,62,140,,5,,,,,,,,,,,,,,,,,,,,,,,,,,,,,,,,,,,,,MET11101/13/20 15:52:02 METAR KATL 132052Z 14004KT 10SM OVC010 19/16 A3030 RMK AO2 SLP256 60001 T01890156 56013 (CPS),FM-15,6,,,,,,,,,,,,,,,,,,,,,,,,,,,3/27/2007
72219013874,2020-01-13T16:09:00,FM-16,6,,,,,,,,,,,,,,,,,,,,,,,,,,,,,,,,,,,,,,,30.3,61,66,,,,,84,,OVC:08 9,29.19,10,63,130,,5,,,,,,,,,,,,,,,,,,,,,,,,,,,,,,,,,,,,,MET09201/13/20 16:09:02 SPECI KATL 132109Z 13004KT 10SM OVC009 19/16 A3030 RMK AO2 T01890161 (CPS),FM-16,6,,,,,,,,,,,,,,,,,,,,,,,,,,,3/27/2007
72219013874,2020-01-13T16:30:00,FM-16,6,,,,,,,,,,,,,,,,,,,,,,,,,,,,,,,,,,,,,,,30.31,61,66,,,,,84,,OVC:08 10,29.21,10,63,160,,7,,,,,,,,,,,,,,,,,,,,,,,,,,,,,,,,,,,,,MET09201/13/20 16:30:02 SPECI KATL 132130Z 16006KT 10SM OVC010 19/16 A3031 RMK AO2 T01890161 (CPS),FM-16,6,,,,,,,,,,,,,,,,,,,,,,,,,,,3/27/2007
72219013874,2020-01-13T16:50:00,FM-16,6,,,,,,,,,,,,,,,,,,,,,,,,,,,,,,,,,,,,,,,30.3,61,66,,,,,83,,OVC:08 8,29.19,10,63,130,,7,,,,,,,,,,,,,,,,,,,,,,,,,,,,,,,,,,,,,MET08701/13/20 16:50:02 SPECI KATL 132150Z 13006KT 10SM OVC008 19/16 A3030 RMK AO2 FIBI (CPS),FM-16,6,,,,,,,,,,,,,,,,,,,,,,,,,,,3/27/2007
72219013874,2020-01-13T16:52:00,FM-15,6,,,,,,,,,,,,,,,,,,,,,,,,,,,,,,,,,,,,,,,30.3,61,66,0,,,,84,30.29,OVC:08 8,29.19,10,63,140,,5,,,,,,,,,,,,,,,,,,,,,,,,,,,,,,,,,,,,,MET09901/13/20 16:52:02 METAR KATL 132152Z 14004KT 10SM OVC008 19/16 A3030 RMK AO2 SLP257 T01890161 (CPS),FM-15,6,,,,,,,,,,,,,,,,,,,,,,,,,,,3/27/2007
72219013874,2020-01-13T17:52:00,FM-15,6,,,,,,,,,,,,,,,,,,,,,,,,,,,,,,,,,,,,,,,30.31,61,65,0,,,,87,30.3,OVC:08 7,29.21,10,63,0,,0,,,,,,,,,,,,,,,,,,,,,,,,,,,,,,,,,,,,,MET09901/13/20 17:52:02 METAR KATL 132252Z 00000KT 10SM OVC007 18/16 A3031 RMK AO2 SLP260 T01830161 (CPS),FM-15,6,,,,,,,,,,,,,,,,,,,,,,,,,,,3/27/2007
72219013874,2020-01-13T18:52:00,FM-15,7,,,,,,,,,,,,,,,,,,,,,,,,,,,,,,,,,,,,,,,30.32,61,65,0,,-0.02,3,87,30.31,OVC:08 7,29.21,10,63,130,,6,,,,,,,,,,,,,,,,,,,,,,,,,,,,,,,,,,,,,MET13401/13/20 18:52:02 METAR KATL 132352Z 13005KT 10SM OVC007 18/16 A3032 RMK AO2 SLP264 CIG 005V008 60001 T01830161 10189 20178 53008 (RF),FM-15,7,,,,,,,,,,,,,,,,,,,,,,,,,,,3/27/2007
72219013874,2020-01-13T19:00:00,FM-12,4,,,,,,,,,,,,,,,,,,,,,,,,,,,,,,,,,,,,,,,,61,65,,,-0.02,3,87,30.31,8,29.21,9.94,63,130,,6,,,,,,,,,,,,,,,,,,,,,,,,,,,,,,,,,,,,,SYN08672219 12366 81305 10183 20161 39890 40264 53008 69931 92352 333 10189 20156 555 91400=,FM-12,4,,,,,,,,,,,,,,,,,,,,,,,,,,,3/27/2007
72219013874,2020-01-13T19:36:00,FM-16,7,,,,,,,,,,,,,,,,,,,,,,,,,,,,,,,,,,,,,,,30.32,62,65,,,,,90,,OVC:08 5,29.21,3,63,130,,5,,,,,,,,,,,,,,,,,,,,,,,,,,,,,,,,,,,,,MET10701/13/20 19:36:01 SPECI KATL 140036Z 13004KT 3SM OVC005 18/17 A3032 RMK AO2 SFC VIS 9 CIG 004V007 T01830167,FM-16,7,,,,,,,,,,,,,,,,,,,,,,,,,,,3/27/2007
72219013874,2020-01-13T19:50:00,FM-16,6,,,,,,,,,,,,,,,,,,,,,,,,,,,,,,,,,,,,,,,30.32,63,64,,BR:1 ||,,,94,,OVC:08 4,29.21,3,63,130,,5,,,,,,,,,,,,,,,,,,,,,,,,,,,,,,,,,,,,,MET11001/13/20 19:50:03 SPECI KATL 140050Z 13004KT 3SM BR OVC004 18/17 A3032 RMK AO2 SFC VIS 5 CIG 004V007 FIBI (RF),FM-16,6,,,,,,,,,,,,,,,,,,,,,,,,,,,3/27/2007
72219013874,2020-01-13T19:52:00,FM-15,7,,,,,,,,,,,,,,,,,,,,,,,,,,,,,,,,,,,,,,,30.32,62,65,0,BR:1 ||,,,90,30.31,OVC:08 4,29.21,1.5,63,150,,3,,,,,,,,,,,,,,,,,,,,,,,,,,,,,,,,,,,,,MET12101/13/20 19:52:01 METAR KATL 140052Z 15003KT 1 1/2SM BR OVC004 18/17 A3032 RMK AO2 SFC VIS 5 SLP265 CIG 003V005 T01830167,FM-15,7,,,,,,,,,,,,,,,,,,,,,,,,,,,3/27/2007
72219013874,2020-01-13T19:57:00,FM-16,7,,,,,,,,,,,,,,,,,,,,,,,,,,,,,,,,,,,,,,,30.33,62,65,,BR:1 |s |,,,90,,OVC:08 3,29.22,0.5,63,160,,5,,,,,,,,,,,,,,,,,,,,,,,,,,,,,,,,,,,,,MET11301/13/20 19:57:01 SPECI KATL 140057Z 16004KT 1/2SM R09R/P6000FT BR OVC003 18/17 A3033 RMK AO2 SFC VIS 3 T01830167,FM-16,7,,,,,,,,,,,,,,,,,,,,,,,,,,,3/27/2007
72219013874,2020-01-13T20:52:00,FM-15,7,,,,,,,,,,,,,,,,,,,,,,,,,,,,,,,,,,,,,,,30.33,63,64,T,-RA:02 BR:1 |s RA s |RA s,,,96,30.32,OVC:08 3,29.22,0.5,63,140,,3,,,,,,,,,,,,,,,,,,,,,,,,,,,,,,,,,,,,,MET14001/13/20 20:52:01 METAR KATL 140152Z 14003KT 1/2SM R09R/3500V5500FT -RA BR OVC003 18/17 A3033 RMK AO2 SFC VIS 1 RAB05 SLP268 P0000 T01780172,FM-15,7,,,,,,,,,,,,,,,,,,,,,,,,,,,3/27/2007
72219013874,2020-01-13T21:40:00,FM-16,7,,,,,,,,,,,,,,,,,,,,,,,,,,,,,,,,,,,,,,,30.35,63,64,0.01,-RA:02 BR:1 |RA |RA,,,96,,SCT:04 3 BKN:07 12 OVC:08 110,29.24,3,63,0,,0,,,,,,,,,,,,,,,,,,,,,,,,,,,,,,,,,,,,,MET11201/13/20 21:40:01 SPECI KATL 140240Z 00000KT 3SM -RA BR SCT003 BKN012 OVC110 18/17 A3035 RMK AO2 P0001 T01780172,FM-16,7,,,,,,,,,,,,,,,,,,,,,,,,,,,3/27/2007
72219013874,2020-01-13T21:50:00,FM-16,6,,,,,,,,,,,,,,,,,,,,,,,,,,,,,,,,,,,,,,,30.34,63,64,,-RA:02 BR:1 |RA |RA,,,94,,FEW:02 3 BKN:07 20 OVC:08 70,29.23,3,63,0,,0,,,,,,,,,,,,,,,,,,,,,,,,,,,,,,,,,,,,,MET11201/13/20 21:50:03 SPECI KATL 140250Z 00000KT 3SM -RA BR FEW003 BKN020 OVC070 18/17 A3034 RMK AO2 P0002 FIBI (RF),FM-16,6,,,,,,,,,,,,,,,,,,,,,,,,,,,3/27/2007
72219013874,2020-01-13T21:52:00,FM-15,7,,,,,,,,,,,,,,,,,,,,,,,,,,,,,,,,,,,,,,,30.34,63,64,0.02,-RA:02 BR:1 |RA |RA,-0.02,3,96,30.33,FEW:02 3 BKN:07 20 OVC:08 70,29.23,3,63,0,,0,,,,,,,,,,,,,,,,,,,,,,,,,,,,,,,,,,,,,MET13101/13/20 21:52:01 METAR KATL 140252Z 00000KT 3SM -RA BR FEW003 BKN020 OVC070 18/17 A3034 RMK AO2 SLP272 P0002 60002 T01780172 53006,FM-15,7,,,,,,,,,,,,,,,,,,,,,,,,,,,3/27/2007
72219013874,2020-01-13T22:14:00,FM-16,7,,,,,,,,,,,,,,,,,,,,,,,,,,,,,,,,,,,,,,,30.34,63,65,0.08,RA:02 BR:1 |RA |RA,,,93,,FEW:02 3 BKN:07 20 OVC:08 60,29.23,1.5,64,110,,5,,,,,,,,,,,,,,,,,,,,,,,,,,,,,,,,,,,,,MET11501/13/20 22:14:01 SPECI KATL 140314Z 11004KT 1 1/2SM RA BR FEW003 BKN020 OVC060 18/17 A3034 RMK AO2 P0008 T01830172,FM-16,7,,,,,,,,,,,,,,,,,,,,,,,,,,,3/27/2007
72219013874,2020-01-13T22:52:00,FM-15,7,,,,,,,,,,,,,,,,,,,,,,,,,,,,,,,,,,,,,,,30.33,63,65,0.63,RA:02 BR:1 |RA |RA,,,93,30.32,SCT:04 4 BKN:07 15 OVC:08 50,29.22,2,64,360,,11,,,,,,,,,,,,,,,,,,,,,,,,,,,,,,,,,,,,,MET15601/13/20 22:52:01 METAR KATL 140352Z 36010KT 2SM RA BR SCT004 BKN015CB OVC050 18/17 A3033 RMK AO2 LTG DSNT SW AND W SLP267 CB N-NE DSNT SW-W P0062 T01830172,FM-15,7,,,,,,,,,,,,,,,,,,,,,,,,,,,3/27/2007
72219013874,2020-01-13T22:58:00,FM-16,7,,,,,,,,,,,,,,,,,,,,,,,,,,,,,,,,,,,,,,,30.33,63,65,0.01,TS:7 RA:02 |RA TS TS |RA,,,93,,FEW:02 3 BKN:07 15 OVC:08 50,29.22,2,64,360,,9,,,,,,,,,,,,,,,,,,,,,,,,,,,,,,,,,,,,,MET14901/13/20 22:58:01 SPECI KATL 140358Z 36008KT 2SM TSRA FEW003 BKN015CB OVC050 18/17 A3033 RMK AO2 TSB58 OCNL LTGIC SW-W TS SW-W MOV NE P0001 T01830172,FM-16,7,,,,,,,,,,,,,,,,,,,,,,,,,,,3/27/2007
72219013874,2020-01-13T23:52:00,FM-15,7,,,,,,,,,,,,,,,,,,,,,,,,,,,,,,,,,,,,,,,30.33,62,64,0.16,TS:7 RA:02 BR:1 |RA TS |RA,,,93,30.32,FEW:02 3 SCT:04 15 OVC:08 70,29.22,2,63,290,,10,,,,,,,,,,,,,,,,,,,,,,,,,,,,,,,,,,,,,MET18301/13/20 23:52:01 METAR KATL 140452Z 29009KT 2SM TSRA BR FEW003 SCT015CB OVC070 18/17 A3033 RMK AO2 SFC VIS 3 TSB0358 SLP268 OCNL LTGIC SE-SW TS SE-SW MOV NE P0016 T01780167 401890150,FM-15,7,,,,,,,,,,,,,,,,,,,,,,,,,,,3/27/2007
72219013874,2020-01-13T23:59:00,SOD  ,6,,,,,,,,,,,,,,,,,59,63,87,30.31,29.21,61,5.5,0,20.1,2,66,59,10,15,1.91,0,0,320,13,TS RA FG BR,,,,,,,,,,,,,,,,,,,,,,,,,,,,,,,,,,,,,,,,,,,,,,,,,,,,,,,SOD78524 HR PRECIPITATION (IN): 1.91 SNOW DEPTH (IN):0     24 HR SNOWFALL (IN):0.0  WEATHER(CODE):123  24 HR MAX TEMP (F): 6624 HR MIN TEMP (F): 59AVERAGE STATION PRESSURE:29.210 MINIMUM SEA LEVEL PRESSURE:30.26 TIME OF OCCURRENCE:0522 PEAK WIND SPEED (MPH): 15 PEAK WIND DIR (DEG): 10 PEAK WIND TIME (LST):      FASTEST 2MIN SPEED (MPH): 13FASTEST 2MIN DIR (DEG):320 FASTEST 2MIN TIME (LST):     AVERAGE WIND SPEED (MPH): 5.5 24 HR AVG TEMP (F): 63DEPART FROM NORMAL: 20  SKY COVER SR-SS (TENTHS): 1HEATING DEGREE DAYS:  2 COOLING DEGREE DAYS:  0 LATEST DAY MAX TEMP (0700-1900 LST):66  LATEST NIGHT MIN TEMP(1900-0800 LST):60 HOURLY INCREMENTAL PRECIPITATION VALUES (IN):.00 0.01 0.26 0.01 0.06 0.35 0.09 0.09 0.11 0.11 T    0.00 0.00 0.01 T    0.00 0.00 0.00 0.00 0.00 T    0.02 0.63 0.16,SOD  ,6,,,,,,,,,,,,,,,,,,,,,,,,,743,1751,3/27/2007
72219013874,2020-01-14T00:26:00,FM-16,7,,,,,,,,,,,,,,,,,,,,,,,,,,,,,,,,,,,,,,,30.32,62,64,0.06,-RA:02 BR:1 |RA |RA,,,93,,FEW:02 3 SCT:04 55 OVC:08 80,29.21,5,63,290,,6,,,,,,,,,,,,,,,,,,,,,,,,,,,,,,,,,,,,,MET14801/14/20 00:26:02 SPECI KATL 140526Z 29005KT 5SM -RA BR FEW003 SCT055 OVC080 18/17 A3032 RMK AO2 TSE25 LTG DSNT NE-SE TS MOV NE P0006 T01780167 (RF),FM-16,7,,,,,,,,,,,,,,,,,,,,,,,,,,,3/27/2007
72219013874,2020-01-14T00:52:00,FM-15,7,,,,,,,,,,,,,,,,,,,,,,,,,,,,,,,,,,,,,,,30.29,61,64,0.08,-RA:02 |RA |RA,0.05,8,90,30.28,FEW:02 4 BKN:07 70 OVC:08 100,29.18,9,62,90,,6,,,,,,,,,,,,,,,,,,,,,,,,,,,,,,,,,,,,,MET16601/14/20 00:52:02 METAR KATL 140552Z 09005KT 9SM -RA FEW004 BKN070 OVC100 18/16 A3029 RMK AO2 TSE25 SLP253 LTG DSNT NE-SE P0009 60089 T01780161 10183 20178 58017 (RF),FM-15,7,,,,,,,,,,,,,,,,,,,,,,,,,,,3/27/2007
72219013874,2020-01-14T01:00:00,FM-12,4,,,,,,,,,,,,,,,,,,,,,,,,,,,,,,,,,,,,,,,,61,64,,||RA,0.05,8,90,30.28,5,29.18,8.7,62,90,,6,,,,,,,,,,,,,,,,,,,,,,,,,,,,,,,,,,,,,SYN09272219 11264 80905 10178 20161 39880 40253 58017 60231 761// 90552 333 10183 20156 555 91406=,FM-12,4,,,,,,,,,,,,,,,,,,,,,,,,,,,3/27/2007
72219013874,2020-01-14T01:52:00,FM-15,7,,,,,,,,,,,,,,,,,,,,,,,,,,,,,,,,,,,,,,,30.28,61,63,0.01,,,,93,30.27,FEW:02 4 SCT:04 110 BKN:07 150,29.18,10,62,0,,0,,,,,,,,,,,,,,,,,,,,,,,,,,,,,,,,,,,,,MET12401/14/20 01:52:02 METAR KATL 140652Z 00000KT 10SM FEW004 SCT110 BKN150 17/16 A3028 RMK AO2 RAE24 SLP249 P0001 T01720161 (DB),FM-15,7,,,,,,,,,,,,,,,,,,,,,,,,,,,3/27/2007
72219013874,2020-01-14T02:18:00,FM-16,7,,,,,,,,,,,,,,,,,,,,,,,,,,,,,,,,,,,,,,,30.27,61,63,T,BR:1 ||,,,93,,BKN:07 3 BKN:07 85 OVC:08 110,29.16,5,62,220,,3,,,,,,,,,,,,,,,,,,,,,,,,,,,,,,,,,,,,,MET12401/14/20 02:18:02 SPECI KATL 140718Z 22003KT 5SM BR BKN003 BKN085 OVC110 17/16 A3027 RMK AO2 RAB0657E14 P0000 T01720161 (DB),FM-16,7,,,,,,,,,,,,,,,,,,,,,,,,,,,3/27/2007
72219013874,2020-01-14T02:32:00,FM-16,7,,,,,,,,,,,,,,,,,,,,,,,,,,,,,,,,,,,,,,,30.27,61,63,T,BR:1 ||,,,93,,BKN:07 2 OVC:08 37,29.16,0,62,200,,3,,,,,,,,,,,,,,,,,,,,,,,,,,,,,,,,,,,,,MET16001/14/20 02:32:02 SPECI KATL 140732Z 20003KT 0SM R09R/P6000FT BR BKN002 OVC037 17/16 A3027 RMK AO2 SFC VIS 5 RAB0657E14 BKN002 V SCT TWRINC P0000 T01720161 (DB),FM-16,7,,,,,,,,,,,,,,,,,,,,,,,,,,,3/27/2007
72219013874,2020-01-14T02:52:00,FM-15,7,,,,,,,,,,,,,,,,,,,,,,,,,,,,,,,,,,,,,,,30.26,61,63,T,,,,93,30.25,BKN:07 2 BKN:07 36 BKN:07 65,29.15,0,62,180,,3,,,,,,,,,,,,,,,,,,,,,,,,,,,,,,,,,,,,,MET17401/14/20 02:52:02 METAR KATL 140752Z 18003KT 0SM R09R/P6000FT BR BKN002 BKN036 BKN065 17/16 A3026 RMK AO2 SFC VIS 5 RAB0657E14 SLP243 BKN002 V SCT TWRINC P0000 T01720161 (DB),FM-15,7,,,,,,,,,,,,,,,,,,,,,,,,,,,3/27/2007
72219013874,2020-01-14T03:52:00,FM-15,7,,,,,,,,,,,,,,,,,,,,,,,,,,,,,,,,,,,,,,,30.24,61,63,0,BR:1 ||,0.05,8,93,30.23,VV:09 2,29.14,0,62,180,,8,,,,,,,,,,,,,,,,,,,,,,,,,,,,,,,,,,,,,MET14801/14/20 03:52:02 METAR KATL 140852Z 18007KT 0SM R09R/3500VP6000FT BR VV002 17/16 A3024 RMK AO2 SFC VIS 3/4 SLP236 TWRINC 60001 T01720161 58016 (DB),FM-15,7,,,,,,,,,,,,,,,,,,,,,,,,,,,3/27/2007
72219013874,2020-01-14T04:52:00,FM-15,7,,,,,,,,,,,,,,,,,,,,,,,,,,,,,,,,,,,,,,,30.22,60,62,0,BR:1 ||,,,93,30.21,BKN:07 2 OVC:08 19,29.12,0,61,190,,3,,,,,,,,,,,,,,,,,,,,,,,,,,,,,,,,,,,,,MET13701/14/20 04:52:02 METAR KATL 140952Z 19003KT 0SM R09R/P6000FT BR BKN002 OVC019 17/16 A3022 RMK AO2 SFC VIS 5 SLP230 TWRINC T01670156 (DB),FM-15,7,,,,,,,,,,,,,,,,,,,,,,,,,,,3/27/2007
72219013874,2020-01-14T05:30:00,FM-16,7,,,,,,,,,,,,,,,,,,,,,,,,,,,,,,,,,,,,,,,30.21,59,61,,BR:1 ||,,,93,,BKN:07 2 BKN:07 17,29.11,1.25,60,110,,5,,,,,,,,,,,,,,,,,,,,,,,,,,,,,,,,,,,,,MET13401/14/20 05:30:02 SPECI KATL 141030Z 11004KT 1 1/4SM BR BKN002 BKN017 16/15 A3021 RMK AO2 SFC VIS 5 BKN002 V SCT TWRINC T01610150 (DB),FM-16,7,,,,,,,,,,,,,,,,,,,,,,,,,,,3/27/2007
72219013874,2020-01-14T05:52:00,FM-15,7,,,,,,,,,,,,,,,,,,,,,,,,,,,,,,,,,,,,,,,30.21,59,61,0,BR:1 ||,,,93,30.2,BKN:07 2 BKN:07 17 BKN:07 220,29.11,1.25,60,0,,0,,,,,,,,,,,,,,,,,,,,,,,,,,,,,,,,,,,,,MET16301/14/20 05:52:02 METAR KATL 141052Z 00000KT 1 1/4SM BR BKN002 BKN017 BKN220 16/15 A3021 RMK AO2 SFC VIS 5 SLP227 VIS N-NE 1 1/4 BKN002 V SCT TWRINC T01610150 (DB),FM-15,7,,,,,,,,,,,,,,,,,,,,,,,,,,,3/27/2007
72219013874,2020-01-14T06:02:00,FM-16,7,,,,,,,,,,,,,,,,,,,,,,,,,,,,,,,,,,,,,,,30.22,58,61,,BR:1 ||,,,90,,SCT:04 2 SCT:04 17 SCT:04 220,29.12,1.25V,59,0,,0,,,,,,,,,,,,,,,,,,,,,,,,,,,,,,,,,,,,,MET15601/14/20 06:02:02 SPECI KATL 141102Z 00000KT 1 1/4SM BR SCT002 SCT017 SCT220 16/14 A3022 RMK AO2 SFC VIS 6 VIS N-NE 1 1/4 SCT002 V BKN TWRINC T01610144 (DB),FM-16,7,,,,,,,,,,,,,,,,,,,,,,,,,,,3/27/2007
72219013874,2020-01-14T06:52:00,FM-15,7,,,,,,,,,,,,,,,,,,,,,,,,,,,,,,,,,,,,,,,30.24,58,60,0,BR:1 ||,0.01,5,93,30.22,SCT:04 2 BKN:07 11 BKN:07 180,29.14,1.25,59,0,,0,,,,,,,,,,,,,,,,,,,,,,,,,,,,,,,,,,,,,MET18601/14/20 06:52:02 METAR KATL 141152Z 00000KT 1 1/4SM R09R/4000VP6000FT BR SCT002 BKN011 BKN180 16/14 A3024 RMK AO2 SLP235 SCT002 V BKN TWRINC 60001 70123 T01560144 10178 20156 55002 (DB),FM-15,7,,,,,,,,,,,,,,,,,,,,,,,,,,,3/27/2007
72219013874,2020-01-14T07:00:00,FM-12,4,,,,,,,,,,,,,,,,,,,,,,,,,,,,,,,,,,,,,,,,58,60,,,0.01,5,93,30.22,2,29.13,1.24,59,0,,0,,,,,,,,,,,,,,,,,,,,,,,,,,,,,,,,,,,,,SYN09872219 11120 60000 10156 20144 39864 40235 55002 69931 710// 91152 333 10189 20156 70312 555 91412=,FM-12,4,,,,,,,,,,,,,,,,,,,,,,,,,,,3/27/2007
72219013874,2020-01-14T07:05:00,FM-16,7,,,,,,,,,,,,,,,,,,,,,,,,,,,,,,,,,,,,,,,30.24,58,61,,,,,90,,FEW:02 2 SCT:04 11 SCT:04 110,29.14,6,59,0,,0,,,,,,,,,,,,,,,,,,,,,,,,,,,,,,,,,,,,,MET13901/14/20 07:05:02 SPECI KATL 141205Z 00000KT 6SM R09R/4500VP6000FT BR FEW002 SCT011 SCT110 16/14 A3024 RMK AO2 VIS E-S 1 1/4 T01610144 (DB),FM-16,7,,,,,,,,,,,,,,,,,,,,,,,,,,,3/27/2007
72219013874,2020-01-14T07:30:00,FM-16,7,,,,,,,,,,,,,,,,,,,,,,,,,,,,,,,,,,,,,,,30.25,59,61,,,,,93,,FEW:02 4 BKN:07 11 BKN:07 100,29.15,7,60,0,,0,,,,,,,,,,,,,,,,,,,,,,,,,,,,,,,,,,,,,MET10401/14/20 07:30:02 SPECI KATL 141230Z 00000KT 7SM FEW004 BKN011 BKN100 16/15 A3025 RMK AO2 T01610150 (DB),FM-16,7,,,,,,,,,,,,,,,,,,,,,,,,,,,3/27/2007
72219013874,2020-01-14T07:52:00,FM-15,7,,,,,,,,,,,,,,,,,,,,,,,,,,,,,,,,,,,,,,,30.26,59,61,0,,,,93,30.25,FEW:02 4 OVC:08 12,29.15,7,60,0,,0,,,,,,,,,,,,,,,,,,,,,,,,,,,,,,,,,,,,,MET11601/14/20 07:52:02 METAR KATL 141252Z 00000KT 7SM FEW004 OVC012 16/15 A3026 RMK AO2 SLP244 CIG 010V015 T01610150 (DB),FM-15,7,,,,,,,,,,,,,,,,,,,,,,,,,,,3/27/2007
72219013874,2020-01-14T08:29:00,FM-16,7,,,,,,,,,,,,,,,,,,,,,,,,,,,,,,,,,,,,,,,30.28,59,62,,,,,90,,FEW:02 4 OVC:08 8,29.18,10,60,200,,5,,,,,,,,,,,,,,,,,,,,,,,,,,,,,,,,,,,,,MET09801/14/20 08:29:02 SPECI KATL 141329Z 20004KT 10SM FEW004 OVC008 17/15 A3028 RMK AO2 T01670150 (DB),FM-16,7,,,,,,,,,,,,,,,,,,,,,,,,,,,3/27/2007
72219013874,2020-01-14T08:52:00,FM-15,7,,,,,,,,,,,,,,,,,,,,,,,,,,,,,,,,,,,,,,,30.25,59,62,0,,,,90,30.24,BKN:07 8 BKN:07 75 BKN:07 120,29.15,10,60,160,,6,,,,,,,,,,,,,,,,,,,,,,,,,,,,,,,,,,,,,MET11901/14/20 08:52:02 METAR KATL 141352Z 16005KT 10SM BKN008 BKN075 BKN120 17/15 A3025 RMK AO2 PRESFR SLP241 T01670150 (DB),FM-15,7,,,,,,,,,,,,,,,,,,,,,,,,,,,3/27/2007
72219013874,2020-01-14T09:52:00,FM-15,7,,,,,,,,,,,,,,,,,,,,,,,,,,,,,,,,,,,,,,,30.28,61,63,0,,-0.05,3,93,30.27,OVC:08 7,29.18,7,62,220,,6,,,,,,,,,,,,,,,,,,,,,,,,,,,,,,,,,,,,,MET10301/14/20 09:52:02 METAR KATL 141452Z 22005KT 7SM OVC007 17/16 A3028 RMK AO2 SLP251 T01720161 53016 (DB),FM-15,7,,,,,,,,,,,,,,,,,,,,,,,,,,,3/27/2007
72219013874,2020-01-14T10:41:00,FM-16,7,,,,,,,,,,,,,,,,,,,,,,,,,,,,,,,,,,,,,,,30.33,60,64,T,-RA:02 BR:1 |RA |RA,,,87,,BKN:07 4 OVC:08 14,29.22,3,62,350,28,22,,,,,,,,,,,,,,,,,,,,,,,,,,,,,,,,,,,,,MET12001/14/20 10:41:02 SPECI KATL 141541Z 35019G24KT 3SM -RA BR BKN004 OVC014 18/16 A3033 RMK AO2 RAB41 P0000 T01780156 (KAF),FM-16,7,,,,,,,,,,,,,,,,,,,,,,,,,,,3/27/2007
72219013874,2020-01-14T10:50:00,FM-16,6,,,,,,,,,,,,,,,,,,,,,,,,,,,,,,,,,,,,,,,30.33,59,63,,RA:02 BR:1 |RA |RA,,,88,,SCT:04 4 BKN:07 12 OVC:08 30,29.22,3,61,350,,13,,,,,,,,,,,,,,,,,,,,,,,,,,,,,,,,,,,,,MET13601/14/20 10:50:02 SPECI KATL 141550Z 35011KT 3SM R09R/5500VP6000FT RA BR SCT004 BKN012 OVC030 17/15 A3033 RMK AO2 RAB41 P0001 FIBI (KAF),FM-16,6,,,,,,,,,,,,,,,,,,,,,,,,,,,3/27/2007
72219013874,2020-01-14T10:52:00,FM-15,7,,,,,,,,,,,,,,,,,,,,,,,,,,,,,,,,,,,,,,,30.33,59,63,0.03,-RA:02 BR:1 |RA |RA,,,87,30.32,SCT:04 4 BKN:07 12 OVC:08 30,29.22,3,61,340,,13,,,,,,,,,,,,,,,,,,,,,,,,,,,,,,,,,,,,,MET16001/14/20 10:52:02 METAR KATL 141552Z 34011KT 3SM R09R/5500VP6000FT -RA BR SCT004 BKN012 OVC030 17/15 A3033 RMK AO2 WSHFT 1537 RAB41 SLP267 P0001 T01720150 (KAF),FM-15,7,,,,,,,,,,,,,,,,,,,,,,,,,,,3/27/2007
72219013874,2020-01-14T11:01:00,FM-16,7,,,,,,,,,,,,,,,,,,,,,,,,,,,,,,,,,,,,,,,30.32,59,63,0.03,RA:02 BR:1 |RA |RA,,,87,,SCT:04 8 BKN:07 20 OVC:08 38,29.21,3,61,330,,11,,,,,,,,,,,,,,,,,,,,,,,,,,,,,,,,,,,,,MET14601/14/20 11:01:02 SPECI KATL 141601Z 33010KT 3SM R09R/5000VP6000FT RA BR SCT008 BKN020 OVC038 17/15 A3032 RMK AO2 WSHFT 1539 P0003 T01720150 (KAF),FM-16,7,,,,,,,,,,,,,,,,,,,,,,,,,,,3/27/2007
72219013874,2020-01-14T11:04:00,FM-16,7,,,,,,,,,,,,,,,,,,,,,,,,,,,,,,,,,,,,,,,30.32,59,63,0.04,RA:02 BR:1 |RA |RA,,,87,,FEW:02 7 BKN:07 32 OVC:08 50,29.21,3,61,340,18,8,,,,,,,,,,,,,,,,,,,,,,,,,,,,,,,,,,,,,MET13101/14/20 11:04:02 SPECI KATL 141604Z 34007G16KT 3SM RA BR FEW007 BKN032 OVC050 17/15 A3032 RMK AO2 WSHFT 1539 P0004 T01720150 (KAF),FM-16,7,,,,,,,,,,,,,,,,,,,,,,,,,,,3/27/2007
72219013874,2020-01-14T11:52:00,FM-15,7,,,,,,,,,,,,,,,,,,,,,,,,,,,,,,,,,,,,,,,30.3,59,63,0.12,-RA:02 |RA |RA,,,87,30.29,FEW:02 8 BKN:07 38 OVC:08 55,29.19,7,61,330,,9,,,,,,,,,,,,,,,,,,,,,,,,,,,,,,,,,,,,,MET13301/14/20 11:52:02 METAR KATL 141652Z 33008KT 7SM -RA FEW008 BKN038 OVC055 17/15 A3030 RMK AO2 WSHFT 1539 SLP256 P0009 T01720150 (KAF),FM-15,7,,,,,,,,,,,,,,,,,,,,,,,,,,,3/27/2007
72219013874,2020-01-14T12:52:00,FM-15,7,,,,,,,,,,,,,,,,,,,,,,,,,,,,,,,,,,,,,,,30.26,59,63,0.02,-RA:02 |RA |RA,0.02,8,87,30.25,FEW:02 10 BKN:07 44 OVC:08 65,29.15,7,61,240,,5,,,,,,,,,,,,,,,,,,,,,,,,,,,,,,,,,,,,,MET14601/14/20 12:52:02 METAR KATL 141752Z 24004KT 7SM -RA FEW010 BKN044 OVC065 17/15 A3026 RMK AO2 SLP244 P0006 60016 T01720150 10183 20156 58007 (KAF),FM-15,7,,,,,,,,,,,,,,,,,,,,,,,,,,,3/27/2007
72219013874,2020-01-14T13:00:00,FM-12,4,,,,,,,,,,,,,,,,,,,,,,,,,,,,,,,,,,,,,,,,59,63,,||RA,0.02,8,87,30.25,15,29.15,6.84,61,240,,5,,,,,,,,,,,,,,,,,,,,,,,,,,,,,,,,,,,,,SYN09272219 11461 82404 10172 20150 39871 40244 58007 60041 761// 91752 333 10183 20156 555 91418=,FM-12,4,,,,,,,,,,,,,,,,,,,,,,,,,,,3/27/2007
72219013874,2020-01-14T13:39:00,FM-16,7,,,,,,,,,,,,,,,,,,,,,,,,,,,,,,,,,,,,,,,30.24,59,63,0.05,-RA:02 BR:1 |RA |RA,,,87,,FEW:02 6 OVC:08 80,29.14,5,61,180,,3,,,,,,,,,,,,,,,,,,,,,,,,,,,,,,,,,,,,,MET11101/14/20 13:39:02 SPECI KATL 141839Z 18003KT 5SM -RA BR FEW006 OVC080 17/15 A3024 RMK AO2 P0005 T01720150 (KAF),FM-16,7,,,,,,,,,,,,,,,,,,,,,,,,,,,3/27/2007
72219013874,2020-01-14T13:52:00,FM-15,7,,,,,,,,,,,,,,,,,,,,,,,,,,,,,,,,,,,,,,,30.23,59,63,0.07,-RA:02 BR:1 |RA |RA,,,87,30.22,FEW:02 6 SCT:04 48 OVC:08 80,29.13,4,61,0,,0,,,,,,,,,,,,,,,,,,,,,,,,,,,,,,,,,,,,,MET14601/14/20 13:52:02 METAR KATL 141852Z 00000KT 4SM -RA BR FEW006 SCT048 OVC080 17/15 A3023 RMK AO2 LTG DSNT E SLP234 CB DSNT E P0007 T01720150 (KAF),FM-15,7,,,,,,,,,,,,,,,,,,,,,,,,,,,3/27/2007
72219013874,2020-01-14T14:52:00,FM-15,7,,,,,,,,,,,,,,,,,,,,,,,,,,,,,,,,,,,,,,,30.25,60,62,0.07,RA:02 BR:1 |RA |RA,,,93,30.23,FEW:02 7 SCT:04 60 OVC:08 85,29.15,4,61,200,,3,,,,,,,,,,,,,,,,,,,,,,,,,,,,,,,,,,,,,MET12401/14/20 14:52:02 METAR KATL 141952Z 20003KT 4SM RA BR FEW007 SCT060 OVC085 17/16 A3025 RMK AO2 SLP238 P0007 T01670156 (KAF),FM-15,7,,,,,,,,,,,,,,,,,,,,,,,,,,,3/27/2007
72219013874,2020-01-14T15:19:00,FM-16,7,,,,,,,,,,,,,,,,,,,,,,,,,,,,,,,,,,,,,,,30.24,59,62,0.06,RA:02 BR:1 |RA |RA,,,90,,FEW:02 5 BKN:07 70 OVC:08 95,29.14,3,60,160,,6,,,,,,,,,,,,,,,,,,,,,,,,,,,,,,,,,,,,,MET12701/14/20 15:19:02 SPECI KATL 142019Z 16005KT 3SM RA BR FEW005 BKN070 OVC095 17/15 A3024 RMK AO2 SFC VIS 4 P0006 T01670150 (KAF),FM-16,7,,,,,,,,,,,,,,,,,,,,,,,,,,,3/27/2007
72219013874,2020-01-14T15:24:00,FM-16,7,,,,,,,,,,,,,,,,,,,,,,,,,,,,,,,,,,,,,,,30.24,59,62,0.07,RA:02 BR:1 |RA |RA,,,90,,BKN:07 5 BKN:07 60 OVC:08 95,29.14,2,60,160,,6,,,,,,,,,,,,,,,,,,,,,,,,,,,,,,,,,,,,,MET12701/14/20 15:24:02 SPECI KATL 142024Z 16005KT 2SM RA BR BKN005 BKN060 OVC095 17/15 A3024 RMK AO2 SFC VIS 5 P0007 T01670150 (KAF),FM-16,7,,,,,,,,,,,,,,,,,,,,,,,,,,,3/27/2007
72219013874,2020-01-14T15:50:00,FM-16,6,,,,,,,,,,,,,,,,,,,,,,,,,,,,,,,,,,,,,,,30.23,61,63,,-RA:02 BR:1 |RA |RA,,,94,,SCT:04 4 BKN:07 22 OVC:08 60,29.13,2,62,160,,5,,,,,,,,,,,,,,,,,,,,,,,,,,,,,,,,,,,,,MET12301/14/20 15:50:02 SPECI KATL 142050Z 16004KT 2SM -RA BR SCT004 BKN022 OVC060 17/16 A3023 RMK AO2 SFC VIS 5 P0012 FIBI (KAF),FM-16,6,,,,,,,,,,,,,,,,,,,,,,,,,,,3/27/2007
72219013874,2020-01-14T15:52:00,FM-15,7,,,,,,,,,,,,,,,,,,,,,,,,,,,,,,,,,,,,,,,30.23,60,62,0.12,-RA:02 BR:1 |RA |RA,0.03,6,93,30.22,SCT:04 4 BKN:07 22 OVC:08 60,29.13,2,61,170,,5,,,,,,,,,,,,,,,,,,,,,,,,,,,,,,,,,,,,,MET14701/14/20 15:52:02 METAR KATL 142052Z 17004KT 2SM -RA BR SCT004 BKN022 OVC060 17/16 A3023 RMK AO2 SFC VIS 5 SLP233 P0012 60026 T01670156 56010 (KAF),FM-15,7,,,,,,,,,,,,,,,,,,,,,,,,,,,3/27/2007
72219013874,2020-01-14T16:10:00,FM-16,7,,,,,,,,,,,,,,,,,,,,,,,,,,,,,,,,,,,,,,,30.23,59,62,0.02,-RA:02 BR:1 |RA |RA,,,90,,BKN:07 4 BKN:07 22 OVC:08 90,29.13,1.5,60,160,,6,,,,,,,,,,,,,,,,,,,,,,,,,,,,,,,,,,,,,MET13201/14/20 16:10:02 SPECI KATL 142110Z 16005KT 1 1/2SM -RA BR BKN004 BKN022 OVC090 17/15 A3023 RMK AO2 SFC VIS 6 P0002 T01670150 (KAF),FM-16,7,,,,,,,,,,,,,,,,,,,,,,,,,,,3/27/2007
72219013874,2020-01-14T16:21:00,FM-16,7,,,,,,,,,,,,,,,,,,,,,,,,,,,,,,,,,,,,,,,30.23,59,62,0.03,-RA:02 BR:1 |RA |RA,,,90,,BKN:07 4 BKN:07 22 OVC:08 90,29.13,0.75,60,180,,6,,,,,,,,,,,,,,,,,,,,,,,,,,,,,,,,,,,,,MET16201/14/20 16:21:02 SPECI KATL 142121Z 18005KT 3/4SM R09R/P6000FT -RA BR BKN004 BKN022 OVC090 17/15 A3023 RMK AO2 SFC VIS 3 CIG 003V005 TWRINC P0003 T01670150 (KAF),FM-16,7,,,,,,,,,,,,,,,,,,,,,,,,,,,3/27/2007
72219013874,2020-01-14T16:52:00,FM-15,7,,,,,,,,,,,,,,,,,,,,,,,,,,,,,,,,,,,,,,,30.24,59,61,0.06,-RA:02 BR:1 |RA |RA,,,93,30.23,BKN:07 4 BKN:07 22 OVC:08 90,29.14,0.75,60,190,,9,,,,,,,,,,,,,,,,,,,,,,,,,,,,,,,,,,,,,MET16901/14/20 16:52:02 METAR KATL 142152Z 19008KT 3/4SM R09R/P6000FT -RA BR BKN004 BKN022 OVC090 16/15 A3024 RMK AO2 SFC VIS 4 SLP236 CIG 003V005 TWRINC P0006 T01610150 (KAF),FM-15,7,,,,,,,,,,,,,,,,,,,,,,,,,,,3/27/2007
72219013874,2020-01-14T17:17:00,FM-16,7,,,,,,,,,,,,,,,,,,,,,,,,,,,,,,,,,,,,,,,30.22,59,61,0.02,-RA:02 |RA |RA,,,93,,SCT:04 4 BKN:07 25 OVC:08 75,29.12,1.5,60,170,,9,,,,,,,,,,,,,,,,,,,,,,,,,,,,,,,,,,,,,MET14101/14/20 17:17:02 SPECI KATL 142217Z 17008KT 1 1/2SM -RA SCT004 BKN025 OVC075 16/15 A3022 RMK AO2 SFC VIS 7 SCT004 V BKN P0002 T01610150 (RF),FM-16,7,,,,,,,,,,,,,,,,,,,,,,,,,,,3/27/2007
72219013874,2020-01-14T17:50:00,FM-16,6,,,,,,,,,,,,,,,,,,,,,,,,,,,,,,,,,,,,,,,30.23,59,61,,-RA:02 |RA |RA,,,94,,SCT:04 4 BKN:07 50 OVC:08 110,29.13,1.5,60,200,,8,,,,,,,,,,,,,,,,,,,,,,,,,,,,,,,,,,,,,MET14501/14/20 17:50:02 SPECI KATL 142250Z 20007KT 1 1/2SM -RA SCT004 BKN050 OVC110 16/15 A3023 RMK AO2 SFC VIS 7 RAE28B47 SCT004 V BKN P0002 FIBI (RF),FM-16,6,,,,,,,,,,,,,,,,,,,,,,,,,,,3/27/2007
72219013874,2020-01-14T17:52:00,FM-15,7,,,,,,,,,,,,,,,,,,,,,,,,,,,,,,,,,,,,,,,30.23,59,61,0.01,-RA:02 |RA |RA,,,93,30.22,SCT:04 4 BKN:07 50 OVC:08 110,29.13,1.5,60,210,,10,,,,,,,,,,,,,,,,,,,,,,,,,,,,,,,,,,,,,MET15701/14/20 17:52:02 METAR KATL 142252Z 21009KT 1 1/2SM -RA SCT004 BKN050 OVC110 16/15 A3023 RMK AO2 SFC VIS 7 RAE28B47 SLP233 SCT004 V BKN P0002 T01610150 (RF),FM-15,7,,,,,,,,,,,,,,,,,,,,,,,,,,,3/27/2007
72219013874,2020-01-14T18:33:00,FM-16,7,,,,,,,,,,,,,,,,,,,,,,,,,,,,,,,,,,,,,,,30.17,58,61,0.04,-RA:02 |RA |RA,,,90,,FEW:02 4 BKN:07 80 OVC:08 110,29.07,8,59,150,,15,,,,,,,,,,,,,,,,,,,,,,,,,,,,,,,,,,,,,MET12101/14/20 18:33:02 SPECI KATL 142333Z 15013KT 8SM -RA FEW004 BKN080 OVC110 16/14 A3017 RMK AO2 PRESFR P0004 T01610144 (RF),FM-16,7,,,,,,,,,,,,,,,,,,,,,,,,,,,3/27/2007
72219013874,2020-01-14T18:52:00,FM-15,7,,,,,,,,,,,,,,,,,,,,,,,,,,,,,,,,,,,,,,,30.18,58,61,0.04,-RA:02 |RA |RA,0.05,8,90,30.16,FEW:02 4 BKN:07 100 OVC:08 150,29.08,10,59,160,,6,,,,,,,,,,,,,,,,,,,,,,,,,,,,,,,,,,,,,MET14601/14/20 18:52:02 METAR KATL 142352Z 16005KT 10SM -RA FEW004 BKN100 OVC150 16/14 A3018 RMK AO2 SLP215 P0004 60038 T01610144 10172 20161 58018 (RF),FM-15,7,,,,,,,,,,,,,,,,,,,,,,,,,,,3/27/2007
72219013874,2020-01-14T19:00:00,FM-12,4,,,,,,,,,,,,,,,,,,,,,,,,,,,,,,,,,,,,,,,,58,61,,||RA,0.05,8,90,30.16,5,29.07,9.94,59,160,,6,,,,,,,,,,,,,,,,,,,,,,,,,,,,,,,,,,,,,SYN09272219 11266 81605 10161 20144 39844 40215 58018 60101 761// 92352 333 10183 20156 555 91500=,FM-12,4,,,,,,,,,,,,,,,,,,,,,,,,,,,3/27/2007
72219013874,2020-01-14T19:29:00,FM-16,7,,,,,,,,,,,,,,,,,,,,,,,,,,,,,,,,,,,,,,,30.21,58,61,T,,,,90,,SCT:04 6 BKN:07 90 OVC:08 150,29.11,10,59,270,,7,,,,,,,,,,,,,,,,,,,,,,,,,,,,,,,,,,,,,MET12501/14/20 19:29:01 SPECI KATL 150029Z 27006KT 10SM SCT006 BKN090 OVC150 16/14 A3021 RMK AO2 WSHFT 0009 RAE2353 P0000 T01610144,FM-16,7,,,,,,,,,,,,,,,,,,,,,,,,,,,3/27/2007
72219013874,2020-01-14T19:52:00,FM-15,7,,,,,,,,,,,,,,,,,,,,,,,,,,,,,,,,,,,,,,,30.2,58,61,T,-RA:02 |RA |RA,,,90,30.19,FEW:02 5 BKN:07 90 OVC:08 150,29.1,9,59,260,,5,,,,,,,,,,,,,,,,,,,,,,,,,,,,,,,,,,,,,MET13801/14/20 19:52:01 METAR KATL 150052Z 26004KT 9SM -RA FEW005 BKN090 OVC150 16/14 A3020 RMK AO2 WSHFT 0009 RAE2353B38 SLP225 P0000 T01610144,FM-15,7,,,,,,,,,,,,,,,,,,,,,,,,,,,3/27/2007
72219013874,2020-01-14T20:52:00,FM-15,7,,,,,,,,,,,,,,,,,,,,,,,,,,,,,,,,,,,,,,,30.21,58,61,0.03,-RA:02 |RA |RA,,,90,30.2,FEW:02 55 BKN:07 100 OVC:08 150,29.11,9,59,240,,7,,,,,,,,,,,,,,,,,,,,,,,,,,,,,,,,,,,,,MET11601/14/20 20:52:01 METAR KATL 150152Z 24006KT 9SM -RA FEW055 BKN100 OVC150 16/14 A3021 RMK AO2 SLP228 P0002 T01610144,FM-15,7,,,,,,,,,,,,,,,,,,,,,,,,,,,3/27/2007
72219013874,2020-01-14T21:52:00,FM-15,7,,,,,,,,,,,,,,,,,,,,,,,,,,,,,,,,,,,,,,,30.21,58,60,T,,-0.04,0,93,30.2,SCT:04 100 BKN:07 200 OVC:08 250,29.11,10,59,280,,5,,,,,,,,,,,,,,,,,,,,,,,,,,,,,,,,,,,,,MET13101/14/20 21:52:01 METAR KATL 150252Z 28004KT 10SM SCT100 BKN200 OVC250 16/14 A3021 RMK AO2 RAE20 SLP228 P0001 60003 T01560144 50012,FM-15,7,,,,,,,,,,,,,,,,,,,,,,,,,,,3/27/2007
72219013874,2020-01-14T22:52:00,FM-15,7,,,,,,,,,,,,,,,,,,,,,,,,,,,,,,,,,,,,,,,30.2,57,60,0,,,,90,30.19,FEW:02 100 BKN:07 180 OVC:08 250,29.1,10,58,0,,0,,,,,,,,,,,,,,,,,,,,,,,,,,,,,,,,,,,,,MET10701/14/20 22:52:01 METAR KATL 150352Z 00000KT 10SM FEW100 BKN180 OVC250 16/14 A3020 RMK AO2 SLP225 T01560139,FM-15,7,,,,,,,,,,,,,,,,,,,,,,,,,,,3/27/2007
72219013874,2020-01-14T23:52:00,FM-15,7,,,,,,,,,,,,,,,,,,,,,,,,,,,,,,,,,,,,,,,30.21,57,60,0,,,,90,30.2,FEW:02 100 BKN:07 150 OVC:08 200,29.11,10,58,260,,6,,,,,,,,,,,,,,,,,,,,,,,,,,,,,,,,,,,,,MET13301/14/20 23:52:01 METAR KATL 150452Z 26005KT 10SM FEW100 BKN150 OVC200 16/14 A3021 RMK AO2 SLP226 VIRGA OHD-ALQDS T01560139 401830156,FM-15,7,,,,,,,,,,,,,,,,,,,,,,,,,,,3/27/2007
72219013874,2020-01-14T23:59:00,SOD  ,6,,,,,,,,,,,,,,,,,59,63,91,30.23,29.13,60,4.7,0,20,2,65,60,350,28,0.66,0,0,350,22,RA BR,,,,,,,,,,,,,,,,,,,,,,,,,,,,,,,,,,,,,,,,,,,,,,,,,,,,,,,SOD75824 HR PRECIPITATION (IN): 0.66 SNOW DEPTH (IN):0     24 HR SNOWFALL (IN):0.0  WEATHER(CODE):123  24 HR MAX TEMP (F): 6524 HR MIN TEMP (F): 60AVERAGE STATION PRESSURE:29.135 MINIMUM SEA LEVEL PRESSURE:30.15 TIME OF OCCURRENCE:1838 PEAK WIND SPEED (MPH): 27 PEAK WIND DIR (DEG):340 PEAK WIND TIME (LST):      FASTEST 2MIN SPEED (MPH): 22FASTEST 2MIN DIR (DEG):350 FASTEST 2MIN TIME (LST):     AVERAGE WIND SPEED (MPH): 4.7 24 HR AVG TEMP (F): 63DEPART FROM NORMAL: 20  HEATING DEGREE DAYS:  2 COOLING DEGREE DAYS:  0 LATEST DAY MAX TEMP (0700-1900 LST):65  LATEST NIGHT MIN TEMP(1900-0800 LST):60 HOURLY INCREMENTAL PRECIPITATION VALUES (IN):.08 0.01 T    0.00 0.00 0.00 0.00 0.00 0.00 0.00 0.03 0.12 0.02 0.07 0.07 0.12 0.06 0.01 0.04 T    0.03 T    0.00 0.00,SOD  ,6,,,,,,,,,,,,,,,,,,,,,,,,,743,1752,3/27/2007
72219013874,2020-01-15T00:52:00,FM-15,7,,,,,,,,,,,,,,,,,,,,,,,,,,,,,,,,,,,,,,,30.19,57,60,0,,0.01,8,90,30.19,SCT:04 60 BKN:07 80 BKN:07 140,29.09,10,58,220,,7,,,,,,,,,,,,,,,,,,,,,,,,,,,,,,,,,,,,,MET15901/15/20 00:52:02 METAR KATL 150552Z 22006KT 10SM SCT060 BKN080 BKN140 16/14 A3019 RMK AO2 PRESFR SLP222 VIRGA OHD-ALQDS 60003 T01560139 10167 20156 58005 (RF),FM-15,7,,,,,,,,,,,,,,,,,,,,,,,,,,,3/27/2007
72219013874,2020-01-15T01:00:00,FM-12,4,,,,,,,,,,,,,,,,,,,,,,,,,,,,,,,,,,,,,,,,57,60,,,0.01,8,90,30.19,57,29.08,9.94,58,220,,7,,,,,,,,,,,,,,,,,,,,,,,,,,,,,,,,,,,,,SYN08672219 12766 82206 10156 20139 39848 40222 58005 69981 90552 333 10178 20156 555 91506=,FM-12,4,,,,,,,,,,,,,,,,,,,,,,,,,,,3/27/2007
72219013874,2020-01-15T01:52:00,FM-15,7,,,,,,,,,,,,,,,,,,,,,,,,,,,,,,,,,,,,,,,30.19,57,61,0,,,,87,30.18,BKN:07 50 BKN:07 150 BKN:07 200,29.09,10,59,200,,8,,,,,,,,,,,,,,,,,,,,,,,,,,,,,,,,,,,,,MET11201/15/20 01:52:02 METAR KATL 150652Z 20007KT 10SM BKN050 BKN150 BKN200 16/14 A3019 RMK AO2 SLP220 T01610139 (DB),FM-15,7,,,,,,,,,,,,,,,,,,,,,,,,,,,3/27/2007
72219013874,2020-01-15T02:52:00,FM-15,7,,,,,,,,,,,,,,,,,,,,,,,,,,,,,,,,,,,,,,,30.17,56,60,T,,,,86,30.16,FEW:02 50 SCT:04 110 SCT:04 220,29.07,10,58,230,,3,,,,,,,,,,,,,,,,,,,,,,,,,,,,,,,,,,,,,MET12701/15/20 02:52:02 METAR KATL 150752Z 23003KT 10SM FEW050 SCT110 SCT220 16/13 A3017 RMK AO2 RAB04E14 SLP212 P0000 T01560133 (DB),FM-15,7,,,,,,,,,,,,,,,,,,,,,,,,,,,3/27/2007
72219013874,2020-01-15T03:52:00,FM-15,7,,,,,,,,,,,,,,,,,,,,,,,,,,,,,,,,,,,,,,,30.16,56,58,0,,0.03,6,93,30.16,FEW:02 110 SCT:04 220,29.06,10,57,0,,0,,,,,,,,,,,,,,,,,,,,,,,,,,,,,,,,,,,,,MET11701/15/20 03:52:02 METAR KATL 150852Z 00000KT 10SM FEW110 SCT220 14/13 A3016 RMK AO2 SLP212 60000 T01440133 56010 (DB),FM-15,7,,,,,,,,,,,,,,,,,,,,,,,,,,,3/27/2007
72219013874,2020-01-15T04:52:00,FM-15,7,,,,,,,,,,,,,,,,,,,,,,,,,,,,,,,,,,,,,,,30.17,55,57,0,MI:1 FG:2 |FG |,,,93,30.16,FEW:02 110 FEW:02 220,29.07,10,56,280,,3,,,,,,,,,,,,,,,,,,,,,,,,,,,,,,,,,,,,,MET11001/15/20 04:52:02 METAR KATL 150952Z 28003KT 10SM MIFG FEW110 FEW220 14/13 A3017 RMK AO2 SLP213 T01390128 (DB),FM-15,7,,,,,,,,,,,,,,,,,,,,,,,,,,,3/27/2007
72219013874,2020-01-15T05:52:00,FM-15,7,,,,,,,,,,,,,,,,,,,,,,,,,,,,,,,,,,,,,,,30.18,54,56,0,MI:1 FG:2 |FG |,,,93,30.17,FEW:02 4 FEW:02 220,29.08,10,55,280,,3,,,,,,,,,,,,,,,,,,,,,,,,,,,,,,,,,,,,,MET11001/15/20 05:52:02 METAR KATL 151052Z 28003KT 10SM MIFG FEW004 FEW220 13/12 A3018 RMK AO2 SLP218 T01330122 (DB),FM-15,7,,,,,,,,,,,,,,,,,,,,,,,,,,,3/27/2007
72219013874,2020-01-15T06:52:00,FM-15,7,,,,,,,,,,,,,,,,,,,,,,,,,,,,,,,,,,,,,,,30.19,56,57,0,BC:3 FG:2 |FG |,-0.03,3,96,30.19,FEW:02 4 BKN:07 55,29.09,10,56,0,,0,,,,,,,,,,,,,,,,,,,,,,,,,,,,,,,,,,,,,MET15201/15/20 06:52:02 METAR KATL 151152Z 00000KT 10SM BCFG FEW004 BKN055 14/13 A3019 RMK AO2 SLP222 FG BANK W-N 60000 70057 T01390133 10161 20133 53009 (DB),FM-15,7,,,,,,,,,,,,,,,,,,,,,,,,,,,3/27/2007
72219013874,2020-01-15T07:00:00,FM-12,4,,,,,,,,,,,,,,,,,,,,,,,,,,,,,,,,,,,,,,,,56,57,,,-0.03,3,96,30.19,5,29.08,9.94,56,0,,0,,,,,,,,,,,,,,,,,,,,,,,,,,,,,,,,,,,,,SYN09272219 11266 60000 10139 20133 39848 40222 53009 69901 91152 333 10183 20133 70145 555 91512=,FM-12,4,,,,,,,,,,,,,,,,,,,,,,,,,,,3/27/2007
72219013874,2020-01-15T07:52:00,FM-15,7,,,,,,,,,,,,,,,,,,,,,,,,,,,,,,,,,,,,,,,30.21,56,58,0,,,,93,30.2,BKN:07 60 BKN:07 75 BKN:07 220,29.11,10,57,0,,0,,,,,,,,,,,,,,,,,,,,,,,,,,,,,,,,,,,,,MET11201/15/20 07:52:02 METAR KATL 151252Z 00000KT 10SM BKN060 BKN075 BKN220 14/13 A3021 RMK AO2 SLP226 T01440133 (DB),FM-15,7,,,,,,,,,,,,,,,,,,,,,,,,,,,3/27/2007
72219013874,2020-01-15T08:52:00,FM-15,7,,,,,,,,,,,,,,,,,,,,,,,,,,,,,,,,,,,,,,,30.22,57,59,0,,,,93,30.21,FEW:02 35 BKN:07 65,29.12,10,58,0,,0,,,,,,,,,,,,,,,,,,,,,,,,,,,,,,,,,,,,,MET10701/15/20 08:52:02 METAR KATL 151352Z 00000KT 10SM FEW035 BKN065 15/14 A3022 RMK AO2 SLP231 T01500139 $ (DB),FM-15,7,,,,,,,,,,,,,,,,,,,,,,,,,,,3/27/2007
72219013874,2020-01-15T09:50:00,FM-16,6,,,,,,,,,,,,,,,,,,,,,,,,,,,,,,,,,,,,,,,30.24,57,61,,,,,88,,FEW:02 8 BKN:07 70 BKN:07 100,29.14,10,59,0,,0,,,,,,,,,,,,,,,,,,,,,,,,,,,,,,,,,,,,,MET10101/15/20 09:50:02 SPECI KATL 151450Z 00000KT 10SM FEW008 BKN070 BKN100 16/14 A3024 RMK AO2 FIBI (JRN),FM-16,6,,,,,,,,,,,,,,,,,,,,,,,,,,,3/27/2007
72219013874,2020-01-15T09:52:00,FM-15,7,,,,,,,,,,,,,,,,,,,,,,,,,,,,,,,,,,,,,,,30.24,58,60,0,,-0.04,3,93,30.23,FEW:02 8 BKN:07 70 BKN:07 100,29.14,10,59,0,,0,,,,,,,,,,,,,,,,,,,,,,,,,,,,,,,,,,,,,MET11901/15/20 09:52:02 METAR KATL 151452Z 00000KT 10SM FEW008 BKN070 BKN100 16/14 A3024 RMK AO2 SLP237 T01560144 53014 (JRN),FM-15,7,,,,,,,,,,,,,,,,,,,,,,,,,,,3/27/2007
72219013874,2020-01-15T10:52:00,FM-15,7,,,,,,,,,,,,,,,,,,,,,,,,,,,,,,,,,,,,,,,30.25,58,62,0,,,,86,30.24,FEW:02 8 SCT:04 70 BKN:07 100,29.15,10,60,0,,0,,,,,,,,,,,,,,,,,,,,,,,,,,,,,,,,,,,,,MET11301/15/20 10:52:02 METAR KATL 151552Z 00000KT 10SM FEW008 SCT070 BKN100 17/14 A3025 RMK AO2 SLP240 T01670144 (JRN),FM-15,7,,,,,,,,,,,,,,,,,,,,,,,,,,,3/27/2007
72219013874,2020-01-15T11:52:00,FM-15,7,,,,,,,,,,,,,,,,,,,,,,,,,,,,,,,,,,,,,,,30.23,59,64,0,,,,84,30.22,FEW:02 10 SCT:04 65 BKN:07 100,29.13,10,61,140,,5,,,,,,,,,,,,,,,,,,,,,,,,,,,,,,,,,,,,,MET11301/15/20 11:52:02 METAR KATL 151652Z 14004KT 10SM FEW010 SCT065 BKN100 18/15 A3023 RMK AO2 SLP234 T01780150 (JRN),FM-15,7,,,,,,,,,,,,,,,,,,,,,,,,,,,3/27/2007
72219013874,2020-01-15T12:52:00,FM-15,7,,,,,,,,,,,,,,,,,,,,,,,,,,,,,,,,,,,,,,,30.2,60,70,0,,0.04,8,71,30.18,FEW:02 22 SCT:04 95 SCT:04 250,29.1,10,64,260,,6,,,,,,,,,,,,,,,,,,,,,,,,,,,,,,,,,,,,,MET13101/15/20 12:52:02 METAR KATL 151752Z 26005KT 10SM FEW022 SCT095 SCT250 21/16 A3020 RMK AO2 SLP221 T02110156 10211 20139 58012 (JRN),FM-15,7,,,,,,,,,,,,,,,,,,,,,,,,,,,3/27/2007
72219013874,2020-01-15T13:00:00,FM-12,4,,,,,,,,,,,,,,,,,,,,,,,,,,,,,,,,,,,,,,,,60,70,,,0.04,8,71,30.18,26,29.09,9.94,64,260,,6,,,,,,,,,,,,,,,,,,,,,,,,,,,,,,,,,,,,,SYN08072219 32566 42605 10211 20156 39851 40221 58012 91752 333 10211 20139 555 91518=,FM-12,4,,,,,,,,,,,,,,,,,,,,,,,,,,,3/27/2007
72219013874,2020-01-15T13:52:00,FM-15,7,,,,,,,,,,,,,,,,,,,,,,,,,,,,,,,,,,,,,,,30.18,60,71,0,,,,68,30.16,FEW:02 22 BKN:07 65,29.08,10,64,250,,7,,,,,,,,,,,,,,,,,,,,,,,,,,,,,,,,,,,,,MET10601/15/20 13:52:02 METAR KATL 151852Z 25006KT 10SM FEW022 BKN065 22/16 A3018 RMK AO2 SLP215 T02170156 (JRN),FM-15,7,,,,,,,,,,,,,,,,,,,,,,,,,,,3/27/2007
72219013874,2020-01-15T14:52:00,FM-15,7,,,,,,,,,,,,,,,,,,,,,,,,,,,,,,,,,,,,,,,30.16,61,72,0,,,,68,30.15,SCT:04 26 SCT:04 34 BKN:07 65,29.06,10,65,240,,8,,,,,,,,,,,,,,,,,,,,,,,,,,,,,,,,,,,,,MET11301/15/20 14:52:02 METAR KATL 151952Z 24007KT 10SM SCT026 SCT034 BKN065 22/16 A3016 RMK AO2 SLP209 T02220161 (JRN),FM-15,7,,,,,,,,,,,,,,,,,,,,,,,,,,,3/27/2007
72219013874,2020-01-15T15:09:00,FM-16,7,,,,,,,,,,,,,,,,,,,,,,,,,,,,,,,,,,,,,,,30.17,61,71,,,,,71,,BKN:07 25,29.07,10,65,240,,9,,,,,,,,,,,,,,,,,,,,,,,,,,,,,,,,,,,,,MET09201/15/20 15:09:02 SPECI KATL 152009Z 24008KT 10SM BKN025 22/16 A3017 RMK AO2 T02170161 (JRN),FM-16,7,,,,,,,,,,,,,,,,,,,,,,,,,,,3/27/2007
72219013874,2020-01-15T15:52:00,FM-15,7,,,,,,,,,,,,,,,,,,,,,,,,,,,,,,,,,,,,,,,30.17,61,70,0,,0.03,5,73,30.16,OVC:08 22,29.07,10,64,250,,9,,,,,,,,,,,,,,,,,,,,,,,,,,,,,,,,,,,,,MET10501/15/20 15:52:02 METAR KATL 152052Z 25008KT 10SM OVC022 21/16 A3017 RMK AO2 SLP212 T02110161 55009 (JRN),FM-15,7,,,,,,,,,,,,,,,,,,,,,,,,,,,3/27/2007
72219013874,2020-01-15T16:52:00,FM-15,7,,,,,,,,,,,,,,,,,,,,,,,,,,,,,,,,,,,,,,,30.18,61,69,0,,,,76,30.17,FEW:02 19 BKN:07 27 BKN:07 70,29.08,10,64,220,,8,,,,,,,,,,,,,,,,,,,,,,,,,,,,,,,,,,,,,MET11301/15/20 16:52:02 METAR KATL 152152Z 22007KT 10SM FEW019 BKN027 BKN070 21/16 A3018 RMK AO2 SLP217 T02060161 (JRN),FM-15,7,,,,,,,,,,,,,,,,,,,,,,,,,,,3/27/2007
72219013874,2020-01-15T17:50:00,FM-16,6,,,,,,,,,,,,,,,,,,,,,,,,,,,,,,,,,,,,,,,30.2,61,68,,,,,78,,SCT:04 27 BKN:07 35 BKN:07 90,29.1,10,64,230,,5,,,,,,,,,,,,,,,,,,,,,,,,,,,,,,,,,,,,,MET10001/15/20 17:50:02 SPECI KATL 152250Z 23004KT 10SM SCT027 BKN035 BKN090 20/16 A3020 RMK AO2 FIBI (RF),FM-16,6,,,,,,,,,,,,,,,,,,,,,,,,,,,3/27/2007
72219013874,2020-01-15T17:52:00,FM-15,7,,,,,,,,,,,,,,,,,,,,,,,,,,,,,,,,,,,,,,,30.2,61,68,0,,,,78,30.19,SCT:04 27 BKN:07 35 BKN:07 90,29.1,10,64,230,,5,,,,,,,,,,,,,,,,,,,,,,,,,,,,,,,,,,,,,MET11201/15/20 17:52:02 METAR KATL 152252Z 23004KT 10SM SCT027 BKN035 BKN090 20/16 A3020 RMK AO2 SLP223 T02000161 (RF),FM-15,7,,,,,,,,,,,,,,,,,,,,,,,,,,,3/27/2007
72219013874,2020-01-15T18:52:00,FM-15,7,,,,,,,,,,,,,,,,,,,,,,,,,,,,,,,,,,,,,,,30.21,61,67,0,,-0.04,1,81,30.2,FEW:02 25 SCT:04 45 BKN:07 70,29.11,10,63,220,,5,,,,,,,,,,,,,,,,,,,,,,,,,,,,,,,,,,,,,MET13001/15/20 18:52:02 METAR KATL 152352Z 22004KT 10SM FEW025 SCT045 BKN070 19/16 A3021 RMK AO2 SLP227 T01940161 10222 20194 51013 (RF),FM-15,7,,,,,,,,,,,,,,,,,,,,,,,,,,,3/27/2007
72219013874,2020-01-15T19:00:00,FM-12,4,,,,,,,,,,,,,,,,,,,,,,,,,,,,,,,,,,,,,,,,61,67,,,-0.04,1,81,30.2,26,29.1,9.94,63,220,,5,,,,,,,,,,,,,,,,,,,,,,,,,,,,,,,,,,,,,SYN08072219 32566 62204 10194 20161 39854 40227 51013 92352 333 10222 20133 555 91600=,FM-12,4,,,,,,,,,,,,,,,,,,,,,,,,,,,3/27/2007
72219013874,2020-01-15T19:52:00,FM-15,7,,,,,,,,,,,,,,,,,,,,,,,,,,,,,,,,,,,,,,,30.21,62,65,0,,,,90,30.2,FEW:02 40 BKN:07 100 BKN:07 250,29.11,10,63,220,,6,,,,,,,,,,,,,,,,,,,,,,,,,,,,,,,,,,,,,MET10701/15/20 19:52:01 METAR KATL 160052Z 22005KT 10SM FEW040 BKN100 BKN250 18/17 A3021 RMK AO2 SLP227 T01830167,FM-15,7,,,,,,,,,,,,,,,,,,,,,,,,,,,3/27/2007
72219013874,2020-01-15T20:52:00,FM-15,7,,,,,,,,,,,,,,,,,,,,,,,,,,,,,,,,,,,,,,,30.2,62,65,0,,,,90,30.19,FEW:02 6 BKN:07 110 BKN:07 250,29.1,10,63,220,,5,,,,,,,,,,,,,,,,,,,,,,,,,,,,,,,,,,,,,MET10701/15/20 20:52:01 METAR KATL 160152Z 22004KT 10SM FEW006 BKN110 BKN250 18/17 A3020 RMK AO2 SLP224 T01830167,FM-15,7,,,,,,,,,,,,,,,,,,,,,,,,,,,3/27/2007
72219013874,2020-01-15T21:27:00,FM-16,7,,,,,,,,,,,,,,,,,,,,,,,,,,,,,,,,,,,,,,,30.21,62,65,,,,,90,,FEW:02 4 BKN:07 12 BKN:07 110,29.11,10,63,230,,6,,,,,,,,,,,,,,,,,,,,,,,,,,,,,,,,,,,,,MET10001/15/20 21:27:01 SPECI KATL 160227Z 23005KT 10SM FEW004 BKN012 BKN110 18/17 A3021 RMK AO2 T01830167,FM-16,7,,,,,,,,,,,,,,,,,,,,,,,,,,,3/27/2007
72219013874,2020-01-15T21:52:00,FM-15,7,,,,,,,,,,,,,,,,,,,,,,,,,,,,,,,,,,,,,,,30.21,62,65,0,,0,5,90,30.19,SCT:04 4 BKN:07 12 OVC:08 250,29.11,2,63,220,,6,,,,,,,,,,,,,,,,,,,,,,,,,,,,,,,,,,,,,MET13601/15/20 21:52:01 METAR KATL 160252Z 22005KT 2SM SCT004 BKN012 OVC250 18/17 A3021 RMK AO2 SFC VIS 10 SLP225 SCT004 V BKN T01830167 55001,FM-15,7,,,,,,,,,,,,,,,,,,,,,,,,,,,3/27/2007
72219013874,2020-01-15T22:52:00,FM-15,7,,,,,,,,,,,,,,,,,,,,,,,,,,,,,,,,,,,,,,,30.2,62,65,0,,,,90,30.19,BKN:07 5 OVC:08 12,29.1,2,63,230,,6,,,,,,,,,,,,,,,,,,,,,,,,,,,,,,,,,,,,,MET11701/15/20 22:52:01 METAR KATL 160352Z 23005KT 2SM BKN005 OVC012 18/17 A3020 RMK AO2 SFC VIS 10 SLP223 BINOVC T01830167,FM-15,7,,,,,,,,,,,,,,,,,,,,,,,,,,,3/27/2007
72219013874,2020-01-15T23:50:00,FM-16,6,,,,,,,,,,,,,,,,,,,,,,,,,,,,,,,,,,,,,,,30.21,63,64,,,,,94,,BKN:07 7 BKN:07 12 OVC:08 80,29.11,8,63,260,,6,,,,,,,,,,,,,,,,,,,,,,,,,,,,,,,,,,,,,MET09901/15/20 23:50:03 SPECI KATL 160450Z 26005KT 8SM BKN007 BKN012 OVC080 18/17 A3021 RMK AO2 FIBI (RF),FM-16,6,,,,,,,,,,,,,,,,,,,,,,,,,,,3/27/2007
72219013874,2020-01-15T23:52:00,FM-15,7,,,,,,,,,,,,,,,,,,,,,,,,,,,,,,,,,,,,,,,30.21,62,65,0,,,,90,30.19,BKN:07 7 BKN:07 12 OVC:08 80,29.11,8,63,260,,7,,,,,,,,,,,,,,,,,,,,,,,,,,,,,,,,,,,,,MET11601/15/20 23:52:01 METAR KATL 160452Z 26006KT 8SM BKN007 BKN012 OVC080 18/17 A3021 RMK AO2 SLP224 T01830167 402220133,FM-15,7,,,,,,,,,,,,,,,,,,,,,,,,,,,3/27/2007
72219013874,2020-01-15T23:59:00,SOD  ,6,,,,,,,,,,,,,,,,,59,64,85,30.19,29.1,61,4.4,0,21,1,72,56,210,15,T,0,0,240,12,FG MIFG,,,,,,,,,,,,,,,,,,,,,,,,,,,,,,,,,,,,,,,,,,,,,,,,,,,,,,,SOD75624 HR PRECIPITATION (IN):    T SNOW DEPTH (IN):0     24 HR SNOWFALL (IN):0.0  WEATHER(CODE):1  24 HR MAX TEMP (F): 7224 HR MIN TEMP (F): 56AVERAGE STATION PRESSURE:29.095 MINIMUM SEA LEVEL PRESSURE:30.15 TIME OF OCCURRENCE:1549 PEAK WIND SPEED (MPH): 15 PEAK WIND DIR (DEG):210 PEAK WIND TIME (LST):      FASTEST 2MIN SPEED (MPH): 12FASTEST 2MIN DIR (DEG):240 FASTEST 2MIN TIME (LST):     AVERAGE WIND SPEED (MPH): 4.4 24 HR AVG TEMP (F): 64DEPART FROM NORMAL: 21  HEATING DEGREE DAYS:  1 COOLING DEGREE DAYS:  0 LATEST DAY MAX TEMP (0700-1900 LST):72  LATEST NIGHT MIN TEMP(1900-0800 LST):56 HOURLY INCREMENTAL PRECIPITATION VALUES (IN):.00 0.00 T    0.00 0.00 0.00 0.00 0.00 0.00 0.00 0.00 0.00 0.00 0.00 0.00 0.00 0.00 0.00 0.00 0.00 0.00 0.00 0.00 0.00,SOD  ,6,,,,,,,,,,,,,,,,,,,,,,,,,742,1752,3/27/2007
72219013874,2020-01-16T00:52:00,FM-15,7,,,,,,,,,,,,,,,,,,,,,,,,,,,,,,,,,,,,,,,30.2,62,65,0,,0.01,8,90,30.18,BKN:07 7 OVC:08 30,29.1,9,63,240,,9,,,,,,,,,,,,,,,,,,,,,,,,,,,,,,,,,,,,,MET12201/16/20 00:52:02 METAR KATL 160552Z 24008KT 9SM BKN007 OVC030 18/17 A3020 RMK AO2 SLP220 T01830167 10194 20178 58003 (RF),FM-15,7,,,,,,,,,,,,,,,,,,,,,,,,,,,3/27/2007
72219013874,2020-01-16T01:00:00,FM-12,4,,,,,,,,,,,,,,,,,,,,,,,,,,,,,,,,,,,,,,,,62,65,,,0.01,8,90,30.18,8,29.09,8.7,63,240,,9,,,,,,,,,,,,,,,,,,,,,,,,,,,,,,,,,,,,,SYN08072219 32364 82408 10183 20167 39851 40220 58003 90552 333 10194 20133 555 91606=,FM-12,4,,,,,,,,,,,,,,,,,,,,,,,,,,,3/27/2007
72219013874,2020-01-16T01:52:00,FM-15,7,,,,,,,,,,,,,,,,,,,,,,,,,,,,,,,,,,,,,,,30.19,62,65,0.04,-RA:02 BR:1 |RA |RA,,,90,30.17,OVC:08 6,29.09,4,63,250,,9,,,,,,,,,,,,,,,,,,,,,,,,,,,,,,,,,,,,,MET12901/16/20 01:52:02 METAR KATL 160652Z 25008KT 4SM -RA BR OVC006 18/17 A3019 RMK AO2 RAB26 SLP218 CIG 004V008 P0002 T01830167 (KAF),FM-15,7,,,,,,,,,,,,,,,,,,,,,,,,,,,3/27/2007
72219013874,2020-01-16T02:45:00,FM-16,7,,,,,,,,,,,,,,,,,,,,,,,,,,,,,,,,,,,,,,,30.21,62,65,0.05,+RA:02 BR:1 |RA |RA,,,90,,OVC:08 8,29.11,0.75,63,280,18,13,,,,,,,,,,,,,,,,,,,,,,,,,,,,,,,,,,,,,MET14901/16/20 02:45:02 SPECI KATL 160745Z 28011G16KT 3/4SM R09R/5500VP6000FT +RA BR OVC008CB 18/17 A3021 RMK AO2 CB NE-OHD-SW MOV SE P0005 T01830167 (KAF),FM-16,7,,,,,,,,,,,,,,,,,,,,,,,,,,,3/27/2007
72219013874,2020-01-16T02:50:00,FM-16,6,,,,,,,,,,,,,,,,,,,,,,,,,,,,,,,,,,,,,,,30.24,63,64,,+RA:02 BR:1 |RA |RA,,,94,,BKN:07 8 OVC:08 15,29.14,1,63,320,28,23,,,,,,,,,,,,,,,,,,,,,,,,,,,,,,,,,,,,,MET15601/16/20 02:50:02 SPECI KATL 160750Z 32020G24KT 1SM R09R/4500VP6000FT +RA BR BKN008 OVC015CB 18/17 A3024 RMK AO2 PRESRR CB NE-OHD-SW MOV SE P0019 FIBI (KAF),FM-16,6,,,,,,,,,,,,,,,,,,,,,,,,,,,3/27/2007
72219013874,2020-01-16T02:52:00,FM-15,7,,,,,,,,,,,,,,,,,,,,,,,,,,,,,,,,,,,,,,,30.23,61,64,0.34,+RA:02 BR:1 |RA |RA,,,90,30.21,BKN:07 8 OVC:08 15,29.13,1.5,62,310,29,18,,,,,,,,,,,,,,,,,,,,,,,,,,,,,,,,,,,,,MET17201/16/20 02:52:02 METAR KATL 160752Z 31016G25KT 1 1/2SM R09R/4500VP6000FT +RA BR BKN008 OVC015CB 18/16 A3023 RMK AO2 PRESRR SLP230 CB NE-OHD-SW MOV SE P0029 T01780161 (KAF),FM-15,7,,,,,,,,,,,,,,,,,,,,,,,,,,,3/27/2007
72219013874,2020-01-16T02:59:00,FM-16,7,,,,,,,,,,,,,,,,,,,,,,,,,,,,,,,,,,,,,,,30.2,58,64,0.07,-RA:02 |RA |RA,,,81,,SCT:04 8 BKN:07 32 BKN:07 70,29.1,8,60,280,29,14,,,,,,,,,,,,,,,,,,,,,,,,,,,,,,,,,,,,,MET13701/16/20 02:59:02 SPECI KATL 160759Z 28012G25KT 8SM -RA SCT008 BKN032CB BKN0 18/14 A3020 RMK AO2 CB NE-SE-SW MOV SE P0007 T01780144 (KAF),FM-16,7,,,,,,,,,,,,,,,,,,,,,,,,,,,3/27/2007
72219013874,2020-01-16T03:52:00,FM-15,7,,,,,,,,,,,,,,,,,,,,,,,,,,,,,,,,,,,,,,,30.22,58,62,0.06,-RA:02 |RA |RA,-0.02,0,86,30.2,FEW:02 10 SCT:04 75 OVC:08 90,29.12,7,60,290,,9,,,,,,,,,,,,,,,,,,,,,,,,,,,,,,,,,,,,,MET13401/16/20 03:52:02 METAR KATL 160852Z 29008KT 7SM -RA FEW010 SCT075 OVC090 17/14 A3022 RMK AO2 SLP228 P0012 60043 T01670144 50007 (KAF),FM-15,7,,,,,,,,,,,,,,,,,,,,,,,,,,,3/27/2007
72219013874,2020-01-16T04:52:00,FM-15,7,,,,,,,,,,,,,,,,,,,,,,,,,,,,,,,,,,,,,,,30.19,58,61,0.17,-RA:02 |RA |RA,,,90,30.18,BKN:07 80 OVC:08 100,29.09,8,59,240,,5,,,,,,,,,,,,,,,,,,,,,,,,,,,,,,,,,,,,,MET11501/16/20 04:52:02 METAR KATL 160952Z 24004KT 8SM -RA BKN080 OVC100 16/14 A3019 RMK AO2 SLP219 P0018 T01610144 (KAF),FM-15,7,,,,,,,,,,,,,,,,,,,,,,,,,,,3/27/2007
72219013874,2020-01-16T05:50:00,FM-16,6,,,,,,,,,,,,,,,,,,,,,,,,,,,,,,,,,,,,,,,30.22,57,61,,,,,88,,FEW:02 6 BKN:07 90 BKN:07 150,29.12,10,59,250,,6,,,,,,,,,,,,,,,,,,,,,,,,,,,,,,,,,,,,,MET12701/16/20 05:50:02 SPECI KATL 161050Z 25005KT 10SM FEW006 BKN090 BKN150 16/14 A3022 RMK AO2 RAE0956 ACC E-OHD-W P0000 FIBI (KAF),FM-16,6,,,,,,,,,,,,,,,,,,,,,,,,,,,3/27/2007
72219013874,2020-01-16T05:52:00,FM-15,7,,,,,,,,,,,,,,,,,,,,,,,,,,,,,,,,,,,,,,,30.22,58,60,0,,,,93,30.21,FEW:02 6 BKN:07 90 BKN:07 150,29.12,10,59,260,,7,,,,,,,,,,,,,,,,,,,,,,,,,,,,,,,,,,,,,MET13901/16/20 05:52:02 METAR KATL 161052Z 26006KT 10SM FEW006 BKN090 BKN150 16/14 A3022 RMK AO2 RAE0956 SLP231 ACC E-OHD-W P0000 T01560144 (KAF),FM-15,7,,,,,,,,,,,,,,,,,,,,,,,,,,,3/27/2007
72219013874,2020-01-16T06:49:00,FM-16,7,,,,,,,,,,,,,,,,,,,,,,,,,,,,,,,,,,,,,,,30.23,57,61,,,,,88,,SCT:04 7 BKN:07 12 BKN:07 140,29.13,10,59,280,,14,,,,,,,,,,,,,,,,,,,,,,,,,,,,,,,,,,,,,MET09601/16/20 06:49:02 SPECI KATL 161149Z 28012KT 10SM SCT007 BKN012 BKN140 16/14 A3023 RMK AO2 (KAF),FM-16,7,,,,,,,,,,,,,,,,,,,,,,,,,,,3/27/2007
72219013874,2020-01-16T06:52:00,FM-15,7,,,,,,,,,,,,,,,,,,,,,,,,,,,,,,,,,,,,,,,30.24,57,60,0,,-0.01,3,90,30.22,SCT:04 7 BKN:07 12 BKN:07 140,29.14,10,58,290,,14,,,,,,,,,,,,,,,,,,,,,,,,,,,,,,,,,,,,,MET14301/16/20 06:52:02 METAR KATL 161152Z 29012KT 10SM SCT007 BKN012 BKN140 16/14 A3024 RMK AO2 SLP235 60061 70061 T01560139 10183 20156 53005 (KAF),FM-15,7,,,,,,,,,,,,,,,,,,,,,,,,,,,3/27/2007
72219013874,2020-01-16T07:00:00,FM-12,4,,,,,,,,,,,,,,,,,,,,,,,,,,,,,,,,,,,,,,,,57,60,,,-0.01,3,90,30.22,8,29.13,9.94,58,290,,14,,,,,,,,,,,,,,,,,,,,,,,,,,,,,,,,,,,,,SYN09272219 12366 82912 10156 20139 39864 40235 53005 60151 91152 333 10222 20156 70155 555 91612=,FM-12,4,,,,,,,,,,,,,,,,,,,,,,,,,,,3/27/2007
72219013874,2020-01-16T07:20:00,FM-16,7,,,,,,,,,,,,,,,,,,,,,,,,,,,,,,,,,,,,,,,30.25,57,60,,,,,90,,SCT:04 8 BKN:07 18 BKN:07 140,29.15,10,58,290,,13,,,,,,,,,,,,,,,,,,,,,,,,,,,,,,,,,,,,,MET10601/16/20 07:20:02 SPECI KATL 161220Z 29011KT 10SM SCT008 BKN018 BKN140 16/14 A3025 RMK AO2 T01560139 (KAF),FM-16,7,,,,,,,,,,,,,,,,,,,,,,,,,,,3/27/2007
72219013874,2020-01-16T07:35:00,FM-16,7,,,,,,,,,,,,,,,,,,,,,,,,,,,,,,,,,,,,,,,30.26,57,60,,,,,90,,FEW:02 7 BKN:07 11 OVC:08 18,29.15,10,58,300,,11,,,,,,,,,,,,,,,,,,,,,,,,,,,,,,,,,,,,,MET11801/16/20 07:35:02 SPECI KATL 161235Z 30010KT 10SM FEW007 BKN011 OVC018 16/14 A3026 RMK AO2 CIG 009V013 T01560139 (KAF),FM-16,7,,,,,,,,,,,,,,,,,,,,,,,,,,,3/27/2007
72219013874,2020-01-16T07:50:00,FM-16,7,,,,,,,,,,,,,,,,,,,,,,,,,,,,,,,,,,,,,,,30.26,57,61,T,-DZ:01 |DZ |DZ,,,88,,BKN:07 8 OVC:08 15,29.15,7,59,310,,13,,,,,,,,,,,,,,,,,,,,,,,,,,,,,,,,,,,,,MET11601/16/20 07:50:02 SPECI KATL 161250Z 31011KT 7SM -DZ BKN008 OVC015 16/14 A3026 RMK AO2 DZB49 CIG 007V010 P0000 (KAF),FM-16,7,,,,,,,,,,,,,,,,,,,,,,,,,,,3/27/2007
72219013874,2020-01-16T07:52:00,FM-15,7,,,,,,,,,,,,,,,,,,,,,,,,,,,,,,,,,,,,,,,30.27,57,60,T,-DZ:01 |DZ |DZ,,,90,30.25,BKN:07 8 OVC:08 15,29.16,7,58,310,,14,,,,,,,,,,,,,,,,,,,,,,,,,,,,,,,,,,,,,MET13301/16/20 07:52:02 METAR KATL 161252Z 31012KT 7SM -DZ BKN008 OVC015 16/14 A3027 RMK AO2 DZB49 SLP245 CIG 007V010 P0000 T01560139 (KAF),FM-15,7,,,,,,,,,,,,,,,,,,,,,,,,,,,3/27/2007
72219013874,2020-01-16T08:31:00,FM-16,7,,,,,,,,,,,,,,,,,,,,,,,,,,,,,,,,,,,,,,,30.29,55,59,T,,,,87,,SCT:04 7 BKN:07 16 BKN:07 120,29.18,10,57,320,,17,,,,,,,,,,,,,,,,,,,,,,,,,,,,,,,,,,,,,MET11801/16/20 08:31:02 SPECI KATL 161331Z 32015KT 10SM SCT007 BKN016 BKN120 15/13 A3029 RMK AO2 DZE30 P0000 T01500128 (KAF),FM-16,7,,,,,,,,,,,,,,,,,,,,,,,,,,,3/27/2007
72219013874,2020-01-16T08:41:00,FM-16,7,,,,,,,,,,,,,,,,,,,,,,,,,,,,,,,,,,,,,,,30.29,53,59,T,,,,81,,SCT:04 16 BKN:07 32 BKN:07 120,29.18,10,56,320,,15,,,,,,,,,,,,,,,,,,,,,,,,,,,,,,,,,,,,,MET13201/16/20 08:41:02 SPECI KATL 161341Z 32013KT 10SM SCT016 BKN032 BKN120 15/12 A3029 RMK AO2 DZE30 ACC DSNT N-NE P0000 T01500117 (KAF),FM-16,7,,,,,,,,,,,,,,,,,,,,,,,,,,,3/27/2007
72219013874,2020-01-16T08:52:00,FM-15,7,,,,,,,,,,,,,,,,,,,,,,,,,,,,,,,,,,,,,,,30.3,51,59,T,,,,75,30.29,FEW:02 16 SCT:04 32 BKN:07 140,29.19,10,55,330,26,18,,,,,,,,,,,,,,,,,,,,,,,,,,,,,,,,,,,,,MET12801/16/20 08:52:02 METAR KATL 161352Z 33016G23KT 10SM FEW016 SCT032 BKN140 15/11 A3030 RMK AO2 DZE30 SLP258 P0000 T01500106 (KAF),FM-15,7,,,,,,,,,,,,,,,,,,,,,,,,,,,3/27/2007
72219013874,2020-01-16T09:52:00,FM-15,7,,,,,,,,,,,,,,,,,,,,,,,,,,,,,,,,,,,,,,,30.33,47,57,0,,-0.06,3,69,30.32,SCT:04 200,29.22,10,52,320,,17,,,,,,,,,,,,,,,,,,,,,,,,,,,,,,,,,,,,,MET11101/16/20 09:52:02 METAR KATL 161452Z 32015KT 10SM SCT200 14/08 A3033 RMK AO2 SLP267 60000 T01390083 53021 (JRN),FM-15,7,,,,,,,,,,,,,,,,,,,,,,,,,,,3/27/2007
72219013874,2020-01-16T10:52:00,FM-15,7,,,,,,,,,,,,,,,,,,,,,,,,,,,,,,,,,,,,,,,30.36,46,58,0,,,,65,30.35,FEW:02 180 SCT:04 250,29.25,10,52,330,23,15,,,,,,,,,,,,,,,,,,,,,,,,,,,,,,,,,,,,,MET10901/16/20 10:52:02 METAR KATL 161552Z 33013G20KT 10SM FEW180 SCT250 14/08 A3036 RMK AO2 SLP278 T01440078 (JRN),FM-15,7,,,,,,,,,,,,,,,,,,,,,,,,,,,3/27/2007
72219013874,2020-01-16T11:52:00,FM-15,7,,,,,,,,,,,,,,,,,,,,,,,,,,,,,,,,,,,,,,,30.36,44,62,0,,,,52,30.35,SCT:04 200 BKN:07 250,29.25,10,53,320,,16,,,,,,,,,,,,,,,,,,,,,,,,,,,,,,,,,,,,,MET10601/16/20 11:52:02 METAR KATL 161652Z 32014KT 10SM SCT200 BKN250 17/07 A3036 RMK AO2 SLP278 T01670067 (JRN),FM-15,7,,,,,,,,,,,,,,,,,,,,,,,,,,,3/27/2007
72219013874,2020-01-16T12:52:00,FM-15,7,,,,,,,,,,,,,,,,,,,,,,,,,,,,,,,,,,,,,,,30.33,44,64,0,,0,0,48,30.32,FEW:02 200,29.22,10,54,340,22,15,,,,,,,,,,,,,,,,,,,,,,,,,,,,,,,,,,,,,MET12601/16/20 12:52:02 METAR KATL 161752Z 34013G19KT 10SM FEW200 18/07 A3033 RMK AO2 SLP267 60000 T01780067 10178 20133 50001 (JRN),FM-15,7,,,,,,,,,,,,,,,,,,,,,,,,,,,3/27/2007
72219013874,2020-01-16T13:00:00,FM-12,4,,,,,,,,,,,,,,,,,,,,,,,,,,,,,,,,,,,,,,,,44,64,,,0,9,48,30.32,,29.22,9.94,54,340,,15,,,,,,,,,,,,,,,,,,,,,,,,,,,,,,,,,,,,,SYN09272219 12966 23413 10178 20067 39894 40267 50001 69901 91752 333 10183 20133 91019 555 91618=,FM-12,4,,,,,,,,,,,,,,,,,,,,,,,,,,,3/27/2007
72219013874,2020-01-16T13:52:00,FM-15,7,,,,,,,,,,,,,,,,,,,,,,,,,,,,,,,,,,,,,,,30.33,40,63,0,,,,43,30.32,FEW:02 200 FEW:02 250,29.22,10,51,340,,16,,,,,,,,,,,,,,,,,,,,,,,,,,,,,,,,,,,,,MET10601/16/20 13:52:02 METAR KATL 161852Z 34014KT 10SM FEW200 FEW250 17/04 A3033 RMK AO2 SLP268 T01720044 (JRN),FM-15,7,,,,,,,,,,,,,,,,,,,,,,,,,,,3/27/2007
72219013874,2020-01-16T14:52:00,FM-15,7,,,,,,,,,,,,,,,,,,,,,,,,,,,,,,,,,,,,,,,30.34,41,63,0,,,,45,30.33,BKN:07 200 BKN:07 250,29.23,10,52,330,24,16,,,,,,,,,,,,,,,,,,,,,,,,,,,,,,,,,,,,,MET10901/16/20 14:52:02 METAR KATL 161952Z 33014G21KT 10SM BKN200 BKN250 17/05 A3034 RMK AO2 SLP271 T01720050 (JRN),FM-15,7,,,,,,,,,,,,,,,,,,,,,,,,,,,3/27/2007
72219013874,2020-01-16T15:52:00,FM-15,7,,,,,,,,,,,,,,,,,,,,,,,,,,,,,,,,,,,,,,,30.35,40,61,0,,-0.02,3,46,30.34,BKN:07 180 BKN:07 250,29.24,10,51,330,23,16,,,,,,,,,,,,,,,,,,,,,,,,,,,,,,,,,,,,,MET11501/16/20 15:52:02 METAR KATL 162052Z 33014G20KT 10SM BKN180 BKN250 16/04 A3035 RMK AO2 SLP275 T01610044 53006 (JRN),FM-15,7,,,,,,,,,,,,,,,,,,,,,,,,,,,3/27/2007
72219013874,2020-01-16T16:52:00,FM-15,7,,,,,,,,,,,,,,,,,,,,,,,,,,,,,,,,,,,,,,,30.37,38,60,0,,,,44,30.36,BKN:07 170 BKN:07 250,29.26,10,49,330,,11,,,,,,,,,,,,,,,,,,,,,,,,,,,,,,,,,,,,,MET10601/16/20 16:52:02 METAR KATL 162152Z 33010KT 10SM BKN170 BKN250 16/03 A3037 RMK AO2 SLP282 T01560033 (JRN),FM-15,7,,,,,,,,,,,,,,,,,,,,,,,,,,,3/27/2007
72219013874,2020-01-16T17:52:00,FM-15,7,,,,,,,,,,,,,,,,,,,,,,,,,,,,,,,,,,,,,,,30.4,36,57,0,,,,45,30.39,FEW:02 120 BKN:07 180 BKN:07 250,29.29,10,47,320,,15,,,,,,,,,,,,,,,,,,,,,,,,,,,,,,,,,,,,,MET11301/16/20 17:52:02 METAR KATL 162252Z 32013KT 10SM FEW120 BKN180 BKN250 14/02 A3040 RMK AO2 SLP292 T01390022 (JRN),FM-15,7,,,,,,,,,,,,,,,,,,,,,,,,,,,3/27/2007
72219013874,2020-01-16T18:52:00,FM-15,7,,,,,,,,,,,,,,,,,,,,,,,,,,,,,,,,,,,,,,,30.42,33,55,0,,-0.06,1,44,30.41,BKN:07 180 BKN:07 250,29.31,10,45,330,,13,,,,,,,,,,,,,,,,,,,,,,,,,,,,,,,,,,,,,MET12301/16/20 18:52:02 METAR KATL 162352Z 33011KT 10SM BKN180 BKN250 13/01 A3042 RMK AO2 SLP299 T01280006 10178 20128 51022 (RF),FM-15,7,,,,,,,,,,,,,,,,,,,,,,,,,,,3/27/2007
72219013874,2020-01-16T19:00:00,FM-12,4,,,,,,,,,,,,,,,,,,,,,,,,,,,,,,,,,,,,,,,,33,55,,,-0.06,1,44,30.41,,29.3,9.94,45,330,,13,,,,,,,,,,,,,,,,,,,,,,,,,,,,,,,,,,,,,SYN08072219 32966 63311 10128 20006 39923 40299 51022 92352 333 10178 20128 555 91700=,FM-12,4,,,,,,,,,,,,,,,,,,,,,,,,,,,3/27/2007
72219013874,2020-01-16T19:52:00,FM-15,7,,,,,,,,,,,,,,,,,,,,,,,,,,,,,,,,,,,,,,,30.43,33,54,0,,,,45,30.43,FEW:02 150 BKN:07 200 BKN:07 250,29.32,10,44,340,,14,,,,,,,,,,,,,,,,,,,,,,,,,,,,,,,,,,,,,MET10701/16/20 19:52:01 METAR KATL 170052Z 34012KT 10SM FEW150 BKN200 BKN250 12/01 A3043 RMK AO2 SLP306 T01220006,FM-15,7,,,,,,,,,,,,,,,,,,,,,,,,,,,3/27/2007
72219013874,2020-01-16T20:52:00,FM-15,7,,,,,,,,,,,,,,,,,,,,,,,,,,,,,,,,,,,,,,,30.43,31,53,0,,,,43,30.43,BKN:07 150 BKN:07 200 OVC:08 250,29.32,10,43,350,,14,,,,,,,,,,,,,,,,,,,,,,,,,,,,,,,,,,,,,MET10801/16/20 20:52:01 METAR KATL 170152Z 35012KT 10SM BKN150 BKN200 OVC250 12/M01 A3043 RMK AO2 SLP305 T01171006,FM-15,7,,,,,,,,,,,,,,,,,,,,,,,,,,,3/27/2007
72219013874,2020-01-16T21:52:00,FM-15,7,,,,,,,,,,,,,,,,,,,,,,,,,,,,,,,,,,,,,,,30.44,30,52,0,,-0.02,1,43,30.44,BKN:07 150 BKN:07 250,29.33,10,42,350,,17,,,,,,,,,,,,,,,,,,,,,,,,,,,,,,,,,,,,,MET10701/16/20 21:52:01 METAR KATL 170252Z 35015KT 10SM BKN150 BKN250 11/M01 A3044 RMK AO2 SLP309 T01111011 51008,FM-15,7,,,,,,,,,,,,,,,,,,,,,,,,,,,3/27/2007
72219013874,2020-01-16T22:52:00,FM-15,7,,,,,,,,,,,,,,,,,,,,,,,,,,,,,,,,,,,,,,,30.45,28,52,0,,,,40,30.45,BKN:07 150 BKN:07 250,29.34,10,42,340,,11,,,,,,,,,,,,,,,,,,,,,,,,,,,,,,,,,,,,,MET10101/16/20 22:52:01 METAR KATL 170352Z 34010KT 10SM BKN150 BKN250 11/M02 A3045 RMK AO2 SLP311 T01111022,FM-15,7,,,,,,,,,,,,,,,,,,,,,,,,,,,3/27/2007
72219013874,2020-01-16T23:52:00,FM-15,7,,,,,,,,,,,,,,,,,,,,,,,,,,,,,,,,,,,,,,,30.45,28,51,0,,,,41,30.45,BKN:07 150 BKN:07 250,29.34,10,41,360,,10,,,,,,,,,,,,,,,,,,,,,,,,,,,,,,,,,,,,,MET11101/16/20 23:52:02 METAR KATL 170452Z 36009KT 10SM BKN150 BKN250 11/M02 A3045 RMK AO2 SLP310 T01061022 401830106,FM-15,7,,,,,,,,,,,,,,,,,,,,,,,,,,,3/27/2007
72219013874,2020-01-16T23:59:00,SOD  ,6,,,,,,,,,,,,,,,,,45,58,62,30.32,29.18,52,13.4,0,14.9,7,65,50,320,29,0.61,0,0,320,23,RA DZ BR,,,,,,,,,,,,,,,,,,,,,,,,,,,,,,,,,,,,,,,,,,,,,,,,,,,,,,,SOD75624 HR PRECIPITATION (IN): 0.61 SNOW DEPTH (IN):0     24 HR SNOWFALL (IN):0.0  WEATHER(CODE):1  24 HR MAX TEMP (F): 6524 HR MIN TEMP (F): 50AVERAGE STATION PRESSURE:29.185 MINIMUM SEA LEVEL PRESSURE:30.17 TIME OF OCCURRENCE:0501 PEAK WIND SPEED (MPH): 29 PEAK WIND DIR (DEG):320 PEAK WIND TIME (LST):      FASTEST 2MIN SPEED (MPH): 23FASTEST 2MIN DIR (DEG):320 FASTEST 2MIN TIME (LST):     AVERAGE WIND SPEED (MPH):13.4 24 HR AVG TEMP (F): 58DEPART FROM NORMAL: 15  HEATING DEGREE DAYS:  7 COOLING DEGREE DAYS:  0 LATEST DAY MAX TEMP (0700-1900 LST):64  LATEST NIGHT MIN TEMP(1900-0800 LST):60 HOURLY INCREMENTAL PRECIPITATION VALUES (IN):.00 0.04 0.34 0.06 0.17 0.00 0.00 T    T    0.00 0.00 0.00 0.00 0.00 0.00 0.00 0.00 0.00 0.00 0.00 0.00 0.00 0.00 0.00,SOD  ,6,,,,,,,,,,,,,,,,,,,,,,,,,742,1753,3/27/2007
72219013874,2020-01-17T00:52:00,FM-15,7,,,,,,,,,,,,,,,,,,,,,,,,,,,,,,,,,,,,,,,30.44,28,50,0,,0,0,43,30.44,BKN:07 150 BKN:07 250,29.33,10,41,350,,9,,,,,,,,,,,,,,,,,,,,,,,,,,,,,,,,,,,,,MET12401/17/20 00:52:02 METAR KATL 170552Z 35008KT 10SM BKN150 BKN250 10/M02 A3044 RMK AO2 SLP309 T01001022 10128 20100 50001 (RF),FM-15,7,,,,,,,,,,,,,,,,,,,,,,,,,,,3/27/2007
72219013874,2020-01-17T01:00:00,FM-12,4,,,,,,,,,,,,,,,,,,,,,,,,,,,,,,,,,,,,,,,,28,50,,,0,9,43,30.44,,29.32,9.94,41,350,,9,,,,,,,,,,,,,,,,,,,,,,,,,,,,,,,,,,,,,SYN08072219 32966 63508 10100 21022 39930 40309 50001 90552 333 10183 20100 555 91706=,FM-12,4,,,,,,,,,,,,,,,,,,,,,,,,,,,3/27/2007
72219013874,2020-01-17T01:52:00,FM-15,7,,,,,,,,,,,,,,,,,,,,,,,,,,,,,,,,,,,,,,,30.44,27,49,0,,,,43,30.44,SCT:04 150 BKN:07 180 BKN:07 250,29.33,10,40,330,,7,,,,,,,,,,,,,,,,,,,,,,,,,,,,,,,,,,,,,MET11301/17/20 01:52:02 METAR KATL 170652Z 33006KT 10SM SCT150 BKN180 BKN250 09/M03 A3044 RMK AO2 SLP309 T00941028 (RF),FM-15,7,,,,,,,,,,,,,,,,,,,,,,,,,,,3/27/2007
72219013874,2020-01-17T02:52:00,FM-15,7,,,,,,,,,,,,,,,,,,,,,,,,,,,,,,,,,,,,,,,30.44,27,48,0,,,,44,30.44,SCT:04 150 BKN:07 180 BKN:07 250,29.33,10,39,340,,6,,,,,,,,,,,,,,,,,,,,,,,,,,,,,,,,,,,,,MET11301/17/20 02:52:02 METAR KATL 170752Z 34005KT 10SM SCT150 BKN180 BKN250 09/M03 A3044 RMK AO2 SLP309 T00891028 (RF),FM-15,7,,,,,,,,,,,,,,,,,,,,,,,,,,,3/27/2007
72219013874,2020-01-17T03:52:00,FM-15,7,,,,,,,,,,,,,,,,,,,,,,,,,,,,,,,,,,,,,,,30.44,27,47,0,,0,8,46,30.44,BKN:07 180 BKN:07 250,29.33,10,39,350,,8,,,,,,,,,,,,,,,,,,,,,,,,,,,,,,,,,,,,,MET11301/17/20 03:52:02 METAR KATL 170852Z 35007KT 10SM BKN180 BKN250 08/M03 A3044 RMK AO2 SLP309 T00831028 58001 (KAF),FM-15,7,,,,,,,,,,,,,,,,,,,,,,,,,,,3/27/2007
72219013874,2020-01-17T04:52:00,FM-15,7,,,,,,,,,,,,,,,,,,,,,,,,,,,,,,,,,,,,,,,30.45,27,46,0,,,,47,30.45,BKN:07 150 BKN:07 250,29.34,10,38,360,,8,,,,,,,,,,,,,,,,,,,,,,,,,,,,,,,,,,,,,MET10701/17/20 04:52:02 METAR KATL 170952Z 36007KT 10SM BKN150 BKN250 08/M03 A3045 RMK AO2 SLP311 T00781028 (KAF),FM-15,7,,,,,,,,,,,,,,,,,,,,,,,,,,,3/27/2007
72219013874,2020-01-17T05:52:00,FM-15,7,,,,,,,,,,,,,,,,,,,,,,,,,,,,,,,,,,,,,,,30.46,27,45,0,,,,49,30.47,BKN:07 150 BKN:07 250,29.35,10,38,330,,5,,,,,,,,,,,,,,,,,,,,,,,,,,,,,,,,,,,,,MET10701/17/20 05:52:02 METAR KATL 171052Z 33004KT 10SM BKN150 BKN250 07/M03 A3046 RMK AO2 SLP318 T00721028 (KAF),FM-15,7,,,,,,,,,,,,,,,,,,,,,,,,,,,3/27/2007
72219013874,2020-01-17T06:52:00,FM-15,7,,,,,,,,,,,,,,,,,,,,,,,,,,,,,,,,,,,,,,,30.48,26,46,0,,-0.04,3,46,30.49,BKN:07 150 BKN:07 250,29.37,10,38,10,,7,,,,,,,,,,,,,,,,,,,,,,,,,,,,,,,,,,,,,MET12501/17/20 06:52:02 METAR KATL 171152Z 01006KT 10SM BKN150 BKN250 08/M03 A3048 RMK AO2 SLP324 T00781033 10100 20072 53013 (KAF),FM-15,7,,,,,,,,,,,,,,,,,,,,,,,,,,,3/27/2007
72219013874,2020-01-17T07:00:00,FM-12,4,,,,,,,,,,,,,,,,,,,,,,,,,,,,,,,,,,,,,,,,26,46,,,-0.04,3,46,30.49,,29.36,9.94,38,10,,7,,,,,,,,,,,,,,,,,,,,,,,,,,,,,,,,,,,,,SYN08072219 32966 60106 10078 21033 39943 40324 53013 91152 333 10183 20072 555 91712=,FM-12,4,,,,,,,,,,,,,,,,,,,,,,,,,,,3/27/2007
72219013874,2020-01-17T07:52:00,FM-15,7,,,,,,,,,,,,,,,,,,,,,,,,,,,,,,,,,,,,,,,30.51,27,46,0,,,,47,30.51,FEW:02 120 BKN:07 140 BKN:07 250,29.4,10,38,340,,6,,,,,,,,,,,,,,,,,,,,,,,,,,,,,,,,,,,,,MET13301/17/20 07:52:02 METAR KATL 171252Z 34005KT 10SM FEW120 BKN140 BKN250 08/M03 A3051 RMK AO2 SLP333 VIRGA DSNT SW-NW-N T00781028 (KAF),FM-15,7,,,,,,,,,,,,,,,,,,,,,,,,,,,3/27/2007
72219013874,2020-01-17T08:52:00,FM-15,7,,,,,,,,,,,,,,,,,,,,,,,,,,,,,,,,,,,,,,,30.52,28,48,0,,,,46,30.53,FEW:02 120 BKN:07 140 BKN:07 250,29.41,10,40,80,,7,,,,,,,,,,,,,,,,,,,,,,,,,,,,,,,,,,,,,MET14801/17/20 08:52:02 METAR KATL 171352Z 08006KT 10SM FEW120 BKN140 BKN250 09/M02 A3052 RMK AO2 SLP337 VIRGA DSNT NW-NE ACC DSNT SW NW-N T00891022 (KAF),FM-15,7,,,,,,,,,,,,,,,,,,,,,,,,,,,3/27/2007
72219013874,2020-01-17T09:52:00,FM-15,7,,,,,,,,,,,,,,,,,,,,,,,,,,,,,,,,,,,,,,,30.54,26,50,0,,-0.05,1,39,30.54,FEW:02 130 BKN:07 150 BKN:07 250,29.43,10,40,90,,14,,,,,,,,,,,,,,,,,,,,,,,,,,,,,,,,,,,,,MET13401/17/20 09:52:02 METAR KATL 171452Z 09012KT 10SM FEW130 BKN150 BKN250 10/M03 A3054 RMK AO2 SLP342 VIRGA DSNT NE T01001033 51018 (CPS),FM-15,7,,,,,,,,,,,,,,,,,,,,,,,,,,,3/27/2007
72219013874,2020-01-17T10:52:00,FM-15,7,,,,,,,,,,,,,,,,,,,,,,,,,,,,,,,,,,,,,,,30.55,24,51,0,,,,35,30.56,SCT:04 110 BKN:07 140 BKN:07 250,29.44,10,40,100,,10,,,,,,,,,,,,,,,,,,,,,,,,,,,,,,,,,,,,,MET14901/17/20 10:52:02 METAR KATL 171552Z 10009KT 10SM SCT110 BKN140 BKN250 11/M04 A3055 RMK AO2 SLP348 VIRGA OHD-W AND DSNT NW ACC DSNT S T01061044 (CPS),FM-15,7,,,,,,,,,,,,,,,,,,,,,,,,,,,3/27/2007
72219013874,2020-01-17T11:52:00,FM-15,7,,,,,,,,,,,,,,,,,,,,,,,,,,,,,,,,,,,,,,,30.53,23,51,0,,,,33,30.54,FEW:02 100 BKN:07 110 BKN:07 230,29.42,10,40,110,,14,,,,,,,,,,,,,,,,,,,,,,,,,,,,,,,,,,,,,MET13101/17/20 11:52:02 METAR KATL 171652Z 11012KT 10SM FEW100 BKN110 BKN230 11/M05 A3053 RMK AO2 SLP342 VIRGA OHD & NE-E T01061050 (CPS),FM-15,7,,,,,,,,,,,,,,,,,,,,,,,,,,,3/27/2007
72219013874,2020-01-17T12:52:00,FM-15,7,,,,,,,,,,,,,,,,,,,,,,,,,,,,,,,,,,,,,,,30.51,22,52,0,,0.03,8,31,30.51,FEW:02 110 BKN:07 130 BKN:07 190,29.4,10,40,110,22,16,,,,,,,,,,,,,,,,,,,,,,,,,,,,,,,,,,,,,MET15301/17/20 12:52:02 METAR KATL 171752Z 11014G19KT 10SM FEW110 BKN130 BKN190 11/M06 A3051 RMK AO2 SLP333 VIRGA NE & DSNT E T01111056 10117 20072 58009 (CPS),FM-15,7,,,,,,,,,,,,,,,,,,,,,,,,,,,3/27/2007
72219013874,2020-01-17T13:00:00,FM-12,4,,,,,,,,,,,,,,,,,,,,,,,,,,,,,,,,,,,,,,,,22,52,,,0.03,8,31,30.51,,29.39,9.94,40,110,,16,,,,,,,,,,,,,,,,,,,,,,,,,,,,,,,,,,,,,SYN08672219 32966 61114 10111 21056 39953 40333 58009 91752 333 10117 20072 91019 555 91718=,FM-12,4,,,,,,,,,,,,,,,,,,,,,,,,,,,3/27/2007
72219013874,2020-01-17T13:52:00,FM-15,7,,,,,,,,,,,,,,,,,,,,,,,,,,,,,,,,,,,,,,,30.49,22,55,0,,,,28,30.5,SCT:04 120 BKN:07 150 BKN:07 230,29.38,10,42,120,24,11,,,,,,,,,,,,,,,,,,,,,,,,,,,,,,,,,,,,,MET11701/17/20 13:52:02 METAR KATL 171852Z 12010G21KT 10SM SCT120 BKN150 BKN230 13/M06 A3049 RMK AO2 SLP327 T01281056 (CPS),FM-15,7,,,,,,,,,,,,,,,,,,,,,,,,,,,3/27/2007
72219013874,2020-01-17T14:52:00,FM-15,7,,,,,,,,,,,,,,,,,,,,,,,,,,,,,,,,,,,,,,,30.48,23,55,0,,,,29,30.48,FEW:02 120 BKN:07 140 BKN:07 250,29.37,10,42,110,,11,,,,,,,,,,,,,,,,,,,,,,,,,,,,,,,,,,,,,MET11401/17/20 14:52:02 METAR KATL 171952Z 11010KT 10SM FEW120 BKN140 BKN250 13/M05 A3048 RMK AO2 SLP322 T01281050 (CPS),FM-15,7,,,,,,,,,,,,,,,,,,,,,,,,,,,3/27/2007
72219013874,2020-01-17T15:52:00,FM-15,7,,,,,,,,,,,,,,,,,,,,,,,,,,,,,,,,,,,,,,,30.48,25,55,0,,0.03,5,31,30.48,FEW:02 110 BKN:07 130 BKN:07 250,29.37,10,42,120,,13,,,,,,,,,,,,,,,,,,,,,,,,,,,,,,,,,,,,,MET13601/17/20 15:52:02 METAR KATL 172052Z 12011KT 10SM FEW110 BKN130 BKN250 13/M04 A3048 RMK AO2 SLP322 ACC W & DSNT SW T01281039 55010 (CPS),FM-15,7,,,,,,,,,,,,,,,,,,,,,,,,,,,3/27/2007
72219013874,2020-01-17T16:52:00,FM-15,7,,,,,,,,,,,,,,,,,,,,,,,,,,,,,,,,,,,,,,,30.48,25,53,0,,,,34,30.48,FEW:02 110 SCT:04 130 BKN:07 250,29.37,10,41,100,,13,,,,,,,,,,,,,,,,,,,,,,,,,,,,,,,,,,,,,MET11401/17/20 16:52:02 METAR KATL 172152Z 10011KT 10SM FEW110 SCT130 BKN250 12/M04 A3048 RMK AO2 SLP323 T01171039 (CPS),FM-15,7,,,,,,,,,,,,,,,,,,,,,,,,,,,3/27/2007
72219013874,2020-01-17T17:52:00,FM-15,7,,,,,,,,,,,,,,,,,,,,,,,,,,,,,,,,,,,,,,,30.49,21,51,0,,,,31,30.5,SCT:04 140 BKN:07 200 BKN:07 250,29.38,10,39,110,24,17,,,,,,,,,,,,,,,,,,,,,,,,,,,,,,,,,,,,,MET11601/17/20 17:52:02 METAR KATL 172252Z 11015G21KT 10SM SCT140 BKN200 BKN250 11/M06 A3049 RMK AO2 SLP328 T01061061 (RF),FM-15,7,,,,,,,,,,,,,,,,,,,,,,,,,,,3/27/2007
72219013874,2020-01-17T18:52:00,FM-15,7,,,,,,,,,,,,,,,,,,,,,,,,,,,,,,,,,,,,,,,30.5,22,49,0,,-0.03,3,35,30.52,FEW:02 140 SCT:04 200 BKN:07 250,29.39,10,38,100,,9,,,,,,,,,,,,,,,,,,,,,,,,,,,,,,,,,,,,,MET13101/17/20 18:52:02 METAR KATL 172352Z 10008KT 10SM FEW140 SCT200 BKN250 09/M06 A3050 RMK AO2 SLP334 T00941056 10133 20094 53009 (RF),FM-15,7,,,,,,,,,,,,,,,,,,,,,,,,,,,3/27/2007
72219013874,2020-01-17T19:00:00,FM-12,4,,,,,,,,,,,,,,,,,,,,,,,,,,,,,,,,,,,,,,,,22,49,,,-0.03,3,35,30.52,,29.38,9.94,38,100,,9,,,,,,,,,,,,,,,,,,,,,,,,,,,,,,,,,,,,,SYN08072219 32966 61008 10094 21056 39949 40334 53009 92352 333 10133 20072 555 91800=,FM-12,4,,,,,,,,,,,,,,,,,,,,,,,,,,,3/27/2007
72219013874,2020-01-17T19:52:00,FM-15,7,,,,,,,,,,,,,,,,,,,,,,,,,,,,,,,,,,,,,,,30.52,23,47,0,,,,39,30.53,FEW:02 140 BKN:07 250,29.41,10,38,90,,15,,,,,,,,,,,,,,,,,,,,,,,,,,,,,,,,,,,,,MET10101/17/20 19:52:01 METAR KATL 180052Z 09013KT 10SM FEW140 BKN250 08/M05 A3052 RMK AO2 SLP338 T00831050,FM-15,7,,,,,,,,,,,,,,,,,,,,,,,,,,,3/27/2007
72219013874,2020-01-17T20:52:00,FM-15,7,,,,,,,,,,,,,,,,,,,,,,,,,,,,,,,,,,,,,,,30.51,20,47,0,,,,34,30.52,SCT:04 140 BKN:07 200 BKN:07 250,29.4,10,37,110,,15,,,,,,,,,,,,,,,,,,,,,,,,,,,,,,,,,,,,,MET10801/17/20 20:52:01 METAR KATL 180152Z 11013KT 10SM SCT140 BKN200 BKN250 08/M07 A3051 RMK AO2 SLP336 T00831067,FM-15,7,,,,,,,,,,,,,,,,,,,,,,,,,,,3/27/2007
72219013874,2020-01-17T21:52:00,FM-15,7,,,,,,,,,,,,,,,,,,,,,,,,,,,,,,,,,,,,,,,30.51,19,46,0,,-0.01,1,34,30.52,SCT:04 130 BKN:07 200 BKN:07 250,29.4,10,36,110,,11,,,,,,,,,,,,,,,,,,,,,,,,,,,,,,,,,,,,,MET11401/17/20 21:52:01 METAR KATL 180252Z 11010KT 10SM SCT130 BKN200 BKN250 08/M07 A3051 RMK AO2 SLP336 T00781072 51003,FM-15,7,,,,,,,,,,,,,,,,,,,,,,,,,,,3/27/2007
72219013874,2020-01-17T22:52:00,FM-15,7,,,,,,,,,,,,,,,,,,,,,,,,,,,,,,,,,,,,,,,30.51,20,46,0,,,,35,30.52,BKN:07 120 BKN:07 200 BKN:07 250,29.4,10,36,110,18,13,,,,,,,,,,,,,,,,,,,,,,,,,,,,,,,,,,,,,MET11101/17/20 22:52:01 METAR KATL 180352Z 11011G16KT 10SM BKN120 BKN200 BKN250 08/M07 A3051 RMK AO2 SLP336 T00781067,FM-15,7,,,,,,,,,,,,,,,,,,,,,,,,,,,3/27/2007
72219013874,2020-01-17T23:52:00,FM-15,7,,,,,,,,,,,,,,,,,,,,,,,,,,,,,,,,,,,,,,,30.5,21,45,0,,,,39,30.51,SCT:04 120 BKN:07 250,29.39,10,36,100,,13,,,,,,,,,,,,,,,,,,,,,,,,,,,,,,,,,,,,,MET11101/17/20 23:52:02 METAR KATL 180452Z 10011KT 10SM SCT120 BKN250 07/M06 A3050 RMK AO2 SLP333 T00721061 401330072,FM-15,7,,,,,,,,,,,,,,,,,,,,,,,,,,,3/27/2007
72219013874,2020-01-17T23:59:00,SOD  ,6,,,,,,,,,,,,,,,,,24,51,38,30.5,29.37,39,10.7,0,7.9,14,56,45,110,24,0,0,0,110,18,,,,,,,,,,,,,,,,,,,,,,,,,,,,,,,,,,,,,,,,,,,,,,,,,,,,,,,,SOD73924 HR PRECIPITATION (IN): 0.00 SNOW DEPTH (IN):0     24 HR SNOWFALL (IN):0.0  24 HR MAX TEMP (F): 5624 HR MIN TEMP (F): 45AVERAGE STATION PRESSURE:29.370 MINIMUM SEA LEVEL PRESSURE:30.44 TIME OF OCCURRENCE:0434 PEAK WIND SPEED (MPH): 24 PEAK WIND DIR (DEG):110 PEAK WIND TIME (LST):      FASTEST 2MIN SPEED (MPH): 18FASTEST 2MIN DIR (DEG):110 FASTEST 2MIN TIME (LST):     AVERAGE WIND SPEED (MPH):10.7 24 HR AVG TEMP (F): 51DEPART FROM NORMAL:  8  HEATING DEGREE DAYS: 14 COOLING DEGREE DAYS:  0 LATEST DAY MAX TEMP (0700-1900 LST):56  LATEST NIGHT MIN TEMP(1900-0800 LST):45 HOURLY INCREMENTAL PRECIPITATION VALUES (IN):.00 0.00 0.00 0.00 0.00 0.00 0.00 0.00 0.00 0.00 0.00 0.00 0.00 0.00 0.00 0.00 0.00 0.00 0.00 0.00 0.00 0.00 0.00 0.00,SOD  ,6,,,,,,,,,,,,,,,,,,,,,,,,,742,1754,3/27/2007
72219013874,2020-01-18T00:52:00,FM-15,7,,,,,,,,,,,,,,,,,,,,,,,,,,,,,,,,,,,,,,,30.49,22,44,0,,0.02,8,41,30.5,SCT:04 32 BKN:07 110 BKN:07 250,29.38,10,36,100,20,13,,,,,,,,,,,,,,,,,,,,,,,,,,,,,,,,,,,,,MET13401/18/20 00:52:02 METAR KATL 180552Z 10011G17KT 10SM SCT032 BKN110 BKN250 07/M06 A3049 RMK AO2 SLP330 T00671056 10094 20067 58006 (RF),FM-15,7,,,,,,,,,,,,,,,,,,,,,,,,,,,3/27/2007
72219013874,2020-01-18T01:00:00,FM-12,4,,,,,,,,,,,,,,,,,,,,,,,,,,,,,,,,,,,,,,,,22,44,,,0.02,8,41,30.5,26,29.37,9.94,36,100,,13,,,,,,,,,,,,,,,,,,,,,,,,,,,,,,,,,,,,,SYN08672219 32566 61011 10067 21056 39946 40330 58006 90552 333 10100 20067 91017 555 91806=,FM-12,4,,,,,,,,,,,,,,,,,,,,,,,,,,,3/27/2007
72219013874,2020-01-18T01:48:00,FM-16,7,,,,,,,,,,,,,,,,,,,,,,,,,,,,,,,,,,,,,,,30.48,23,45,,,,,42,,BKN:07 28 OVC:08 110,29.37,10,36,100,,14,,,,,,,,,,,,,,,,,,,,,,,,,,,,,,,,,,,,,MET08901/18/20 01:48:02 SPECI KATL 180648Z 10012KT 10SM BKN028 OVC110 07/M05 A3048 RMK AO2 (DB),FM-16,7,,,,,,,,,,,,,,,,,,,,,,,,,,,3/27/2007
72219013874,2020-01-18T01:52:00,FM-15,7,,,,,,,,,,,,,,,,,,,,,,,,,,,,,,,,,,,,,,,30.48,23,44,0,,,,43,30.49,BKN:07 28 OVC:08 110,29.37,10,36,100,,14,,,,,,,,,,,,,,,,,,,,,,,,,,,,,,,,,,,,,MET10601/18/20 01:52:02 METAR KATL 180652Z 10012KT 10SM BKN028 OVC110 07/M05 A3048 RMK AO2 SLP324 T00671050 (DB),FM-15,7,,,,,,,,,,,,,,,,,,,,,,,,,,,3/27/2007
72219013874,2020-01-18T02:52:00,FM-15,7,,,,,,,,,,,,,,,,,,,,,,,,,,,,,,,,,,,,,,,30.46,24,43,0,,,,47,30.47,OVC:08 28,29.35,10,36,100,,14,,,,,,,,,,,,,,,,,,,,,,,,,,,,,,,,,,,,,MET09901/18/20 02:52:02 METAR KATL 180752Z 10012KT 10SM OVC028 06/M04 A3046 RMK AO2 SLP317 T00611044 (DB),FM-15,7,,,,,,,,,,,,,,,,,,,,,,,,,,,3/27/2007
72219013874,2020-01-18T03:52:00,FM-15,7,,,,,,,,,,,,,,,,,,,,,,,,,,,,,,,,,,,,,,,30.44,25,43,0,,0.06,8,49,30.44,OVC:08 24,29.33,10,36,110,,13,,,,,,,,,,,,,,,,,,,,,,,,,,,,,,,,,,,,,MET10501/18/20 03:52:02 METAR KATL 180852Z 11011KT 10SM OVC024 06/M04 A3044 RMK AO2 SLP309 T00611039 58020 (DB),FM-15,7,,,,,,,,,,,,,,,,,,,,,,,,,,,3/27/2007
72219013874,2020-01-18T04:52:00,FM-15,7,,,,,,,,,,,,,,,,,,,,,,,,,,,,,,,,,,,,,,,30.44,26,43,0,,,,51,30.45,OVC:08 25,29.33,10,36,110,,10,,,,,,,,,,,,,,,,,,,,,,,,,,,,,,,,,,,,,MET09901/18/20 04:52:02 METAR KATL 180952Z 11009KT 10SM OVC025 06/M03 A3044 RMK AO2 SLP311 T00611033 (DB),FM-15,7,,,,,,,,,,,,,,,,,,,,,,,,,,,3/27/2007
72219013874,2020-01-18T05:52:00,FM-15,7,,,,,,,,,,,,,,,,,,,,,,,,,,,,,,,,,,,,,,,30.41,25,43,0,,,,49,30.42,OVC:08 21,29.3,10,36,110,,10,,,,,,,,,,,,,,,,,,,,,,,,,,,,,,,,,,,,,MET09901/18/20 05:52:02 METAR KATL 181052Z 11009KT 10SM OVC021 06/M04 A3041 RMK AO2 SLP301 T00611039 (DB),FM-15,7,,,,,,,,,,,,,,,,,,,,,,,,,,,3/27/2007
72219013874,2020-01-18T06:52:00,FM-15,7,,,,,,,,,,,,,,,,,,,,,,,,,,,,,,,,,,,,,,,30.41,26,43,0,,0.02,8,51,30.42,OVC:08 20,29.3,10,36,110,,11,,,,,,,,,,,,,,,,,,,,,,,,,,,,,,,,,,,,,MET11701/18/20 06:52:02 METAR KATL 181152Z 11010KT 10SM OVC020 06/M03 A3041 RMK AO2 SLP302 T00611033 10067 20061 58008 (DB),FM-15,7,,,,,,,,,,,,,,,,,,,,,,,,,,,3/27/2007
72219013874,2020-01-18T07:00:00,FM-12,4,,,,,,,,,,,,,,,,,,,,,,,,,,,,,,,,,,,,,,,,26,43,,,0.02,8,51,30.42,26,29.29,9.94,36,110,,11,,,,,,,,,,,,,,,,,,,,,,,,,,,,,,,,,,,,,SYN08072219 32566 81110 10061 21033 39920 40302 58008 91152 333 10133 20061 555 91812=,FM-12,4,,,,,,,,,,,,,,,,,,,,,,,,,,,3/27/2007
72219013874,2020-01-18T07:52:00,FM-15,7,,,,,,,,,,,,,,,,,,,,,,,,,,,,,,,,,,,,,,,30.41,28,43,0,,,,56,30.42,OVC:08 19,29.3,10,37,110,,9,,,,,,,,,,,,,,,,,,,,,,,,,,,,,,,,,,,,,MET09901/18/20 07:52:02 METAR KATL 181252Z 11008KT 10SM OVC019 06/M02 A3041 RMK AO2 SLP302 T00611022 (DB),FM-15,7,,,,,,,,,,,,,,,,,,,,,,,,,,,3/27/2007
72219013874,2020-01-18T08:52:00,FM-15,7,,,,,,,,,,,,,,,,,,,,,,,,,,,,,,,,,,,,,,,30.4,30,43,0,,,,60,30.41,OVC:08 19,29.29,10,38,120,,11,,,,,,,,,,,,,,,,,,,,,,,,,,,,,,,,,,,,,MET09901/18/20 08:52:02 METAR KATL 181352Z 12010KT 10SM OVC019 06/M01 A3040 RMK AO2 SLP298 T00611011 (DB),FM-15,7,,,,,,,,,,,,,,,,,,,,,,,,,,,3/27/2007
72219013874,2020-01-18T09:52:00,FM-15,7,,,,,,,,,,,,,,,,,,,,,,,,,,,,,,,,,,,,,,,30.38,31,44,0,,0.03,8,60,30.39,BKN:07 17 OVC:08 100,29.27,10,39,130,18,10,,,,,,,,,,,,,,,,,,,,,,,,,,,,,,,,,,,,,MET11601/18/20 09:52:02 METAR KATL 181452Z 13009G16KT 10SM BKN017 OVC100 07/M01 A3038 RMK AO2 SLP291 T00671006 58011 (JRN),FM-15,7,,,,,,,,,,,,,,,,,,,,,,,,,,,3/27/2007
72219013874,2020-01-18T10:52:00,FM-15,7,,,,,,,,,,,,,,,,,,,,,,,,,,,,,,,,,,,,,,,30.36,33,46,0,,,,61,30.37,OVC:08 23,29.25,10,40,130,,9,,,,,,,,,,,,,,,,,,,,,,,,,,,,,,,,,,,,,MET09901/18/20 10:52:02 METAR KATL 181552Z 13008KT 10SM OVC023 08/01 A3036 RMK AO2 SLP284 T00780006 (JRN),FM-15,7,,,,,,,,,,,,,,,,,,,,,,,,,,,3/27/2007
72219013874,2020-01-18T11:46:00,FM-16,7,,,,,,,,,,,,,,,,,,,,,,,,,,,,,,,,,,,,,,,30.33,36,48,,,,,62,,SCT:04 21 OVC:08 43,29.22,10,43,130,,9,,,,,,,,,,,,,,,,,,,,,,,,,,,,,,,,,,,,,MET08901/18/20 11:46:02 SPECI KATL 181646Z 13008KT 10SM SCT021 OVC043 09/02 A3033 RMK AO2 (JRN),FM-16,7,,,,,,,,,,,,,,,,,,,,,,,,,,,3/27/2007
72219013874,2020-01-18T11:52:00,FM-15,7,,,,,,,,,,,,,,,,,,,,,,,,,,,,,,,,,,,,,,,30.33,36,48,0,,,,63,30.34,SCT:04 20 OVC:08 42,29.22,10,43,160,,6,,,,,,,,,,,,,,,,,,,,,,,,,,,,,,,,,,,,,MET10001/18/20 11:52:02 METAR KATL 181652Z 16005KT 10SM SCT020 OVC042 09/02 A3033 RMK AO2 SLP273 T00890022,FM-15,7,,,,,,,,,,,,,,,,,,,,,,,,,,,3/27/2007
72219013874,2020-01-18T12:52:00,FM-15,7,,,,,,,,,,,,,,,,,,,,,,,,,,,,,,,,,,,,,,,30.3,38,49,0,,0.06,8,66,30.3,OVC:08 33,29.19,10,44,170,,8,,,,,,,,,,,,,,,,,,,,,,,,,,,,,,,,,,,,,MET11101/18/20 12:52:02 METAR KATL 181752Z 17007KT 10SM OVC033 09/03 A3030 RMK AO2 SLP262 T00940033 10094 20061 58020,FM-15,7,,,,,,,,,,,,,,,,,,,,,,,,,,,3/27/2007
72219013874,2020-01-18T13:00:00,FM-12,4,,,,,,,,,,,,,,,,,,,,,,,,,,,,,,,,,,,,,,,,38,49,,,0.06,8,66,30.3,26,29.19,9.94,44,170,,8,,,,,,,,,,,,,,,,,,,,,,,,,,,,,,,,,,,,,SYN08072219 32566 81707 10094 20033 39884 40262 58020 91752 333 10094 20061 555 91818=,FM-12,4,,,,,,,,,,,,,,,,,,,,,,,,,,,3/27/2007
72219013874,2020-01-18T13:28:00,FM-16,7,,,,,,,,,,,,,,,,,,,,,,,,,,,,,,,,,,,,,,,30.26,39,50,,,,,66,,OVC:08 29,29.15,10,45,170,,9,,,,,,,,,,,,,,,,,,,,,,,,,,,,,,,,,,,,,MET09301/18/20 13:28:02 SPECI KATL 181828Z 17008KT 10SM OVC029 10/04 A3026 RMK AO2 PRESFR T01000039,FM-16,7,,,,,,,,,,,,,,,,,,,,,,,,,,,3/27/2007
72219013874,2020-01-18T13:46:00,FM-16,7,,,,,,,,,,,,,,,,,,,,,,,,,,,,,,,,,,,,,,,30.25,39,50,,,,,67,,SCT:04 29 OVC:08 43,29.15,10,45,180,,7,,,,,,,,,,,,,,,,,,,,,,,,,,,,,,,,,,,,,MET08301/18/20 13:46:02 SPECI KATL 181846Z 18006KT 10SM SCT029 OVC043 10/04 A3025 RMK AO2,FM-16,7,,,,,,,,,,,,,,,,,,,,,,,,,,,3/27/2007
72219013874,2020-01-18T13:52:00,FM-15,7,,,,,,,,,,,,,,,,,,,,,,,,,,,,,,,,,,,,,,,30.25,40,50,0,,,,68,30.26,FEW:02 29 OVC:08 43,29.15,10,45,170,,8,,,,,,,,,,,,,,,,,,,,,,,,,,,,,,,,,,,,,MET10001/18/20 13:52:02 METAR KATL 181852Z 17007KT 10SM FEW029 OVC043 10/04 A3025 RMK AO2 SLP246 T01000044,FM-15,7,,,,,,,,,,,,,,,,,,,,,,,,,,,3/27/2007
72219013874,2020-01-18T14:44:00,FM-16,7,,,,,,,,,,,,,,,,,,,,,,,,,,,,,,,,,,,,,,,30.21,45,50,0.05,,,,83,,BKN:07 23 BKN:07 50 OVC:08 70,29.11,10,48,160,,3,,,,,,,,,,,,,,,,,,,,,,,,,,,,,,,,,,,,,MET11501/18/20 14:44:02 SPECI KATL 181944Z 16003KT 10SM BKN023 BKN050 OVC070 10/07 A3021 RMK AO2 RAB08E38 P0005 T01000072,FM-16,7,,,,,,,,,,,,,,,,,,,,,,,,,,,3/27/2007
72219013874,2020-01-18T14:52:00,FM-15,7,,,,,,,,,,,,,,,,,,,,,,,,,,,,,,,,,,,,,,,30.2,46,51,0.05,,,,83,30.21,OVC:08 23,29.1,10,48,140,,5,,,,,,,,,,,,,,,,,,,,,,,,,,,,,,,,,,,,,MET10801/18/20 14:52:02 METAR KATL 181952Z 14004KT 10SM OVC023 11/08 A3020 RMK AO2 RAB08E38 SLP230 P0005 T01060078,FM-15,7,,,,,,,,,,,,,,,,,,,,,,,,,,,3/27/2007
72219013874,2020-01-18T15:52:00,FM-15,7,,,,,,,,,,,,,,,,,,,,,,,,,,,,,,,,,,,,,,,30.19,47,52,0,,0.06,8,83,30.19,OVC:08 20,29.09,10,49,170,,8,,,,,,,,,,,,,,,,,,,,,,,,,,,,,,,,,,,,,MET10501/18/20 15:52:02 METAR KATL 182052Z 17007KT 10SM OVC020 11/08 A3019 RMK AO2 SLP225 60005 T01110083 58021,FM-15,7,,,,,,,,,,,,,,,,,,,,,,,,,,,3/27/2007
72219013874,2020-01-18T16:52:00,FM-15,7,,,,,,,,,,,,,,,,,,,,,,,,,,,,,,,,,,,,,,,30.17,48,53,0,,,,83,30.18,OVC:08 20,29.07,10,50,160,,5,,,,,,,,,,,,,,,,,,,,,,,,,,,,,,,,,,,,,MET09301/18/20 16:52:02 METAR KATL 182152Z 16004KT 10SM OVC020 12/09 A3017 RMK AO2 SLP219 T01170089,FM-15,7,,,,,,,,,,,,,,,,,,,,,,,,,,,3/27/2007
72219013874,2020-01-18T17:52:00,FM-15,7,,,,,,,,,,,,,,,,,,,,,,,,,,,,,,,,,,,,,,,30.16,49,53,0,,,,86,30.16,OVC:08 17,29.06,10,51,170,,5,,,,,,,,,,,,,,,,,,,,,,,,,,,,,,,,,,,,,MET09301/18/20 17:52:02 METAR KATL 182252Z 17004KT 10SM OVC017 12/09 A3016 RMK AO2 SLP215 T01170094,FM-15,7,,,,,,,,,,,,,,,,,,,,,,,,,,,3/27/2007
72219013874,2020-01-18T18:50:00,FM-16,6,,,,,,,,,,,,,,,,,,,,,,,,,,,,,,,,,,,,,,,30.14,48,54,,-RA:02 BR:1 |RA |RA,,,82,,FEW:02 6 BKN:07 16 OVC:08 22,29.04,6,51,0,,0,,,,,,,,,,,,,,,,,,,,,,,,,,,,,,,,,,,,,MET11901/18/20 18:50:02 SPECI KATL 182350Z 00000KT 6SM -RA BR FEW006 BKN016 OVC022 12/09 A3014 RMK AO2 RAB29 P0000 FIBI (KAF),FM-16,6,,,,,,,,,,,,,,,,,,,,,,,,,,,3/27/2007
72219013874,2020-01-18T18:52:00,FM-15,7,,,,,,,,,,,,,,,,,,,,,,,,,,,,,,,,,,,,,,,30.14,49,53,T,-RA:02 BR:1 |RA |RA,0.04,6,86,30.15,FEW:02 6 BKN:07 16 OVC:08 22,29.04,6,51,0,,0,,,,,,,,,,,,,,,,,,,,,,,,,,,,,,,,,,,,,MET14901/18/20 18:52:02 METAR KATL 182352Z 00000KT 6SM -RA BR FEW006 BKN016 OVC022 12/09 A3014 RMK AO2 RAB29 SLP210 P0000 60005 T01170094 10117 20094 56014,FM-15,7,,,,,,,,,,,,,,,,,,,,,,,,,,,3/27/2007
72219013874,2020-01-18T19:00:00,FM-12,4,,,,,,,,,,,,,,,,,,,,,,,,,,,,,,,,,,,,,,,,49,53,,||RA,0.04,6,86,30.15,5,29.03,5.59,51,0,,0,,,,,,,,,,,,,,,,,,,,,,,,,,,,,,,,,,,,,SYN09872219 11259 80000 10117 20094 39831 40210 56014 60011 761// 92352 333 10117 20061 96010 555 91900=,FM-12,4,,,,,,,,,,,,,,,,,,,,,,,,,,,3/27/2007
72219013874,2020-01-18T19:12:00,FM-16,7,,,,,,,,,,,,,,,,,,,,,,,,,,,,,,,,,,,,,,,30.15,49,53,0.05,+RA:02 BR:1 |RA |RA,,,86,,FEW:02 6 BKN:07 14 OVC:08 21,29.05,2,51,10,,7,,,,,,,,,,,,,,,,,,,,,,,,,,,,,,,,,,,,,MET13001/18/20 19:12:01 SPECI KATL 190012Z 01006KT 2SM R09R/4000VP6000FT +RA BR FEW006 BKN014 OVC021 12/09 A3015 RMK AO2 P0005 T01170094,FM-16,7,,,,,,,,,,,,,,,,,,,,,,,,,,,3/27/2007
72219013874,2020-01-18T19:52:00,FM-15,7,,,,,,,,,,,,,,,,,,,,,,,,,,,,,,,,,,,,,,,30.13,49,51,0.11,-RA:02 BR:1 |RA |RA,,,92,30.14,SCT:04 8 BKN:07 14 OVC:08 25,29.03,2,50,110,,5,,,,,,,,,,,,,,,,,,,,,,,,,,,,,,,,,,,,,MET12901/18/20 19:52:01 METAR KATL 190052Z 11004KT 2SM -RA BR SCT008 BKN014 OVC025 11/09 A3013 RMK AO2 SFC VIS 3 SLP206 P0011 T01060094,FM-15,7,,,,,,,,,,,,,,,,,,,,,,,,,,,3/27/2007
72219013874,2020-01-18T20:48:00,FM-16,7,,,,,,,,,,,,,,,,,,,,,,,,,,,,,,,,,,,,,,,30.12,48,52,0.04,-RA:02 BR:1 |RA |RA,,,88,,BKN:07 5 OVC:08 14,29.02,2,50,0,,0,,,,,,,,,,,,,,,,,,,,,,,,,,,,,,,,,,,,,MET12101/18/20 20:48:01 SPECI KATL 190148Z 00000KT 2SM -RA BR BKN005 OVC014 11/09 A3012 RMK AO2 SFC VIS 2 1/2 CIG 004V007 P0004,FM-16,7,,,,,,,,,,,,,,,,,,,,,,,,,,,3/27/2007
72219013874,2020-01-18T20:52:00,FM-15,7,,,,,,,,,,,,,,,,,,,,,,,,,,,,,,,,,,,,,,,30.12,49,51,0.06,-RA:02 BR:1 |RA |RA,,,92,30.12,BKN:07 5 OVC:08 14,29.02,1.25,50,0,,0,,,,,,,,,,,,,,,,,,,,,,,,,,,,,,,,,,,,,MET13801/18/20 20:52:01 METAR KATL 190152Z 00000KT 1 1/4SM -RA BR BKN005 OVC014 11/09 A3012 RMK AO2 SFC VIS 3 SLP201 CIG 004V007 P0005 T01060094,FM-15,7,,,,,,,,,,,,,,,,,,,,,,,,,,,3/27/2007
72219013874,2020-01-18T21:13:00,FM-16,7,,,,,,,,,,,,,,,,,,,,,,,,,,,,,,,,,,,,,,,30.12,50,52,0.02,-RA:02 BR:1 |RA |RA,,,93,,OVC:08 4,29.02,1.25,51,0,,0,,,,,,,,,,,,,,,,,,,,,,,,,,,,,,,,,,,,,MET12401/18/20 21:13:01 SPECI KATL 190213Z 00000KT 1 1/4SM -RA BR OVC004 11/10 A3012 RMK AO2 SFC VIS 2 CIG 003V006 P0002 T01110100,FM-16,7,,,,,,,,,,,,,,,,,,,,,,,,,,,3/27/2007
72219013874,2020-01-18T21:21:00,FM-16,7,,,,,,,,,,,,,,,,,,,,,,,,,,,,,,,,,,,,,,,30.11,50,52,0.03,-RA:02 BR:1 |RA |RA,,,93,,BKN:07 4 BKN:07 9 OVC:08 14,29.01,3,51,0,,0,,,,,,,,,,,,,,,,,,,,,,,,,,,,,,,,,,,,,MET13401/18/20 21:21:01 SPECI KATL 190221Z 00000KT 3SM -RA BR BKN004 BKN009 OVC014 11/10 A3011 RMK AO2 SFC VIS 4 CIG 003V006 P0003 T01110100,FM-16,7,,,,,,,,,,,,,,,,,,,,,,,,,,,3/27/2007
72219013874,2020-01-18T21:23:00,FM-16,7,,,,,,,,,,,,,,,,,,,,,,,,,,,,,,,,,,,,,,,30.11,50,52,0.03,-RA:02 BR:1 |RA |RA,,,93,,BKN:07 5 BKN:07 14 OVC:08 30,29.01,3,51,0,,0,,,,,,,,,,,,,,,,,,,,,,,,,,,,,,,,,,,,,MET13401/18/20 21:23:01 SPECI KATL 190223Z 00000KT 3SM -RA BR BKN005 BKN014 OVC030 11/10 A3011 RMK AO2 SFC VIS 4 CIG 004V007 P0003 T01110100,FM-16,7,,,,,,,,,,,,,,,,,,,,,,,,,,,3/27/2007
72219013874,2020-01-18T21:31:00,FM-16,7,,,,,,,,,,,,,,,,,,,,,,,,,,,,,,,,,,,,,,,30.11,50,52,0.04,-RA:02 BR:1 |RA |RA,,,93,,SCT:04 5 BKN:07 16 OVC:08 30,29.01,3,51,0,,0,,,,,,,,,,,,,,,,,,,,,,,,,,,,,,,,,,,,,MET12201/18/20 21:31:01 SPECI KATL 190231Z 00000KT 3SM -RA BR SCT005 BKN016 OVC030 11/10 A3011 RMK AO2 SFC VIS 4 P0004 T01110100,FM-16,7,,,,,,,,,,,,,,,,,,,,,,,,,,,3/27/2007
72219013874,2020-01-18T21:50:00,FM-16,6,,,,,,,,,,,,,,,,,,,,,,,,,,,,,,,,,,,,,,,30.1,50,52,,-RA:02 BR:1 |RA |RA,,,94,,SCT:04 6 BKN:07 13 OVC:08 28,29,3,51,0,,0,,,,,,,,,,,,,,,,,,,,,,,,,,,,,,,,,,,,,MET12301/18/20 21:50:03 SPECI KATL 190250Z 00000KT 3SM -RA BR SCT006 BKN013 OVC028 11/10 A3010 RMK AO2 SFC VIS 4 P0005 FIBI (KAF),FM-16,6,,,,,,,,,,,,,,,,,,,,,,,,,,,3/27/2007
72219013874,2020-01-18T21:52:00,FM-15,7,,,,,,,,,,,,,,,,,,,,,,,,,,,,,,,,,,,,,,,30.1,50,52,0.05,-RA:02 BR:1 |RA |RA,0.04,8,93,30.11,SCT:04 6 BKN:07 13 OVC:08 28,29,3,51,0,,0,,,,,,,,,,,,,,,,,,,,,,,,,,,,,,,,,,,,,MET14101/18/20 21:52:01 METAR KATL 190252Z 00000KT 3SM -RA BR SCT006 BKN013 OVC028 11/10 A3010 RMK AO2 SFC VIS 4 SLP196 P0005 60021 T01110100 58014,FM-15,7,,,,,,,,,,,,,,,,,,,,,,,,,,,3/27/2007
72219013874,2020-01-18T22:34:00,FM-16,7,,,,,,,,,,,,,,,,,,,,,,,,,,,,,,,,,,,,,,,30.1,52,54,0.07,RA:02 BR:1 |RA |RA,,,93,,BKN:07 7 BKN:07 12 OVC:08 24,29,1,53,300,,6,,,,,,,,,,,,,,,,,,,,,,,,,,,,,,,,,,,,,MET13801/18/20 22:34:01 SPECI KATL 190334Z 30005KT 1SM R09R/P6000FT RA BR BKN007 BKN012 OVC024 12/11 A3010 RMK AO2 SFC VIS 2 1/2 P0007 T01220111,FM-16,7,,,,,,,,,,,,,,,,,,,,,,,,,,,3/27/2007
72219013874,2020-01-18T22:46:00,FM-16,7,,,,,,,,,,,,,,,,,,,,,,,,,,,,,,,,,,,,,,,30.1,50,54,0.11,+RA:02 BR:1 |RA |RA,,,88,,BKN:07 4 BKN:07 11 OVC:08 16,29,1,52,340,20,10,,,,,,,,,,,,,,,,,,,,,,,,,,,,,,,,,,,,,MET14001/18/20 22:46:01 SPECI KATL 190346Z 34009G17KT 1SM R09R/P6000FT +RA BR BKN004 BKN011 OVC016 12/10 A3010 RMK AO2 SFC VIS 2 CIG 003V006 P0011,FM-16,7,,,,,,,,,,,,,,,,,,,,,,,,,,,3/27/2007
72219013874,2020-01-18T22:50:00,FM-16,6,,,,,,,,,,,,,,,,,,,,,,,,,,,,,,,,,,,,,,,30.11,50,54,,+RA:02 BR:1 |RA |RA,,,88,,BKN:07 5 BKN:07 12 OVC:08 18,29.01,1,52,330,,10,,,,,,,,,,,,,,,,,,,,,,,,,,,,,,,,,,,,,MET15201/18/20 22:50:03 SPECI KATL 190350Z 33009KT 1SM R09R/P6000FT +RA BR BKN005 BKN012 OVC018 12/10 A3011 RMK AO2 SFC VIS 1 3/4 CIG 004V007 P0015 FIBI (KAF),FM-16,6,,,,,,,,,,,,,,,,,,,,,,,,,,,3/27/2007
72219013874,2020-01-18T22:52:00,FM-15,7,,,,,,,,,,,,,,,,,,,,,,,,,,,,,,,,,,,,,,,30.11,51,53,0.18,+RA:02 BR:1 |RA |RA,,,93,30.11,BKN:07 5 BKN:07 12 OVC:08 18,29.01,1,52,330,,9,,,,,,,,,,,,,,,,,,,,,,,,,,,,,,,,,,,,,MET15801/18/20 22:52:01 METAR KATL 190352Z 33008KT 1SM R09R/P6000FT +RA BR BKN005 BKN012 OVC018 12/11 A3011 RMK AO2 SFC VIS 1 3/4 SLP197 CIG 004V007 P0016 T01170106,FM-15,7,,,,,,,,,,,,,,,,,,,,,,,,,,,3/27/2007
72219013874,2020-01-18T23:09:00,FM-16,7,,,,,,,,,,,,,,,,,,,,,,,,,,,,,,,,,,,,,,,30.1,51,53,0.05,-RA:02 BR:1 |RA |RA,,,93,,FEW:02 3 SCT:04 6 OVC:08 15,29,1,52,320,,7,,,,,,,,,,,,,,,,,,,,,,,,,,,,,,,,,,,,,MET13501/18/20 23:09:01 SPECI KATL 190409Z 32006KT 1SM R09R/P6000FT -RA BR FEW003 SCT006 OVC015 12/11 A3010 RMK AO2 SFC VIS 3 P0005 T01170106,FM-16,7,,,,,,,,,,,,,,,,,,,,,,,,,,,3/27/2007
72219013874,2020-01-18T23:52:00,FM-15,7,,,,,,,,,,,,,,,,,,,,,,,,,,,,,,,,,,,,,,,30.1,51,53,0.09,-RA:02 BR:1 |RA |RA,,,93,30.1,FEW:02 5 SCT:04 11 OVC:08 26,29,1,52,VRB,,3,,,,,,,,,,,,,,,,,,,,,,,,,,,,,,,,,,,,,MET15601/18/20 23:52:01 METAR KATL 190452Z VRB03KT 1SM R09R/P6000FT -RA BR FEW005 SCT011 OVC026 12/11 A3010 RMK AO2 SFC VIS 2 1/2 SLP192 P0011 T01170106 401220061,FM-15,7,,,,,,,,,,,,,,,,,,,,,,,,,,,3/27/2007
72219013874,2020-01-18T23:57:00,FM-16,7,,,,,,,,,,,,,,,,,,,,,,,,,,,,,,,,,,,,,,,30.09,51,53,0.01,-RA:02 BR:1 |RA |RA,,,93,,FEW:02 5 OVC:08 26,28.99,2,52,240,,3,,,,,,,,,,,,,,,,,,,,,,,,,,,,,,,,,,,,,MET11901/18/20 23:57:01 SPECI KATL 190457Z 24003KT 2SM -RA BR FEW005 OVC026 12/11 A3009 RMK AO2 SFC VIS 2 1/2 P0001 T01170106,FM-16,7,,,,,,,,,,,,,,,,,,,,,,,,,,,3/27/2007
72219013874,2020-01-18T23:59:00,SOD  ,6,,,,,,,,,,,,,,,,,37,49,70,30.3,29.13,43,7.8,0,5.8,16,54,43,120,26,0.54,0,0,100,17,RA BR,,,,,,,,,,,,,,,,,,,,,,,,,,,,,,,,,,,,,,,,,,,,,,,,,,,,,,,SOD78724 HR PRECIPITATION (IN): 0.54 SNOW DEPTH (IN):0     24 HR SNOWFALL (IN):0.0  WEATHER(CODE):1  24 HR MAX TEMP (F): 5424 HR MIN TEMP (F): 43AVERAGE STATION PRESSURE(D):29.134 MINIMUM SEA LEVEL PRESSURE:30.09 TIME OF OCCURRENCE:2359 PEAK WIND SPEED (MPH): 26 PEAK WIND DIR (DEG):120 PEAK WIND TIME (LST):      FASTEST 2MIN SPEED (MPH): 17FASTEST 2MIN DIR (DEG):100 FASTEST 2MIN TIME (LST):     AVERAGE WIND SPEED (MPH): 7.8 24 HR AVG TEMP (F): 49DEPART FROM NORMAL:  6  SKY COVER SR-SS (TENTHS): 1HEATING DEGREE DAYS: 16 COOLING DEGREE DAYS:  0 LATEST DAY MAX TEMP (0700-1900 LST): 53 LATEST NIGHT MIN TEMP(1900-0800 LST):43 HOURLY INCREMENTAL PRECIPITATION VALUES (IN):0.00 0.00 0.00 0.00 0.00 0.00 0.00 0.00 0.00 0.00 0.00 0.00 0.00 0.00 0.05 0.00 0.00 0.00T     0.11 0.06 0.05 0.18 0.09,SOD  ,6,,,,,,,,,,,,,,,,,,,,,,,,,742,1755,3/27/2007
72219013874,2020-01-19T00:30:00,FM-16,7,,,,,,,,,,,,,,,,,,,,,,,,,,,,,,,,,,,,,,,30.08,52,55,0.01,,,,90,,SCT:04 28 SCT:04 39 OVC:08 50,28.98,9,53,260,,5,,,,,,,,,,,,,,,,,,,,,,,,,,,,,,,,,,,,,MET11701/19/20 00:30:02 SPECI KATL 190530Z 26004KT 9SM SCT028 SCT039 OVC050 13/11 A3008 RMK AO2 RAE25 P0001 T01280111 (KAF),FM-16,7,,,,,,,,,,,,,,,,,,,,,,,,,,,3/27/2007
72219013874,2020-01-19T00:46:00,FM-16,7,,,,,,,,,,,,,,,,,,,,,,,,,,,,,,,,,,,,,,,30.08,54,55,0.02,-RA:02 BR:1 |RA |RA,,,94,,FEW:02 5 BKN:07 38 OVC:08 55,28.98,5,54,270,,7,,,,,,,,,,,,,,,,,,,,,,,,,,,,,,,,,,,,,MET11701/19/20 00:46:02 SPECI KATL 190546Z 27006KT 5SM -RA BR FEW005 BKN038 OVC055 13/12 A3008 RMK AO2 RAE25B39 P0002 (KAF),FM-16,7,,,,,,,,,,,,,,,,,,,,,,,,,,,3/27/2007
72219013874,2020-01-19T00:52:00,FM-15,7,,,,,,,,,,,,,,,,,,,,,,,,,,,,,,,,,,,,,,,30.08,53,55,0.01,-RA:02 |RA |RA,0.02,8,93,30.08,FEW:02 5 SCT:04 26 OVC:08 38,28.98,7,54,270,,8,,,,,,,,,,,,,,,,,,,,,,,,,,,,,,,,,,,,,MET15501/19/20 00:52:02 METAR KATL 190552Z 27007KT 7SM -RA FEW005 SCT026 OVC038 13/12 A3008 RMK AO2 RAE25B39 SLP186 P0002 60050 T01280117 10128 20106 58008 (KAF),FM-15,7,,,,,,,,,,,,,,,,,,,,,,,,,,,3/27/2007
72219013874,2020-01-19T01:00:00,FM-12,4,,,,,,,,,,,,,,,,,,,,,,,,,,,,,,,,,,,,,,,,53,55,,||RA,0.02,8,93,30.08,5,28.97,6.84,54,270,,8,,,,,,,,,,,,,,,,,,,,,,,,,,,,,,,,,,,,,SYN09272219 11261 82707 10128 20117 39811 40186 58008 60131 761// 90552 333 10128 20061 555 91906=,FM-12,4,,,,,,,,,,,,,,,,,,,,,,,,,,,3/27/2007
72219013874,2020-01-19T01:07:00,FM-16,7,,,,,,,,,,,,,,,,,,,,,,,,,,,,,,,,,,,,,,,30.07,53,55,T,,,,93,,FEW:02 6 BKN:07 12 OVC:08 38,28.97,10,54,260,,8,,,,,,,,,,,,,,,,,,,,,,,,,,,,,,,,,,,,,MET12001/19/20 01:07:02 SPECI KATL 190607Z 26007KT 10SM FEW006 BKN012 OVC038 13/12 A3007 RMK AO2 RAE0557 P0000 T01280117 (KAF),FM-16,7,,,,,,,,,,,,,,,,,,,,,,,,,,,3/27/2007
72219013874,2020-01-19T01:48:00,FM-16,7,,,,,,,,,,,,,,,,,,,,,,,,,,,,,,,,,,,,,,,30.06,54,55,T,,,,94,,FEW:02 3 SCT:04 12 OVC:08 35,28.96,10,54,280,,9,,,,,,,,,,,,,,,,,,,,,,,,,,,,,,,,,,,,,MET12301/19/20 01:48:02 SPECI KATL 190648Z 28008KT 10SM FEW003 SCT012 OVC035 13/12 A3006 RMK AO2 RAE0557 SCT012 V BKN P0000 (KAF),FM-16,7,,,,,,,,,,,,,,,,,,,,,,,,,,,3/27/2007
72219013874,2020-01-19T01:52:00,FM-15,7,,,,,,,,,,,,,,,,,,,,,,,,,,,,,,,,,,,,,,,30.06,53,55,0,,,,93,30.06,FEW:02 3 SCT:04 12 OVC:08 35,28.96,10,54,280,,8,,,,,,,,,,,,,,,,,,,,,,,,,,,,,,,,,,,,,MET14001/19/20 01:52:02 METAR KATL 190652Z 28007KT 10SM FEW003 SCT012 OVC035 13/12 A3006 RMK AO2 RAE0557 SLP179 SCT012 V BKN P0000 T01280117 (KAF),FM-15,7,,,,,,,,,,,,,,,,,,,,,,,,,,,3/27/2007
72219013874,2020-01-19T02:52:00,FM-15,7,,,,,,,,,,,,,,,,,,,,,,,,,,,,,,,,,,,,,,,30.05,51,54,0,,,,90,30.05,FEW:02 5 SCT:04 42 BKN:07 90,28.95,10,52,300,,13,,,,,,,,,,,,,,,,,,,,,,,,,,,,,,,,,,,,,MET11201/19/20 02:52:02 METAR KATL 190752Z 30011KT 10SM FEW005 SCT042 BKN090 12/11 A3005 RMK AO2 SLP176 T01220106 (DB),FM-15,7,,,,,,,,,,,,,,,,,,,,,,,,,,,3/27/2007
72219013874,2020-01-19T03:50:00,FM-16,7,,,,,,,,,,,,,,,,,,,,,,,,,,,,,,,,,,,,,,,30.05,52,54,,,,,94,,BKN:07 14 OVC:08 42,28.95,10,53,310,,10,,,,,,,,,,,,,,,,,,,,,,,,,,,,,,,,,,,,,MET08801/19/20 03:50:02 SPECI KATL 190850Z 31009KT 10SM BKN014 OVC042 12/11 A3005 RMK AO2 (DB),FM-16,7,,,,,,,,,,,,,,,,,,,,,,,,,,,3/27/2007
72219013874,2020-01-19T03:52:00,FM-15,7,,,,,,,,,,,,,,,,,,,,,,,,,,,,,,,,,,,,,,,30.05,50,54,0,,0.01,5,87,30.05,BKN:07 14 OVC:08 42,28.95,10,52,320,,13,,,,,,,,,,,,,,,,,,,,,,,,,,,,,,,,,,,,,MET11701/19/20 03:52:02 METAR KATL 190852Z 32011KT 10SM BKN014 OVC042 12/10 A3005 RMK AO2 SLP177 60000 T01220100 55002 (DB),FM-15,7,,,,,,,,,,,,,,,,,,,,,,,,,,,3/27/2007
72219013874,2020-01-19T04:02:00,FM-16,7,,,,,,,,,,,,,,,,,,,,,,,,,,,,,,,,,,,,,,,30.05,50,54,,,,,87,,FEW:02 9 BKN:07 15 OVC:08 42,28.95,10,52,320,,16,,,,,,,,,,,,,,,,,,,,,,,,,,,,,,,,,,,,,MET11701/19/20 04:02:02 SPECI KATL 190902Z 32014KT 10SM FEW009 BKN015 OVC042 12/10 A3005 RMK AO2 CIG 013V018 T01220100 (DB),FM-16,7,,,,,,,,,,,,,,,,,,,,,,,,,,,3/27/2007
72219013874,2020-01-19T04:45:00,FM-16,7,,,,,,,,,,,,,,,,,,,,,,,,,,,,,,,,,,,,,,,30.05,45,52,,,,,77,,FEW:02 9 SCT:04 15 BKN:07 75,28.95,10,48,310,23,16,,,,,,,,,,,,,,,,,,,,,,,,,,,,,,,,,,,,,MET10801/19/20 04:45:02 SPECI KATL 190945Z 31014G20KT 10SM FEW009 SCT015 BKN075 11/07 A3005 RMK AO2 T01110072 (DB),FM-16,7,,,,,,,,,,,,,,,,,,,,,,,,,,,3/27/2007
72219013874,2020-01-19T04:52:00,FM-15,7,,,,,,,,,,,,,,,,,,,,,,,,,,,,,,,,,,,,,,,30.06,46,51,0,,,,83,30.06,FEW:02 9 SCT:04 15 SCT:04 75,28.96,10,48,300,,10,,,,,,,,,,,,,,,,,,,,,,,,,,,,,,,,,,,,,MET11201/19/20 04:52:02 METAR KATL 190952Z 30009KT 10SM FEW009 SCT015 SCT075 11/08 A3006 RMK AO2 SLP178 T01060078 (DB),FM-15,7,,,,,,,,,,,,,,,,,,,,,,,,,,,3/27/2007
72219013874,2020-01-19T05:52:00,FM-15,7,,,,,,,,,,,,,,,,,,,,,,,,,,,,,,,,,,,,,,,30.07,41,48,0,,,,77,30.07,FEW:02 18 SCT:04 80 OVC:08 250,28.97,10,45,300,,15,,,,,,,,,,,,,,,,,,,,,,,,,,,,,,,,,,,,,MET11201/19/20 05:52:02 METAR KATL 191052Z 30013KT 10SM FEW018 SCT080 OVC250 09/05 A3007 RMK AO2 SLP184 T00890050 (DB),FM-15,7,,,,,,,,,,,,,,,,,,,,,,,,,,,3/27/2007
72219013874,2020-01-19T06:52:00,FM-15,7,,,,,,,,,,,,,,,,,,,,,,,,,,,,,,,,,,,,,,,30.1,37,45,0,,-0.05,3,74,30.1,SCT:04 18 SCT:04 80 OVC:08 250,29,10,41,310,25,21,,,,,,,,,,,,,,,,,,,,,,,,,,,,,,,,,,,,,MET16301/19/20 06:52:02 METAR KATL 191152Z 31018G22KT 10SM SCT018 SCT080 OVC250 07/03 A3010 RMK AO2 PK WND 31026/1129 SLP194 60000 70055 T00720028 10133 20072 53016 (DB),FM-15,7,,,,,,,,,,,,,,,,,,,,,,,,,,,3/27/2007
72219013874,2020-01-19T07:00:00,FM-12,4,,,,,,,,,,,,,,,,,,,,,,,,,,,,,,,,,,,,,,,,37,45,,,-0.05,3,74,30.1,15,28.99,9.94,41,310,,21,,,,,,,,,,,,,,,,,,,,,,,,,,,,,,,,,,,,,SYN09872219 12466 83118 10072 20028 39818 40194 53016 69901 91152 333 10122 20072 70140 91022 555 91912=,FM-12,4,,,,,,,,,,,,,,,,,,,,,,,,,,,3/27/2007
72219013874,2020-01-19T07:52:00,FM-15,7,,,,,,,,,,,,,,,,,,,,,,,,,,,,,,,,,,,,,,,30.13,36,43,0,,,,76,30.14,FEW:02 18 BKN:07 250,29.03,10,40,310,,13,,,,,,,,,,,,,,,,,,,,,,,,,,,,,,,,,,,,,MET10501/19/20 07:52:02 METAR KATL 191252Z 31011KT 10SM FEW018 BKN250 06/02 A3013 RMK AO2 SLP205 T00610022 (DB),FM-15,7,,,,,,,,,,,,,,,,,,,,,,,,,,,3/27/2007
72219013874,2020-01-19T08:52:00,FM-15,7,,,,,,,,,,,,,,,,,,,,,,,,,,,,,,,,,,,,,,,30.15,30,41,0,,,,65,30.16,FEW:02 16 BKN:07 250,29.05,10,36,330,25,16,,,,,,,,,,,,,,,,,,,,,,,,,,,,,,,,,,,,,MET12101/19/20 08:52:02 METAR KATL 191352Z 33014G22KT 10SM FEW016 BKN250 05/M01 A3015 RMK AO2 SLP212 VIRGA OHD-E T00501011 (DB),FM-15,7,,,,,,,,,,,,,,,,,,,,,,,,,,,3/27/2007
72219013874,2020-01-19T09:52:00,FM-15,7,,,,,,,,,,,,,,,,,,,,,,,,,,,,,,,,,,,,,,,30.17,28,40,0,,-0.06,1,63,30.18,BKN:07 200,29.07,10,35,310,25,14,,,,,,,,,,,,,,,,,,,,,,,,,,,,,,,,,,,,,MET10901/19/20 09:52:02 METAR KATL 191452Z 31012G22KT 10SM BKN200 04/M02 A3017 RMK AO2 SLP219 T00441022 51022 (JRN),FM-15,7,,,,,,,,,,,,,,,,,,,,,,,,,,,3/27/2007
72219013874,2020-01-19T10:52:00,FM-15,7,,,,,,,,,,,,,,,,,,,,,,,,,,,,,,,,,,,,,,,30.18,25,41,0,,,,53,30.19,SCT:04 200 BKN:07 250,29.08,10,35,290,21,15,,,,,,,,,,,,,,,,,,,,,,,,,,,,,,,,,,,,,MET11001/19/20 10:52:02 METAR KATL 191552Z 29013G18KT 10SM SCT200 BKN250 05/M04 A3018 RMK AO2 SLP222 T00501039 (JRN),FM-15,7,,,,,,,,,,,,,,,,,,,,,,,,,,,3/27/2007
72219013874,2020-01-19T11:52:00,FM-15,7,,,,,,,,,,,,,,,,,,,,,,,,,,,,,,,,,,,,,,,30.17,20,43,0,,,,40,30.18,SCT:04 250,29.07,10,34,320,25,18,,,,,,,,,,,,,,,,,,,,,,,,,,,,,,,,,,,,,MET12101/19/20 11:52:02 METAR KATL 191652Z 32016G22KT 10SM SCT250 06/M07 A3017 RMK AO2 PK WND 31026/1643 SLP220 T00611067 (JRN),FM-15,7,,,,,,,,,,,,,,,,,,,,,,,,,,,3/27/2007
72219013874,2020-01-19T12:52:00,FM-15,7,,,,,,,,,,,,,,,,,,,,,,,,,,,,,,,,,,,,,,,30.14,20,45,0,,0.02,8,37,30.15,FEW:02 250,29.04,10,36,330,28,22,,,,,,,,,,,,,,,,,,,,,,,,,,,,,,,,,,,,,MET12101/19/20 12:52:02 METAR KATL 191752Z 33019G24KT 10SM FEW250 07/M07 A3014 RMK AO2 SLP209 T00721067 10072 20044 58008 (JRN),FM-15,7,,,,,,,,,,,,,,,,,,,,,,,,,,,3/27/2007
72219013874,2020-01-19T13:00:00,FM-12,4,,,,,,,,,,,,,,,,,,,,,,,,,,,,,,,,,,,,,,,,20,45,,,0.02,8,37,30.15,,29.03,9.94,36,330,,22,,,,,,,,,,,,,,,,,,,,,,,,,,,,,,,,,,,,,SYN08672219 32966 23319 10072 21067 39831 40209 58008 91752 333 10133 20044 91024 555 91918=,FM-12,4,,,,,,,,,,,,,,,,,,,,,,,,,,,3/27/2007
72219013874,2020-01-19T13:52:00,FM-15,7,,,,,,,,,,,,,,,,,,,,,,,,,,,,,,,,,,,,,,,30.12,18,47,0,,,,31,30.12,FEW:02 250,29.02,10,36,310,29,22,,,,,,,,,,,,,,,,,,,,,,,,,,,,,,,,,,,,,MET12101/19/20 13:52:02 METAR KATL 191852Z 31019G25KT 10SM FEW250 08/M08 A3012 RMK AO2 PK WND 33026/1823 SLP201 T00831078 (JRN),FM-15,7,,,,,,,,,,,,,,,,,,,,,,,,,,,3/27/2007
72219013874,2020-01-19T14:52:00,FM-15,7,,,,,,,,,,,,,,,,,,,,,,,,,,,,,,,,,,,,,,,30.12,18,47,0,,,,31,30.12,FEW:02 250,29.02,10,36,320,30,20,,,,,,,,,,,,,,,,,,,,,,,,,,,,,,,,,,,,,MET12101/19/20 14:52:02 METAR KATL 191952Z 32017G26KT 10SM FEW250 08/M08 A3012 RMK AO2 PK WND 32027/1854 SLP199 T00831078 (JRN),FM-15,7,,,,,,,,,,,,,,,,,,,,,,,,,,,3/27/2007
72219013874,2020-01-19T15:52:00,FM-15,7,,,,,,,,,,,,,,,,,,,,,,,,,,,,,,,,,,,,,,,30.13,20,47,0,,0.01,5,34,30.13,FEW:02 250,29.03,10,37,300,,15,,,,,,,,,,,,,,,,,,,,,,,,,,,,,,,,,,,,,MET10601/19/20 15:52:02 METAR KATL 192052Z 30013KT 10SM FEW250 08/M07 A3013 RMK AO2 SLP202 T00831067 55005 (JRN),FM-15,7,,,,,,,,,,,,,,,,,,,,,,,,,,,3/27/2007
72219013874,2020-01-19T16:52:00,FM-15,7,,,,,,,,,,,,,,,,,,,,,,,,,,,,,,,,,,,,,,,30.13,21,46,0,,,,37,30.14,FEW:02 250,29.03,10,36,310,25,17,,,,,,,,,,,,,,,,,,,,,,,,,,,,,,,,,,,,,MET10301/19/20 16:52:02 METAR KATL 192152Z 31015G22KT 10SM FEW250 08/M06 A3013 RMK AO2 SLP206 T00781061 (JRN),FM-15,7,,,,,,,,,,,,,,,,,,,,,,,,,,,3/27/2007
72219013874,2020-01-19T17:52:00,FM-15,7,,,,,,,,,,,,,,,,,,,,,,,,,,,,,,,,,,,,,,,30.15,21,44,0,,,,40,30.16,FEW:02 200,29.05,10,35,310,,16,,,,,,,,,,,,,,,,,,,,,,,,,,,,,,,,,,,,,MET10001/19/20 17:52:02 METAR KATL 192252Z 31014KT 10SM FEW200 07/M06 A3015 RMK AO2 SLP214 T00671061 (KAF),FM-15,7,,,,,,,,,,,,,,,,,,,,,,,,,,,3/27/2007
72219013874,2020-01-19T18:52:00,FM-15,7,,,,,,,,,,,,,,,,,,,,,,,,,,,,,,,,,,,,,,,30.18,20,42,0,,-0.05,3,41,30.19,FEW:02 200,29.08,10,34,320,,14,,,,,,,,,,,,,,,,,,,,,,,,,,,,,,,,,,,,,MET11801/19/20 18:52:02 METAR KATL 192352Z 32012KT 10SM FEW200 06/M07 A3018 RMK AO2 SLP223 T00561067 10089 20056 53017 (KAF),FM-15,7,,,,,,,,,,,,,,,,,,,,,,,,,,,3/27/2007
72219013874,2020-01-19T19:00:00,FM-12,4,,,,,,,,,,,,,,,,,,,,,,,,,,,,,,,,,,,,,,,,20,42,,,-0.05,3,41,30.19,,29.07,9.94,34,320,,14,,,,,,,,,,,,,,,,,,,,,,,,,,,,,,,,,,,,,SYN08072219 32966 23212 10056 21067 39844 40223 53017 92352 333 10089 20056 555 92000=,FM-12,4,,,,,,,,,,,,,,,,,,,,,,,,,,,3/27/2007
72219013874,2020-01-19T19:52:00,FM-15,7,,,,,,,,,,,,,,,,,,,,,,,,,,,,,,,,,,,,,,,30.19,20,40,0,,,,45,30.21,FEW:02 200,29.09,10,33,320,25,18,,,,,,,,,,,,,,,,,,,,,,,,,,,,,,,,,,,,,MET11501/19/20 19:52:01 METAR KATL 200052Z 32016G22KT 10SM FEW200 04/M07 A3019 RMK AO2 PK WND 32026/0018 SLP229 T00441067,FM-15,7,,,,,,,,,,,,,,,,,,,,,,,,,,,3/27/2007
72219013874,2020-01-19T20:52:00,FM-15,7,,,,,,,,,,,,,,,,,,,,,,,,,,,,,,,,,,,,,,,30.21,19,39,0,,,,45,30.22,CLR:00,29.11,10,32,330,29,18,,,,,,,,,,,,,,,,,,,,,,,,,,,,,,,,,,,,,MET09401/19/20 20:52:01 METAR KATL 200152Z 33016G25KT 10SM CLR 04/M07 A3021 RMK AO2 SLP235 T00391072,FM-15,7,,,,,,,,,,,,,,,,,,,,,,,,,,,3/27/2007
72219013874,2020-01-19T21:52:00,FM-15,7,,,,,,,,,,,,,,,,,,,,,,,,,,,,,,,,,,,,,,,30.21,18,37,0,,-0.04,1,46,30.23,CLR:00,29.11,10,30,340,24,15,,,,,,,,,,,,,,,,,,,,,,,,,,,,,,,,,,,,,MET10001/19/20 21:52:01 METAR KATL 200252Z 34013G21KT 10SM CLR 03/M08 A3021 RMK AO2 SLP238 T00281078 51013,FM-15,7,,,,,,,,,,,,,,,,,,,,,,,,,,,3/27/2007
72219013874,2020-01-19T22:52:00,FM-15,7,,,,,,,,,,,,,,,,,,,,,,,,,,,,,,,,,,,,,,,30.22,16,34,0,,,,48,30.24,CLR:00,29.12,10,28,320,,16,,,,,,,,,,,,,,,,,,,,,,,,,,,,,,,,,,,,,MET10901/19/20 22:52:01 METAR KATL 200352Z 32014KT 10SM CLR 01/M09 A3022 RMK AO2 PK WND 33027/0324 SLP241 T00111089,FM-15,7,,,,,,,,,,,,,,,,,,,,,,,,,,,3/27/2007
72219013874,2020-01-19T23:52:00,FM-15,7,,,,,,,,,,,,,,,,,,,,,,,,,,,,,,,,,,,,,,,30.24,14,32,0,,,,47,30.26,FEW:02 200,29.14,10,26,330,,18,,,,,,,,,,,,,,,,,,,,,,,,,,,,,,,,,,,,,MET10401/19/20 23:52:01 METAR KATL 200452Z 33016KT 10SM FEW200 00/M10 A3024 RMK AO2 SLP246 T00001100 401330000,FM-15,7,,,,,,,,,,,,,,,,,,,,,,,,,,,3/27/2007
72219013874,2020-01-19T23:59:00,SOD  ,6,,,,,,,,,,,,,,,,,29,44,56,30.15,29.02,39,15.6,0,0.7,21,56,32,330,31,0.01,0,0,310,25,RA BR,,,,,,,,,,,,,,,,,,,,,,,,,,,,,,,,,,,,,,,,,,,,,,,,,,,,,,,SOD75624 HR PRECIPITATION (IN): 0.01 SNOW DEPTH (IN):0     24 HR SNOWFALL (IN):0.0  WEATHER(CODE):1  24 HR MAX TEMP (F): 5624 HR MIN TEMP (F): 32AVERAGE STATION PRESSURE:29.020 MINIMUM SEA LEVEL PRESSURE:30.05 TIME OF OCCURRENCE:0445 PEAK WIND SPEED (MPH): 31 PEAK WIND DIR (DEG):330 PEAK WIND TIME (LST):      FASTEST 2MIN SPEED (MPH): 25FASTEST 2MIN DIR (DEG):310 FASTEST 2MIN TIME (LST):     AVERAGE WIND SPEED (MPH):15.6 24 HR AVG TEMP (F): 44DEPART FROM NORMAL:  1  HEATING DEGREE DAYS: 21 COOLING DEGREE DAYS:  0 LATEST DAY MAX TEMP (0700-1900 LST):48  LATEST NIGHT MIN TEMP(1900-0800 LST):43 HOURLY INCREMENTAL PRECIPITATION VALUES (IN):.01 0.00 0.00 0.00 0.00 0.00 0.00 0.00 0.00 0.00 0.00 0.00 0.00 0.00 0.00 0.00 0.00 0.00 0.00 0.00 0.00 0.00 0.00 0.00,SOD  ,6,,,,,,,,,,,,,,,,,,,,,,,,,741,1756,3/27/2007
72219013874,2020-01-20T00:52:00,FM-15,7,,,,,,,,,,,,,,,,,,,,,,,,,,,,,,,,,,,,,,,30.25,15,31,0,,-0.04,3,52,30.27,FEW:02 200,29.15,10,26,330,23,14,,,,,,,,,,,,,,,,,,,,,,,,,,,,,,,,,,,,,MET12201/20/20 00:52:02 METAR KATL 200552Z 33012G20KT 10SM FEW200 M01/M09 A3025 RMK AO2 SLP250 T10061094 10056 21006 53012 (KAF),FM-15,7,,,,,,,,,,,,,,,,,,,,,,,,,,,3/27/2007
72219013874,2020-01-20T01:00:00,FM-12,4,,,,,,,,,,,,,,,,,,,,,,,,,,,,,,,,,,,,,,,,15,31,,,-0.04,3,52,30.27,,29.14,9.94,26,330,,14,,,,,,,,,,,,,,,,,,,,,,,,,,,,,,,,,,,,,SYN08672219 32966 23312 11006 21094 39867 40250 53012 90552 333 10133 21006 91020 555 92006=,FM-12,4,,,,,,,,,,,,,,,,,,,,,,,,,,,3/27/2007
72219013874,2020-01-20T01:52:00,FM-15,7,,,,,,,,,,,,,,,,,,,,,,,,,,,,,,,,,,,,,,,30.25,14,29,0,,,,54,30.27,CLR:00,29.15,10,24,340,,14,,,,,,,,,,,,,,,,,,,,,,,,,,,,,,,,,,,,,MET09701/20/20 01:52:02 METAR KATL 200652Z 34012KT 10SM CLR M02/M10 A3025 RMK AO2 SLP250 T10171100 (DB),FM-15,7,,,,,,,,,,,,,,,,,,,,,,,,,,,3/27/2007
72219013874,2020-01-20T02:52:00,FM-15,7,,,,,,,,,,,,,,,,,,,,,,,,,,,,,,,,,,,,,,,30.25,15,28,0,,,,58,30.27,CLR:00,29.15,10,24,320,,10,,,,,,,,,,,,,,,,,,,,,,,,,,,,,,,,,,,,,MET09701/20/20 02:52:02 METAR KATL 200752Z 32009KT 10SM CLR M02/M09 A3025 RMK AO2 SLP250 T10221094 (DB),FM-15,7,,,,,,,,,,,,,,,,,,,,,,,,,,,3/27/2007
72219013874,2020-01-20T03:52:00,FM-15,7,,,,,,,,,,,,,,,,,,,,,,,,,,,,,,,,,,,,,,,30.24,14,28,0,,0.01,8,56,30.26,CLR:00,29.14,10,24,330,,13,,,,,,,,,,,,,,,,,,,,,,,,,,,,,,,,,,,,,MET10301/20/20 03:52:02 METAR KATL 200852Z 33011KT 10SM CLR M02/M10 A3024 RMK AO2 SLP247 T10221100 58003 (DB),FM-15,7,,,,,,,,,,,,,,,,,,,,,,,,,,,3/27/2007
72219013874,2020-01-20T04:52:00,FM-15,7,,,,,,,,,,,,,,,,,,,,,,,,,,,,,,,,,,,,,,,30.25,15,27,0,,,,61,30.27,CLR:00,29.15,10,23,320,,14,,,,,,,,,,,,,,,,,,,,,,,,,,,,,,,,,,,,,MET09701/20/20 04:52:02 METAR KATL 200952Z 32012KT 10SM CLR M03/M09 A3025 RMK AO2 SLP251 T10281094 (DB),FM-15,7,,,,,,,,,,,,,,,,,,,,,,,,,,,3/27/2007
72219013874,2020-01-20T05:52:00,FM-15,7,,,,,,,,,,,,,,,,,,,,,,,,,,,,,,,,,,,,,,,30.27,14,26,0,,,,60,30.29,CLR:00,29.16,10,22,340,24,11,,,,,,,,,,,,,,,,,,,,,,,,,,,,,,,,,,,,,MET10001/20/20 05:52:02 METAR KATL 201052Z 34010G21KT 10SM CLR M03/M10 A3027 RMK AO2 SLP258 T10331100 (DB),FM-15,7,,,,,,,,,,,,,,,,,,,,,,,,,,,3/27/2007
72219013874,2020-01-20T06:52:00,FM-15,7,,,,,,,,,,,,,,,,,,,,,,,,,,,,,,,,,,,,,,,30.3,15,26,0,,-0.06,3,63,30.33,CLR:00,29.19,10,23,340,,13,,,,,,,,,,,,,,,,,,,,,,,,,,,,,,,,,,,,,MET11701/20/20 06:52:02 METAR KATL 201152Z 34011KT 10SM CLR M03/M09 A3030 RMK AO2 SLP270 T10331094 11006 21033 53020 $ (DB),FM-15,7,,,,,,,,,,,,,,,,,,,,,,,,,,,3/27/2007
72219013874,2020-01-20T07:00:00,FM-12,4,,,,,,,,,,,,,,,,,,,,,,,,,,,,,,,,,,,,,,,,15,26,,,-0.06,3,63,30.33,,29.19,9.94,23,340,,13,,,,,,,,,,,,,,,,,,,,,,,,,,,,,,,,,,,,,SYN08072219 32966 03411 11033 21094 39884 40270 53020 91152 333 10133 21033 555 92012=,FM-12,4,,,,,,,,,,,,,,,,,,,,,,,,,,,3/27/2007
72219013874,2020-01-20T07:52:00,FM-15,7,,,,,,,,,,,,,,,,,,,,,,,,,,,,,,,,,,,,,,,30.33,15,25,0,,,,66,30.36,SCT:04 200,29.22,10,22,330,,11,,,,,,,,,,,,,,,,,,,,,,,,,,,,,,,,,,,,,MET10201/20/20 07:52:02 METAR KATL 201252Z 33010KT 10SM SCT200 M04/M09 A3033 RMK AO2 SLP280 T10391094 $ (DB),FM-15,7,,,,,,,,,,,,,,,,,,,,,,,,,,,3/27/2007
72219013874,2020-01-20T08:52:00,FM-15,7,,,,,,,,,,,,,,,,,,,,,,,,,,,,,,,,,,,,,,,30.36,15,26,0,,,,63,30.39,FEW:02 200 BKN:07 250,29.25,10,23,340,20,10,,,,,,,,,,,,,,,,,,,,,,,,,,,,,,,,,,,,,MET11301/20/20 08:52:02 METAR KATL 201352Z 34009G17KT 10SM FEW200 BKN250 M03/M09 A3036 RMK AO2 SLP290 T10331094 $ (CPS),FM-15,7,,,,,,,,,,,,,,,,,,,,,,,,,,,3/27/2007
72219013874,2020-01-20T09:52:00,FM-15,7,,,,,,,,,,,,,,,,,,,,,,,,,,,,,,,,,,,,,,,30.37,16,28,0,,-0.07,1,60,30.4,FEW:02 200 SCT:04 250,29.26,10,24,340,,10,,,,,,,,,,,,,,,,,,,,,,,,,,,,,,,,,,,,,MET11601/20/20 09:52:02 METAR KATL 201452Z 34009KT 10SM FEW200 SCT250 M02/M09 A3037 RMK AO2 SLP295 T10221089 51023 $ (CPS),FM-15,7,,,,,,,,,,,,,,,,,,,,,,,,,,,3/27/2007
72219013874,2020-01-20T10:52:00,FM-15,7,,,,,,,,,,,,,,,,,,,,,,,,,,,,,,,,,,,,,,,30.38,17,31,0,,,,56,30.41,SCT:04 250,29.27,10,26,310,,13,,,,,,,,,,,,,,,,,,,,,,,,,,,,,,,,,,,,,MET10301/20/20 10:52:02 METAR KATL 201552Z 31011KT 10SM SCT250 M01/M08 A3038 RMK AO2 SLP299 T10061083 $ (CPS),FM-15,7,,,,,,,,,,,,,,,,,,,,,,,,,,,3/27/2007
72219013874,2020-01-20T11:52:00,FM-15,7,,,,,,,,,,,,,,,,,,,,,,,,,,,,,,,,,,,,,,,30.38,17,33,0,,,,52,30.41,FEW:02 250,29.27,10,28,310,,14,,,,,,,,,,,,,,,,,,,,,,,,,,,,,,,,,,,,,MET10201/20/20 11:52:02 METAR KATL 201652Z 31012KT 10SM FEW250 01/M08 A3038 RMK AO2 SLP297 T00061083 $ (CPS),FM-15,7,,,,,,,,,,,,,,,,,,,,,,,,,,,3/27/2007
72219013874,2020-01-20T12:52:00,FM-15,7,,,,,,,,,,,,,,,,,,,,,,,,,,,,,,,,,,,,,,,30.35,18,35,0,,0.02,8,50,30.38,FEW:02 250,29.24,10,29,320,18,11,,,,,,,,,,,,,,,,,,,,,,,,,,,,,,,,,,,,,MET12301/20/20 12:52:02 METAR KATL 201752Z 32010G16KT 10SM FEW250 02/M08 A3035 RMK AO2 SLP288 T00171078 10017 21039 58007 $ (CPS),FM-15,7,,,,,,,,,,,,,,,,,,,,,,,,,,,3/27/2007
72219013874,2020-01-20T13:00:00,FM-12,4,,,,,,,,,,,,,,,,,,,,,,,,,,,,,,,,,,,,,,,,18,35,,,0.02,8,50,30.38,,29.23,9.94,29,320,,11,,,,,,,,,,,,,,,,,,,,,,,,,,,,,,,,,,,,,SYN08672219 32966 23210 10017 21078 39900 40288 58007 91752 333 10017 21039 91016 555 92018=,FM-12,4,,,,,,,,,,,,,,,,,,,,,,,,,,,3/27/2007
72219013874,2020-01-20T13:52:00,FM-15,7,,,,,,,,,,,,,,,,,,,,,,,,,,,,,,,,,,,,,,,30.32,17,36,0,,,,46,30.35,CLR:00,29.21,10,29,320,,13,,,,,,,,,,,,,,,,,,,,,,,,,,,,,,,,,,,,,MET09901/20/20 13:52:02 METAR KATL 201852Z 32011KT 10SM CLR 02/M08 A3032 RMK AO2 SLP276 T00221083 $ (CPS),FM-15,7,,,,,,,,,,,,,,,,,,,,,,,,,,,3/27/2007
72219013874,2020-01-20T14:52:00,FM-15,7,,,,,,,,,,,,,,,,,,,,,,,,,,,,,,,,,,,,,,,30.31,18,37,0,,,,46,30.34,CLR:00,29.21,10,30,320,,15,,,,,,,,,,,,,,,,,,,,,,,,,,,,,,,,,,,,,MET09901/20/20 14:52:02 METAR KATL 201952Z 32013KT 10SM CLR 03/M08 A3031 RMK AO2 SLP273 T00281078 $ (CPS),FM-15,7,,,,,,,,,,,,,,,,,,,,,,,,,,,3/27/2007
72219013874,2020-01-20T15:52:00,FM-15,7,,,,,,,,,,,,,,,,,,,,,,,,,,,,,,,,,,,,,,,30.3,18,37,0,,0.05,6,46,30.33,CLR:00,29.19,10,30,320,,10,,,,,,,,,,,,,,,,,,,,,,,,,,,,,,,,,,,,,MET10301/20/20 15:52:02 METAR KATL 202052Z 32009KT 10SM CLR 03/M08 A3030 RMK AO2 SLP270 T00281078 56017 (CPS),FM-15,7,,,,,,,,,,,,,,,,,,,,,,,,,,,3/27/2007
72219013874,2020-01-20T16:52:00,FM-15,7,,,,,,,,,,,,,,,,,,,,,,,,,,,,,,,,,,,,,,,30.32,17,37,0,,,,44,30.35,CLR:00,29.21,10,30,330,,13,,,,,,,,,,,,,,,,,,,,,,,,,,,,,,,,,,,,,MET09701/20/20 16:52:02 METAR KATL 202152Z 33011KT 10SM CLR 03/M08 A3032 RMK AO2 SLP276 T00281083 (CPS),FM-15,7,,,,,,,,,,,,,,,,,,,,,,,,,,,3/27/2007
72219013874,2020-01-20T17:52:00,FM-15,7,,,,,,,,,,,,,,,,,,,,,,,,,,,,,,,,,,,,,,,30.32,16,34,0,,,,48,30.35,CLR:00,29.21,10,28,340,,11,,,,,,,,,,,,,,,,,,,,,,,,,,,,,,,,,,,,,MET09601/20/20 17:52:02 METAR KATL 202252Z 34010KT 10SM CLR 01/M09 A3032 RMK AO2 SLP279 T00111089 (RF),FM-15,7,,,,,,,,,,,,,,,,,,,,,,,,,,,3/27/2007
72219013874,2020-01-20T18:52:00,FM-15,7,,,,,,,,,,,,,,,,,,,,,,,,,,,,,,,,,,,,,,,30.33,16,32,0,,-0.04,1,52,30.37,CLR:00,29.22,10,27,340,,10,,,,,,,,,,,,,,,,,,,,,,,,,,,,,,,,,,,,,MET11401/20/20 18:52:02 METAR KATL 202352Z 34009KT 10SM CLR 00/M09 A3033 RMK AO2 SLP284 T00001089 10033 20000 51012 (RF),FM-15,7,,,,,,,,,,,,,,,,,,,,,,,,,,,3/27/2007
72219013874,2020-01-20T19:00:00,FM-12,4,,,,,,,,,,,,,,,,,,,,,,,,,,,,,,,,,,,,,,,,16,32,,,-0.04,1,52,30.37,,29.22,9.94,27,340,,10,,,,,,,,,,,,,,,,,,,,,,,,,,,,,,,,,,,,,SYN08072219 32966 03409 10000 21089 39894 40284 51012 92352 333 10033 21032 555 92100=,FM-12,4,,,,,,,,,,,,,,,,,,,,,,,,,,,3/27/2007
72219013874,2020-01-20T19:52:00,FM-15,7,,,,,,,,,,,,,,,,,,,,,,,,,,,,,,,,,,,,,,,30.34,15,30,0,,,,54,30.38,CLR:00,29.23,10,25,340,25,20,,,,,,,,,,,,,,,,,,,,,,,,,,,,,,,,,,,,,MET09501/20/20 19:52:01 METAR KATL 210052Z 34017G22KT 10SM CLR M01/M09 A3034 RMK AO2 SLP287 T10111094,FM-15,7,,,,,,,,,,,,,,,,,,,,,,,,,,,3/27/2007
72219013874,2020-01-20T20:52:00,FM-15,7,,,,,,,,,,,,,,,,,,,,,,,,,,,,,,,,,,,,,,,30.35,14,29,0,,,,54,30.38,CLR:00,29.24,10,24,350,,11,,,,,,,,,,,,,,,,,,,,,,,,,,,,,,,,,,,,,MET09201/20/20 20:52:01 METAR KATL 210152Z 35010KT 10SM CLR M02/M10 A3035 RMK AO2 SLP288 T10171100,FM-15,7,,,,,,,,,,,,,,,,,,,,,,,,,,,3/27/2007
72219013874,2020-01-20T21:52:00,FM-15,7,,,,,,,,,,,,,,,,,,,,,,,,,,,,,,,,,,,,,,,30.37,14,27,0,,-0.04,3,58,30.41,CLR:00,29.26,10,23,330,,11,,,,,,,,,,,,,,,,,,,,,,,,,,,,,,,,,,,,,MET09801/20/20 21:52:01 METAR KATL 210252Z 33010KT 10SM CLR M03/M10 A3037 RMK AO2 SLP297 T10281100 53013,FM-15,7,,,,,,,,,,,,,,,,,,,,,,,,,,,3/27/2007
72219013874,2020-01-20T22:52:00,FM-15,7,,,,,,,,,,,,,,,,,,,,,,,,,,,,,,,,,,,,,,,30.36,14,27,0,,,,58,30.4,CLR:00,29.25,10,23,320,,11,,,,,,,,,,,,,,,,,,,,,,,,,,,,,,,,,,,,,MET09201/20/20 22:52:01 METAR KATL 210352Z 32010KT 10SM CLR M03/M10 A3036 RMK AO2 SLP294 T10281100,FM-15,7,,,,,,,,,,,,,,,,,,,,,,,,,,,3/27/2007
72219013874,2020-01-20T23:52:00,FM-15,7,,,,,,,,,,,,,,,,,,,,,,,,,,,,,,,,,,,,,,,30.35,14,26,0,,,,60,30.38,CLR:00,29.24,10,22,330,,8,,,,,,,,,,,,,,,,,,,,,,,,,,,,,,,,,,,,,MET10201/20/20 23:52:01 METAR KATL 210452Z 33007KT 10SM CLR M03/M10 A3035 RMK AO2 SLP288 T10331100 400331039,FM-15,7,,,,,,,,,,,,,,,,,,,,,,,,,,,3/27/2007
72219013874,2020-01-20T23:59:00,SOD  ,6,,,,,,,,,,,,,,,,,16,32,55,30.35,29.2,25,12.2,0,-11.3,33,38,25,350,25,0,0,0,330,21,,,,,,,,,,,,,,,,,,,,,,,,,,,,,,,,,,,,,,,,,,,,,,,,,,,,,,,,SOD73924 HR PRECIPITATION (IN): 0.00 SNOW DEPTH (IN):0     24 HR SNOWFALL (IN):0.0  24 HR MAX TEMP (F): 3824 HR MIN TEMP (F): 25AVERAGE STATION PRESSURE:29.200 MINIMUM SEA LEVEL PRESSURE:30.25 TIME OF OCCURRENCE:0358 PEAK WIND SPEED (MPH): 25 PEAK WIND DIR (DEG):350 PEAK WIND TIME (LST):      FASTEST 2MIN SPEED (MPH): 21FASTEST 2MIN DIR (DEG):330 FASTEST 2MIN TIME (LST):     AVERAGE WIND SPEED (MPH):12.2 24 HR AVG TEMP (F): 32DEPART FROM NORMAL:-11  HEATING DEGREE DAYS: 33 COOLING DEGREE DAYS:  0 LATEST DAY MAX TEMP (0700-1900 LST):38  LATEST NIGHT MIN TEMP(1900-0800 LST):25 HOURLY INCREMENTAL PRECIPITATION VALUES (IN):.00 0.00 0.00 0.00 0.00 0.00 0.00 0.00 0.00 0.00 0.00 0.00 0.00 0.00 0.00 0.00 0.00 0.00 0.00 0.00 0.00 0.00 0.00 0.00,SOD  ,6,,,,,,,,,,,,,,,,,,,,,,,,,741,1757,3/27/2007
72219013874,2020-01-21T00:52:00,FM-15,7,,,,,,,,,,,,,,,,,,,,,,,,,,,,,,,,,,,,,,,30.34,13,25,0,,0.03,7,60,30.37,CLR:00,29.23,10,21,320,,9,,,,,,,,,,,,,,,,,,,,,,,,,,,,,,,,,,,,,MET11501/21/20 00:52:02 METAR KATL 210552Z 32008KT 10SM CLR M04/M11 A3034 RMK AO2 SLP285 T10391106 10000 21039 57010 (RF),FM-15,7,,,,,,,,,,,,,,,,,,,,,,,,,,,3/27/2007
72219013874,2020-01-21T01:00:00,FM-12,4,,,,,,,,,,,,,,,,,,,,,,,,,,,,,,,,,,,,,,,,13,25,,,0.03,7,60,30.37,,29.23,9.94,21,320,,9,,,,,,,,,,,,,,,,,,,,,,,,,,,,,,,,,,,,,SYN08072219 32966 03208 11039 21106 39897 40285 57010 90552 333 10000 21039 555 92106=,FM-12,4,,,,,,,,,,,,,,,,,,,,,,,,,,,3/27/2007
72219013874,2020-01-21T01:52:00,FM-15,7,,,,,,,,,,,,,,,,,,,,,,,,,,,,,,,,,,,,,,,30.34,13,25,0,,,,60,30.37,CLR:00,29.23,10,21,320,,10,,,,,,,,,,,,,,,,,,,,,,,,,,,,,,,,,,,,,MET09701/21/20 01:52:02 METAR KATL 210652Z 32009KT 10SM CLR M04/M11 A3034 RMK AO2 SLP285 T10391106 (DB),FM-15,7,,,,,,,,,,,,,,,,,,,,,,,,,,,3/27/2007
72219013874,2020-01-21T02:52:00,FM-15,7,,,,,,,,,,,,,,,,,,,,,,,,,,,,,,,,,,,,,,,30.34,14,24,0,,,,65,30.37,CLR:00,29.23,10,21,340,,7,,,,,,,,,,,,,,,,,,,,,,,,,,,,,,,,,,,,,MET09701/21/20 02:52:02 METAR KATL 210752Z 34006KT 10SM CLR M04/M10 A3034 RMK AO2 SLP286 T10441100 (DB),FM-15,7,,,,,,,,,,,,,,,,,,,,,,,,,,,3/27/2007
72219013874,2020-01-21T03:52:00,FM-15,7,,,,,,,,,,,,,,,,,,,,,,,,,,,,,,,,,,,,,,,30.33,14,24,0,,0.01,8,65,30.37,FEW:02 50,29.22,10,21,340,,8,,,,,,,,,,,,,,,,,,,,,,,,,,,,,,,,,,,,,MET10601/21/20 03:52:02 METAR KATL 210852Z 34007KT 10SM FEW050 M04/M10 A3033 RMK AO2 SLP283 T10441100 58002 (DB),FM-15,7,,,,,,,,,,,,,,,,,,,,,,,,,,,3/27/2007
72219013874,2020-01-21T04:52:00,FM-15,7,,,,,,,,,,,,,,,,,,,,,,,,,,,,,,,,,,,,,,,30.34,14,24,0,,,,65,30.37,BKN:07 48,29.23,10,21,330,,10,,,,,,,,,,,,,,,,,,,,,,,,,,,,,,,,,,,,,MET10001/21/20 04:52:02 METAR KATL 210952Z 33009KT 10SM BKN048 M04/M10 A3034 RMK AO2 SLP285 T10441100 (DB),FM-15,7,,,,,,,,,,,,,,,,,,,,,,,,,,,3/27/2007
72219013874,2020-01-21T05:52:00,FM-15,7,,,,,,,,,,,,,,,,,,,,,,,,,,,,,,,,,,,,,,,30.36,15,25,0,,,,66,30.39,BKN:07 47,29.25,10,22,330,,8,,,,,,,,,,,,,,,,,,,,,,,,,,,,,,,,,,,,,MET10001/21/20 05:52:02 METAR KATL 211052Z 33007KT 10SM BKN047 M04/M09 A3036 RMK AO2 SLP290 T10391094 (DB),FM-15,7,,,,,,,,,,,,,,,,,,,,,,,,,,,3/27/2007
72219013874,2020-01-21T06:52:00,FM-15,7,,,,,,,,,,,,,,,,,,,,,,,,,,,,,,,,,,,,,,,30.38,16,26,0,,-0.05,3,66,30.42,OVC:08 50,29.27,10,23,340,,9,,,,,,,,,,,,,,,,,,,,,,,,,,,,,,,,,,,,,MET11801/21/20 06:52:02 METAR KATL 211152Z 34008KT 10SM OVC050 M03/M09 A3038 RMK AO2 SLP301 T10331089 11033 21050 53016 (DB),FM-15,7,,,,,,,,,,,,,,,,,,,,,,,,,,,3/27/2007
72219013874,2020-01-21T07:00:00,FM-12,4,,,,,,,,,,,,,,,,,,,,,,,,,,,,,,,,,,,,,,,,16,26,,,-0.05,3,66,30.42,57,29.26,9.94,23,340,,9,,,,,,,,,,,,,,,,,,,,,,,,,,,,,,,,,,,,,SYN08072219 32766 83408 11033 21089 39910 40301 53016 91152 333 10033 21050 555 92112=,FM-12,4,,,,,,,,,,,,,,,,,,,,,,,,,,,3/27/2007
72219013874,2020-01-21T07:52:00,FM-15,7,,,,,,,,,,,,,,,,,,,,,,,,,,,,,,,,,,,,,,,30.41,17,27,0,,,,66,30.45,OVC:08 55,29.3,10,24,330,,11,,,,,,,,,,,,,,,,,,,,,,,,,,,,,,,,,,,,,MET10001/21/20 07:52:02 METAR KATL 211252Z 33010KT 10SM OVC055 M03/M08 A3041 RMK AO2 SLP312 T10281083 (DB),FM-15,7,,,,,,,,,,,,,,,,,,,,,,,,,,,3/27/2007
72219013874,2020-01-21T08:52:00,FM-15,7,,,,,,,,,,,,,,,,,,,,,,,,,,,,,,,,,,,,,,,30.44,17,28,0,,,,63,30.48,OVC:08 55,29.33,10,24,330,,13,,,,,,,,,,,,,,,,,,,,,,,,,,,,,,,,,,,,,MET10701/21/20 08:52:02 METAR KATL 211352Z 33011KT 10SM OVC055 M02/M08 A3044 RMK AO2 SLP322 BINOVC T10221083 (DB),FM-15,7,,,,,,,,,,,,,,,,,,,,,,,,,,,3/27/2007
72219013874,2020-01-21T09:52:00,FM-15,7,,,,,,,,,,,,,,,,,,,,,,,,,,,,,,,,,,,,,,,30.46,17,29,0,,-0.08,1,61,30.5,OVC:08 60,29.35,10,25,330,,11,,,,,,,,,,,,,,,,,,,,,,,,,,,,,,,,,,,,,MET12101/21/20 09:52:02 METAR KATL 211452Z 33010KT 10SM OVC060 M02/M08 A3046 RMK AO2 SLP328 VIRGA NW-NE-SE T10171083 51026 (DB),FM-15,7,,,,,,,,,,,,,,,,,,,,,,,,,,,3/27/2007
72219013874,2020-01-21T10:52:00,FM-15,7,,,,,,,,,,,,,,,,,,,,,,,,,,,,,,,,,,,,,,,30.46,18,32,0,,,,56,30.5,FEW:02 40 BKN:07 60,29.35,10,27,340,,8,,,,,,,,,,,,,,,,,,,,,,,,,,,,,,,,,,,,,MET10701/21/20 10:52:02 METAR KATL 211552Z 34007KT 10SM FEW040 BKN060 00/M08 A3046 RMK AO2 SLP328 T00001078 (KAF),FM-15,7,,,,,,,,,,,,,,,,,,,,,,,,,,,3/27/2007
72219013874,2020-01-21T11:52:00,FM-15,7,,,,,,,,,,,,,,,,,,,,,,,,,,,,,,,,,,,,,,,30.45,17,36,0,,,,46,30.48,FEW:02 50,29.34,10,30,10,,5,,,,,,,,,,,,,,,,,,,,,,,,,,,,,,,,,,,,,MET09401/21/20 11:52:02 METAR KATL 211652Z 01004KT 10SM FEW050 02/M08 A3045 RMK AO2 SLP321 T00221083,FM-15,7,,,,,,,,,,,,,,,,,,,,,,,,,,,3/27/2007
72219013874,2020-01-21T12:52:00,FM-15,7,,,,,,,,,,,,,,,,,,,,,,,,,,,,,,,,,,,,,,,30.42,17,37,0,,0.04,8,44,30.45,FEW:02 55,29.31,10,30,360,17,7,,,,,,,,,,,,,,,,,,,,,,,,,,,,,,,,,,,,,MET11501/21/20 12:52:02 METAR KATL 211752Z 36006G15KT 10SM FEW055 03/M08 A3042 RMK AO2 SLP313 T00281083 10033 21033 58014,FM-15,7,,,,,,,,,,,,,,,,,,,,,,,,,,,3/27/2007
72219013874,2020-01-21T13:00:00,FM-12,4,,,,,,,,,,,,,,,,,,,,,,,,,,,,,,,,,,,,,,,,17,37,,,0.04,8,44,30.45,57,29.3,9.94,30,360,,7,,,,,,,,,,,,,,,,,,,,,,,,,,,,,,,,,,,,,SYN08672219 32766 23606 10028 21083 39923 40313 58014 91752 333 10033 21033 91015 555 92118=,FM-12,4,,,,,,,,,,,,,,,,,,,,,,,,,,,3/27/2007
72219013874,2020-01-21T13:52:00,FM-15,7,,,,,,,,,,,,,,,,,,,,,,,,,,,,,,,,,,,,,,,30.4,18,39,0,,,,43,30.42,FEW:02 55,29.29,10,32,350,18,13,,,,,,,,,,,,,,,,,,,,,,,,,,,,,,,,,,,,,MET09701/21/20 13:52:02 METAR KATL 211852Z 35011G16KT 10SM FEW055 04/M08 A3040 RMK AO2 SLP303 T00391078,FM-15,7,,,,,,,,,,,,,,,,,,,,,,,,,,,3/27/2007
72219013874,2020-01-21T14:52:00,FM-15,7,,,,,,,,,,,,,,,,,,,,,,,,,,,,,,,,,,,,,,,30.38,17,40,0,,,,40,30.41,FEW:02 55,29.27,10,32,320,20,11,,,,,,,,,,,,,,,,,,,,,,,,,,,,,,,,,,,,,MET09701/21/20 14:52:02 METAR KATL 211952Z 32010G17KT 10SM FEW055 04/M08 A3038 RMK AO2 SLP298 T00441083,FM-15,7,,,,,,,,,,,,,,,,,,,,,,,,,,,3/27/2007
72219013874,2020-01-21T15:52:00,FM-15,7,,,,,,,,,,,,,,,,,,,,,,,,,,,,,,,,,,,,,,,30.37,17,40,0,,0.05,6,40,30.4,FEW:02 60,29.26,10,32,340,18,11,,,,,,,,,,,,,,,,,,,,,,,,,,,,,,,,,,,,,MET10301/21/20 15:52:02 METAR KATL 212052Z 34010G16KT 10SM FEW060 04/M08 A3037 RMK AO2 SLP294 T00441083 56017,FM-15,7,,,,,,,,,,,,,,,,,,,,,,,,,,,3/27/2007
72219013874,2020-01-21T16:52:00,FM-15,7,,,,,,,,,,,,,,,,,,,,,,,,,,,,,,,,,,,,,,,30.36,16,39,0,,,,39,30.39,CLR:00,29.25,10,31,340,,13,,,,,,,,,,,,,,,,,,,,,,,,,,,,,,,,,,,,,MET09101/21/20 16:52:02 METAR KATL 212152Z 34011KT 10SM CLR 04/M09 A3036 RMK AO2 SLP292 T00391089,FM-15,7,,,,,,,,,,,,,,,,,,,,,,,,,,,3/27/2007
72219013874,2020-01-21T17:52:00,FM-15,7,,,,,,,,,,,,,,,,,,,,,,,,,,,,,,,,,,,,,,,30.36,14,37,0,,,,39,30.4,CLR:00,29.25,10,29,350,,9,,,,,,,,,,,,,,,,,,,,,,,,,,,,,,,,,,,,,MET09101/21/20 17:52:02 METAR KATL 212252Z 35008KT 10SM CLR 03/M10 A3036 RMK AO2 SLP293 T00281100,FM-15,7,,,,,,,,,,,,,,,,,,,,,,,,,,,3/27/2007
72219013874,2020-01-21T18:52:00,FM-15,7,,,,,,,,,,,,,,,,,,,,,,,,,,,,,,,,,,,,,,,30.36,14,34,0,,0.01,6,44,30.4,CLR:00,29.25,10,28,320,,7,,,,,,,,,,,,,,,,,,,,,,,,,,,,,,,,,,,,,MET10901/21/20 18:52:02 METAR KATL 212352Z 32006KT 10SM CLR 01/M10 A3036 RMK AO2 SLP293 T00111100 10050 20011 56002,FM-15,7,,,,,,,,,,,,,,,,,,,,,,,,,,,3/27/2007
72219013874,2020-01-21T19:00:00,FM-12,4,,,,,,,,,,,,,,,,,,,,,,,,,,,,,,,,,,,,,,,,14,34,,,0.01,6,44,30.4,,29.24,9.94,28,320,,7,,,,,,,,,,,,,,,,,,,,,,,,,,,,,,,,,,,,,SYN08072219 32966 03206 10011 21100 39903 40293 56002 92352 333 10050 21049 555 92200=,FM-12,4,,,,,,,,,,,,,,,,,,,,,,,,,,,3/27/2007
72219013874,2020-01-21T19:52:00,FM-15,7,,,,,,,,,,,,,,,,,,,,,,,,,,,,,,,,,,,,,,,30.37,14,33,0,,,,45,30.4,CLR:00,29.26,10,27,330,,10,,,,,,,,,,,,,,,,,,,,,,,,,,,,,,,,,,,,,MET09101/21/20 19:52:01 METAR KATL 220052Z 33009KT 10SM CLR 01/M10 A3037 RMK AO2 SLP296 T00061100,FM-15,7,,,,,,,,,,,,,,,,,,,,,,,,,,,3/27/2007
72219013874,2020-01-21T20:52:00,FM-15,7,,,,,,,,,,,,,,,,,,,,,,,,,,,,,,,,,,,,,,,30.38,13,32,0,,,,45,30.41,CLR:00,29.27,10,26,330,,13,,,,,,,,,,,,,,,,,,,,,,,,,,,,,,,,,,,,,MET09101/21/20 20:52:01 METAR KATL 220152Z 33011KT 10SM CLR 00/M11 A3038 RMK AO2 SLP299 T00001106,FM-15,7,,,,,,,,,,,,,,,,,,,,,,,,,,,3/27/2007
72219013874,2020-01-21T21:52:00,FM-15,7,,,,,,,,,,,,,,,,,,,,,,,,,,,,,,,,,,,,,,,30.38,14,30,0,,-0.02,1,51,30.41,CLR:00,29.27,10,25,310,,10,,,,,,,,,,,,,,,,,,,,,,,,,,,,,,,,,,,,,MET09801/21/20 21:52:01 METAR KATL 220252Z 31009KT 10SM CLR M01/M10 A3038 RMK AO2 SLP299 T10111100 51006,FM-15,7,,,,,,,,,,,,,,,,,,,,,,,,,,,3/27/2007
72219013874,2020-01-21T22:52:00,FM-15,7,,,,,,,,,,,,,,,,,,,,,,,,,,,,,,,,,,,,,,,30.41,14,30,0,,,,51,30.44,CLR:00,29.3,10,25,310,,13,,,,,,,,,,,,,,,,,,,,,,,,,,,,,,,,,,,,,MET09201/21/20 22:52:01 METAR KATL 220352Z 31011KT 10SM CLR M01/M10 A3041 RMK AO2 SLP309 T10111100,FM-15,7,,,,,,,,,,,,,,,,,,,,,,,,,,,3/27/2007
72219013874,2020-01-21T23:52:00,FM-15,7,,,,,,,,,,,,,,,,,,,,,,,,,,,,,,,,,,,,,,,30.4,14,29,0,,,,54,30.43,CLR:00,29.29,10,24,330,,10,,,,,,,,,,,,,,,,,,,,,,,,,,,,,,,,,,,,,MET10201/21/20 23:52:01 METAR KATL 220452Z 33009KT 10SM CLR M02/M10 A3040 RMK AO2 SLP305 T10171100 400501050,FM-15,7,,,,,,,,,,,,,,,,,,,,,,,,,,,3/27/2007
72219013874,2020-01-21T23:59:00,SOD  ,6,,,,,,,,,,,,,,,,,15,32,53,30.42,29.28,26,9.9,0,-11.4,33,41,23,340,23,0,0,0,340,17,,,,,,,,,,,,,,,,,,,,,,,,,,,,,,,,,,,,,,,,,,,,,,,,,,,,,,,,SOD74324 HR PRECIPITATION (IN): 0.00 SNOW DEPTH (IN):0     24 HR SNOWFALL (IN):0.0  24 HR MAX TEMP (F): 4124 HR MIN TEMP (F): 23AVERAGE STATION PRESSURE(D):29.277 MINIMUM SEA LEVEL PRESSURE:30.37 TIME OF OCCURRENCE:0515 PEAK WIND SPEED (MPH): 23 PEAK WIND DIR (DEG):340 PEAK WIND TIME (LST):      FASTEST 2MIN SPEED (MPH): 17FASTEST 2MIN DIR (DEG):340 FASTEST 2MIN TIME (LST):     AVERAGE WIND SPEED (MPH): 9.9 24 HR AVG TEMP (F): 32DEPART FROM NORMAL:-11  HEATING DEGREE DAYS: 33 COOLING DEGREE DAYS:  0 LATEST DAY MAX TEMP (0700-1900 LST): 41 LATEST NIGHT MIN TEMP(1900-0800 LST):23 HOURLY INCREMENTAL PRECIPITATION VALUES (IN):0.00 0.00 0.00 0.00 0.00 0.00 0.00 0.00 0.00 0.00 0.00 0.00 0.00 0.00 0.00 0.00 0.00 0.00 0.00 0.00 0.00 0.00 0.00 0.00,SOD  ,6,,,,,,,,,,,,,,,,,,,,,,,,,741,1758,3/27/2007
72219013874,2020-01-22T00:52:00,FM-15,7,,,,,,,,,,,,,,,,,,,,,,,,,,,,,,,,,,,,,,,30.39,13,28,0,,-0.01,0,53,30.42,CLR:00,29.28,10,23,350,,6,,,,,,,,,,,,,,,,,,,,,,,,,,,,,,,,,,,,,MET11501/22/20 00:52:02 METAR KATL 220552Z 35005KT 10SM CLR M02/M11 A3039 RMK AO2 SLP300 T10221106 10011 21028 50002 (RF),FM-15,7,,,,,,,,,,,,,,,,,,,,,,,,,,,3/27/2007
72219013874,2020-01-22T01:00:00,FM-12,4,,,,,,,,,,,,,,,,,,,,,,,,,,,,,,,,,,,,,,,,13,28,,,0.01,9,53,30.42,,29.27,9.94,23,350,,6,,,,,,,,,,,,,,,,,,,,,,,,,,,,,,,,,,,,,SYN08072219 32966 03505 11022 21106 39913 40300 50002 90552 333 10011 21050 555 92206=,FM-12,4,,,,,,,,,,,,,,,,,,,,,,,,,,,3/27/2007
72219013874,2020-01-22T01:52:00,FM-15,7,,,,,,,,,,,,,,,,,,,,,,,,,,,,,,,,,,,,,,,30.37,13,28,0,,,,53,30.4,CLR:00,29.26,10,23,50,,3,,,,,,,,,,,,,,,,,,,,,,,,,,,,,,,,,,,,,MET09701/22/20 01:52:02 METAR KATL 220652Z 05003KT 10SM CLR M02/M11 A3037 RMK AO2 SLP295 T10221106 (DB),FM-15,7,,,,,,,,,,,,,,,,,,,,,,,,,,,3/27/2007
72219013874,2020-01-22T02:52:00,FM-15,7,,,,,,,,,,,,,,,,,,,,,,,,,,,,,,,,,,,,,,,30.36,14,27,0,,,,58,30.39,CLR:00,29.25,10,23,0,,0,,,,,,,,,,,,,,,,,,,,,,,,,,,,,,,,,,,,,MET09701/22/20 02:52:02 METAR KATL 220752Z 00000KT 10SM CLR M03/M10 A3036 RMK AO2 SLP290 T10281100 (DB),FM-15,7,,,,,,,,,,,,,,,,,,,,,,,,,,,3/27/2007
72219013874,2020-01-22T03:52:00,FM-15,7,,,,,,,,,,,,,,,,,,,,,,,,,,,,,,,,,,,,,,,30.35,14,27,0,,0.04,8,58,30.37,FEW:02 250,29.24,10,23,30,,6,,,,,,,,,,,,,,,,,,,,,,,,,,,,,,,,,,,,,MET10601/22/20 03:52:02 METAR KATL 220852Z 03005KT 10SM FEW250 M03/M10 A3035 RMK AO2 SLP285 T10281100 58013 (DB),FM-15,7,,,,,,,,,,,,,,,,,,,,,,,,,,,3/27/2007
72219013874,2020-01-22T04:52:00,FM-15,7,,,,,,,,,,,,,,,,,,,,,,,,,,,,,,,,,,,,,,,30.34,15,25,0,,,,66,30.37,FEW:02 250,29.23,10,22,330,,8,,,,,,,,,,,,,,,,,,,,,,,,,,,,,,,,,,,,,MET10001/22/20 04:52:02 METAR KATL 220952Z 33007KT 10SM FEW250 M04/M09 A3034 RMK AO2 SLP284 T10391094 (DB),FM-15,7,,,,,,,,,,,,,,,,,,,,,,,,,,,3/27/2007
72219013874,2020-01-22T05:52:00,FM-15,7,,,,,,,,,,,,,,,,,,,,,,,,,,,,,,,,,,,,,,,30.35,15,26,0,,,,63,30.38,FEW:02 250,29.24,10,23,350,,3,,,,,,,,,,,,,,,,,,,,,,,,,,,,,,,,,,,,,MET10001/22/20 05:52:02 METAR KATL 221052Z 35003KT 10SM FEW250 M03/M09 A3035 RMK AO2 SLP288 T10331094 (DB),FM-15,7,,,,,,,,,,,,,,,,,,,,,,,,,,,3/27/2007
72219013874,2020-01-22T06:52:00,FM-15,7,,,,,,,,,,,,,,,,,,,,,,,,,,,,,,,,,,,,,,,30.35,15,27,0,,-0.01,3,61,30.38,FEW:02 250,29.24,10,23,40,,7,,,,,,,,,,,,,,,,,,,,,,,,,,,,,,,,,,,,,MET11801/22/20 06:52:02 METAR KATL 221152Z 04006KT 10SM FEW250 M03/M09 A3035 RMK AO2 SLP289 T10281094 11022 21044 53002 (DB),FM-15,7,,,,,,,,,,,,,,,,,,,,,,,,,,,3/27/2007
72219013874,2020-01-22T07:00:00,FM-12,4,,,,,,,,,,,,,,,,,,,,,,,,,,,,,,,,,,,,,,,,15,27,,,-0.01,3,61,30.38,,29.23,9.94,23,40,,7,,,,,,,,,,,,,,,,,,,,,,,,,,,,,,,,,,,,,SYN08072219 32966 20406 11028 21094 39900 40289 53002 91152 333 10050 21044 555 92212=,FM-12,4,,,,,,,,,,,,,,,,,,,,,,,,,,,3/27/2007
72219013874,2020-01-22T07:52:00,FM-15,7,,,,,,,,,,,,,,,,,,,,,,,,,,,,,,,,,,,,,,,30.37,14,30,0,,,,51,30.4,FEW:02 250,29.26,10,25,50,,8,,,,,,,,,,,,,,,,,,,,,,,,,,,,,,,,,,,,,MET10001/22/20 07:52:02 METAR KATL 221252Z 05007KT 10SM FEW250 M01/M10 A3037 RMK AO2 SLP294 T10111100 (DB),FM-15,7,,,,,,,,,,,,,,,,,,,,,,,,,,,3/27/2007
72219013874,2020-01-22T08:52:00,FM-15,7,,,,,,,,,,,,,,,,,,,,,,,,,,,,,,,,,,,,,,,30.36,14,31,0,,,,49,30.39,FEW:02 200 BKN:07 250,29.25,10,26,70,,11,,,,,,,,,,,,,,,,,,,,,,,,,,,,,,,,,,,,,MET10701/22/20 08:52:02 METAR KATL 221352Z 07010KT 10SM FEW200 BKN250 M01/M10 A3036 RMK AO2 SLP291 T10061100 (DB),FM-15,7,,,,,,,,,,,,,,,,,,,,,,,,,,,3/27/2007
72219013874,2020-01-22T09:52:00,FM-15,7,,,,,,,,,,,,,,,,,,,,,,,,,,,,,,,,,,,,,,,30.38,15,35,0,,-0.02,1,44,30.41,BKN:07 250,29.27,10,28,80,,10,,,,,,,,,,,,,,,,,,,,,,,,,,,,,,,,,,,,,MET10601/22/20 09:52:02 METAR KATL 221452Z 08009KT 10SM BKN250 02/M09 A3038 RMK AO2 SLP297 T00171094 51008 (JRN),FM-15,7,,,,,,,,,,,,,,,,,,,,,,,,,,,3/27/2007
72219013874,2020-01-22T10:52:00,FM-15,7,,,,,,,,,,,,,,,,,,,,,,,,,,,,,,,,,,,,,,,30.37,13,38,0,,,,36,30.4,BKN:07 250,29.26,10,30,70,,16,,,,,,,,,,,,,,,,,,,,,,,,,,,,,,,,,,,,,MET10001/22/20 10:52:02 METAR KATL 221552Z 07014KT 10SM BKN250 03/M11 A3037 RMK AO2 SLP294 T00331106 (JRN),FM-15,7,,,,,,,,,,,,,,,,,,,,,,,,,,,3/27/2007
72219013874,2020-01-22T11:52:00,FM-15,7,,,,,,,,,,,,,,,,,,,,,,,,,,,,,,,,,,,,,,,30.34,13,41,0,,,,32,30.37,BKN:07 250,29.23,10,32,70,20,15,,,,,,,,,,,,,,,,,,,,,,,,,,,,,,,,,,,,,MET10301/22/20 11:52:02 METAR KATL 221652Z 07013G17KT 10SM BKN250 05/M11 A3034 RMK AO2 SLP284 T00501106 (JRN),FM-15,7,,,,,,,,,,,,,,,,,,,,,,,,,,,3/27/2007
72219013874,2020-01-22T12:52:00,FM-15,7,,,,,,,,,,,,,,,,,,,,,,,,,,,,,,,,,,,,,,,30.33,13,44,0,,0.05,8,28,30.35,BKN:07 250,29.22,10,33,70,,10,,,,,,,,,,,,,,,,,,,,,,,,,,,,,,,,,,,,,MET11801/22/20 12:52:02 METAR KATL 221752Z 07009KT 10SM BKN250 07/M11 A3033 RMK AO2 SLP277 T00671106 10067 21028 58016 (JRN),FM-15,7,,,,,,,,,,,,,,,,,,,,,,,,,,,3/27/2007
72219013874,2020-01-22T13:00:00,FM-12,4,,,,,,,,,,,,,,,,,,,,,,,,,,,,,,,,,,,,,,,,13,44,,,0.05,8,28,30.35,,29.22,9.94,33,70,,10,,,,,,,,,,,,,,,,,,,,,,,,,,,,,,,,,,,,,SYN08072219 32966 60709 10067 21106 39894 40277 58016 91752 333 10067 21028 555 92218=,FM-12,4,,,,,,,,,,,,,,,,,,,,,,,,,,,3/27/2007
72219013874,2020-01-22T13:52:00,FM-15,7,,,,,,,,,,,,,,,,,,,,,,,,,,,,,,,,,,,,,,,30.31,12,47,0,,,,24,30.33,BKN:07 250,29.21,10,35,100,,8,,,,,,,,,,,,,,,,,,,,,,,,,,,,,,,,,,,,,MET10001/22/20 13:52:02 METAR KATL 221852Z 10007KT 10SM BKN250 08/M11 A3031 RMK AO2 SLP271 T00831111 (JRN),FM-15,7,,,,,,,,,,,,,,,,,,,,,,,,,,,3/27/2007
72219013874,2020-01-22T14:52:00,FM-15,7,,,,,,,,,,,,,,,,,,,,,,,,,,,,,,,,,,,,,,,30.28,13,48,0,,,,24,30.3,SCT:04 250,29.18,10,36,60,,7,,,,,,,,,,,,,,,,,,,,,,,,,,,,,,,,,,,,,MET10001/22/20 14:52:02 METAR KATL 221952Z 06006KT 10SM SCT250 09/M11 A3028 RMK AO2 SLP262 T00891106 (JRN),FM-15,7,,,,,,,,,,,,,,,,,,,,,,,,,,,3/27/2007
72219013874,2020-01-22T15:52:00,FM-15,7,,,,,,,,,,,,,,,,,,,,,,,,,,,,,,,,,,,,,,,30.27,12,49,0,,0.06,8,22,30.29,BKN:07 250,29.16,10,36,60,,10,,,,,,,,,,,,,,,,,,,,,,,,,,,,,,,,,,,,,MET10601/22/20 15:52:02 METAR KATL 222052Z 06009KT 10SM BKN250 09/M11 A3027 RMK AO2 SLP257 T00941111 58019 (JRN),FM-15,7,,,,,,,,,,,,,,,,,,,,,,,,,,,3/27/2007
72219013874,2020-01-22T16:52:00,FM-15,7,,,,,,,,,,,,,,,,,,,,,,,,,,,,,,,,,,,,,,,30.26,13,49,0,,,,23,30.29,BKN:07 250,29.15,10,36,60,,8,,,,,,,,,,,,,,,,,,,,,,,,,,,,,,,,,,,,,MET10001/22/20 16:52:02 METAR KATL 222152Z 06007KT 10SM BKN250 09/M11 A3026 RMK AO2 SLP256 T00941106 (JRN),FM-15,7,,,,,,,,,,,,,,,,,,,,,,,,,,,3/27/2007
72219013874,2020-01-22T17:52:00,FM-15,7,,,,,,,,,,,,,,,,,,,,,,,,,,,,,,,,,,,,,,,30.26,15,46,0,,,,29,30.28,FEW:02 200 BKN:07 250,29.15,10,35,90,,7,,,,,,,,,,,,,,,,,,,,,,,,,,,,,,,,,,,,,MET10601/22/20 17:52:02 METAR KATL 222252Z 09006KT 10SM FEW200 BKN250 08/M09 A3026 RMK AO2 SLP254 T00781094 (RF),FM-15,7,,,,,,,,,,,,,,,,,,,,,,,,,,,3/27/2007
72219013874,2020-01-22T18:52:00,FM-15,7,,,,,,,,,,,,,,,,,,,,,,,,,,,,,,,,,,,,,,,30.28,15,43,0,,-0.01,3,32,30.3,SCT:04 200 BKN:07 250,29.18,10,33,90,,9,,,,,,,,,,,,,,,,,,,,,,,,,,,,,,,,,,,,,MET12401/22/20 18:52:02 METAR KATL 222352Z 09008KT 10SM SCT200 BKN250 06/M09 A3028 RMK AO2 SLP262 T00611094 10100 20061 53003 (RF),FM-15,7,,,,,,,,,,,,,,,,,,,,,,,,,,,3/27/2007
72219013874,2020-01-22T19:00:00,FM-12,4,,,,,,,,,,,,,,,,,,,,,,,,,,,,,,,,,,,,,,,,15,43,,,-0.01,3,32,30.3,,29.17,9.94,33,90,,9,,,,,,,,,,,,,,,,,,,,,,,,,,,,,,,,,,,,,SYN08072219 32966 60908 10061 21094 39877 40262 53003 92352 333 10100 21043 555 92300=,FM-12,4,,,,,,,,,,,,,,,,,,,,,,,,,,,3/27/2007
72219013874,2020-01-22T19:52:00,FM-15,7,,,,,,,,,,,,,,,,,,,,,,,,,,,,,,,,,,,,,,,30.29,15,42,0,,,,33,30.31,FEW:02 200 BKN:07 250,29.18,10,33,100,,8,,,,,,,,,,,,,,,,,,,,,,,,,,,,,,,,,,,,,MET10101/22/20 19:52:01 METAR KATL 230052Z 10007KT 10SM FEW200 BKN250 06/M09 A3029 RMK AO2 SLP265 T00561094,FM-15,7,,,,,,,,,,,,,,,,,,,,,,,,,,,3/27/2007
72219013874,2020-01-22T20:52:00,FM-15,7,,,,,,,,,,,,,,,,,,,,,,,,,,,,,,,,,,,,,,,30.3,16,40,0,,,,38,30.32,FEW:02 200 BKN:07 250,29.19,10,32,80,,9,,,,,,,,,,,,,,,,,,,,,,,,,,,,,,,,,,,,,MET10101/22/20 20:52:01 METAR KATL 230152Z 08008KT 10SM FEW200 BKN250 04/M09 A3030 RMK AO2 SLP267 T00441089,FM-15,7,,,,,,,,,,,,,,,,,,,,,,,,,,,3/27/2007
72219013874,2020-01-22T21:52:00,FM-15,7,,,,,,,,,,,,,,,,,,,,,,,,,,,,,,,,,,,,,,,30.29,16,41,0,,-0.01,0,36,30.31,SCT:04 180 BKN:07 250,29.18,10,32,90,,11,,,,,,,,,,,,,,,,,,,,,,,,,,,,,,,,,,,,,MET10701/22/20 21:52:01 METAR KATL 230252Z 09010KT 10SM SCT180 BKN250 05/M09 A3029 RMK AO2 SLP265 T00501089 50005,FM-15,7,,,,,,,,,,,,,,,,,,,,,,,,,,,3/27/2007
72219013874,2020-01-22T22:52:00,FM-15,7,,,,,,,,,,,,,,,,,,,,,,,,,,,,,,,,,,,,,,,30.3,15,42,0,,,,33,30.32,FEW:02 50 BKN:07 150 OVC:08 200,29.19,10,33,100,,10,,,,,,,,,,,,,,,,,,,,,,,,,,,,,,,,,,,,,MET10801/22/20 22:52:01 METAR KATL 230352Z 10009KT 10SM FEW050 BKN150 OVC200 06/M09 A3030 RMK AO2 SLP266 T00561094,FM-15,7,,,,,,,,,,,,,,,,,,,,,,,,,,,3/27/2007
72219013874,2020-01-22T23:52:00,FM-15,7,,,,,,,,,,,,,,,,,,,,,,,,,,,,,,,,,,,,,,,30.29,15,42,0,,,,33,30.31,BKN:07 40 OVC:08 150,29.18,10,33,100,,9,,,,,,,,,,,,,,,,,,,,,,,,,,,,,,,,,,,,,MET11101/22/20 23:52:01 METAR KATL 230452Z 10008KT 10SM BKN040 OVC150 06/M09 A3029 RMK AO2 SLP264 T00561094 401001044,FM-15,7,,,,,,,,,,,,,,,,,,,,,,,,,,,3/27/2007
72219013874,2020-01-22T23:59:00,SOD  ,6,,,,,,,,,,,,,,,,,14,37,40,30.35,29.23,30,8.4,0,-6.5,28,50,24,70,23,0,0,0,80,18,,,,,,,,,,,,,,,,,,,,,,,,,,,,,,,,,,,,,,,,,,,,,,,,,,,,,,,,SOD73924 HR PRECIPITATION (IN): 0.00 SNOW DEPTH (IN):0     24 HR SNOWFALL (IN):0.0  24 HR MAX TEMP (F): 5024 HR MIN TEMP (F): 24AVERAGE STATION PRESSURE:29.225 MINIMUM SEA LEVEL PRESSURE:30.28 TIME OF OCCURRENCE:1831 PEAK WIND SPEED (MPH): 23 PEAK WIND DIR (DEG): 70 PEAK WIND TIME (LST):      FASTEST 2MIN SPEED (MPH): 18FASTEST 2MIN DIR (DEG): 80 FASTEST 2MIN TIME (LST):     AVERAGE WIND SPEED (MPH): 8.4 24 HR AVG TEMP (F): 37DEPART FROM NORMAL: -7  HEATING DEGREE DAYS: 28 COOLING DEGREE DAYS:  0 LATEST DAY MAX TEMP (0700-1900 LST):50  LATEST NIGHT MIN TEMP(1900-0800 LST):24 HOURLY INCREMENTAL PRECIPITATION VALUES (IN):.00 0.00 0.00 0.00 0.00 0.00 0.00 0.00 0.00 0.00 0.00 0.00 0.00 0.00 0.00 0.00 0.00 0.00 0.00 0.00 0.00 0.00 0.00 0.00,SOD  ,6,,,,,,,,,,,,,,,,,,,,,,,,,740,1759,3/27/2007
72219013874,2020-01-23T00:52:00,FM-15,7,,,,,,,,,,,,,,,,,,,,,,,,,,,,,,,,,,,,,,,30.28,16,41,0,,0.01,8,36,30.29,FEW:02 40 SCT:04 150 OVC:08 250,29.18,10,32,100,,9,,,,,,,,,,,,,,,,,,,,,,,,,,,,,,,,,,,,,MET13101/23/20 00:52:02 METAR KATL 230552Z 10008KT 10SM FEW040 SCT150 OVC250 05/M09 A3028 RMK AO2 SLP257 T00501089 10072 20044 58005 (RF),FM-15,7,,,,,,,,,,,,,,,,,,,,,,,,,,,3/27/2007
72219013874,2020-01-23T01:00:00,FM-12,4,,,,,,,,,,,,,,,,,,,,,,,,,,,,,,,,,,,,,,,,16,41,,,0.01,8,36,30.29,41,29.17,9.94,32,100,,9,,,,,,,,,,,,,,,,,,,,,,,,,,,,,,,,,,,,,SYN08072219 32666 81008 10050 21089 39877 40257 58005 90552 333 10072 21043 555 92306=,FM-12,4,,,,,,,,,,,,,,,,,,,,,,,,,,,3/27/2007
72219013874,2020-01-23T01:52:00,FM-15,7,,,,,,,,,,,,,,,,,,,,,,,,,,,,,,,,,,,,,,,30.26,16,41,0,,,,36,30.27,FEW:02 40 SCT:04 150 OVC:08 200,29.15,10,32,90,,14,,,,,,,,,,,,,,,,,,,,,,,,,,,,,,,,,,,,,MET11401/23/20 01:52:02 METAR KATL 230652Z 09012KT 10SM FEW040 SCT150 OVC200 05/M09 A3026 RMK AO2 SLP251 T00501089 (KAF),FM-15,7,,,,,,,,,,,,,,,,,,,,,,,,,,,3/27/2007
72219013874,2020-01-23T02:52:00,FM-15,7,,,,,,,,,,,,,,,,,,,,,,,,,,,,,,,,,,,,,,,30.25,17,40,0,,,,40,30.26,FEW:02 38 SCT:04 140 BKN:07 180,29.15,10,32,90,,10,,,,,,,,,,,,,,,,,,,,,,,,,,,,,,,,,,,,,MET11401/23/20 02:52:02 METAR KATL 230752Z 09009KT 10SM FEW038 SCT140 BKN180 04/M08 A3025 RMK AO2 SLP247 T00441083 (KAF),FM-15,7,,,,,,,,,,,,,,,,,,,,,,,,,,,3/27/2007
72219013874,2020-01-23T03:52:00,FM-15,7,,,,,,,,,,,,,,,,,,,,,,,,,,,,,,,,,,,,,,,30.23,17,40,0,,0.04,6,40,30.24,FEW:02 40 BKN:07 150 OVC:08 200,29.13,10,32,80,,11,,,,,,,,,,,,,,,,,,,,,,,,,,,,,,,,,,,,,MET12001/23/20 03:52:02 METAR KATL 230852Z 08010KT 10SM FEW040 BKN150 OVC200 04/M08 A3023 RMK AO2 SLP242 T00441083 56014 (KAF),FM-15,7,,,,,,,,,,,,,,,,,,,,,,,,,,,3/27/2007
72219013874,2020-01-23T04:52:00,FM-15,7,,,,,,,,,,,,,,,,,,,,,,,,,,,,,,,,,,,,,,,30.24,17,40,0,,,,40,30.25,SCT:04 46 BKN:07 150 OVC:08 200,29.14,10,32,80,,13,,,,,,,,,,,,,,,,,,,,,,,,,,,,,,,,,,,,,MET12901/23/20 04:52:02 METAR KATL 230952Z 08011KT 10SM SCT046 BKN150 OVC200 04/M08 A3024 RMK AO2 SLP244 VIRGA SE-SW-NW T00441083 (KAF),FM-15,7,,,,,,,,,,,,,,,,,,,,,,,,,,,3/27/2007
72219013874,2020-01-23T05:52:00,FM-15,7,,,,,,,,,,,,,,,,,,,,,,,,,,,,,,,,,,,,,,,30.24,17,40,0,,,,40,30.25,FEW:02 42 OVC:08 100,29.14,10,32,80,,14,,,,,,,,,,,,,,,,,,,,,,,,,,,,,,,,,,,,,MET12301/23/20 05:52:02 METAR KATL 231052Z 08012KT 10SM FEW042 OVC100 04/M08 A3024 RMK AO2 SLP245 VIRGA OHD-ALQDS T00441083 (KAF),FM-15,7,,,,,,,,,,,,,,,,,,,,,,,,,,,3/27/2007
72219013874,2020-01-23T06:52:00,FM-15,7,,,,,,,,,,,,,,,,,,,,,,,,,,,,,,,,,,,,,,,30.26,18,40,0,,-0.03,3,41,30.28,BKN:07 44 OVC:08 110,29.15,10,32,80,,11,,,,,,,,,,,,,,,,,,,,,,,,,,,,,,,,,,,,,MET14101/23/20 06:52:02 METAR KATL 231152Z 08010KT 10SM BKN044 OVC110 04/M08 A3026 RMK AO2 SLP253 VIRGA OHD-ALQDS T00441078 10050 20039 53009 (KAF),FM-15,7,,,,,,,,,,,,,,,,,,,,,,,,,,,3/27/2007
72219013874,2020-01-23T07:00:00,FM-12,4,,,,,,,,,,,,,,,,,,,,,,,,,,,,,,,,,,,,,,,,18,40,,,-0.03,3,41,30.28,41,29.15,9.94,32,80,,11,,,,,,,,,,,,,,,,,,,,,,,,,,,,,,,,,,,,,SYN08072219 32666 80810 10044 21078 39871 40253 53009 91152 333 10100 20039 555 92312=,FM-12,4,,,,,,,,,,,,,,,,,,,,,,,,,,,3/27/2007
72219013874,2020-01-23T07:52:00,FM-15,7,,,,,,,,,,,,,,,,,,,,,,,,,,,,,,,,,,,,,,,30.25,21,39,T,,,,48,30.27,SCT:04 44 BKN:07 65 BKN:07 110,29.15,10,32,70,,20,,,,,,,,,,,,,,,,,,,,,,,,,,,,,,,,,,,,,MET12901/23/20 07:52:02 METAR KATL 231252Z 07017KT 10SM SCT044 BKN065 BKN110 04/M06 A3025 RMK AO2 RAB41E52 SLP249 P0000 T00391061 (KAF),FM-15,7,,,,,,,,,,,,,,,,,,,,,,,,,,,3/27/2007
72219013874,2020-01-23T08:52:00,FM-15,7,,,,,,,,,,,,,,,,,,,,,,,,,,,,,,,,,,,,,,,30.25,22,39,0,,,,50,30.26,BKN:07 48 BKN:07 65 OVC:08 110,29.15,10,33,90,,11,,,,,,,,,,,,,,,,,,,,,,,,,,,,,,,,,,,,,MET11401/23/20 08:52:02 METAR KATL 231352Z 09010KT 10SM BKN048 BKN065 OVC110 04/M06 A3025 RMK AO2 SLP248 T00391056 (KAF),FM-15,7,,,,,,,,,,,,,,,,,,,,,,,,,,,3/27/2007
72219013874,2020-01-23T09:52:00,FM-15,7,,,,,,,,,,,,,,,,,,,,,,,,,,,,,,,,,,,,,,,30.27,26,39,0.02,-RA:02 |RA |RA,-0.01,3,60,30.29,FEW:02 47 OVC:08 65,29.16,7,34,100,,8,,,,,,,,,,,,,,,,,,,,,,,,,,,,,,,,,,,,,MET13401/23/20 09:52:02 METAR KATL 231452Z 10007KT 7SM -RA FEW047 OVC065 04/M03 A3027 RMK AO2 RAB08 SLP256 P0002 60002 T00391033 53002 (JRN),FM-15,7,,,,,,,,,,,,,,,,,,,,,,,,,,,3/27/2007
72219013874,2020-01-23T10:52:00,FM-15,7,,,,,,,,,,,,,,,,,,,,,,,,,,,,,,,,,,,,,,,30.26,29,41,0.02,,,,62,30.28,FEW:02 24 BKN:07 49 BKN:07 60,29.15,10,36,90,,10,,,,,,,,,,,,,,,,,,,,,,,,,,,,,,,,,,,,,MET12601/23/20 10:52:02 METAR KATL 231552Z 09009KT 10SM FEW024 BKN049 BKN060 05/M02 A3026 RMK AO2 RAE22 SLP253 P0002 T00501017 (JRN),FM-15,7,,,,,,,,,,,,,,,,,,,,,,,,,,,3/27/2007
72219013874,2020-01-23T11:52:00,FM-15,7,,,,,,,,,,,,,,,,,,,,,,,,,,,,,,,,,,,,,,,30.22,30,44,T,,,,58,30.24,SCT:04 55 OVC:08 75,29.12,10,38,90,,17,,,,,,,,,,,,,,,,,,,,,,,,,,,,,,,,,,,,,MET12201/23/20 11:52:02 METAR KATL 231652Z 09015KT 10SM SCT055 OVC075 07/M01 A3022 RMK AO2 RAB22E50 SLP239 P0000 T00671011 (JRN),FM-15,7,,,,,,,,,,,,,,,,,,,,,,,,,,,3/27/2007
72219013874,2020-01-23T12:52:00,FM-15,7,,,,,,,,,,,,,,,,,,,,,,,,,,,,,,,,,,,,,,,30.2,32,47,T,,0.07,8,56,30.21,BKN:07 45 BKN:07 60 OVC:08 250,29.1,10,41,130,,9,,,,,,,,,,,,,,,,,,,,,,,,,,,,,,,,,,,,,MET15201/23/20 12:52:02 METAR KATL 231752Z 13008KT 10SM BKN045 BKN060 OVC250 08/00 A3020 RMK AO2 RAB08E43 SLP230 P0000 60004 T00830000 10083 20033 58024 (JRN),FM-15,7,,,,,,,,,,,,,,,,,,,,,,,,,,,3/27/2007
72219013874,2020-01-23T13:00:00,FM-12,4,,,,,,,,,,,,,,,,,,,,,,,,,,,,,,,,,,,,,,,,32,47,,,0.07,8,56,30.21,41,29.09,9.94,40,130,,9,,,,,,,,,,,,,,,,,,,,,,,,,,,,,,,,,,,,,SYN08672219 12666 81308 10083 20000 39851 40230 58024 60011 91752 333 10083 20033 555 92318=,FM-12,4,,,,,,,,,,,,,,,,,,,,,,,,,,,3/27/2007
72219013874,2020-01-23T13:52:00,FM-15,7,,,,,,,,,,,,,,,,,,,,,,,,,,,,,,,,,,,,,,,30.15,33,47,T,-RA:02 |RA |RA,,,59,30.16,FEW:02 29 BKN:07 42 OVC:08 200,29.05,10,41,110,21,13,,,,,,,,,,,,,,,,,,,,,,,,,,,,,,,,,,,,,MET13201/23/20 13:52:02 METAR KATL 231852Z 11011G18KT 10SM -RA FEW029 BKN042 OVC200 08/01 A3015 RMK AO2 RAB19 SLP214 P0000 T00830006 (JRN),FM-15,7,,,,,,,,,,,,,,,,,,,,,,,,,,,3/27/2007
72219013874,2020-01-23T14:52:00,FM-15,7,,,,,,,,,,,,,,,,,,,,,,,,,,,,,,,,,,,,,,,30.11,33,47,T,,,,59,30.13,FEW:02 48 BKN:07 60 OVC:08 75,29.01,10,41,110,,14,,,,,,,,,,,,,,,,,,,,,,,,,,,,,,,,,,,,,MET12501/23/20 14:52:02 METAR KATL 231952Z 11012KT 10SM FEW048 BKN060 OVC075 08/01 A3011 RMK AO2 RAE46 SLP202 P0000 T00830006 (JRN),FM-15,7,,,,,,,,,,,,,,,,,,,,,,,,,,,3/27/2007
72219013874,2020-01-23T15:52:00,FM-15,7,,,,,,,,,,,,,,,,,,,,,,,,,,,,,,,,,,,,,,,30.11,32,48,T,,0.08,6,54,30.13,FEW:02 20 SCT:04 55 OVC:08 80,29.01,10,41,100,,11,,,,,,,,,,,,,,,,,,,,,,,,,,,,,,,,,,,,,MET14001/23/20 15:52:02 METAR KATL 232052Z 10010KT 10SM FEW020 SCT055 OVC080 09/00 A3011 RMK AO2 RAB02E16 SLP202 P0000 60000 T00890000 56027 (JRN),FM-15,7,,,,,,,,,,,,,,,,,,,,,,,,,,,3/27/2007
72219013874,2020-01-23T16:20:00,FM-16,7,,,,,,,,,,,,,,,,,,,,,,,,,,,,,,,,,,,,,,,30.11,32,48,,,,,54,,OVC:08 21,29.01,10,41,100,,8,,,,,,,,,,,,,,,,,,,,,,,,,,,,,,,,,,,,,MET09201/23/20 16:20:02 SPECI KATL 232120Z 10007KT 10SM OVC021 09/00 A3011 RMK AO2 T00890000 (JRN),FM-16,7,,,,,,,,,,,,,,,,,,,,,,,,,,,3/27/2007
72219013874,2020-01-23T16:38:00,FM-16,7,,,,,,,,,,,,,,,,,,,,,,,,,,,,,,,,,,,,,,,30.11,33,47,T,-RA:02 |RA |RA,,,59,,SCT:04 19 BKN:07 46 OVC:08 70,29.01,10,41,100,,11,,,,,,,,,,,,,,,,,,,,,,,,,,,,,,,,,,,,,MET12201/23/20 16:38:02 SPECI KATL 232138Z 10010KT 10SM -RA SCT019 BKN046 OVC070 08/01 A3011 RMK AO2 RAB30 P0000 T00830006 (JRN),FM-16,7,,,,,,,,,,,,,,,,,,,,,,,,,,,3/27/2007
72219013874,2020-01-23T16:52:00,FM-15,7,,,,,,,,,,,,,,,,,,,,,,,,,,,,,,,,,,,,,,,30.1,33,48,T,,,,56,30.12,FEW:02 19 SCT:04 46 OVC:08 80,29,10,41,100,,9,,,,,,,,,,,,,,,,,,,,,,,,,,,,,,,,,,,,,MET12801/23/20 16:52:02 METAR KATL 232152Z 10008KT 10SM FEW019 SCT046 OVC080 09/01 A3010 RMK AO2 RAB30E45 SLP199 P0000 T00890006 (JRN),FM-15,7,,,,,,,,,,,,,,,,,,,,,,,,,,,3/27/2007
72219013874,2020-01-23T17:52:00,FM-15,7,,,,,,,,,,,,,,,,,,,,,,,,,,,,,,,,,,,,,,,30.1,33,48,0,,,,56,30.11,FEW:02 20 BKN:07 80 OVC:08 150,29,10,41,100,,10,,,,,,,,,,,,,,,,,,,,,,,,,,,,,,,,,,,,,MET11201/23/20 17:52:02 METAR KATL 232252Z 10009KT 10SM FEW020 BKN080 OVC150 09/01 A3010 RMK AO2 SLP197 T00890006 (RF),FM-15,7,,,,,,,,,,,,,,,,,,,,,,,,,,,3/27/2007
72219013874,2020-01-23T18:16:00,FM-16,7,,,,,,,,,,,,,,,,,,,,,,,,,,,,,,,,,,,,,,,30.09,33,48,,,,,56,,BKN:07 18 BKN:07 90 OVC:08 150,28.99,10,41,100,20,10,,,,,,,,,,,,,,,,,,,,,,,,,,,,,,,,,,,,,MET10801/23/20 18:16:02 SPECI KATL 232316Z 10009G17KT 10SM BKN018 BKN090 OVC150 09/01 A3009 RMK AO2 T00890006 (RF),FM-16,7,,,,,,,,,,,,,,,,,,,,,,,,,,,3/27/2007
72219013874,2020-01-23T18:52:00,FM-15,7,,,,,,,,,,,,,,,,,,,,,,,,,,,,,,,,,,,,,,,30.1,33,48,0,,0.01,6,56,30.11,BKN:07 18 BKN:07 90 OVC:08 150,29,10,41,100,,10,,,,,,,,,,,,,,,,,,,,,,,,,,,,,,,,,,,,,MET13601/23/20 18:52:02 METAR KATL 232352Z 10009KT 10SM BKN018 BKN090 OVC150 09/01 A3010 RMK AO2 SLP197 60000 T00890006 10089 20083 56004 (RF),FM-15,7,,,,,,,,,,,,,,,,,,,,,,,,,,,3/27/2007
72219013874,2020-01-23T19:00:00,FM-12,4,,,,,,,,,,,,,,,,,,,,,,,,,,,,,,,,,,,,,,,,33,48,,,0.01,6,56,30.11,15,28.99,9.94,41,100,,10,,,,,,,,,,,,,,,,,,,,,,,,,,,,,,,,,,,,,SYN08672219 12466 81009 10089 20006 39818 40197 56004 69901 92352 333 10089 20039 555 92400=,FM-12,4,,,,,,,,,,,,,,,,,,,,,,,,,,,3/27/2007
72219013874,2020-01-23T19:52:00,FM-15,7,,,,,,,,,,,,,,,,,,,,,,,,,,,,,,,,,,,,,,,30.09,32,47,0,,,,56,30.1,BKN:07 20 BKN:07 100 OVC:08 150,28.99,10,40,90,24,11,,,,,,,,,,,,,,,,,,,,,,,,,,,,,,,,,,,,,MET11001/23/20 19:52:01 METAR KATL 240052Z 09010G21KT 10SM BKN020 BKN100 OVC150 08/00 A3009 RMK AO2 SLP193 T00830000,FM-15,7,,,,,,,,,,,,,,,,,,,,,,,,,,,3/27/2007
72219013874,2020-01-23T20:52:00,FM-15,7,,,,,,,,,,,,,,,,,,,,,,,,,,,,,,,,,,,,,,,30.08,35,44,0.01,-RA:02 |RA |RA,,,71,30.1,BKN:07 17 OVC:08 100,28.98,10,40,90,,15,,,,,,,,,,,,,,,,,,,,,,,,,,,,,,,,,,,,,MET11601/23/20 20:52:01 METAR KATL 240152Z 09013KT 10SM -RA BKN017 OVC100 07/02 A3008 RMK AO2 RAB32 SLP192 P0001 T00670017,FM-15,7,,,,,,,,,,,,,,,,,,,,,,,,,,,3/27/2007
72219013874,2020-01-23T21:52:00,FM-15,7,,,,,,,,,,,,,,,,,,,,,,,,,,,,,,,,,,,,,,,30.08,36,43,T,-RA:02 |RA |RA,0.02,6,76,30.1,BKN:07 18 BKN:07 30 OVC:08 100,28.98,8,40,90,,13,,,,,,,,,,,,,,,,,,,,,,,,,,,,,,,,,,,,,MET12801/23/20 21:52:01 METAR KATL 240252Z 09011KT 8SM -RA BKN018 BKN030 OVC100 06/02 A3008 RMK AO2 SLP192 P0000 60001 T00610022 56006,FM-15,7,,,,,,,,,,,,,,,,,,,,,,,,,,,3/27/2007
72219013874,2020-01-23T22:52:00,FM-15,7,,,,,,,,,,,,,,,,,,,,,,,,,,,,,,,,,,,,,,,30.09,37,42,0.04,-RA:02 |RA |RA,,,82,30.11,BKN:07 17 OVC:08 30,28.99,5,40,100,,9,,,,,,,,,,,,,,,,,,,,,,,,,,,,,,,,,,,,,MET12001/23/20 22:52:01 METAR KATL 240352Z 10008KT 5SM -RA BKN017 OVC030 06/03 A3009 RMK AO2 RAE0254B15 SLP195 P0002 T00560028,FM-15,7,,,,,,,,,,,,,,,,,,,,,,,,,,,3/27/2007
72219013874,2020-01-23T23:52:00,FM-15,7,,,,,,,,,,,,,,,,,,,,,,,,,,,,,,,,,,,,,,,30.09,38,42,0.12,-RA:02 BR:1 |RA |RA,,,85,30.1,BKN:07 16 OVC:08 30,28.99,4,40,100,,9,,,,,,,,,,,,,,,,,,,,,,,,,,,,,,,,,,,,,MET12201/23/20 23:52:01 METAR KATL 240452Z 10008KT 4SM -RA BR BKN016 OVC030 06/03 A3009 RMK AO2 SLP194 P0013 T00560033 400890033,FM-15,7,,,,,,,,,,,,,,,,,,,,,,,,,,,3/27/2007
72219013874,2020-01-23T23:59:00,SOD  ,6,,,,,,,,,,,,,,,,,27,43,56,30.19,29.1,37,11.8,0,-0.6,22,48,38,70,24,0.21,0,0,70,20,RA BR,,,,,,,,,,,,,,,,,,,,,,,,,,,,,,,,,,,,,,,,,,,,,,,,,,,,,,,SOD78324 HR PRECIPITATION (IN): 0.21 SNOW DEPTH (IN):0     24 HR SNOWFALL (IN):0.0  WEATHER(CODE):1  24 HR MAX TEMP (F): 4824 HR MIN TEMP (F): 38AVERAGE STATION PRESSURE:29.100 MINIMUM SEA LEVEL PRESSURE:30.09 TIME OF OCCURRENCE:2237 PEAK WIND SPEED (MPH): 24 PEAK WIND DIR (DEG): 70 PEAK WIND TIME (LST):      FASTEST 2MIN SPEED (MPH): 20FASTEST 2MIN DIR (DEG): 70 FASTEST 2MIN TIME (LST):     AVERAGE WIND SPEED (MPH):11.8 24 HR AVG TEMP (F): 43DEPART FROM NORMAL: -1  SKY COVER SR-SS (TENTHS): 1HEATING DEGREE DAYS: 22 COOLING DEGREE DAYS:  0 LATEST DAY MAX TEMP (0700-1900 LST):48  LATEST NIGHT MIN TEMP(1900-0800 LST):39 HOURLY INCREMENTAL PRECIPITATION VALUES (IN):.00 0.00 0.00 0.00 0.00 0.00 0.00 T    0.00 0.02 0.02 T    T    T    T    T    T    0.00 0.00 0.00 0.01 T    0.04 0.12,SOD  ,6,,,,,,,,,,,,,,,,,,,,,,,,,740,1800,3/27/2007
72219013874,2020-01-24T00:52:00,FM-15,7,,,,,,,,,,,,,,,,,,,,,,,,,,,,,,,,,,,,,,,30.07,38,41,0.15,-RA:02 BR:1 |RA |RA,0.01,8,89,30.08,SCT:04 6 BKN:07 12 OVC:08 20,28.97,4,40,80,,15,,,,,,,,,,,,,,,,,,,,,,,,,,,,,,,,,,,,,MET14801/24/20 00:52:02 METAR KATL 240552Z 08013KT 4SM -RA BR SCT006 BKN012 OVC020 05/03 A3007 RMK AO2 SLP186 P0015 60031 T00500033 10089 20050 58004 (RF),FM-15,7,,,,,,,,,,,,,,,,,,,,,,,,,,,3/27/2007
72219013874,2020-01-24T01:00:00,FM-12,4,,,,,,,,,,,,,,,,,,,,,,,,,,,,,,,,,,,,,,,,38,41,,||RA,0.01,8,89,30.08,5,28.96,3.73,40,80,,15,,,,,,,,,,,,,,,,,,,,,,,,,,,,,,,,,,,,,SYN09872219 11256 80813 10050 20033 39808 40186 58004 60081 761// 90552 333 10089 20039 96010 555 92406=,FM-12,4,,,,,,,,,,,,,,,,,,,,,,,,,,,3/27/2007
72219013874,2020-01-24T01:43:00,FM-16,7,,,,,,,,,,,,,,,,,,,,,,,,,,,,,,,,,,,,,,,30.05,39,41,0.09,-RA:02 BR:1 |RA |RA,,,93,,BKN:07 6 BKN:07 14 OVC:08 24,28.95,4,40,90,,10,,,,,,,,,,,,,,,,,,,,,,,,,,,,,,,,,,,,,MET13001/24/20 01:43:02 SPECI KATL 240643Z 09009KT 4SM -RA BR BKN006 BKN014 OVC024 05/04 A3005 RMK AO2 CIG 004V008 P0009 T00500039 (KAF),FM-16,7,,,,,,,,,,,,,,,,,,,,,,,,,,,3/27/2007
72219013874,2020-01-24T01:52:00,FM-15,7,,,,,,,,,,,,,,,,,,,,,,,,,,,,,,,,,,,,,,,30.05,39,41,0.12,RA:02 BR:1 |RA |RA,,,93,30.06,BKN:07 6 OVC:08 14,28.95,3,40,90,,11,,,,,,,,,,,,,,,,,,,,,,,,,,,,,,,,,,,,,MET12901/24/20 01:52:02 METAR KATL 240652Z 09010KT 3SM RA BR BKN006 OVC014 05/04 A3005 RMK AO2 SLP180 CIG 004V008 P0012 T00500039 (KAF),FM-15,7,,,,,,,,,,,,,,,,,,,,,,,,,,,3/27/2007
72219013874,2020-01-24T02:52:00,FM-15,7,,,,,,,,,,,,,,,,,,,,,,,,,,,,,,,,,,,,,,,30.03,39,42,0.11,-RA:02 BR:1 |RA |RA,,,89,30.04,OVC:08 5,28.93,4,41,90,,13,,,,,,,,,,,,,,,,,,,,,,,,,,,,,,,,,,,,,MET12301/24/20 02:52:02 METAR KATL 240752Z 09011KT 4SM -RA BR OVC005 06/04 A3003 RMK AO2 SLP172 CIG 003V007 P0011 T00560039 (KAF),FM-15,7,,,,,,,,,,,,,,,,,,,,,,,,,,,3/27/2007
72219013874,2020-01-24T03:29:00,FM-16,7,,,,,,,,,,,,,,,,,,,,,,,,,,,,,,,,,,,,,,,30.01,39,42,0.03,-RA:02 BR:1 |RA |RA,,,89,,OVC:08 4,28.91,4,41,90,,10,,,,,,,,,,,,,,,,,,,,,,,,,,,,,,,,,,,,,MET11601/24/20 03:29:02 SPECI KATL 240829Z 09009KT 4SM -RA BR OVC004 06/04 A3001 RMK AO2 CIG 003V006 P0003 T00560039 (KAF),FM-16,7,,,,,,,,,,,,,,,,,,,,,,,,,,,3/27/2007
72219013874,2020-01-24T03:52:00,FM-15,7,,,,,,,,,,,,,,,,,,,,,,,,,,,,,,,,,,,,,,,30,39,42,0.03,-RA:02 BR:1 |RA |RA,0.06,8,89,30.01,BKN:07 4 OVC:08 10,28.9,3,41,100,,11,,,,,,,,,,,,,,,,,,,,,,,,,,,,,,,,,,,,,MET14201/24/20 03:52:02 METAR KATL 240852Z 10010KT 3SM -RA BR BKN004 OVC010 06/04 A3000 RMK AO2 SLP163 CIG 003V006 P0004 60027 T00560039 58021 (KAF),FM-15,7,,,,,,,,,,,,,,,,,,,,,,,,,,,3/27/2007
72219013874,2020-01-24T04:52:00,FM-15,7,,,,,,,,,,,,,,,,,,,,,,,,,,,,,,,,,,,,,,,29.98,40,42,0.02,-RA:02 BR:1 |RA |RA,,,92,29.99,OVC:08 4,28.88,3,41,110,,10,,,,,,,,,,,,,,,,,,,,,,,,,,,,,,,,,,,,,MET12301/24/20 04:52:02 METAR KATL 240952Z 11009KT 3SM -RA BR OVC004 06/04 A2998 RMK AO2 SLP156 CIG 003V006 P0002 T00560044 (KAF),FM-15,7,,,,,,,,,,,,,,,,,,,,,,,,,,,3/27/2007
72219013874,2020-01-24T05:52:00,FM-15,7,,,,,,,,,,,,,,,,,,,,,,,,,,,,,,,,,,,,,,,29.97,40,43,0.05,-RA:02 BR:1 |RA |RA,,,89,29.98,OVC:08 4,28.87,3,42,120,,10,,,,,,,,,,,,,,,,,,,,,,,,,,,,,,,,,,,,,MET12301/24/20 05:52:02 METAR KATL 241052Z 12009KT 3SM -RA BR OVC004 06/04 A2997 RMK AO2 SLP153 CIG 003V005 P0004 T00610044 (KAF),FM-15,7,,,,,,,,,,,,,,,,,,,,,,,,,,,3/27/2007
72219013874,2020-01-24T06:27:00,FM-16,7,,,,,,,,,,,,,,,,,,,,,,,,,,,,,,,,,,,,,,,29.98,41,43,0.09,RA:02 BR:1 |RA |RA,,,93,,OVC:08 3,28.88,1.5,42,0,,0,,,,,,,,,,,,,,,,,,,,,,,,,,,,,,,,,,,,,MET14701/24/20 06:27:02 SPECI KATL 241127Z 00000KT 1 1/2SM R09R/6000VP6000FT RA BR OVC003 06/05 A2998 RMK AO2 SFC VIS 2 CIG 002V005 P0009 T00610050 (KAF),FM-16,7,,,,,,,,,,,,,,,,,,,,,,,,,,,3/27/2007
72219013874,2020-01-24T06:52:00,FM-15,7,,,,,,,,,,,,,,,,,,,,,,,,,,,,,,,,,,,,,,,29.99,41,43,0.14,-RA:02 BR:1 |RA |RA,0.01,5,93,30,OVC:08 4,28.89,1.5,42,100,,3,,,,,,,,,,,,,,,,,,,,,,,,,,,,,,,,,,,,,MET16701/24/20 06:52:02 METAR KATL 241152Z 10003KT 1 1/2SM -RA BR OVC004 06/05 A2999 RMK AO2 SFC VIS 3 SLP158 CIG 003V006 P0015 60048 70083 T00610050 10061 20050 55004 (KAF),FM-15,7,,,,,,,,,,,,,,,,,,,,,,,,,,,3/27/2007
72219013874,2020-01-24T07:00:00,FM-12,4,,,,,,,,,,,,,,,,,,,,,,,,,,,,,,,,,,,,,,,,41,43,,||RA,0.01,5,93,30,5,28.89,1.49,42,100,,3,,,,,,,,,,,,,,,,,,,,,,,,,,,,,,,,,,,,,SYN10472219 11224 81003 10061 20050 39782 40158 55004 60121 761// 91152 333 10089 20050 70211 96010 555 92412=,FM-12,4,,,,,,,,,,,,,,,,,,,,,,,,,,,3/27/2007
72219013874,2020-01-24T07:09:00,FM-16,7,,,,,,,,,,,,,,,,,,,,,,,,,,,,,,,,,,,,,,,30,41,43,0.01,-RA:02 BR:1 |RA |RA,,,93,,OVC:08 5,28.9,1.5,42,0,,0,,,,,,,,,,,,,,,,,,,,,,,,,,,,,,,,,,,,,MET13001/24/20 07:09:02 SPECI KATL 241209Z 00000KT 1 1/2SM -RA BR OVC005 06/05 A3000 RMK AO2 SFC VIS 3 CIG 004V007 P0001 T00610050 (KAF),FM-16,7,,,,,,,,,,,,,,,,,,,,,,,,,,,3/27/2007
72219013874,2020-01-24T07:32:00,FM-16,7,,,,,,,,,,,,,,,,,,,,,,,,,,,,,,,,,,,,,,,30,40,43,0.02,-DZ:01 |DZ |DZ,,,89,,OVC:08 6,28.9,3,42,100,,3,,,,,,,,,,,,,,,,,,,,,,,,,,,,,,,,,,,,,MET13401/24/20 07:32:02 SPECI KATL 241232Z 10003KT 3SM -DZ OVC006 06/04 A3000 RMK AO2 SFC VIS 8 RAE32DZB32 CIG 004V008 P0002 T00610044 (KAF),FM-16,7,,,,,,,,,,,,,,,,,,,,,,,,,,,3/27/2007
72219013874,2020-01-24T07:52:00,FM-15,7,,,,,,,,,,,,,,,,,,,,,,,,,,,,,,,,,,,,,,,29.99,41,43,0.02,-DZ:01 BR:1 |DZ |DZ,,,93,30,OVC:08 6,28.89,3,42,120,,3,,,,,,,,,,,,,,,,,,,,,,,,,,,,,,,,,,,,,MET14401/24/20 07:52:02 METAR KATL 241252Z 12003KT 3SM -DZ BR OVC006 06/05 A2999 RMK AO2 SFC VIS 6 RAE32DZB32 SLP160 CIG 005V008 P0002 T00610050 (KAF),FM-15,7,,,,,,,,,,,,,,,,,,,,,,,,,,,3/27/2007
72219013874,2020-01-24T08:12:00,FM-16,7,,,,,,,,,,,,,,,,,,,,,,,,,,,,,,,,,,,,,,,29.99,41,44,T,-DZ:01 BR:1 |DZ |DZ,,,89,,OVC:08 5,28.89,1.5,43,90,,8,,,,,,,,,,,,,,,,,,,,,,,,,,,,,,,,,,,,,MET13001/24/20 08:12:02 SPECI KATL 241312Z 09007KT 1 1/2SM -DZ BR OVC005 07/05 A2999 RMK AO2 SFC VIS 6 CIG 004V007 P0000 T00670050 (KAF),FM-16,7,,,,,,,,,,,,,,,,,,,,,,,,,,,3/27/2007
72219013874,2020-01-24T08:23:00,FM-16,7,,,,,,,,,,,,,,,,,,,,,,,,,,,,,,,,,,,,,,,29.99,41,44,T,-DZ:01 BR:1 |DZ |DZ,,,89,,OVC:08 4,28.89,0.75,43,80,,8,,,,,,,,,,,,,,,,,,,,,,,,,,,,,,,,,,,,,MET14801/24/20 08:23:02 SPECI KATL 241323Z 08007KT 3/4SM R09R/P6000FT -DZ BR OVC004 07/05 A2999 RMK AO2 SFC VIS 6 CIG 003V005 TWRINC P0000 T00670050 (KAF),FM-16,7,,,,,,,,,,,,,,,,,,,,,,,,,,,3/27/2007
72219013874,2020-01-24T08:45:00,FM-16,7,,,,,,,,,,,,,,,,,,,,,,,,,,,,,,,,,,,,,,,29.99,41,44,T,BR:1 |s |,,,89,,OVC:08 3,28.89,0.25,43,80,,9,,,,,,,,,,,,,,,,,,,,,,,,,,,,,,,,,,,,,MET15001/24/20 08:45:02 SPECI KATL 241345Z 08008KT 1/4SM R09R/P6000FT BR OVC003 07/05 A2999 RMK AO2 SFC VIS 5 DZE38 CIG 002V004 TWRINC P0000 T00670050 (KAF),FM-16,7,,,,,,,,,,,,,,,,,,,,,,,,,,,3/27/2007
72219013874,2020-01-24T08:52:00,FM-15,7,,,,,,,,,,,,,,,,,,,,,,,,,,,,,,,,,,,,,,,29.99,41,44,T,BR:1 |s |,,,89,30.01,OVC:08 3,28.89,0.25,43,80,,9,,,,,,,,,,,,,,,,,,,,,,,,,,,,,,,,,,,,,MET15701/24/20 08:52:02 METAR KATL 241352Z 08008KT 1/4SM R09R/P6000FT BR OVC003 07/05 A2999 RMK AO2 SFC VIS 5 DZE38 SLP161 CIG 002V004 TWRINC P0000 T00670050 (KAF),FM-15,7,,,,,,,,,,,,,,,,,,,,,,,,,,,3/27/2007
72219013874,2020-01-24T09:52:00,FM-15,7,,,,,,,,,,,,,,,,,,,,,,,,,,,,,,,,,,,,,,,29.99,43,46,0,BR:1 |s |,-0.01,1,89,30,OVC:08 3,28.89,0.25,45,100,,5,,,,,,,,,,,,,,,,,,,,,,,,,,,,,,,,,,,,,MET15701/24/20 09:52:02 METAR KATL 241452Z 10004KT 1/4SM R09R/P6000FT BR OVC003 08/06 A2999 RMK AO2 SFC VIS 6 SLP160 CIG 002V004 TWRINC 60002 T00780061 51002 (CPS),FM-15,7,,,,,,,,,,,,,,,,,,,,,,,,,,,3/27/2007
72219013874,2020-01-24T10:31:00,FM-16,7,,,,,,,,,,,,,,,,,,,,,,,,,,,,,,,,,,,,,,,30.01,44,47,T,BR:1 ||,,,90,,OVC:08 4,28.91,2.5,46,120,,3,,,,,,,,,,,,,,,,,,,,,,,,,,,,,,,,,,,,,MET13001/24/20 10:31:02 SPECI KATL 241531Z 12003KT 2 1/2SM BR OVC004 08/07 A3001 RMK AO2 SFC VIS 6 RAB04E19 TWRINC P0000 T00830067 (CPS),FM-16,7,,,,,,,,,,,,,,,,,,,,,,,,,,,3/27/2007
72219013874,2020-01-24T10:52:00,FM-15,7,,,,,,,,,,,,,,,,,,,,,,,,,,,,,,,,,,,,,,,29.99,45,47,T,-DZ:01 BR:1 |DZ |DZ,,,93,30,OVC:08 4,28.89,2.5,46,110,,8,,,,,,,,,,,,,,,,,,,,,,,,,,,,,,,,,,,,,MET13901/24/20 10:52:02 METAR KATL 241552Z 11007KT 2 1/2SM -DZ BR OVC004 08/07 A2999 RMK AO2 SFC VIS 3 SLP160 RAB04E19DZB38 P0000 T00830072 (CPS),FM-15,7,,,,,,,,,,,,,,,,,,,,,,,,,,,3/27/2007
72219013874,2020-01-24T11:44:00,FM-16,7,,,,,,,,,,,,,,,,,,,,,,,,,,,,,,,,,,,,,,,29.98,46,48,T,-DZ:01 BR:1 |s DZ s |DZ s,,,93,,OVC:08 3,28.88,0.25,47,130,,5,,,,,,,,,,,,,,,,,,,,,,,,,,,,,,,,,,,,,MET13601/24/20 11:44:02 SPECI KATL 241644Z 13004KT 1/4SM R09R/P6000FT -DZ BR OVC003 09/08 A2998 RMK AO2 SFC VIS 3 TWRINC P0000 T00890078 (CPS),FM-16,7,,,,,,,,,,,,,,,,,,,,,,,,,,,3/27/2007
72219013874,2020-01-24T11:52:00,FM-15,7,,,,,,,,,,,,,,,,,,,,,,,,,,,,,,,,,,,,,,,29.98,46,49,T,BR:1 |s |,,,90,29.99,OVC:08 3,28.88,0.25,47,140,,6,,,,,,,,,,,,,,,,,,,,,,,,,,,,,,,,,,,,,MET14501/24/20 11:52:02 METAR KATL 241652Z 14005KT 1/4SM R09R/P6000FT BR OVC003 09/08 A2998 RMK AO2 SFC VIS 3 DZE50 SLP155 TWRINC P0000 T00940078 (CPS),FM-15,7,,,,,,,,,,,,,,,,,,,,,,,,,,,3/27/2007
72219013874,2020-01-24T12:52:00,FM-15,7,,,,,,,,,,,,,,,,,,,,,,,,,,,,,,,,,,,,,,,29.95,48,50,0.01,-DZ:01 BR:1 |s DZ s |DZ s,0.04,8,93,29.96,OVC:08 2,28.85,0.25,49,190,,6,,,,,,,,,,,,,,,,,,,,,,,,,,,,,,,,,,,,,MET18101/24/20 12:52:02 METAR KATL 241752Z 19005KT 1/4SM R09R/4500V6000FT -DZ BR OVC002 10/09 A2995 RMK AO2 SFC VIS 1 1/4 DZB47 SLP145 TWRINC P0001 60003 T01000089 10106 20061 58015 (CPS),FM-15,7,,,,,,,,,,,,,,,,,,,,,,,,,,,3/27/2007
72219013874,2020-01-24T13:00:00,FM-12,4,,,,,,,,,,,,,,,,,,,,,,,,,,,,,,,,,,,,,,,,48,50,,||DZ,0.04,8,93,29.96,2,28.85,0.25,49,190,,6,,,,,,,,,,,,,,,,,,,,,,,,,,,,,,,,,,,,,SYN09872219 11104 81905 10100 20089 39769 40145 58015 69981 751// 91752 333 10106 20061 96010 555 92418=,FM-12,4,,,,,,,,,,,,,,,,,,,,,,,,,,,3/27/2007
72219013874,2020-01-24T13:50:00,FM-16,6,,,,,,,,,,,,,,,,,,,,,,,,,,,,,,,,,,,,,,,29.94,50,52,,-DZ:01 BR:1 |DZ |DZ,,,94,,OVC:08 3,28.84,1,51,260,,5,,,,,,,,,,,,,,,,,,,,,,,,,,,,,,,,,,,,,MET12901/24/20 13:50:02 SPECI KATL 241850Z 26004KT 1SM R09R/P6000FT -DZ BR OVC003 11/10 A2994 RMK AO2 SFC VIS 3 TWRINC P0000 FIBI (CPS),FM-16,6,,,,,,,,,,,,,,,,,,,,,,,,,,,3/27/2007
72219013874,2020-01-24T13:52:00,FM-15,7,,,,,,,,,,,,,,,,,,,,,,,,,,,,,,,,,,,,,,,29.94,50,52,0.01,-DZ:01 BR:1 |DZ |DZ,,,93,29.95,OVC:08 3,28.84,1,51,250,,5,,,,,,,,,,,,,,,,,,,,,,,,,,,,,,,,,,,,,MET14101/24/20 13:52:02 METAR KATL 241852Z 25004KT 1SM R09R/P6000FT -DZ BR OVC003 11/10 A2994 RMK AO2 SFC VIS 3 SLP141 TWRINC P0000 T01110100 (CPS),FM-15,7,,,,,,,,,,,,,,,,,,,,,,,,,,,3/27/2007
72219013874,2020-01-24T14:31:00,FM-16,7,,,,,,,,,,,,,,,,,,,,,,,,,,,,,,,,,,,,,,,29.93,50,54,0.01,,,,87,,BKN:07 4 BKN:07 12 BKN:07 18,28.84,7,52,250,,8,,,,,,,,,,,,,,,,,,,,,,,,,,,,,,,,,,,,,MET11701/24/20 14:31:02 SPECI KATL 241931Z 25007KT 7SM BKN004 BKN012 BKN018 12/10 A2993 RMK AO2 DZE06 P0001 T01220100 (CPS),FM-16,7,,,,,,,,,,,,,,,,,,,,,,,,,,,3/27/2007
72219013874,2020-01-24T14:50:00,FM-16,6,,,,,,,,,,,,,,,,,,,,,,,,,,,,,,,,,,,,,,,29.93,50,55,,,,,82,,BKN:07 8 BKN:07 15 BKN:07 24,28.84,10,52,250,,6,,,,,,,,,,,,,,,,,,,,,,,,,,,,,,,,,,,,,MET11301/24/20 14:50:02 SPECI KATL 241950Z 25005KT 10SM BKN008 BKN015 BKN024 13/10 A2993 RMK AO2 DZE06 P0001 FIBI (CPS),FM-16,6,,,,,,,,,,,,,,,,,,,,,,,,,,,3/27/2007
72219013874,2020-01-24T14:52:00,FM-15,7,,,,,,,,,,,,,,,,,,,,,,,,,,,,,,,,,,,,,,,29.93,50,55,T,,,,83,29.93,BKN:07 8 BKN:07 15 BKN:07 24,28.84,10,52,240,,7,,,,,,,,,,,,,,,,,,,,,,,,,,,,,,,,,,,,,MET12501/24/20 14:52:02 METAR KATL 241952Z 24006KT 10SM BKN008 BKN015 BKN024 13/10 A2993 RMK AO2 DZE06 SLP136 P0001 T01280100 (CPS),FM-15,7,,,,,,,,,,,,,,,,,,,,,,,,,,,3/27/2007
72219013874,2020-01-24T15:48:00,FM-16,7,,,,,,,,,,,,,,,,,,,,,,,,,,,,,,,,,,,,,,,29.92,48,55,,,,,77,,SCT:04 15 SCT:04 24 BKN:07 31,28.82,10,51,220,,5,,,,,,,,,,,,,,,,,,,,,,,,,,,,,,,,,,,,,MET09601/24/20 15:48:02 SPECI KATL 242048Z 22004KT 10SM SCT015 SCT024 BKN031 13/09 A2992 RMK AO2 (CPS),FM-16,7,,,,,,,,,,,,,,,,,,,,,,,,,,,3/27/2007
72219013874,2020-01-24T15:52:00,FM-15,7,,,,,,,,,,,,,,,,,,,,,,,,,,,,,,,,,,,,,,,29.92,49,56,0,,0.03,8,77,29.92,SCT:04 15 SCT:04 24 BKN:07 31,28.82,10,52,240,,5,,,,,,,,,,,,,,,,,,,,,,,,,,,,,,,,,,,,,MET12501/24/20 15:52:02 METAR KATL 242052Z 24004KT 10SM SCT015 SCT024 BKN031 13/09 A2992 RMK AO2 SLP132 60001 T01330094 58011 (CPS),FM-15,7,,,,,,,,,,,,,,,,,,,,,,,,,,,3/27/2007
72219013874,2020-01-24T16:52:00,FM-15,7,,,,,,,,,,,,,,,,,,,,,,,,,,,,,,,,,,,,,,,29.92,43,58,0,,,,58,29.92,SCT:04 30,28.82,10,50,270,,10,,,,,,,,,,,,,,,,,,,,,,,,,,,,,,,,,,,,,MET09901/24/20 16:52:02 METAR KATL 242152Z 27009KT 10SM SCT030 14/06 A2992 RMK AO2 SLP133 T01440061 (CPS),FM-15,7,,,,,,,,,,,,,,,,,,,,,,,,,,,3/27/2007
72219013874,2020-01-24T17:52:00,FM-15,7,,,,,,,,,,,,,,,,,,,,,,,,,,,,,,,,,,,,,,,29.93,39,54,0,,,,57,29.93,FEW:02 30 FEW:02 250,28.84,10,47,270,,8,,,,,,,,,,,,,,,,,,,,,,,,,,,,,,,,,,,,,MET10501/24/20 17:52:02 METAR KATL 242252Z 27007KT 10SM FEW030 FEW250 12/04 A2993 RMK AO2 SLP137 T01220039 (RF),FM-15,7,,,,,,,,,,,,,,,,,,,,,,,,,,,3/27/2007
72219013874,2020-01-24T18:52:00,FM-15,7,,,,,,,,,,,,,,,,,,,,,,,,,,,,,,,,,,,,,,,29.95,36,51,0,,-0.04,3,56,29.96,FEW:02 30 FEW:02 250,28.85,10,44,250,,5,,,,,,,,,,,,,,,,,,,,,,,,,,,,,,,,,,,,,MET12901/24/20 18:52:02 METAR KATL 242352Z 25004KT 10SM FEW030 FEW250 11/02 A2995 RMK AO2 SLP145 60001 T01060022 10150 20100 53012 (RF),FM-15,7,,,,,,,,,,,,,,,,,,,,,,,,,,,3/27/2007
72219013874,2020-01-24T19:00:00,FM-12,4,,,,,,,,,,,,,,,,,,,,,,,,,,,,,,,,,,,,,,,,36,51,,,-0.04,3,56,29.96,26,28.85,9.94,44,250,,5,,,,,,,,,,,,,,,,,,,,,,,,,,,,,,,,,,,,,SYN08672219 12566 22504 10106 20022 39769 40145 53012 69931 92352 333 10150 20050 555 92500=,FM-12,4,,,,,,,,,,,,,,,,,,,,,,,,,,,3/27/2007
72219013874,2020-01-24T19:52:00,FM-15,7,,,,,,,,,,,,,,,,,,,,,,,,,,,,,,,,,,,,,,,29.96,36,49,0,,,,61,29.97,FEW:02 50,28.87,10,43,240,,6,,,,,,,,,,,,,,,,,,,,,,,,,,,,,,,,,,,,,MET09301/24/20 19:52:01 METAR KATL 250052Z 24005KT 10SM FEW050 09/02 A2996 RMK AO2 SLP150 T00940022,FM-15,7,,,,,,,,,,,,,,,,,,,,,,,,,,,3/27/2007
72219013874,2020-01-24T20:52:00,FM-15,7,,,,,,,,,,,,,,,,,,,,,,,,,,,,,,,,,,,,,,,29.98,35,46,0,,,,66,29.98,FEW:02 50,28.88,10,41,280,,3,,,,,,,,,,,,,,,,,,,,,,,,,,,,,,,,,,,,,MET09301/24/20 20:52:01 METAR KATL 250152Z 28003KT 10SM FEW050 08/02 A2998 RMK AO2 SLP154 T00780017,FM-15,7,,,,,,,,,,,,,,,,,,,,,,,,,,,3/27/2007
72219013874,2020-01-24T21:52:00,FM-15,7,,,,,,,,,,,,,,,,,,,,,,,,,,,,,,,,,,,,,,,29.98,36,45,0,,-0.03,1,71,29.99,FEW:02 50,28.88,10,41,230,,3,,,,,,,,,,,,,,,,,,,,,,,,,,,,,,,,,,,,,MET09901/24/20 21:52:01 METAR KATL 250252Z 23003KT 10SM FEW050 07/02 A2998 RMK AO2 SLP157 T00720022 51011,FM-15,7,,,,,,,,,,,,,,,,,,,,,,,,,,,3/27/2007
72219013874,2020-01-24T22:52:00,FM-15,7,,,,,,,,,,,,,,,,,,,,,,,,,,,,,,,,,,,,,,,29.99,35,44,0,,,,71,30,FEW:02 50,28.89,10,40,270,,6,,,,,,,,,,,,,,,,,,,,,,,,,,,,,,,,,,,,,MET09301/24/20 22:52:01 METAR KATL 250352Z 27005KT 10SM FEW050 07/02 A2999 RMK AO2 SLP158 T00670017,FM-15,7,,,,,,,,,,,,,,,,,,,,,,,,,,,3/27/2007
72219013874,2020-01-24T23:52:00,FM-15,7,,,,,,,,,,,,,,,,,,,,,,,,,,,,,,,,,,,,,,,30,35,43,0,,,,74,30.01,FEW:02 50,28.9,10,39,290,,7,,,,,,,,,,,,,,,,,,,,,,,,,,,,,,,,,,,,,MET10301/24/20 23:52:02 METAR KATL 250452Z 29006KT 10SM FEW050 06/02 A3000 RMK AO2 SLP161 T00610017 401500050,FM-15,7,,,,,,,,,,,,,,,,,,,,,,,,,,,3/27/2007
72219013874,2020-01-24T23:59:00,SOD  ,6,,,,,,,,,,,,,,,,,41,50,81,29.99,28.89,44,7.3,0,6.3,15,59,41,70,20,0.66,0,0,80,16,RA DZ BR,,,,,,,,,,,,,,,,,,,,,,,,,,,,,,,,,,,,,,,,,,,,,,,,,,,,,,,SOD75724 HR PRECIPITATION (IN): 0.66 SNOW DEPTH (IN):0     24 HR SNOWFALL (IN):0.0  WEATHER(CODE):12  24 HR MAX TEMP (F): 5924 HR MIN TEMP (F): 41AVERAGE STATION PRESSURE:28.890 MINIMUM SEA LEVEL PRESSURE:29.91 TIME OF OCCURRENCE:1609 PEAK WIND SPEED (MPH): 20 PEAK WIND DIR (DEG): 70 PEAK WIND TIME (LST):      FASTEST 2MIN SPEED (MPH): 16FASTEST 2MIN DIR (DEG): 80 FASTEST 2MIN TIME (LST):     AVERAGE WIND SPEED (MPH): 7.3 24 HR AVG TEMP (F): 50DEPART FROM NORMAL:  6  HEATING DEGREE DAYS: 15 COOLING DEGREE DAYS:  0 LATEST DAY MAX TEMP (0700-1900 LST):59  LATEST NIGHT MIN TEMP(1900-0800 LST):41 HOURLY INCREMENTAL PRECIPITATION VALUES (IN):.15 0.12 0.11 0.03 0.02 0.05 0.14 0.02 T    0.00 T    T    0.01 0.01 T    0.00 0.00 0.00 0.00 0.00 0.00 0.00 0.00 0.00,SOD  ,6,,,,,,,,,,,,,,,,,,,,,,,,,739,1801,3/27/2007
72219013874,2020-01-25T00:52:00,FM-15,7,,,,,,,,,,,,,,,,,,,,,,,,,,,,,,,,,,,,,,,30.01,36,42,0,,-0.02,3,79,30.01,FEW:02 50,28.91,10,39,270,,6,,,,,,,,,,,,,,,,,,,,,,,,,,,,,,,,,,,,,MET11601/25/20 00:52:02 METAR KATL 250552Z 27005KT 10SM FEW050 06/02 A3001 RMK AO2 SLP164 T00560022 10106 20050 53007 (RF),FM-15,7,,,,,,,,,,,,,,,,,,,,,,,,,,,3/27/2007
72219013874,2020-01-25T01:00:00,FM-12,4,,,,,,,,,,,,,,,,,,,,,,,,,,,,,,,,,,,,,,,,36,42,,,-0.02,3,79,30.01,57,28.9,9.94,39,270,,6,,,,,,,,,,,,,,,,,,,,,,,,,,,,,,,,,,,,,SYN08072219 32766 22705 10056 20022 39788 40164 53007 90552 333 10106 20050 555 92506=,FM-12,4,,,,,,,,,,,,,,,,,,,,,,,,,,,3/27/2007
72219013874,2020-01-25T01:52:00,FM-15,7,,,,,,,,,,,,,,,,,,,,,,,,,,,,,,,,,,,,,,,29.99,35,41,0,,,,79,30,FEW:02 50,28.89,10,38,270,,8,,,,,,,,,,,,,,,,,,,,,,,,,,,,,,,,,,,,,MET09801/25/20 01:52:02 METAR KATL 250652Z 27007KT 10SM FEW050 05/02 A2999 RMK AO2 SLP159 T00500017 (DB),FM-15,7,,,,,,,,,,,,,,,,,,,,,,,,,,,3/27/2007
72219013874,2020-01-25T02:52:00,FM-15,7,,,,,,,,,,,,,,,,,,,,,,,,,,,,,,,,,,,,,,,30.01,34,40,0,,,,79,30.01,SCT:04 24,28.91,10,37,270,,9,,,,,,,,,,,,,,,,,,,,,,,,,,,,,,,,,,,,,MET09801/25/20 02:52:02 METAR KATL 250752Z 27008KT 10SM SCT024 04/01 A3001 RMK AO2 SLP163 T00440011 (DB),FM-15,7,,,,,,,,,,,,,,,,,,,,,,,,,,,3/27/2007
72219013874,2020-01-25T03:52:00,FM-15,7,,,,,,,,,,,,,,,,,,,,,,,,,,,,,,,,,,,,,,,30.02,32,39,0,,-0.01,3,76,30.03,FEW:02 24,28.92,10,36,290,,13,,,,,,,,,,,,,,,,,,,,,,,,,,,,,,,,,,,,,MET10401/25/20 03:52:02 METAR KATL 250852Z 29011KT 10SM FEW024 04/00 A3002 RMK AO2 SLP168 T00390000 53005 (DB),FM-15,7,,,,,,,,,,,,,,,,,,,,,,,,,,,3/27/2007
72219013874,2020-01-25T04:52:00,FM-15,7,,,,,,,,,,,,,,,,,,,,,,,,,,,,,,,,,,,,,,,30.02,32,38,0,,,,79,30.02,SCT:04 28,28.92,10,36,280,,14,,,,,,,,,,,,,,,,,,,,,,,,,,,,,,,,,,,,,MET09801/25/20 04:52:02 METAR KATL 250952Z 28012KT 10SM SCT028 03/00 A3002 RMK AO2 SLP167 T00330000 (DB),FM-15,7,,,,,,,,,,,,,,,,,,,,,,,,,,,3/27/2007
72219013874,2020-01-25T05:52:00,FM-15,7,,,,,,,,,,,,,,,,,,,,,,,,,,,,,,,,,,,,,,,30.03,31,37,0,,,,79,30.03,SCT:04 28,28.93,10,35,290,,11,,,,,,,,,,,,,,,,,,,,,,,,,,,,,,,,,,,,,MET09901/25/20 05:52:02 METAR KATL 251052Z 29010KT 10SM SCT028 03/M01 A3003 RMK AO2 SLP171 T00281006 (DB),FM-15,7,,,,,,,,,,,,,,,,,,,,,,,,,,,3/27/2007
72219013874,2020-01-25T06:17:00,FM-16,7,,,,,,,,,,,,,,,,,,,,,,,,,,,,,,,,,,,,,,,30.03,31,37,,,,,79,,BKN:07 28,28.93,10,35,290,,11,,,,,,,,,,,,,,,,,,,,,,,,,,,,,,,,,,,,,MET09201/25/20 06:17:02 SPECI KATL 251117Z 29010KT 10SM BKN028 03/M01 A3003 RMK AO2 T00281006 (DB),FM-16,7,,,,,,,,,,,,,,,,,,,,,,,,,,,3/27/2007
72219013874,2020-01-25T06:40:00,FM-16,7,,,,,,,,,,,,,,,,,,,,,,,,,,,,,,,,,,,,,,,30.04,31,37,,,,,79,,SCT:04 26,28.94,10,35,290,,9,,,,,,,,,,,,,,,,,,,,,,,,,,,,,,,,,,,,,MET09201/25/20 06:40:02 SPECI KATL 251140Z 29008KT 10SM SCT026 03/M01 A3004 RMK AO2 T00281006 (DB),FM-16,7,,,,,,,,,,,,,,,,,,,,,,,,,,,3/27/2007
72219013874,2020-01-25T06:52:00,FM-15,7,,,,,,,,,,,,,,,,,,,,,,,,,,,,,,,,,,,,,,,30.05,31,37,0,,-0.02,3,79,30.06,SCT:04 26,28.95,10,35,290,,9,,,,,,,,,,,,,,,,,,,,,,,,,,,,,,,,,,,,,MET13601/25/20 06:52:02 METAR KATL 251152Z 29008KT 10SM SCT026 03/M01 A3005 RMK AO2 SLP179 SCT026 V BKN 70004 T00281006 10056 20028 53008 (DB),FM-15,7,,,,,,,,,,,,,,,,,,,,,,,,,,,3/27/2007
72219013874,2020-01-25T07:00:00,FM-12,4,,,,,,,,,,,,,,,,,,,,,,,,,,,,,,,,,,,,,,,,31,37,,,-0.02,3,79,30.06,26,28.95,9.94,35,290,,9,,,,,,,,,,,,,,,,,,,,,,,,,,,,,,,,,,,,,SYN08672219 32566 42908 10028 21006 39802 40179 53008 91152 333 10150 20028 70010 555 92512=,FM-12,4,,,,,,,,,,,,,,,,,,,,,,,,,,,3/27/2007
72219013874,2020-01-25T07:00:00,FM-16,7,,,,,,,,,,,,,,,,,,,,,,,,,,,,,,,,,,,,,,,30.05,31,37,,,,,79,,BKN:07 28,28.95,10,35,280,,9,,,,,,,,,,,,,,,,,,,,,,,,,,,,,,,,,,,,,MET10501/25/20 07:00:02 SPECI KATL 251200Z 28008KT 10SM BKN028 03/M01 A3005 RMK AO2 BKN028 V SCT T00281006 (DB),FM-16,7,,,,,,,,,,,,,,,,,,,,,,,,,,,3/27/2007
72219013874,2020-01-25T07:52:00,FM-15,7,,,,,,,,,,,,,,,,,,,,,,,,,,,,,,,,,,,,,,,30.06,32,38,0,,,,79,30.07,FEW:02 12 SCT:04 22 BKN:07 29,28.96,10,36,280,,9,,,,,,,,,,,,,,,,,,,,,,,,,,,,,,,,,,,,,MET12501/25/20 07:52:02 METAR KATL 251252Z 28008KT 10SM FEW012 SCT022 BKN029 03/00 A3006 RMK AO2 SLP183 BKN029 V SCT T00330000 (DB),FM-15,7,,,,,,,,,,,,,,,,,,,,,,,,,,,3/27/2007
72219013874,2020-01-25T08:01:00,FM-16,7,,,,,,,,,,,,,,,,,,,,,,,,,,,,,,,,,,,,,,,30.06,32,37,,,,,82,,FEW:02 12 FEW:02 22 SCT:04 29,28.96,10,35,280,,9,,,,,,,,,,,,,,,,,,,,,,,,,,,,,,,,,,,,,MET10501/25/20 08:01:02 SPECI KATL 251301Z 28008KT 10SM FEW012 FEW022 SCT029 03/00 A3006 RMK AO2 T00280000 (DB),FM-16,7,,,,,,,,,,,,,,,,,,,,,,,,,,,3/27/2007
72219013874,2020-01-25T08:52:00,FM-15,7,,,,,,,,,,,,,,,,,,,,,,,,,,,,,,,,,,,,,,,30.09,33,39,0,,,,79,30.1,FEW:02 12 FEW:02 22 SCT:04 29,28.99,10,36,280,,10,,,,,,,,,,,,,,,,,,,,,,,,,,,,,,,,,,,,,MET11201/25/20 08:52:02 METAR KATL 251352Z 28009KT 10SM FEW012 FEW022 SCT029 04/01 A3009 RMK AO2 SLP193 T00390006 (DB),FM-15,7,,,,,,,,,,,,,,,,,,,,,,,,,,,3/27/2007
72219013874,2020-01-25T08:57:00,FM-16,7,,,,,,,,,,,,,,,,,,,,,,,,,,,,,,,,,,,,,,,30.09,32,39,,,,,76,,FEW:02 22 BKN:07 29,28.99,10,36,290,,13,,,,,,,,,,,,,,,,,,,,,,,,,,,,,,,,,,,,,MET11101/25/20 08:57:02 SPECI KATL 251357Z 29011KT 10SM FEW022 BKN029 04/00 A3009 RMK AO2 BKN029 V SCT T00390000 (DB),FM-16,7,,,,,,,,,,,,,,,,,,,,,,,,,,,3/27/2007
72219013874,2020-01-25T09:52:00,FM-15,7,,,,,,,,,,,,,,,,,,,,,,,,,,,,,,,,,,,,,,,30.11,30,40,0,,-0.06,3,68,30.12,BKN:07 27,29.01,10,36,300,24,20,,,,,,,,,,,,,,,,,,,,,,,,,,,,,,,,,,,,,MET10901/25/20 09:52:02 METAR KATL 251452Z 30017G21KT 10SM BKN027 04/M01 A3011 RMK AO2 SLP199 T00441011 53020 (CPS),FM-15,7,,,,,,,,,,,,,,,,,,,,,,,,,,,3/27/2007
72219013874,2020-01-25T10:52:00,FM-15,7,,,,,,,,,,,,,,,,,,,,,,,,,,,,,,,,,,,,,,,30.12,31,41,0,,,,67,30.13,BKN:07 25,29.02,10,37,300,,14,,,,,,,,,,,,,,,,,,,,,,,,,,,,,,,,,,,,,MET10001/25/20 10:52:02 METAR KATL 251552Z 30012KT 10SM BKN025 05/M01 A3012 RMK AO2 SLP204 T00501006 (CPS),FM-15,7,,,,,,,,,,,,,,,,,,,,,,,,,,,3/27/2007
72219013874,2020-01-25T11:52:00,FM-15,7,,,,,,,,,,,,,,,,,,,,,,,,,,,,,,,,,,,,,,,30.12,31,43,0,,,,63,30.14,BKN:07 26,29.02,10,38,310,,11,,,,,,,,,,,,,,,,,,,,,,,,,,,,,,,,,,,,,MET10001/25/20 11:52:02 METAR KATL 251652Z 31010KT 10SM BKN026 06/M01 A3012 RMK AO2 SLP205 T00611006 (CPS),FM-15,7,,,,,,,,,,,,,,,,,,,,,,,,,,,3/27/2007
72219013874,2020-01-25T12:52:00,FM-15,7,,,,,,,,,,,,,,,,,,,,,,,,,,,,,,,,,,,,,,,30.1,31,43,0,,0.01,8,63,30.11,BKN:07 26,29,10,38,320,,14,,,,,,,,,,,,,,,,,,,,,,,,,,,,,,,,,,,,,MET11801/25/20 12:52:02 METAR KATL 251752Z 32012KT 10SM BKN026 06/M01 A3010 RMK AO2 SLP197 T00611006 10061 20028 58002 (CPS),FM-15,7,,,,,,,,,,,,,,,,,,,,,,,,,,,3/27/2007
72219013874,2020-01-25T13:00:00,FM-12,4,,,,,,,,,,,,,,,,,,,,,,,,,,,,,,,,,,,,,,,,31,43,,,0.01,8,63,30.11,26,28.99,9.94,38,320,,14,,,,,,,,,,,,,,,,,,,,,,,,,,,,,,,,,,,,,SYN08072219 32566 63212 10061 21006 39818 40197 58002 91752 333 10061 20028 555 92518=,FM-12,4,,,,,,,,,,,,,,,,,,,,,,,,,,,3/27/2007
72219013874,2020-01-25T13:52:00,FM-15,7,,,,,,,,,,,,,,,,,,,,,,,,,,,,,,,,,,,,,,,30.07,31,44,0,,,,60,30.09,BKN:07 28,28.97,10,39,290,,14,,,,,,,,,,,,,,,,,,,,,,,,,,,,,,,,,,,,,MET10001/25/20 13:52:02 METAR KATL 251852Z 29012KT 10SM BKN028 07/M01 A3007 RMK AO2 SLP188 T00671006 (CPS),FM-15,7,,,,,,,,,,,,,,,,,,,,,,,,,,,3/27/2007
72219013874,2020-01-25T14:52:00,FM-15,7,,,,,,,,,,,,,,,,,,,,,,,,,,,,,,,,,,,,,,,30.07,31,44,0,,,,60,30.08,BKN:07 28,28.97,10,39,300,,11,,,,,,,,,,,,,,,,,,,,,,,,,,,,,,,,,,,,,MET10001/25/20 14:52:02 METAR KATL 251952Z 30010KT 10SM BKN028 07/M01 A3007 RMK AO2 SLP187 T00671006 (CPS),FM-15,7,,,,,,,,,,,,,,,,,,,,,,,,,,,3/27/2007
72219013874,2020-01-25T15:52:00,FM-15,7,,,,,,,,,,,,,,,,,,,,,,,,,,,,,,,,,,,,,,,30.07,31,44,0,,0.03,6,60,30.08,BKN:07 29,28.97,10,39,290,,13,,,,,,,,,,,,,,,,,,,,,,,,,,,,,,,,,,,,,MET10601/25/20 15:52:02 METAR KATL 252052Z 29011KT 10SM BKN029 07/M01 A3007 RMK AO2 SLP186 T00671006 56011 (CPS),FM-15,7,,,,,,,,,,,,,,,,,,,,,,,,,,,3/27/2007
72219013874,2020-01-25T16:29:00,FM-16,7,,,,,,,,,,,,,,,,,,,,,,,,,,,,,,,,,,,,,,,30.06,32,45,,,,,61,,SCT:04 28 SCT:04 250,28.96,10,39,300,,15,,,,,,,,,,,,,,,,,,,,,,,,,,,,,,,,,,,,,MET09901/25/20 16:29:02 SPECI KATL 252129Z 30013KT 10SM SCT028 SCT250 07/00 A3006 RMK AO2 T00720000 (CPS),FM-16,7,,,,,,,,,,,,,,,,,,,,,,,,,,,3/27/2007
72219013874,2020-01-25T16:52:00,FM-15,7,,,,,,,,,,,,,,,,,,,,,,,,,,,,,,,,,,,,,,,30.06,31,45,0,,,,58,30.08,FEW:02 28 SCT:04 250,28.96,10,39,310,,13,,,,,,,,,,,,,,,,,,,,,,,,,,,,,,,,,,,,,MET10701/25/20 16:52:02 METAR KATL 252152Z 31011KT 10SM FEW028 SCT250 07/M01 A3006 RMK AO2 SLP185 T00721006 (CPS),FM-15,7,,,,,,,,,,,,,,,,,,,,,,,,,,,3/27/2007
72219013874,2020-01-25T17:52:00,FM-15,7,,,,,,,,,,,,,,,,,,,,,,,,,,,,,,,,,,,,,,,30.07,31,43,0,,,,63,30.09,FEW:02 30 BKN:07 250,28.97,10,38,310,,10,,,,,,,,,,,,,,,,,,,,,,,,,,,,,,,,,,,,,MET10701/25/20 17:52:02 METAR KATL 252252Z 31009KT 10SM FEW030 BKN250 06/M01 A3007 RMK AO2 SLP189 T00611006 (CPS),FM-15,7,,,,,,,,,,,,,,,,,,,,,,,,,,,3/27/2007
72219013874,2020-01-25T18:52:00,FM-15,7,,,,,,,,,,,,,,,,,,,,,,,,,,,,,,,,,,,,,,,30.08,30,41,0,,-0.01,3,65,30.09,BKN:07 250,28.98,10,36,310,,7,,,,,,,,,,,,,,,,,,,,,,,,,,,,,,,,,,,,,MET11801/25/20 18:52:02 METAR KATL 252352Z 31006KT 10SM BKN250 05/M01 A3008 RMK AO2 SLP191 T00501011 10078 20050 53003 (KAF),FM-15,7,,,,,,,,,,,,,,,,,,,,,,,,,,,3/27/2007
72219013874,2020-01-25T19:00:00,FM-12,4,,,,,,,,,,,,,,,,,,,,,,,,,,,,,,,,,,,,,,,,30,41,,,-0.01,3,65,30.09,,28.97,9.94,36,310,,7,,,,,,,,,,,,,,,,,,,,,,,,,,,,,,,,,,,,,SYN08072219 32966 63106 10050 21011 39811 40191 53003 92352 333 10078 20028 555 92600=,FM-12,4,,,,,,,,,,,,,,,,,,,,,,,,,,,3/27/2007
72219013874,2020-01-25T19:52:00,FM-15,7,,,,,,,,,,,,,,,,,,,,,,,,,,,,,,,,,,,,,,,30.09,31,39,0,,,,73,30.11,SCT:04 200 BKN:07 250,28.99,10,36,290,,7,,,,,,,,,,,,,,,,,,,,,,,,,,,,,,,,,,,,,MET10101/25/20 19:52:01 METAR KATL 260052Z 29006KT 10SM SCT200 BKN250 04/M01 A3009 RMK AO2 SLP196 T00391006,FM-15,7,,,,,,,,,,,,,,,,,,,,,,,,,,,3/27/2007
72219013874,2020-01-25T20:52:00,FM-15,7,,,,,,,,,,,,,,,,,,,,,,,,,,,,,,,,,,,,,,,30.1,30,39,0,,,,70,30.12,SCT:04 200 BKN:07 250,29,10,35,300,,9,,,,,,,,,,,,,,,,,,,,,,,,,,,,,,,,,,,,,MET10101/25/20 20:52:01 METAR KATL 260152Z 30008KT 10SM SCT200 BKN250 04/M01 A3010 RMK AO2 SLP199 T00391011,FM-15,7,,,,,,,,,,,,,,,,,,,,,,,,,,,3/27/2007
72219013874,2020-01-25T21:52:00,FM-15,7,,,,,,,,,,,,,,,,,,,,,,,,,,,,,,,,,,,,,,,30.1,30,38,0,,-0.02,0,73,30.11,SCT:04 200 BKN:07 250,29,10,35,290,,8,,,,,,,,,,,,,,,,,,,,,,,,,,,,,,,,,,,,,MET10701/25/20 21:52:01 METAR KATL 260252Z 29007KT 10SM SCT200 BKN250 03/M01 A3010 RMK AO2 SLP198 T00331011 50006,FM-15,7,,,,,,,,,,,,,,,,,,,,,,,,,,,3/27/2007
72219013874,2020-01-25T22:52:00,FM-15,7,,,,,,,,,,,,,,,,,,,,,,,,,,,,,,,,,,,,,,,30.11,30,38,0,,,,73,30.12,BKN:07 200 BKN:07 250,29.01,10,35,290,,8,,,,,,,,,,,,,,,,,,,,,,,,,,,,,,,,,,,,,MET10101/25/20 22:52:01 METAR KATL 260352Z 29007KT 10SM BKN200 BKN250 03/M01 A3011 RMK AO2 SLP200 T00331011,FM-15,7,,,,,,,,,,,,,,,,,,,,,,,,,,,3/27/2007
72219013874,2020-01-25T23:52:00,FM-15,7,,,,,,,,,,,,,,,,,,,,,,,,,,,,,,,,,,,,,,,30.1,30,37,0,,,,76,30.11,BKN:07 200 BKN:07 250,29,10,34,290,,8,,,,,,,,,,,,,,,,,,,,,,,,,,,,,,,,,,,,,MET11101/25/20 23:52:02 METAR KATL 260452Z 29007KT 10SM BKN200 BKN250 03/M01 A3010 RMK AO2 SLP197 T00281011 400780028,FM-15,7,,,,,,,,,,,,,,,,,,,,,,,,,,,3/27/2007
72219013874,2020-01-25T23:59:00,SOD  ,6,,,,,,,,,,,,,,,,,31,42,70,30.08,28.95,37,10.7,0,-1.8,23,46,37,320,24,0,0,0,320,20,,,,,,,,,,,,,,,,,,,,,,,,,,,,,,,,,,,,,,,,,,,,,,,,,,,,,,,,SOD73924 HR PRECIPITATION (IN): 0.00 SNOW DEPTH (IN):0     24 HR SNOWFALL (IN):0.0  24 HR MAX TEMP (F): 4624 HR MIN TEMP (F): 37AVERAGE STATION PRESSURE:28.955 MINIMUM SEA LEVEL PRESSURE:30.00 TIME OF OCCURRENCE:0211 PEAK WIND SPEED (MPH): 24 PEAK WIND DIR (DEG):320 PEAK WIND TIME (LST):      FASTEST 2MIN SPEED (MPH): 20FASTEST 2MIN DIR (DEG):320 FASTEST 2MIN TIME (LST):     AVERAGE WIND SPEED (MPH):10.7 24 HR AVG TEMP (F): 42DEPART FROM NORMAL: -2  HEATING DEGREE DAYS: 23 COOLING DEGREE DAYS:  0 LATEST DAY MAX TEMP (0700-1900 LST):46  LATEST NIGHT MIN TEMP(1900-0800 LST):37 HOURLY INCREMENTAL PRECIPITATION VALUES (IN):.00 0.00 0.00 0.00 0.00 0.00 0.00 0.00 0.00 0.00 0.00 0.00 0.00 0.00 0.00 0.00 0.00 0.00 0.00 0.00 0.00 0.00 0.00 0.00,SOD  ,6,,,,,,,,,,,,,,,,,,,,,,,,,739,1802,3/27/2007
72219013874,2020-01-26T00:52:00,FM-15,7,,,,,,,,,,,,,,,,,,,,,,,,,,,,,,,,,,,,,,,30.1,29,36,0,,-0.01,1,76,30.12,BKN:07 200 OVC:08 250,29,10,33,270,,6,,,,,,,,,,,,,,,,,,,,,,,,,,,,,,,,,,,,,MET12501/26/20 00:52:02 METAR KATL 260552Z 27005KT 10SM BKN200 OVC250 02/M02 A3010 RMK AO2 SLP199 T00221017 10050 20022 51002 (KAF),FM-15,7,,,,,,,,,,,,,,,,,,,,,,,,,,,3/27/2007
72219013874,2020-01-26T01:00:00,FM-12,4,,,,,,,,,,,,,,,,,,,,,,,,,,,,,,,,,,,,,,,,29,36,,,-0.01,1,76,30.12,,28.99,9.94,33,270,,6,,,,,,,,,,,,,,,,,,,,,,,,,,,,,,,,,,,,,SYN08072219 32966 82705 10022 21017 39818 40199 51002 90552 333 10056 20022 555 92606=,FM-12,4,,,,,,,,,,,,,,,,,,,,,,,,,,,3/27/2007
72219013874,2020-01-26T01:52:00,FM-15,7,,,,,,,,,,,,,,,,,,,,,,,,,,,,,,,,,,,,,,,30.11,29,37,0,,,,73,30.12,BKN:07 200 OVC:08 250,29.01,10,34,290,,9,,,,,,,,,,,,,,,,,,,,,,,,,,,,,,,,,,,,,MET10601/26/20 01:52:02 METAR KATL 260652Z 29008KT 10SM BKN200 OVC250 03/M02 A3011 RMK AO2 SLP201 T00281017 (DB),FM-15,7,,,,,,,,,,,,,,,,,,,,,,,,,,,3/27/2007
72219013874,2020-01-26T02:52:00,FM-15,7,,,,,,,,,,,,,,,,,,,,,,,,,,,,,,,,,,,,,,,30.09,29,36,0,,,,76,30.11,BKN:07 180 BKN:07 220,28.99,10,33,290,,8,,,,,,,,,,,,,,,,,,,,,,,,,,,,,,,,,,,,,MET10601/26/20 02:52:02 METAR KATL 260752Z 29007KT 10SM BKN180 BKN220 02/M02 A3009 RMK AO2 SLP196 T00221017 (DB),FM-15,7,,,,,,,,,,,,,,,,,,,,,,,,,,,3/27/2007
72219013874,2020-01-26T03:52:00,FM-15,7,,,,,,,,,,,,,,,,,,,,,,,,,,,,,,,,,,,,,,,30.07,29,35,0,,0.03,8,78,30.09,FEW:02 180 SCT:04 220 SCT:04 250,28.97,10,33,320,,8,,,,,,,,,,,,,,,,,,,,,,,,,,,,,,,,,,,,,MET11901/26/20 03:52:02 METAR KATL 260852Z 32007KT 10SM FEW180 SCT220 SCT250 02/M02 A3007 RMK AO2 SLP190 T00171017 58009 (DB),FM-15,7,,,,,,,,,,,,,,,,,,,,,,,,,,,3/27/2007
72219013874,2020-01-26T04:52:00,FM-15,7,,,,,,,,,,,,,,,,,,,,,,,,,,,,,,,,,,,,,,,30.06,29,34,0,,,,82,30.08,FEW:02 200 SCT:04 250,28.96,10,32,320,,8,,,,,,,,,,,,,,,,,,,,,,,,,,,,,,,,,,,,,MET10601/26/20 04:52:02 METAR KATL 260952Z 32007KT 10SM FEW200 SCT250 01/M02 A3006 RMK AO2 SLP185 T00111017 (DB),FM-15,7,,,,,,,,,,,,,,,,,,,,,,,,,,,3/27/2007
72219013874,2020-01-26T05:52:00,FM-15,7,,,,,,,,,,,,,,,,,,,,,,,,,,,,,,,,,,,,,,,30.08,29,34,0,,,,82,30.1,FEW:02 200 SCT:04 250,28.98,10,32,290,,11,,,,,,,,,,,,,,,,,,,,,,,,,,,,,,,,,,,,,MET10601/26/20 05:52:02 METAR KATL 261052Z 29010KT 10SM FEW200 SCT250 01/M02 A3008 RMK AO2 SLP193 T00111017 (DB),FM-15,7,,,,,,,,,,,,,,,,,,,,,,,,,,,3/27/2007
72219013874,2020-01-26T06:52:00,FM-15,7,,,,,,,,,,,,,,,,,,,,,,,,,,,,,,,,,,,,,,,30.09,29,33,0,,-0.01,3,85,30.11,FEW:02 200 SCT:04 250,28.99,10,31,310,,9,,,,,,,,,,,,,,,,,,,,,,,,,,,,,,,,,,,,,MET12401/26/20 06:52:02 METAR KATL 261152Z 31008KT 10SM FEW200 SCT250 01/M02 A3009 RMK AO2 SLP195 T00061017 10028 20006 53003 (DB),FM-15,7,,,,,,,,,,,,,,,,,,,,,,,,,,,3/27/2007
72219013874,2020-01-26T07:00:00,FM-12,4,,,,,,,,,,,,,,,,,,,,,,,,,,,,,,,,,,,,,,,,29,33,,,-0.01,3,85,30.11,,28.98,9.94,31,310,,9,,,,,,,,,,,,,,,,,,,,,,,,,,,,,,,,,,,,,SYN08072219 32966 43108 10006 21017 39815 40195 53003 91152 333 10078 20006 555 92612=,FM-12,4,,,,,,,,,,,,,,,,,,,,,,,,,,,3/27/2007
72219013874,2020-01-26T07:52:00,FM-15,7,,,,,,,,,,,,,,,,,,,,,,,,,,,,,,,,,,,,,,,30.1,28,34,0,,,,79,30.12,FEW:02 200 SCT:04 250,29,10,32,330,,10,,,,,,,,,,,,,,,,,,,,,,,,,,,,,,,,,,,,,MET10601/26/20 07:52:02 METAR KATL 261252Z 33009KT 10SM FEW200 SCT250 01/M02 A3010 RMK AO2 SLP201 T00111022 (DB),FM-15,7,,,,,,,,,,,,,,,,,,,,,,,,,,,3/27/2007
72219013874,2020-01-26T08:52:00,FM-15,7,,,,,,,,,,,,,,,,,,,,,,,,,,,,,,,,,,,,,,,30.13,30,36,0,,,,79,30.15,FEW:02 150 SCT:04 200 SCT:04 250,29.03,10,34,310,,8,,,,,,,,,,,,,,,,,,,,,,,,,,,,,,,,,,,,,MET11301/26/20 08:52:02 METAR KATL 261352Z 31007KT 10SM FEW150 SCT200 SCT250 02/M01 A3013 RMK AO2 SLP210 T00221011 (DB),FM-15,7,,,,,,,,,,,,,,,,,,,,,,,,,,,3/27/2007
72219013874,2020-01-26T09:52:00,FM-15,7,,,,,,,,,,,,,,,,,,,,,,,,,,,,,,,,,,,,,,,30.13,30,39,0,,-0.05,1,70,30.15,FEW:02 150 SCT:04 200 BKN:07 250,29.03,10,35,320,,7,,,,,,,,,,,,,,,,,,,,,,,,,,,,,,,,,,,,,MET12001/26/20 09:52:02 METAR KATL 261452Z 32006KT 10SM FEW150 SCT200 BKN250 04/M01 A3013 RMK AO2 SLP211 T00391011 51016 (CPS),FM-15,7,,,,,,,,,,,,,,,,,,,,,,,,,,,3/27/2007
72219013874,2020-01-26T10:52:00,FM-15,7,,,,,,,,,,,,,,,,,,,,,,,,,,,,,,,,,,,,,,,30.13,32,42,0,,,,68,30.15,SCT:04 100 SCT:04 150 SCT:04 200,29.03,10,38,310,,7,,,,,,,,,,,,,,,,,,,,,,,,,,,,,,,,,,,,,MET11301/26/20 10:52:02 METAR KATL 261552Z 31006KT 10SM SCT100 SCT150 SCT200 06/00 A3013 RMK AO2 SLP210 T00560000 (CPS),FM-15,7,,,,,,,,,,,,,,,,,,,,,,,,,,,3/27/2007
72219013874,2020-01-26T11:52:00,FM-15,7,,,,,,,,,,,,,,,,,,,,,,,,,,,,,,,,,,,,,,,30.11,32,47,0,,,,56,30.12,FEW:02 95 SCT:04 150 BKN:07 250,29.01,10,40,300,,7,,,,,,,,,,,,,,,,,,,,,,,,,,,,,,,,,,,,,MET11301/26/20 11:52:02 METAR KATL 261652Z 30006KT 10SM FEW095 SCT150 BKN250 08/00 A3011 RMK AO2 SLP200 T00830000 (CPS),FM-15,7,,,,,,,,,,,,,,,,,,,,,,,,,,,3/27/2007
72219013874,2020-01-26T12:52:00,FM-15,7,,,,,,,,,,,,,,,,,,,,,,,,,,,,,,,,,,,,,,,30.09,31,48,0,,0.04,8,52,30.11,SCT:04 85 SCT:04 140 BKN:07 250,28.99,10,41,320,,11,,,,,,,,,,,,,,,,,,,,,,,,,,,,,,,,,,,,,MET13201/26/20 12:52:02 METAR KATL 261752Z 32010KT 10SM SCT085 SCT140 BKN250 09/M01 A3009 RMK AO2 SLP195 T00891006 10094 20006 58014 (CPS),FM-15,7,,,,,,,,,,,,,,,,,,,,,,,,,,,3/27/2007
72219013874,2020-01-26T13:00:00,FM-12,4,,,,,,,,,,,,,,,,,,,,,,,,,,,,,,,,,,,,,,,,31,48,,,0.04,8,52,30.11,,28.98,9.94,41,320,,11,,,,,,,,,,,,,,,,,,,,,,,,,,,,,,,,,,,,,SYN08072219 32966 63210 10089 21006 39815 40195 58014 91752 333 10094 20006 555 92618=,FM-12,4,,,,,,,,,,,,,,,,,,,,,,,,,,,3/27/2007
72219013874,2020-01-26T13:52:00,FM-15,7,,,,,,,,,,,,,,,,,,,,,,,,,,,,,,,,,,,,,,,30.07,32,49,0,,,,52,30.08,SCT:04 80 BKN:07 100 BKN:07 250,28.97,10,42,310,,8,,,,,,,,,,,,,,,,,,,,,,,,,,,,,,,,,,,,,MET11301/26/20 13:52:02 METAR KATL 261852Z 31007KT 10SM SCT080 BKN100 BKN250 09/00 A3007 RMK AO2 SLP186 T00940000 (CPS),FM-15,7,,,,,,,,,,,,,,,,,,,,,,,,,,,3/27/2007
72219013874,2020-01-26T14:52:00,FM-15,7,,,,,,,,,,,,,,,,,,,,,,,,,,,,,,,,,,,,,,,30.04,32,50,0,,,,50,30.06,BKN:07 80 OVC:08 250,28.94,10,42,290,,7,,,,,,,,,,,,,,,,,,,,,,,,,,,,,,,,,,,,,MET10601/26/20 14:52:02 METAR KATL 261952Z 29006KT 10SM BKN080 OVC250 10/00 A3004 RMK AO2 SLP178 T01000000 (CPS),FM-15,7,,,,,,,,,,,,,,,,,,,,,,,,,,,3/27/2007
72219013874,2020-01-26T15:52:00,FM-15,7,,,,,,,,,,,,,,,,,,,,,,,,,,,,,,,,,,,,,,,30.04,31,50,0,,0.06,6,48,30.05,BKN:07 70 OVC:08 250,28.94,10,42,280,,7,,,,,,,,,,,,,,,,,,,,,,,,,,,,,,,,,,,,,MET11301/26/20 15:52:02 METAR KATL 262052Z 28006KT 10SM BKN070 OVC250 10/M01 A3004 RMK AO2 SLP175 T01001006 56019 (CPS),FM-15,7,,,,,,,,,,,,,,,,,,,,,,,,,,,3/27/2007
72219013874,2020-01-26T16:52:00,FM-15,7,,,,,,,,,,,,,,,,,,,,,,,,,,,,,,,,,,,,,,,30.02,33,50,0,,,,52,30.03,OVC:08 75,28.92,10,42,280,,3,,,,,,,,,,,,,,,,,,,,,,,,,,,,,,,,,,,,,MET12801/26/20 16:52:02 METAR KATL 262152Z 28003KT 10SM OVC075 10/01 A3002 RMK AO2 SLP171 ACC OHD-ALQDS SHRA DSNT N-NE T01000006 (KAF),FM-15,7,,,,,,,,,,,,,,,,,,,,,,,,,,,3/27/2007
72219013874,2020-01-26T17:52:00,FM-15,7,,,,,,,,,,,,,,,,,,,,,,,,,,,,,,,,,,,,,,,30.02,33,50,0,,,,52,30.03,BKN:07 65 OVC:08 80,28.92,10,42,0,,0,,,,,,,,,,,,,,,,,,,,,,,,,,,,,,,,,,,,,MET12001/26/20 17:52:02 METAR KATL 262252Z 00000KT 10SM BKN065 OVC080 10/01 A3002 RMK AO2 SLP170 ACC OHD-ALQDS T01000006 (KAF),FM-15,7,,,,,,,,,,,,,,,,,,,,,,,,,,,3/27/2007
72219013874,2020-01-26T18:52:00,FM-15,7,,,,,,,,,,,,,,,,,,,,,,,,,,,,,,,,,,,,,,,30.02,34,50,0,,0.01,5,54,30.03,OVC:08 60,28.92,10,43,0,,0,,,,,,,,,,,,,,,,,,,,,,,,,,,,,,,,,,,,,MET11701/26/20 18:52:02 METAR KATL 262352Z 00000KT 10SM OVC060 10/01 A3002 RMK AO2 SLP171 T01000011 10106 20089 55004 (KAF),FM-15,7,,,,,,,,,,,,,,,,,,,,,,,,,,,3/27/2007
72219013874,2020-01-26T19:00:00,FM-12,4,,,,,,,,,,,,,,,,,,,,,,,,,,,,,,,,,,,,,,,,34,50,,,0.01,5,54,30.03,57,28.92,9.94,43,0,,0,,,,,,,,,,,,,,,,,,,,,,,,,,,,,,,,,,,,,SYN08072219 32766 80000 10100 20011 39792 40171 55004 92352 333 10106 20006 555 92700=,FM-12,4,,,,,,,,,,,,,,,,,,,,,,,,,,,3/27/2007
72219013874,2020-01-26T19:52:00,FM-15,7,,,,,,,,,,,,,,,,,,,,,,,,,,,,,,,,,,,,,,,30.02,36,49,0,,,,61,30.04,OVC:08 60,28.92,10,43,210,,5,,,,,,,,,,,,,,,,,,,,,,,,,,,,,,,,,,,,,MET09301/26/20 19:52:01 METAR KATL 270052Z 21004KT 10SM OVC060 09/02 A3002 RMK AO2 SLP172 T00940022,FM-15,7,,,,,,,,,,,,,,,,,,,,,,,,,,,3/27/2007
72219013874,2020-01-26T20:52:00,FM-15,7,,,,,,,,,,,,,,,,,,,,,,,,,,,,,,,,,,,,,,,30.02,35,49,0,,,,59,30.03,OVC:08 60,28.92,10,43,0,,0,,,,,,,,,,,,,,,,,,,,,,,,,,,,,,,,,,,,,MET09301/26/20 20:52:01 METAR KATL 270152Z 00000KT 10SM OVC060 09/02 A3002 RMK AO2 SLP170 T00940017,FM-15,7,,,,,,,,,,,,,,,,,,,,,,,,,,,3/27/2007
72219013874,2020-01-26T21:52:00,FM-15,7,,,,,,,,,,,,,,,,,,,,,,,,,,,,,,,,,,,,,,,30.01,36,48,0,,0.01,8,63,30.02,OVC:08 60,28.91,10,43,0,,0,,,,,,,,,,,,,,,,,,,,,,,,,,,,,,,,,,,,,MET09901/26/20 21:52:01 METAR KATL 270252Z 00000KT 10SM OVC060 09/02 A3001 RMK AO2 SLP167 T00890022 58004,FM-15,7,,,,,,,,,,,,,,,,,,,,,,,,,,,3/27/2007
72219013874,2020-01-26T22:52:00,FM-15,7,,,,,,,,,,,,,,,,,,,,,,,,,,,,,,,,,,,,,,,30,35,48,0,,,,61,30.01,OVC:08 55,28.9,10,42,0,,0,,,,,,,,,,,,,,,,,,,,,,,,,,,,,,,,,,,,,MET09301/26/20 22:52:01 METAR KATL 270352Z 00000KT 10SM OVC055 09/02 A3000 RMK AO2 SLP164 T00890017,FM-15,7,,,,,,,,,,,,,,,,,,,,,,,,,,,3/27/2007
72219013874,2020-01-26T23:52:00,FM-15,7,,,,,,,,,,,,,,,,,,,,,,,,,,,,,,,,,,,,,,,29.99,36,48,0,,,,63,30,OVC:08 50,28.89,10,43,240,,3,,,,,,,,,,,,,,,,,,,,,,,,,,,,,,,,,,,,,MET10301/26/20 23:52:02 METAR KATL 270452Z 24003KT 10SM OVC050 09/02 A2999 RMK AO2 SLP159 T00890022 401060006,FM-15,7,,,,,,,,,,,,,,,,,,,,,,,,,,,3/27/2007
72219013874,2020-01-26T23:59:00,SOD  ,6,,,,,,,,,,,,,,,,,32,42,65,30.08,28.97,38,6,0,-1.9,23,51,33,320,16,0,0,0,310,13,,,,,,,,,,,,,,,,,,,,,,,,,,,,,,,,,,,,,,,,,,,,,,,,,,,,,,,,SOD73924 HR PRECIPITATION (IN): 0.00 SNOW DEPTH (IN):0     24 HR SNOWFALL (IN):0.0  24 HR MAX TEMP (F): 5124 HR MIN TEMP (F): 33AVERAGE STATION PRESSURE:28.975 MINIMUM SEA LEVEL PRESSURE:30.00 TIME OF OCCURRENCE:2359 PEAK WIND SPEED (MPH): 16 PEAK WIND DIR (DEG):320 PEAK WIND TIME (LST):      FASTEST 2MIN SPEED (MPH): 13FASTEST 2MIN DIR (DEG):310 FASTEST 2MIN TIME (LST):     AVERAGE WIND SPEED (MPH): 6.0 24 HR AVG TEMP (F): 42DEPART FROM NORMAL: -2  HEATING DEGREE DAYS: 23 COOLING DEGREE DAYS:  0 LATEST DAY MAX TEMP (0700-1900 LST):51  LATEST NIGHT MIN TEMP(1900-0800 LST):33 HOURLY INCREMENTAL PRECIPITATION VALUES (IN):.00 0.00 0.00 0.00 0.00 0.00 0.00 0.00 0.00 0.00 0.00 0.00 0.00 0.00 0.00 0.00 0.00 0.00 0.00 0.00 0.00 0.00 0.00 0.00,SOD  ,6,,,,,,,,,,,,,,,,,,,,,,,,,738,1803,3/27/2007
72219013874,2020-01-27T00:52:00,FM-15,7,,,,,,,,,,,,,,,,,,,,,,,,,,,,,,,,,,,,,,,29.97,35,48,0,,0.04,8,61,29.97,BKN:07 46 OVC:08 60,28.87,10,42,260,,3,,,,,,,,,,,,,,,,,,,,,,,,,,,,,,,,,,,,,MET12401/27/20 00:52:02 METAR KATL 270552Z 26003KT 10SM BKN046 OVC060 09/02 A2997 RMK AO2 SLP150 T00890017 10100 20089 58014 (KAF),FM-15,7,,,,,,,,,,,,,,,,,,,,,,,,,,,3/27/2007
72219013874,2020-01-27T01:00:00,FM-12,4,,,,,,,,,,,,,,,,,,,,,,,,,,,,,,,,,,,,,,,,35,48,,,0.04,8,61,29.97,41,28.87,9.94,42,260,,3,,,,,,,,,,,,,,,,,,,,,,,,,,,,,,,,,,,,,SYN08072219 32666 82603 10089 20017 39775 40150 58014 90552 333 10100 20006 555 92706=,FM-12,4,,,,,,,,,,,,,,,,,,,,,,,,,,,3/27/2007
72219013874,2020-01-27T01:52:00,FM-15,7,,,,,,,,,,,,,,,,,,,,,,,,,,,,,,,,,,,,,,,29.97,35,47,0,,,,63,29.97,FEW:02 25 BKN:07 41 OVC:08 60,28.87,10,42,240,,5,,,,,,,,,,,,,,,,,,,,,,,,,,,,,,,,,,,,,MET11201/27/20 01:52:02 METAR KATL 270652Z 24004KT 10SM FEW025 BKN041 OVC060 08/02 A2997 RMK AO2 SLP150 T00830017 (DB),FM-15,7,,,,,,,,,,,,,,,,,,,,,,,,,,,3/27/2007
72219013874,2020-01-27T02:52:00,FM-15,7,,,,,,,,,,,,,,,,,,,,,,,,,,,,,,,,,,,,,,,29.95,36,47,0,,,,66,29.95,FEW:02 25 OVC:08 44,28.85,10,42,0,,0,,,,,,,,,,,,,,,,,,,,,,,,,,,,,,,,,,,,,MET10501/27/20 02:52:02 METAR KATL 270752Z 00000KT 10SM FEW025 OVC044 08/02 A2995 RMK AO2 SLP142 T00830022 (DB),FM-15,7,,,,,,,,,,,,,,,,,,,,,,,,,,,3/27/2007
72219013874,2020-01-27T03:52:00,FM-15,7,,,,,,,,,,,,,,,,,,,,,,,,,,,,,,,,,,,,,,,29.96,37,47,0,,0.01,5,69,29.96,FEW:02 25 OVC:08 42,28.87,10,42,290,,3,,,,,,,,,,,,,,,,,,,,,,,,,,,,,,,,,,,,,MET11101/27/20 03:52:02 METAR KATL 270852Z 29003KT 10SM FEW025 OVC042 08/03 A2996 RMK AO2 SLP146 T00830028 55003 (DB),FM-15,7,,,,,,,,,,,,,,,,,,,,,,,,,,,3/27/2007
72219013874,2020-01-27T04:52:00,FM-15,7,,,,,,,,,,,,,,,,,,,,,,,,,,,,,,,,,,,,,,,29.95,38,46,T,-RA:02 |RA |RA,,,73,29.95,BKN:07 33 OVC:08 42,28.85,10,42,300,,3,,,,,,,,,,,,,,,,,,,,,,,,,,,,,,,,,,,,,MET12101/27/20 04:52:02 METAR KATL 270952Z 30003KT 10SM -RA BKN033 OVC042 08/03 A2995 RMK AO2 RAB38 SLP143 P0000 T00780033 (DB),FM-15,7,,,,,,,,,,,,,,,,,,,,,,,,,,,3/27/2007
72219013874,2020-01-27T05:39:00,FM-16,7,,,,,,,,,,,,,,,,,,,,,,,,,,,,,,,,,,,,,,,29.94,39,45,T,,,,80,,FEW:02 24 OVC:08 29,28.84,10,42,280,,3,,,,,,,,,,,,,,,,,,,,,,,,,,,,,,,,,,,,,MET11801/27/20 05:39:02 SPECI KATL 271039Z 28003KT 10SM FEW024 OVC029 07/04 A2994 RMK AO2 RAE0954B20E29 P0000 T00720039 (DB),FM-16,7,,,,,,,,,,,,,,,,,,,,,,,,,,,3/27/2007
72219013874,2020-01-27T05:52:00,FM-15,7,,,,,,,,,,,,,,,,,,,,,,,,,,,,,,,,,,,,,,,29.94,39,46,T,,,,77,29.95,SCT:04 24 BKN:07 29 OVC:08 35,28.84,10,43,250,,3,,,,,,,,,,,,,,,,,,,,,,,,,,,,,,,,,,,,,MET13201/27/20 05:52:02 METAR KATL 271052Z 25003KT 10SM SCT024 BKN029 OVC035 08/04 A2994 RMK AO2 RAE0954B20E29 SLP141 P0000 T00780039 (DB),FM-15,7,,,,,,,,,,,,,,,,,,,,,,,,,,,3/27/2007
72219013874,2020-01-27T06:52:00,FM-15,7,,,,,,,,,,,,,,,,,,,,,,,,,,,,,,,,,,,,,,,29.94,39,46,0,,0.01,5,77,29.95,BKN:07 24 BKN:07 29 OVC:08 35,28.84,10,43,0,,0,,,,,,,,,,,,,,,,,,,,,,,,,,,,,,,,,,,,,MET13601/27/20 06:52:02 METAR KATL 271152Z 00000KT 10SM BKN024 BKN029 OVC035 08/04 A2994 RMK AO2 SLP142 60000 T00780039 10089 20072 55004 (DB),FM-15,7,,,,,,,,,,,,,,,,,,,,,,,,,,,3/27/2007
72219013874,2020-01-27T07:00:00,FM-12,4,,,,,,,,,,,,,,,,,,,,,,,,,,,,,,,,,,,,,,,,39,46,,,0.01,5,77,29.95,26,28.84,9.94,43,0,,0,,,,,,,,,,,,,,,,,,,,,,,,,,,,,,,,,,,,,SYN08672219 12566 80000 10078 20039 39766 40142 55004 69901 91152 333 10106 20072 555 92712=,FM-12,4,,,,,,,,,,,,,,,,,,,,,,,,,,,3/27/2007
72219013874,2020-01-27T07:39:00,FM-16,7,,,,,,,,,,,,,,,,,,,,,,,,,,,,,,,,,,,,,,,29.96,40,46,,,,,79,,BKN:07 14 OVC:08 24,28.87,10,43,220,,3,,,,,,,,,,,,,,,,,,,,,,,,,,,,,,,,,,,,,MET09801/27/20 07:39:02 SPECI KATL 271239Z 22003KT 10SM BKN014 OVC024 08/04 A2996 RMK AO2 T00780044 (DB),FM-16,7,,,,,,,,,,,,,,,,,,,,,,,,,,,3/27/2007
72219013874,2020-01-27T07:52:00,FM-15,7,,,,,,,,,,,,,,,,,,,,,,,,,,,,,,,,,,,,,,,29.96,40,46,0,,,,79,29.97,BKN:07 14 OVC:08 20,28.87,10,43,220,,3,,,,,,,,,,,,,,,,,,,,,,,,,,,,,,,,,,,,,MET10501/27/20 07:52:02 METAR KATL 271252Z 22003KT 10SM BKN014 OVC020 08/04 A2996 RMK AO2 SLP148 T00780044 (DB),FM-15,7,,,,,,,,,,,,,,,,,,,,,,,,,,,3/27/2007
72219013874,2020-01-27T08:52:00,FM-15,7,,,,,,,,,,,,,,,,,,,,,,,,,,,,,,,,,,,,,,,29.97,41,46,0,,,,83,29.98,BKN:07 11 OVC:08 15,28.87,10,44,220,,5,,,,,,,,,,,,,,,,,,,,,,,,,,,,,,,,,,,,,MET10501/27/20 08:52:02 METAR KATL 271352Z 22004KT 10SM BKN011 OVC015 08/05 A2997 RMK AO2 SLP151 T00780050 (DB),FM-15,7,,,,,,,,,,,,,,,,,,,,,,,,,,,3/27/2007
72219013874,2020-01-27T09:24:00,FM-16,7,,,,,,,,,,,,,,,,,,,,,,,,,,,,,,,,,,,,,,,29.97,41,47,,,,,80,,BKN:07 9 OVC:08 12,28.87,10,44,230,,7,,,,,,,,,,,,,,,,,,,,,,,,,,,,,,,,,,,,,MET09901/27/20 09:24:02 SPECI KATL 271424Z 23006KT 10SM BKN009 OVC012 08/05 A2997 RMK AO2 T00830050 (CPS),FM-16,7,,,,,,,,,,,,,,,,,,,,,,,,,,,3/27/2007
72219013874,2020-01-27T09:52:00,FM-15,7,,,,,,,,,,,,,,,,,,,,,,,,,,,,,,,,,,,,,,,29.97,42,47,0,,-0.03,1,83,29.98,BKN:07 8 OVC:08 12,28.87,10,45,240,,9,,,,,,,,,,,,,,,,,,,,,,,,,,,,,,,,,,,,,MET11201/27/20 09:52:02 METAR KATL 271452Z 24008KT 10SM BKN008 OVC012 08/06 A2997 RMK AO2 SLP152 T00830056 51009 (CPS),FM-15,7,,,,,,,,,,,,,,,,,,,,,,,,,,,3/27/2007
72219013874,2020-01-27T10:52:00,FM-15,7,,,,,,,,,,,,,,,,,,,,,,,,,,,,,,,,,,,,,,,29.97,43,50,0,,,,77,29.97,BKN:07 9 OVC:08 15,28.87,10,47,290,,10,,,,,,,,,,,,,,,,,,,,,,,,,,,,,,,,,,,,,MET11301/27/20 10:52:02 METAR KATL 271552Z 29009KT 10SM BKN009 OVC015 10/06 A2997 RMK AO2 SLP150 BINOVC T01000061 (CPS),FM-15,7,,,,,,,,,,,,,,,,,,,,,,,,,,,3/27/2007
72219013874,2020-01-27T11:21:00,FM-16,7,,,,,,,,,,,,,,,,,,,,,,,,,,,,,,,,,,,,,,,29.97,43,50,,,,,77,,BKN:07 10 BKN:07 15,28.87,10,47,290,,14,,,,,,,,,,,,,,,,,,,,,,,,,,,,,,,,,,,,,MET09901/27/20 11:21:02 SPECI KATL 271621Z 29012KT 10SM BKN010 BKN015 10/06 A2997 RMK AO2 T01000061 (CPS),FM-16,7,,,,,,,,,,,,,,,,,,,,,,,,,,,3/27/2007
72219013874,2020-01-27T11:52:00,FM-15,7,,,,,,,,,,,,,,,,,,,,,,,,,,,,,,,,,,,,,,,29.97,43,50,0,,,,77,29.97,OVC:08 13,28.87,10,47,290,,10,,,,,,,,,,,,,,,,,,,,,,,,,,,,,,,,,,,,,MET09901/27/20 11:52:02 METAR KATL 271652Z 29009KT 10SM OVC013 10/06 A2997 RMK AO2 SLP150 T01000061 (CPS),FM-15,7,,,,,,,,,,,,,,,,,,,,,,,,,,,3/27/2007
72219013874,2020-01-27T12:52:00,FM-15,7,,,,,,,,,,,,,,,,,,,,,,,,,,,,,,,,,,,,,,,29.94,44,52,0,,0.03,8,75,29.94,BKN:07 13 BKN:07 36 BKN:07 47,28.84,10,48,310,,15,,,,,,,,,,,,,,,,,,,,,,,,,,,,,,,,,,,,,MET14401/27/20 12:52:02 METAR KATL 271752Z 31013KT 10SM BKN013 BKN036 BKN047 11/07 A2994 RMK AO2 SLP139 BKN013 V SCT T01110067 10117 20072 58011 (CPS),FM-15,7,,,,,,,,,,,,,,,,,,,,,,,,,,,3/27/2007
72219013874,2020-01-27T13:00:00,FM-12,4,,,,,,,,,,,,,,,,,,,,,,,,,,,,,,,,,,,,,,,,44,52,,,0.03,8,75,29.94,15,28.84,9.94,48,310,,15,,,,,,,,,,,,,,,,,,,,,,,,,,,,,,,,,,,,,SYN08072219 32466 63113 10111 20067 39766 40139 58011 91752 333 10117 20072 555 92718=,FM-12,4,,,,,,,,,,,,,,,,,,,,,,,,,,,3/27/2007
72219013874,2020-01-27T13:17:00,FM-16,7,,,,,,,,,,,,,,,,,,,,,,,,,,,,,,,,,,,,,,,29.93,44,52,,,,,75,,BKN:07 17 BKN:07 25 OVC:08 38,28.84,10,48,290,,11,,,,,,,,,,,,,,,,,,,,,,,,,,,,,,,,,,,,,MET10601/27/20 13:17:02 SPECI KATL 271817Z 29010KT 10SM BKN017 BKN025 OVC038 11/07 A2993 RMK AO2 T01110067 (CPS),FM-16,7,,,,,,,,,,,,,,,,,,,,,,,,,,,3/27/2007
72219013874,2020-01-27T13:52:00,FM-15,7,,,,,,,,,,,,,,,,,,,,,,,,,,,,,,,,,,,,,,,29.92,43,51,0,,,,74,29.92,BKN:07 16 OVC:08 25,28.82,10,47,290,,10,,,,,,,,,,,,,,,,,,,,,,,,,,,,,,,,,,,,,MET10601/27/20 13:52:02 METAR KATL 271852Z 29009KT 10SM BKN016 OVC025 11/06 A2992 RMK AO2 SLP133 T01060061 (CPS),FM-15,7,,,,,,,,,,,,,,,,,,,,,,,,,,,3/27/2007
72219013874,2020-01-27T14:52:00,FM-15,7,,,,,,,,,,,,,,,,,,,,,,,,,,,,,,,,,,,,,,,29.91,43,50,0,,,,77,29.91,BKN:07 15 OVC:08 24,28.82,10,47,310,,8,,,,,,,,,,,,,,,,,,,,,,,,,,,,,,,,,,,,,MET10601/27/20 14:52:02 METAR KATL 271952Z 31007KT 10SM BKN015 OVC024 10/06 A2991 RMK AO2 SLP130 T01000061 (CPS),FM-15,7,,,,,,,,,,,,,,,,,,,,,,,,,,,3/27/2007
72219013874,2020-01-27T15:52:00,FM-15,7,,,,,,,,,,,,,,,,,,,,,,,,,,,,,,,,,,,,,,,29.92,43,51,0,,0.01,5,74,29.93,FEW:02 15 BKN:07 20 OVC:08 28,28.82,10,47,310,,9,,,,,,,,,,,,,,,,,,,,,,,,,,,,,,,,,,,,,MET12601/27/20 15:52:02 METAR KATL 272052Z 31008KT 10SM FEW015 BKN020 OVC028 11/06 A2992 RMK AO2 SLP135 BINOVC T01060061 55004 (CPS),FM-15,7,,,,,,,,,,,,,,,,,,,,,,,,,,,3/27/2007
72219013874,2020-01-27T16:49:00,FM-16,7,,,,,,,,,,,,,,,,,,,,,,,,,,,,,,,,,,,,,,,29.93,43,52,,,,,72,,FEW:02 20 SCT:04 29 BKN:07 38,28.84,10,48,310,,13,,,,,,,,,,,,,,,,,,,,,,,,,,,,,,,,,,,,,MET10901/27/20 16:49:02 SPECI KATL 272149Z 31011KT 10SM FEW020 SCT029 BKN038 11/06 A2993 RMK AO2 SCT029 V BKN (CPS),FM-16,7,,,,,,,,,,,,,,,,,,,,,,,,,,,3/27/2007
72219013874,2020-01-27T16:52:00,FM-15,7,,,,,,,,,,,,,,,,,,,,,,,,,,,,,,,,,,,,,,,29.93,42,51,0,,,,71,29.93,FEW:02 20 SCT:04 29 BKN:07 38,28.84,10,47,300,,13,,,,,,,,,,,,,,,,,,,,,,,,,,,,,,,,,,,,,MET12601/27/20 16:52:02 METAR KATL 272152Z 30011KT 10SM FEW020 SCT029 BKN038 11/06 A2993 RMK AO2 SLP136 SCT029 V BKN T01060056 (CPS),FM-15,7,,,,,,,,,,,,,,,,,,,,,,,,,,,3/27/2007
72219013874,2020-01-27T17:52:00,FM-15,7,,,,,,,,,,,,,,,,,,,,,,,,,,,,,,,,,,,,,,,29.94,40,50,0,,,,68,29.94,FEW:02 20 SCT:04 32,28.84,10,45,300,,9,,,,,,,,,,,,,,,,,,,,,,,,,,,,,,,,,,,,,MET10501/27/20 17:52:02 METAR KATL 272252Z 30008KT 10SM FEW020 SCT032 10/04 A2994 RMK AO2 SLP140 T01000044 (RF),FM-15,7,,,,,,,,,,,,,,,,,,,,,,,,,,,3/27/2007
72219013874,2020-01-27T18:52:00,FM-15,7,,,,,,,,,,,,,,,,,,,,,,,,,,,,,,,,,,,,,,,29.95,39,47,0,,-0.02,3,74,29.96,FEW:02 30,28.85,10,43,280,,7,,,,,,,,,,,,,,,,,,,,,,,,,,,,,,,,,,,,,MET11601/27/20 18:52:02 METAR KATL 272352Z 28006KT 10SM FEW030 08/04 A2995 RMK AO2 SLP144 T00830039 10111 20083 53008 (RF),FM-15,7,,,,,,,,,,,,,,,,,,,,,,,,,,,3/27/2007
72219013874,2020-01-27T19:00:00,FM-12,4,,,,,,,,,,,,,,,,,,,,,,,,,,,,,,,,,,,,,,,,39,47,,,-0.02,3,74,29.96,26,28.85,9.94,43,280,,7,,,,,,,,,,,,,,,,,,,,,,,,,,,,,,,,,,,,,SYN08072219 32566 22806 10083 20039 39769 40144 53008 92352 333 10117 20072 555 92800=,FM-12,4,,,,,,,,,,,,,,,,,,,,,,,,,,,3/27/2007
72219013874,2020-01-27T19:52:00,FM-15,7,,,,,,,,,,,,,,,,,,,,,,,,,,,,,,,,,,,,,,,29.96,38,46,0,,,,73,29.97,CLR:00,28.87,10,42,270,,7,,,,,,,,,,,,,,,,,,,,,,,,,,,,,,,,,,,,,MET09001/27/20 19:52:01 METAR KATL 280052Z 27006KT 10SM CLR 08/03 A2996 RMK AO2 SLP149 T00780033,FM-15,7,,,,,,,,,,,,,,,,,,,,,,,,,,,3/27/2007
72219013874,2020-01-27T20:52:00,FM-15,7,,,,,,,,,,,,,,,,,,,,,,,,,,,,,,,,,,,,,,,29.97,38,45,0,,,,77,29.98,CLR:00,28.87,10,42,270,,7,,,,,,,,,,,,,,,,,,,,,,,,,,,,,,,,,,,,,MET09001/27/20 20:52:01 METAR KATL 280152Z 27006KT 10SM CLR 07/03 A2997 RMK AO2 SLP153 T00720033,FM-15,7,,,,,,,,,,,,,,,,,,,,,,,,,,,3/27/2007
72219013874,2020-01-27T21:52:00,FM-15,7,,,,,,,,,,,,,,,,,,,,,,,,,,,,,,,,,,,,,,,29.98,38,44,0,,-0.03,1,79,29.99,CLR:00,28.88,10,41,280,,8,,,,,,,,,,,,,,,,,,,,,,,,,,,,,,,,,,,,,MET09601/27/20 21:52:01 METAR KATL 280252Z 28007KT 10SM CLR 07/03 A2998 RMK AO2 SLP156 T00670033 51011,FM-15,7,,,,,,,,,,,,,,,,,,,,,,,,,,,3/27/2007
72219013874,2020-01-27T22:52:00,FM-15,7,,,,,,,,,,,,,,,,,,,,,,,,,,,,,,,,,,,,,,,29.99,38,43,0,,,,82,30,CLR:00,28.89,10,41,290,,7,,,,,,,,,,,,,,,,,,,,,,,,,,,,,,,,,,,,,MET09001/27/20 22:52:01 METAR KATL 280352Z 29006KT 10SM CLR 06/03 A2999 RMK AO2 SLP159 T00610033,FM-15,7,,,,,,,,,,,,,,,,,,,,,,,,,,,3/27/2007
72219013874,2020-01-27T23:52:00,FM-15,7,,,,,,,,,,,,,,,,,,,,,,,,,,,,,,,,,,,,,,,30,37,42,0,,,,82,30.01,CLR:00,28.9,10,40,290,,7,,,,,,,,,,,,,,,,,,,,,,,,,,,,,,,,,,,,,MET10001/27/20 23:52:02 METAR KATL 280452Z 29006KT 10SM CLR 06/03 A3000 RMK AO2 SLP161 T00560028 401170056,FM-15,7,,,,,,,,,,,,,,,,,,,,,,,,,,,3/27/2007
72219013874,2020-01-27T23:59:00,SOD  ,6,,,,,,,,,,,,,,,,,40,48,75,29.96,28.85,44,6.8,0,4,17,53,42,310,19,T,0,0,300,15,RA,,,,,,,,,,,,,,,,,,,,,,,,,,,,,,,,,,,,,,,,,,,,,,,,,,,,,,,SOD73924 HR PRECIPITATION (IN):    T SNOW DEPTH (IN):0     24 HR SNOWFALL (IN):0.0  24 HR MAX TEMP (F): 5324 HR MIN TEMP (F): 42AVERAGE STATION PRESSURE:28.850 MINIMUM SEA LEVEL PRESSURE:29.91 TIME OF OCCURRENCE:1501 PEAK WIND SPEED (MPH): 19 PEAK WIND DIR (DEG):310 PEAK WIND TIME (LST):      FASTEST 2MIN SPEED (MPH): 15FASTEST 2MIN DIR (DEG):300 FASTEST 2MIN TIME (LST):     AVERAGE WIND SPEED (MPH): 6.8 24 HR AVG TEMP (F): 48DEPART FROM NORMAL:  4  HEATING DEGREE DAYS: 17 COOLING DEGREE DAYS:  0 LATEST DAY MAX TEMP (0700-1900 LST):53  LATEST NIGHT MIN TEMP(1900-0800 LST):45 HOURLY INCREMENTAL PRECIPITATION VALUES (IN):.00 0.00 0.00 0.00 T    T    0.00 0.00 0.00 0.00 0.00 0.00 0.00 0.00 0.00 0.00 0.00 0.00 0.00 0.00 0.00 0.00 0.00 0.00,SOD  ,6,,,,,,,,,,,,,,,,,,,,,,,,,738,1804,3/27/2007
72219013874,2020-01-28T00:52:00,FM-15,7,,,,,,,,,,,,,,,,,,,,,,,,,,,,,,,,,,,,,,,29.99,37,41,0,,0,0,86,29.99,CLR:00,28.89,10,39,300,,7,,,,,,,,,,,,,,,,,,,,,,,,,,,,,,,,,,,,,MET11301/28/20 00:52:02 METAR KATL 280552Z 30006KT 10SM CLR 05/03 A2999 RMK AO2 SLP156 T00500028 10083 20050 50001 (RF),FM-15,7,,,,,,,,,,,,,,,,,,,,,,,,,,,3/27/2007
72219013874,2020-01-28T01:00:00,FM-12,4,,,,,,,,,,,,,,,,,,,,,,,,,,,,,,,,,,,,,,,,37,41,,,0,9,86,29.99,,28.89,9.94,39,300,,7,,,,,,,,,,,,,,,,,,,,,,,,,,,,,,,,,,,,,SYN08072219 32966 03006 10050 20028 39782 40156 50001 90552 333 10089 20050 555 92806=,FM-12,4,,,,,,,,,,,,,,,,,,,,,,,,,,,3/27/2007
72219013874,2020-01-28T01:52:00,FM-15,7,,,,,,,,,,,,,,,,,,,,,,,,,,,,,,,,,,,,,,,29.98,36,39,0,,,,89,29.99,CLR:00,28.88,10,38,300,,7,,,,,,,,,,,,,,,,,,,,,,,,,,,,,,,,,,,,,MET09501/28/20 01:52:02 METAR KATL 280652Z 30006KT 10SM CLR 04/02 A2998 RMK AO2 SLP155 T00390022 (RF),FM-15,7,,,,,,,,,,,,,,,,,,,,,,,,,,,3/27/2007
72219013874,2020-01-28T02:52:00,FM-15,7,,,,,,,,,,,,,,,,,,,,,,,,,,,,,,,,,,,,,,,29.98,35,39,0,,,,86,29.99,CLR:00,28.88,10,37,300,,7,,,,,,,,,,,,,,,,,,,,,,,,,,,,,,,,,,,,,MET09501/28/20 02:52:02 METAR KATL 280752Z 30006KT 10SM CLR 04/02 A2998 RMK AO2 SLP157 T00390017 (DB),FM-15,7,,,,,,,,,,,,,,,,,,,,,,,,,,,3/27/2007
72219013874,2020-01-28T03:52:00,FM-15,7,,,,,,,,,,,,,,,,,,,,,,,,,,,,,,,,,,,,,,,29.98,35,38,0,,0.01,6,89,29.99,CLR:00,28.88,10,37,320,,8,,,,,,,,,,,,,,,,,,,,,,,,,,,,,,,,,,,,,MET10101/28/20 03:52:02 METAR KATL 280852Z 32007KT 10SM CLR 03/02 A2998 RMK AO2 SLP155 T00330017 56002 (DB),FM-15,7,,,,,,,,,,,,,,,,,,,,,,,,,,,3/27/2007
72219013874,2020-01-28T04:52:00,FM-15,7,,,,,,,,,,,,,,,,,,,,,,,,,,,,,,,,,,,,,,,29.98,35,39,0,,,,86,29.99,CLR:00,28.88,10,37,290,,6,,,,,,,,,,,,,,,,,,,,,,,,,,,,,,,,,,,,,MET09501/28/20 04:52:02 METAR KATL 280952Z 29005KT 10SM CLR 04/02 A2998 RMK AO2 SLP156 T00390017 (DB),FM-15,7,,,,,,,,,,,,,,,,,,,,,,,,,,,3/27/2007
72219013874,2020-01-28T05:52:00,FM-15,7,,,,,,,,,,,,,,,,,,,,,,,,,,,,,,,,,,,,,,,30,34,38,0,,,,86,30.01,CLR:00,28.9,10,36,280,,6,,,,,,,,,,,,,,,,,,,,,,,,,,,,,,,,,,,,,MET09501/28/20 05:52:02 METAR KATL 281052Z 28005KT 10SM CLR 03/01 A3000 RMK AO2 SLP162 T00330011 (DB),FM-15,7,,,,,,,,,,,,,,,,,,,,,,,,,,,3/27/2007
72219013874,2020-01-28T06:52:00,FM-15,7,,,,,,,,,,,,,,,,,,,,,,,,,,,,,,,,,,,,,,,30.01,34,37,0,,-0.03,3,89,30.03,CLR:00,28.91,10,36,300,,5,,,,,,,,,,,,,,,,,,,,,,,,,,,,,,,,,,,,,MET11301/28/20 06:52:02 METAR KATL 281152Z 30004KT 10SM CLR 03/01 A3001 RMK AO2 SLP168 T00280011 10050 20028 53011 (DB),FM-15,7,,,,,,,,,,,,,,,,,,,,,,,,,,,3/27/2007
72219013874,2020-01-28T07:00:00,FM-12,4,,,,,,,,,,,,,,,,,,,,,,,,,,,,,,,,,,,,,,,,34,37,,,-0.03,3,89,30.03,,28.9,9.94,36,300,,5,,,,,,,,,,,,,,,,,,,,,,,,,,,,,,,,,,,,,SYN08072219 32966 03004 10028 20011 39788 40168 53011 91152 333 10117 20028 555 92812=,FM-12,4,,,,,,,,,,,,,,,,,,,,,,,,,,,3/27/2007
72219013874,2020-01-28T07:52:00,FM-15,7,,,,,,,,,,,,,,,,,,,,,,,,,,,,,,,,,,,,,,,30.03,33,37,0,,,,86,30.04,CLR:00,28.93,10,35,300,,7,,,,,,,,,,,,,,,,,,,,,,,,,,,,,,,,,,,,,MET09501/28/20 07:52:02 METAR KATL 281252Z 30006KT 10SM CLR 03/01 A3003 RMK AO2 SLP172 T00280006 (DB),FM-15,7,,,,,,,,,,,,,,,,,,,,,,,,,,,3/27/2007
72219013874,2020-01-28T08:52:00,FM-15,7,,,,,,,,,,,,,,,,,,,,,,,,,,,,,,,,,,,,,,,30.04,36,41,0,,,,82,30.06,CLR:00,28.94,10,39,310,,9,,,,,,,,,,,,,,,,,,,,,,,,,,,,,,,,,,,,,MET09501/28/20 08:52:02 METAR KATL 281352Z 31008KT 10SM CLR 05/02 A3004 RMK AO2 SLP178 T00500022 (DB),FM-15,7,,,,,,,,,,,,,,,,,,,,,,,,,,,3/27/2007
72219013874,2020-01-28T09:52:00,FM-15,7,,,,,,,,,,,,,,,,,,,,,,,,,,,,,,,,,,,,,,,30.06,37,45,0,,-0.04,3,74,30.07,FEW:02 250,28.96,10,41,310,,8,,,,,,,,,,,,,,,,,,,,,,,,,,,,,,,,,,,,,MET10501/28/20 09:52:02 METAR KATL 281452Z 31007KT 10SM FEW250 07/03 A3006 RMK AO2 SLP183 T00720028 53015 (KAF),FM-15,7,,,,,,,,,,,,,,,,,,,,,,,,,,,3/27/2007
72219013874,2020-01-28T10:52:00,FM-15,7,,,,,,,,,,,,,,,,,,,,,,,,,,,,,,,,,,,,,,,30.07,36,50,0,,,,59,30.07,FEW:02 250,28.97,10,44,320,,9,,,,,,,,,,,,,,,,,,,,,,,,,,,,,,,,,,,,,MET09901/28/20 10:52:02 METAR KATL 281552Z 32008KT 10SM FEW250 10/02 A3007 RMK AO2 SLP184 T01000022 (KAF),FM-15,7,,,,,,,,,,,,,,,,,,,,,,,,,,,3/27/2007
72219013874,2020-01-28T11:52:00,FM-15,7,,,,,,,,,,,,,,,,,,,,,,,,,,,,,,,,,,,,,,,30.05,35,53,0,,,,51,30.06,FEW:02 250,28.95,10,45,310,,9,,,,,,,,,,,,,,,,,,,,,,,,,,,,,,,,,,,,,MET09901/28/20 11:52:02 METAR KATL 281652Z 31008KT 10SM FEW250 12/02 A3005 RMK AO2 SLP179 T01170017 (KAF),FM-15,7,,,,,,,,,,,,,,,,,,,,,,,,,,,3/27/2007
72219013874,2020-01-28T12:52:00,FM-15,7,,,,,,,,,,,,,,,,,,,,,,,,,,,,,,,,,,,,,,,30.02,34,56,0,,0.04,8,44,30.03,FEW:02 250,28.92,10,46,330,,7,,,,,,,,,,,,,,,,,,,,,,,,,,,,,,,,,,,,,MET11701/28/20 12:52:02 METAR KATL 281752Z 33006KT 10SM FEW250 13/01 A3002 RMK AO2 SLP168 T01330011 10133 20028 58013 (KAF),FM-15,7,,,,,,,,,,,,,,,,,,,,,,,,,,,3/27/2007
72219013874,2020-01-28T13:00:00,FM-12,4,,,,,,,,,,,,,,,,,,,,,,,,,,,,,,,,,,,,,,,,34,56,,,0.04,8,44,30.03,,28.92,9.94,46,330,,7,,,,,,,,,,,,,,,,,,,,,,,,,,,,,,,,,,,,,SYN08072219 32966 23306 10133 20011 39792 40168 58013 91752 333 10133 20028 555 92818=,FM-12,4,,,,,,,,,,,,,,,,,,,,,,,,,,,3/27/2007
72219013874,2020-01-28T13:52:00,FM-15,7,,,,,,,,,,,,,,,,,,,,,,,,,,,,,,,,,,,,,,,30,31,57,0,,,,37,30.01,FEW:02 250,28.9,10,45,300,21,7,,,,,,,,,,,,,,,,,,,,,,,,,,,,,,,,,,,,,MET10301/28/20 13:52:02 METAR KATL 281852Z 30006G18KT 10SM FEW250 14/M01 A3000 RMK AO2 SLP161 T01391006 (KAF),FM-15,7,,,,,,,,,,,,,,,,,,,,,,,,,,,3/27/2007
72219013874,2020-01-28T14:52:00,FM-15,7,,,,,,,,,,,,,,,,,,,,,,,,,,,,,,,,,,,,,,,29.98,29,58,0,,,,33,29.98,FEW:02 60 FEW:02 200,28.88,10,45,350,,9,,,,,,,,,,,,,,,,,,,,,,,,,,,,,,,,,,,,,MET10701/28/20 14:52:02 METAR KATL 281952Z 35008KT 10SM FEW060 FEW200 14/M02 A2998 RMK AO2 SLP154 T01441017 (KAF),FM-15,7,,,,,,,,,,,,,,,,,,,,,,,,,,,3/27/2007
72219013874,2020-01-28T15:52:00,FM-15,7,,,,,,,,,,,,,,,,,,,,,,,,,,,,,,,,,,,,,,,29.98,29,58,0,,0.04,5,33,29.99,FEW:02 65,28.88,10,45,360,21,14,,,,,,,,,,,,,,,,,,,,,,,,,,,,,,,,,,,,,MET10901/28/20 15:52:02 METAR KATL 282052Z 36012G18KT 10SM FEW065 14/M02 A2998 RMK AO2 SLP156 T01441017 55013 (KAF),FM-15,7,,,,,,,,,,,,,,,,,,,,,,,,,,,3/27/2007
72219013874,2020-01-28T16:52:00,FM-15,7,,,,,,,,,,,,,,,,,,,,,,,,,,,,,,,,,,,,,,,29.99,30,57,0,,,,36,30,FEW:02 65 FEW:02 250,28.89,10,45,330,,11,,,,,,,,,,,,,,,,,,,,,,,,,,,,,,,,,,,,,MET10701/28/20 16:52:02 METAR KATL 282152Z 33010KT 10SM FEW065 FEW250 14/M01 A2999 RMK AO2 SLP158 T01391011 (KAF),FM-15,7,,,,,,,,,,,,,,,,,,,,,,,,,,,3/27/2007
72219013874,2020-01-28T17:52:00,FM-15,7,,,,,,,,,,,,,,,,,,,,,,,,,,,,,,,,,,,,,,,30,31,54,0,,,,42,30.01,FEW:02 250,28.9,10,44,320,,8,,,,,,,,,,,,,,,,,,,,,,,,,,,,,,,,,,,,,MET09901/28/20 17:52:02 METAR KATL 282252Z 32007KT 10SM FEW250 12/M01 A3000 RMK AO2 SLP162 T01221006 (RF),FM-15,7,,,,,,,,,,,,,,,,,,,,,,,,,,,3/27/2007
72219013874,2020-01-28T18:52:00,FM-15,7,,,,,,,,,,,,,,,,,,,,,,,,,,,,,,,,,,,,,,,30.01,31,52,0,,-0.02,3,45,30.01,SCT:04 250,28.91,10,43,330,,6,,,,,,,,,,,,,,,,,,,,,,,,,,,,,,,,,,,,,MET11701/28/20 18:52:02 METAR KATL 282352Z 33005KT 10SM SCT250 11/M01 A3001 RMK AO2 SLP164 T01111006 10150 20111 53007 (RF),FM-15,7,,,,,,,,,,,,,,,,,,,,,,,,,,,3/27/2007
72219013874,2020-01-28T19:00:00,FM-12,4,,,,,,,,,,,,,,,,,,,,,,,,,,,,,,,,,,,,,,,,31,52,,,-0.02,3,45,30.01,,28.9,9.94,43,330,,6,,,,,,,,,,,,,,,,,,,,,,,,,,,,,,,,,,,,,SYN08072219 32966 43305 10111 21006 39788 40164 53007 92352 333 10150 20028 555 92900=,FM-12,4,,,,,,,,,,,,,,,,,,,,,,,,,,,3/27/2007
72219013874,2020-01-28T19:52:00,FM-15,7,,,,,,,,,,,,,,,,,,,,,,,,,,,,,,,,,,,,,,,30.01,32,51,0,,,,48,30.02,SCT:04 250,28.91,10,43,340,,6,,,,,,,,,,,,,,,,,,,,,,,,,,,,,,,,,,,,,MET09301/28/20 19:52:01 METAR KATL 290052Z 34005KT 10SM SCT250 11/00 A3001 RMK AO2 SLP167 T01060000,FM-15,7,,,,,,,,,,,,,,,,,,,,,,,,,,,3/27/2007
72219013874,2020-01-28T20:52:00,FM-15,7,,,,,,,,,,,,,,,,,,,,,,,,,,,,,,,,,,,,,,,30.02,31,51,0,,,,46,30.03,SCT:04 250,28.92,10,42,350,,5,,,,,,,,,,,,,,,,,,,,,,,,,,,,,,,,,,,,,MET09401/28/20 20:52:01 METAR KATL 290152Z 35004KT 10SM SCT250 11/M01 A3002 RMK AO2 SLP168 T01061006,FM-15,7,,,,,,,,,,,,,,,,,,,,,,,,,,,3/27/2007
72219013874,2020-01-28T21:52:00,FM-15,7,,,,,,,,,,,,,,,,,,,,,,,,,,,,,,,,,,,,,,,30.02,31,51,0,,-0.01,1,46,30.03,SCT:04 250,28.92,10,42,20,,6,,,,,,,,,,,,,,,,,,,,,,,,,,,,,,,,,,,,,MET10001/28/20 21:52:01 METAR KATL 290252Z 02005KT 10SM SCT250 11/M01 A3002 RMK AO2 SLP168 T01061006 51004,FM-15,7,,,,,,,,,,,,,,,,,,,,,,,,,,,3/27/2007
72219013874,2020-01-28T22:52:00,FM-15,7,,,,,,,,,,,,,,,,,,,,,,,,,,,,,,,,,,,,,,,30.02,33,46,0,,,,61,30.02,FEW:02 120 SCT:04 250,28.92,10,40,0,,0,,,,,,,,,,,,,,,,,,,,,,,,,,,,,,,,,,,,,MET10001/28/20 22:52:01 METAR KATL 290352Z 00000KT 10SM FEW120 SCT250 08/01 A3002 RMK AO2 SLP167 T00780006,FM-15,7,,,,,,,,,,,,,,,,,,,,,,,,,,,3/27/2007
72219013874,2020-01-28T23:52:00,FM-15,7,,,,,,,,,,,,,,,,,,,,,,,,,,,,,,,,,,,,,,,30.03,32,46,0,,,,58,30.03,FEW:02 120 SCT:04 250,28.93,10,40,0,,0,,,,,,,,,,,,,,,,,,,,,,,,,,,,,,,,,,,,,MET11001/28/20 23:52:02 METAR KATL 290452Z 00000KT 10SM FEW120 SCT250 08/00 A3003 RMK AO2 SLP169 T00780000 401500028,FM-15,7,,,,,,,,,,,,,,,,,,,,,,,,,,,3/27/2007
72219013874,2020-01-28T23:59:00,SOD  ,6,,,,,,,,,,,,,,,,,33,48,61,30.02,28.9,41,6.9,0,3.9,17,59,37,340,24,0,0,0,340,17,,,,,,,,,,,,,,,,,,,,,,,,,,,,,,,,,,,,,,,,,,,,,,,,,,,,,,,,SOD73924 HR PRECIPITATION (IN): 0.00 SNOW DEPTH (IN):0     24 HR SNOWFALL (IN):0.0  24 HR MAX TEMP (F): 5924 HR MIN TEMP (F): 37AVERAGE STATION PRESSURE:28.905 MINIMUM SEA LEVEL PRESSURE:29.98 TIME OF OCCURRENCE:1545 PEAK WIND SPEED (MPH): 24 PEAK WIND DIR (DEG):340 PEAK WIND TIME (LST):      FASTEST 2MIN SPEED (MPH): 17FASTEST 2MIN DIR (DEG):340 FASTEST 2MIN TIME (LST):     AVERAGE WIND SPEED (MPH): 6.9 24 HR AVG TEMP (F): 48DEPART FROM NORMAL:  4  HEATING DEGREE DAYS: 17 COOLING DEGREE DAYS:  0 LATEST DAY MAX TEMP (0700-1900 LST):59  LATEST NIGHT MIN TEMP(1900-0800 LST):37 HOURLY INCREMENTAL PRECIPITATION VALUES (IN):.00 0.00 0.00 0.00 0.00 0.00 0.00 0.00 0.00 0.00 0.00 0.00 0.00 0.00 0.00 0.00 0.00 0.00 0.00 0.00 0.00 0.00 0.00 0.00,SOD  ,6,,,,,,,,,,,,,,,,,,,,,,,,,737,1805,3/27/2007
72219013874,2020-01-29T00:52:00,FM-15,7,,,,,,,,,,,,,,,,,,,,,,,,,,,,,,,,,,,,,,,30.02,32,45,0,,0,0,61,30.02,SCT:04 120 BKN:07 250,28.92,10,39,0,,0,,,,,,,,,,,,,,,,,,,,,,,,,,,,,,,,,,,,,MET12301/29/20 00:52:02 METAR KATL 290552Z 00000KT 10SM SCT120 BKN250 07/00 A3002 RMK AO2 SLP166 T00720000 10111 20067 50000 (RF),FM-15,7,,,,,,,,,,,,,,,,,,,,,,,,,,,3/27/2007
72219013874,2020-01-29T01:00:00,FM-12,4,,,,,,,,,,,,,,,,,,,,,,,,,,,,,,,,,,,,,,,,32,45,,,0,9,61,30.02,,28.92,9.94,39,0,,0,,,,,,,,,,,,,,,,,,,,,,,,,,,,,,,,,,,,,SYN08072219 32966 60000 10072 20000 39792 40166 50000 90552 333 10111 20028 555 92906=,FM-12,4,,,,,,,,,,,,,,,,,,,,,,,,,,,3/27/2007
72219013874,2020-01-29T01:52:00,FM-15,7,,,,,,,,,,,,,,,,,,,,,,,,,,,,,,,,,,,,,,,30.02,33,42,0,,,,71,30.02,SCT:04 120 SCT:04 250,28.92,10,38,0,,0,,,,,,,,,,,,,,,,,,,,,,,,,,,,,,,,,,,,,MET10501/29/20 01:52:02 METAR KATL 290652Z 00000KT 10SM SCT120 SCT250 06/01 A3002 RMK AO2 SLP166 T00560006 (DB),FM-15,7,,,,,,,,,,,,,,,,,,,,,,,,,,,3/27/2007
72219013874,2020-01-29T02:52:00,FM-15,7,,,,,,,,,,,,,,,,,,,,,,,,,,,,,,,,,,,,,,,30.02,34,44,0,,,,68,30.03,BKN:07 110,28.92,10,40,0,,0,,,,,,,,,,,,,,,,,,,,,,,,,,,,,,,,,,,,,MET09801/29/20 02:52:02 METAR KATL 290752Z 00000KT 10SM BKN110 07/01 A3002 RMK AO2 SLP168 T00670011 (DB),FM-15,7,,,,,,,,,,,,,,,,,,,,,,,,,,,3/27/2007
72219013874,2020-01-29T03:52:00,FM-15,7,,,,,,,,,,,,,,,,,,,,,,,,,,,,,,,,,,,,,,,30,32,45,0,,0.01,8,61,30,BKN:07 100,28.9,10,39,40,,3,,,,,,,,,,,,,,,,,,,,,,,,,,,,,,,,,,,,,MET10401/29/20 03:52:02 METAR KATL 290852Z 04003KT 10SM BKN100 07/00 A3000 RMK AO2 SLP160 T00720000 58005 (DB),FM-15,7,,,,,,,,,,,,,,,,,,,,,,,,,,,3/27/2007
72219013874,2020-01-29T04:52:00,FM-15,7,,,,,,,,,,,,,,,,,,,,,,,,,,,,,,,,,,,,,,,30.01,33,42,0,,,,71,30.01,FEW:02 100 BKN:07 140 BKN:07 200,28.91,10,38,0,,0,,,,,,,,,,,,,,,,,,,,,,,,,,,,,,,,,,,,,MET11201/29/20 04:52:02 METAR KATL 290952Z 00000KT 10SM FEW100 BKN140 BKN200 06/01 A3001 RMK AO2 SLP163 T00560006 (DB),FM-15,7,,,,,,,,,,,,,,,,,,,,,,,,,,,3/27/2007
72219013874,2020-01-29T05:52:00,FM-15,7,,,,,,,,,,,,,,,,,,,,,,,,,,,,,,,,,,,,,,,30.01,32,45,0,,,,61,30.01,FEW:02 100 BKN:07 150,28.91,10,39,0,,0,,,,,,,,,,,,,,,,,,,,,,,,,,,,,,,,,,,,,MET10501/29/20 05:52:02 METAR KATL 291052Z 00000KT 10SM FEW100 BKN150 07/00 A3001 RMK AO2 SLP162 T00720000 (DB),FM-15,7,,,,,,,,,,,,,,,,,,,,,,,,,,,3/27/2007
72219013874,2020-01-29T06:52:00,FM-15,7,,,,,,,,,,,,,,,,,,,,,,,,,,,,,,,,,,,,,,,30.01,33,44,0,,0,1,65,30.01,BKN:07 110,28.91,10,39,70,,3,,,,,,,,,,,,,,,,,,,,,,,,,,,,,,,,,,,,,MET11601/29/20 06:52:02 METAR KATL 291152Z 07003KT 10SM BKN110 07/01 A3001 RMK AO2 SLP163 T00670006 10083 20056 51001 (DB),FM-15,7,,,,,,,,,,,,,,,,,,,,,,,,,,,3/27/2007
72219013874,2020-01-29T07:00:00,FM-12,4,,,,,,,,,,,,,,,,,,,,,,,,,,,,,,,,,,,,,,,,33,44,,,0,1,65,30.01,,28.9,9.94,39,70,,3,,,,,,,,,,,,,,,,,,,,,,,,,,,,,,,,,,,,,SYN08072219 32966 60703 10067 20006 39788 40163 51001 91152 333 10150 20056 555 92912=,FM-12,4,,,,,,,,,,,,,,,,,,,,,,,,,,,3/27/2007
72219013874,2020-01-29T07:52:00,FM-15,7,,,,,,,,,,,,,,,,,,,,,,,,,,,,,,,,,,,,,,,30.03,33,44,0,,,,65,30.04,SCT:04 85 SCT:04 110 BKN:07 200,28.93,10,39,90,,5,,,,,,,,,,,,,,,,,,,,,,,,,,,,,,,,,,,,,MET12701/29/20 07:52:02 METAR KATL 291252Z 09004KT 10SM SCT085 SCT110 BKN200 07/01 A3003 RMK AO2 SLP173 VIRGA NE-SE-SW T00670006 (DB),FM-15,7,,,,,,,,,,,,,,,,,,,,,,,,,,,3/27/2007
72219013874,2020-01-29T08:52:00,FM-15,7,,,,,,,,,,,,,,,,,,,,,,,,,,,,,,,,,,,,,,,30.04,33,45,0,,,,63,30.04,BKN:07 100 BKN:07 200 BKN:07 250,28.94,10,40,70,,8,,,,,,,,,,,,,,,,,,,,,,,,,,,,,,,,,,,,,MET11201/29/20 08:52:02 METAR KATL 291352Z 07007KT 10SM BKN100 BKN200 BKN250 07/01 A3004 RMK AO2 SLP174 T00720006 (DB),FM-15,7,,,,,,,,,,,,,,,,,,,,,,,,,,,3/27/2007
72219013874,2020-01-29T09:52:00,FM-15,7,,,,,,,,,,,,,,,,,,,,,,,,,,,,,,,,,,,,,,,30.03,32,47,0,,-0.02,0,56,30.03,SCT:04 100 OVC:08 200,28.93,10,40,80,,11,,,,,,,,,,,,,,,,,,,,,,,,,,,,,,,,,,,,,MET11201/29/20 09:52:02 METAR KATL 291452Z 08010KT 10SM SCT100 OVC200 08/00 A3003 RMK AO2 SLP170 T00830000 50008 (JRN),FM-15,7,,,,,,,,,,,,,,,,,,,,,,,,,,,3/27/2007
72219013874,2020-01-29T10:52:00,FM-15,7,,,,,,,,,,,,,,,,,,,,,,,,,,,,,,,,,,,,,,,30.02,32,48,0,,,,54,30.03,BKN:07 110 OVC:08 200,28.92,10,41,70,,9,,,,,,,,,,,,,,,,,,,,,,,,,,,,,,,,,,,,,MET10601/29/20 10:52:02 METAR KATL 291552Z 07008KT 10SM BKN110 OVC200 09/00 A3002 RMK AO2 SLP170 T00890000 (JRN),FM-15,7,,,,,,,,,,,,,,,,,,,,,,,,,,,3/27/2007
72219013874,2020-01-29T11:52:00,FM-15,7,,,,,,,,,,,,,,,,,,,,,,,,,,,,,,,,,,,,,,,30.02,33,50,0,,,,52,30.03,BKN:07 110 OVC:08 250,28.92,10,42,90,,6,,,,,,,,,,,,,,,,,,,,,,,,,,,,,,,,,,,,,MET10601/29/20 11:52:02 METAR KATL 291652Z 09005KT 10SM BKN110 OVC250 10/01 A3002 RMK AO2 SLP170 T01000006 (JRN),FM-15,7,,,,,,,,,,,,,,,,,,,,,,,,,,,3/27/2007
72219013874,2020-01-29T12:52:00,FM-15,7,,,,,,,,,,,,,,,,,,,,,,,,,,,,,,,,,,,,,,,30,34,51,0,,0.03,8,52,30,BKN:07 110 OVC:08 200,28.9,10,43,60,,10,,,,,,,,,,,,,,,,,,,,,,,,,,,,,,,,,,,,,MET12401/29/20 12:52:02 METAR KATL 291752Z 06009KT 10SM BKN110 OVC200 11/01 A3000 RMK AO2 SLP160 T01060011 10106 20056 58011 (JRN),FM-15,7,,,,,,,,,,,,,,,,,,,,,,,,,,,3/27/2007
72219013874,2020-01-29T13:00:00,FM-12,4,,,,,,,,,,,,,,,,,,,,,,,,,,,,,,,,,,,,,,,,34,51,,,0.03,8,52,30,,28.9,9.94,43,60,,10,,,,,,,,,,,,,,,,,,,,,,,,,,,,,,,,,,,,,SYN08072219 32966 80609 10106 20011 39785 40160 58011 91752 333 10106 20056 555 92918=,FM-12,4,,,,,,,,,,,,,,,,,,,,,,,,,,,3/27/2007
72219013874,2020-01-29T13:52:00,FM-15,7,,,,,,,,,,,,,,,,,,,,,,,,,,,,,,,,,,,,,,,29.99,33,52,0,,,,49,30,FEW:02 80 BKN:07 100 OVC:08 200,28.89,10,43,80,,7,,,,,,,,,,,,,,,,,,,,,,,,,,,,,,,,,,,,,MET11301/29/20 13:52:02 METAR KATL 291852Z 08006KT 10SM FEW080 BKN100 OVC200 11/01 A2999 RMK AO2 SLP158 T01110006 (JRN),FM-15,7,,,,,,,,,,,,,,,,,,,,,,,,,,,3/27/2007
72219013874,2020-01-29T14:52:00,FM-15,7,,,,,,,,,,,,,,,,,,,,,,,,,,,,,,,,,,,,,,,29.98,33,51,0,,,,50,29.99,BKN:07 75 OVC:08 90,28.88,10,43,60,,6,,,,,,,,,,,,,,,,,,,,,,,,,,,,,,,,,,,,,MET10601/29/20 14:52:02 METAR KATL 291952Z 06005KT 10SM BKN075 OVC090 11/01 A2998 RMK AO2 SLP156 T01060006 (JRN),FM-15,7,,,,,,,,,,,,,,,,,,,,,,,,,,,3/27/2007
72219013874,2020-01-29T15:52:00,FM-15,7,,,,,,,,,,,,,,,,,,,,,,,,,,,,,,,,,,,,,,,29.97,32,51,0,,0.02,8,48,29.98,FEW:02 60 BKN:07 75 OVC:08 100,28.87,10,43,60,,5,,,,,,,,,,,,,,,,,,,,,,,,,,,,,,,,,,,,,MET11901/29/20 15:52:02 METAR KATL 292052Z 06004KT 10SM FEW060 BKN075 OVC100 11/00 A2997 RMK AO2 SLP152 T01060000 58007 (JRN),FM-15,7,,,,,,,,,,,,,,,,,,,,,,,,,,,3/27/2007
72219013874,2020-01-29T16:52:00,FM-15,7,,,,,,,,,,,,,,,,,,,,,,,,,,,,,,,,,,,,,,,29.97,32,51,0,,,,48,29.97,SCT:04 80 BKN:07 140 OVC:08 250,28.87,10,43,50,,10,,,,,,,,,,,,,,,,,,,,,,,,,,,,,,,,,,,,,MET11301/29/20 16:52:02 METAR KATL 292152Z 05009KT 10SM SCT080 BKN140 OVC250 11/00 A2997 RMK AO2 SLP150 T01060000 (JRN),FM-15,7,,,,,,,,,,,,,,,,,,,,,,,,,,,3/27/2007
72219013874,2020-01-29T17:52:00,FM-15,7,,,,,,,,,,,,,,,,,,,,,,,,,,,,,,,,,,,,,,,29.97,33,50,0,,,,52,29.97,FEW:02 90 BKN:07 130 BKN:07 250,28.87,10,42,60,,11,,,,,,,,,,,,,,,,,,,,,,,,,,,,,,,,,,,,,MET11301/29/20 17:52:02 METAR KATL 292252Z 06010KT 10SM FEW090 BKN130 BKN250 10/01 A2997 RMK AO2 SLP150 T01000006 (JRN),FM-15,7,,,,,,,,,,,,,,,,,,,,,,,,,,,3/27/2007
72219013874,2020-01-29T18:52:00,FM-15,7,,,,,,,,,,,,,,,,,,,,,,,,,,,,,,,,,,,,,,,30.01,34,49,0,,-0.04,3,56,30.01,FEW:02 90 BKN:07 130 OVC:08 200,28.91,10,42,70,,8,,,,,,,,,,,,,,,,,,,,,,,,,,,,,,,,,,,,,MET13701/29/20 18:52:02 METAR KATL 292352Z 07007KT 10SM FEW090 BKN130 OVC200 09/01 A3001 RMK AO2 PRESRR SLP164 T00940011 10111 20094 53012 (RF),FM-15,7,,,,,,,,,,,,,,,,,,,,,,,,,,,3/27/2007
72219013874,2020-01-29T19:00:00,FM-12,4,,,,,,,,,,,,,,,,,,,,,,,,,,,,,,,,,,,,,,,,34,49,,,-0.04,3,56,30.01,,28.9,9.94,42,70,,8,,,,,,,,,,,,,,,,,,,,,,,,,,,,,,,,,,,,,SYN08072219 32966 80707 10094 20011 39788 40164 53012 92352 333 10111 20056 555 93000=,FM-12,4,,,,,,,,,,,,,,,,,,,,,,,,,,,3/27/2007
72219013874,2020-01-29T19:52:00,FM-15,7,,,,,,,,,,,,,,,,,,,,,,,,,,,,,,,,,,,,,,,30.03,34,49,0,,,,56,30.03,BKN:07 95 OVC:08 130,28.93,10,42,70,,7,,,,,,,,,,,,,,,,,,,,,,,,,,,,,,,,,,,,,MET10001/29/20 19:52:01 METAR KATL 300052Z 07006KT 10SM BKN095 OVC130 09/01 A3003 RMK AO2 SLP170 T00940011,FM-15,7,,,,,,,,,,,,,,,,,,,,,,,,,,,3/27/2007
72219013874,2020-01-29T20:52:00,FM-15,7,,,,,,,,,,,,,,,,,,,,,,,,,,,,,,,,,,,,,,,30.03,34,48,0,,,,58,30.03,BKN:07 90 BKN:07 200,28.93,10,42,70,,8,,,,,,,,,,,,,,,,,,,,,,,,,,,,,,,,,,,,,MET10001/29/20 20:52:01 METAR KATL 300152Z 07007KT 10SM BKN090 BKN200 09/01 A3003 RMK AO2 SLP170 T00890011,FM-15,7,,,,,,,,,,,,,,,,,,,,,,,,,,,3/27/2007
72219013874,2020-01-29T21:52:00,FM-15,7,,,,,,,,,,,,,,,,,,,,,,,,,,,,,,,,,,,,,,,30.03,34,48,0,,-0.02,1,58,30.04,BKN:07 100 BKN:07 200,28.93,10,42,40,,8,,,,,,,,,,,,,,,,,,,,,,,,,,,,,,,,,,,,,MET10601/29/20 21:52:01 METAR KATL 300252Z 04007KT 10SM BKN100 BKN200 09/01 A3003 RMK AO2 SLP172 T00890011 51008,FM-15,7,,,,,,,,,,,,,,,,,,,,,,,,,,,3/27/2007
72219013874,2020-01-29T22:52:00,FM-15,7,,,,,,,,,,,,,,,,,,,,,,,,,,,,,,,,,,,,,,,30.03,34,47,0,,,,61,30.04,FEW:02 100 SCT:04 250,28.93,10,41,40,,8,,,,,,,,,,,,,,,,,,,,,,,,,,,,,,,,,,,,,MET10001/29/20 22:52:01 METAR KATL 300352Z 04007KT 10SM FEW100 SCT250 08/01 A3003 RMK AO2 SLP173 T00830011,FM-15,7,,,,,,,,,,,,,,,,,,,,,,,,,,,3/27/2007
72219013874,2020-01-29T23:52:00,FM-15,7,,,,,,,,,,,,,,,,,,,,,,,,,,,,,,,,,,,,,,,30.04,34,45,0,,,,66,30.04,FEW:02 100 FEW:02 250,28.94,10,40,40,,8,,,,,,,,,,,,,,,,,,,,,,,,,,,,,,,,,,,,,MET11001/29/20 23:52:02 METAR KATL 300452Z 04007KT 10SM FEW100 FEW250 07/01 A3004 RMK AO2 SLP174 T00720011 401110056,FM-15,7,,,,,,,,,,,,,,,,,,,,,,,,,,,3/27/2007
72219013874,2020-01-29T23:59:00,SOD  ,6,,,,,,,,,,,,,,,,,33,47,58,30.02,28.9,41,5.9,0,2.8,18,52,42,60,17,0,0,0,60,14,,,,,,,,,,,,,,,,,,,,,,,,,,,,,,,,,,,,,,,,,,,,,,,,,,,,,,,,SOD73924 HR PRECIPITATION (IN): 0.00 SNOW DEPTH (IN):0     24 HR SNOWFALL (IN):0.0  24 HR MAX TEMP (F): 5224 HR MIN TEMP (F): 42AVERAGE STATION PRESSURE:28.905 MINIMUM SEA LEVEL PRESSURE:29.96 TIME OF OCCURRENCE:1733 PEAK WIND SPEED (MPH): 17 PEAK WIND DIR (DEG): 60 PEAK WIND TIME (LST):      FASTEST 2MIN SPEED (MPH): 14FASTEST 2MIN DIR (DEG): 60 FASTEST 2MIN TIME (LST):     AVERAGE WIND SPEED (MPH): 5.9 24 HR AVG TEMP (F): 47DEPART FROM NORMAL:  3  HEATING DEGREE DAYS: 18 COOLING DEGREE DAYS:  0 LATEST DAY MAX TEMP (0700-1900 LST):52  LATEST NIGHT MIN TEMP(1900-0800 LST):42 HOURLY INCREMENTAL PRECIPITATION VALUES (IN):.00 0.00 0.00 0.00 0.00 0.00 0.00 0.00 0.00 0.00 0.00 0.00 0.00 0.00 0.00 0.00 0.00 0.00 0.00 0.00 0.00 0.00 0.00 0.00,SOD  ,6,,,,,,,,,,,,,,,,,,,,,,,,,736,1806,3/27/2007
72219013874,2020-01-30T00:52:00,FM-15,7,,,,,,,,,,,,,,,,,,,,,,,,,,,,,,,,,,,,,,,30.03,34,44,0,,0,8,68,30.04,FEW:02 100 FEW:02 250,28.93,10,40,360,,8,,,,,,,,,,,,,,,,,,,,,,,,,,,,,,,,,,,,,MET12301/30/20 00:52:02 METAR KATL 300552Z 36007KT 10SM FEW100 FEW250 07/01 A3003 RMK AO2 SLP172 T00670011 10100 20067 58000 (RF),FM-15,7,,,,,,,,,,,,,,,,,,,,,,,,,,,3/27/2007
72219013874,2020-01-30T01:00:00,FM-12,4,,,,,,,,,,,,,,,,,,,,,,,,,,,,,,,,,,,,,,,,34,44,,,,,68,30.04,,28.92,9.94,40,360,,8,,,,,,,,,,,,,,,,,,,,,,,,,,,,,,,,,,,,,SYN08072219 32966 23607 10067 20011 39795 40172 58000 90552 333 10100 20056 555 93006=,FM-12,4,,,,,,,,,,,,,,,,,,,,,,,,,,,3/27/2007
72219013874,2020-01-30T01:52:00,FM-15,7,,,,,,,,,,,,,,,,,,,,,,,,,,,,,,,,,,,,,,,30.04,33,42,0,,,,71,30.05,FEW:02 100 FEW:02 250,28.94,10,38,20,,5,,,,,,,,,,,,,,,,,,,,,,,,,,,,,,,,,,,,,MET10501/30/20 01:52:02 METAR KATL 300652Z 02004KT 10SM FEW100 FEW250 06/01 A3004 RMK AO2 SLP175 T00560006 (RF),FM-15,7,,,,,,,,,,,,,,,,,,,,,,,,,,,3/27/2007
72219013874,2020-01-30T02:52:00,FM-15,7,,,,,,,,,,,,,,,,,,,,,,,,,,,,,,,,,,,,,,,30.03,34,42,0,,,,73,30.04,FEW:02 250,28.93,10,39,40,,9,,,,,,,,,,,,,,,,,,,,,,,,,,,,,,,,,,,,,MET09801/30/20 02:52:02 METAR KATL 300752Z 04008KT 10SM FEW250 06/01 A3003 RMK AO2 SLP173 T00560011 (RF),FM-15,7,,,,,,,,,,,,,,,,,,,,,,,,,,,3/27/2007
72219013874,2020-01-30T03:52:00,FM-15,7,,,,,,,,,,,,,,,,,,,,,,,,,,,,,,,,,,,,,,,30.04,34,42,0,,-0.01,1,73,30.04,CLR:00,28.94,10,39,40,,7,,,,,,,,,,,,,,,,,,,,,,,,,,,,,,,,,,,,,MET10201/30/20 03:52:02 METAR KATL 300852Z 04006KT 10SM CLR 06/01 A3004 RMK AO2 SLP174 T00560011 51002 (KAF),FM-15,7,,,,,,,,,,,,,,,,,,,,,,,,,,,3/27/2007
72219013874,2020-01-30T04:52:00,FM-15,7,,,,,,,,,,,,,,,,,,,,,,,,,,,,,,,,,,,,,,,30.05,33,41,0,,,,73,30.06,CLR:00,28.95,10,38,50,,7,,,,,,,,,,,,,,,,,,,,,,,,,,,,,,,,,,,,,MET09601/30/20 04:52:02 METAR KATL 300952Z 05006KT 10SM CLR 05/01 A3005 RMK AO2 SLP181 T00500006 (KAF),FM-15,7,,,,,,,,,,,,,,,,,,,,,,,,,,,3/27/2007
72219013874,2020-01-30T05:52:00,FM-15,7,,,,,,,,,,,,,,,,,,,,,,,,,,,,,,,,,,,,,,,30.07,33,40,0,,,,77,30.08,CLR:00,28.97,9,37,40,,8,,,,,,,,,,,,,,,,,,,,,,,,,,,,,,,,,,,,,MET09501/30/20 05:52:02 METAR KATL 301052Z 04007KT 9SM CLR 04/01 A3007 RMK AO2 SLP187 T00440006 (KAF),FM-15,7,,,,,,,,,,,,,,,,,,,,,,,,,,,3/27/2007
72219013874,2020-01-30T06:52:00,FM-15,7,,,,,,,,,,,,,,,,,,,,,,,,,,,,,,,,,,,,,,,30.1,33,41,0,,-0.06,3,73,30.11,CLR:00,29,10,38,50,,8,,,,,,,,,,,,,,,,,,,,,,,,,,,,,,,,,,,,,MET11401/30/20 06:52:02 METAR KATL 301152Z 05007KT 10SM CLR 05/01 A3010 RMK AO2 SLP197 T00500006 10067 20044 53021 (KAF),FM-15,7,,,,,,,,,,,,,,,,,,,,,,,,,,,3/27/2007
72219013874,2020-01-30T07:00:00,FM-12,4,,,,,,,,,,,,,,,,,,,,,,,,,,,,,,,,,,,,,,,,33,41,,,-0.06,3,73,30.11,,28.99,9.94,38,50,,8,,,,,,,,,,,,,,,,,,,,,,,,,,,,,,,,,,,,,SYN08072219 32966 00507 10050 20006 39818 40197 53021 91152 333 10111 20044 555 93012=,FM-12,4,,,,,,,,,,,,,,,,,,,,,,,,,,,3/27/2007
72219013874,2020-01-30T07:52:00,FM-15,7,,,,,,,,,,,,,,,,,,,,,,,,,,,,,,,,,,,,,,,30.12,34,41,0,,,,76,30.13,CLR:00,29.02,10,38,60,,10,,,,,,,,,,,,,,,,,,,,,,,,,,,,,,,,,,,,,MET09601/30/20 07:52:02 METAR KATL 301252Z 06009KT 10SM CLR 05/01 A3012 RMK AO2 SLP204 T00500011 (KAF),FM-15,7,,,,,,,,,,,,,,,,,,,,,,,,,,,3/27/2007
72219013874,2020-01-30T08:52:00,FM-15,7,,,,,,,,,,,,,,,,,,,,,,,,,,,,,,,,,,,,,,,30.13,35,43,0,,,,74,30.14,CLR:00,29.03,10,40,90,,8,,,,,,,,,,,,,,,,,,,,,,,,,,,,,,,,,,,,,MET09601/30/20 08:52:02 METAR KATL 301352Z 09007KT 10SM CLR 06/02 A3013 RMK AO2 SLP207 T00610017 (KAF),FM-15,7,,,,,,,,,,,,,,,,,,,,,,,,,,,3/27/2007
72219013874,2020-01-30T09:52:00,FM-15,7,,,,,,,,,,,,,,,,,,,,,,,,,,,,,,,,,,,,,,,30.15,37,46,0,,-0.04,1,71,30.16,CLR:00,29.05,10,42,70,,9,,,,,,,,,,,,,,,,,,,,,,,,,,,,,,,,,,,,,MET10201/30/20 09:52:02 METAR KATL 301452Z 07008KT 10SM CLR 08/03 A3015 RMK AO2 SLP212 T00780028 51015 (JRN),FM-15,7,,,,,,,,,,,,,,,,,,,,,,,,,,,3/27/2007
72219013874,2020-01-30T10:52:00,FM-15,7,,,,,,,,,,,,,,,,,,,,,,,,,,,,,,,,,,,,,,,30.16,39,50,0,,,,66,30.16,FEW:02 24,29.06,10,45,90,,8,,,,,,,,,,,,,,,,,,,,,,,,,,,,,,,,,,,,,MET09901/30/20 10:52:02 METAR KATL 301552Z 09007KT 10SM FEW024 10/04 A3016 RMK AO2 SLP215 T01000039 (JRN),FM-15,7,,,,,,,,,,,,,,,,,,,,,,,,,,,3/27/2007
72219013874,2020-01-30T11:52:00,FM-15,7,,,,,,,,,,,,,,,,,,,,,,,,,,,,,,,,,,,,,,,30.15,40,53,0,,,,61,30.15,SCT:04 26,29.05,10,47,70,,10,,,,,,,,,,,,,,,,,,,,,,,,,,,,,,,,,,,,,MET09901/30/20 11:52:02 METAR KATL 301652Z 07009KT 10SM SCT026 12/04 A3015 RMK AO2 SLP211 T01170044 (JRN),FM-15,7,,,,,,,,,,,,,,,,,,,,,,,,,,,3/27/2007
72219013874,2020-01-30T12:52:00,FM-15,7,,,,,,,,,,,,,,,,,,,,,,,,,,,,,,,,,,,,,,,30.11,39,55,0,,0.03,8,55,30.12,FEW:02 31,29.01,10,47,70,18,8,,,,,,,,,,,,,,,,,,,,,,,,,,,,,,,,,,,,,MET12001/30/20 12:52:02 METAR KATL 301752Z 07007G16KT 10SM FEW031 13/04 A3011 RMK AO2 SLP199 T01280039 10128 20050 58011 (JRN),FM-15,7,,,,,,,,,,,,,,,,,,,,,,,,,,,3/27/2007
72219013874,2020-01-30T13:00:00,FM-12,4,,,,,,,,,,,,,,,,,,,,,,,,,,,,,,,,,,,,,,,,39,55,,,0.03,8,55,30.12,26,29,9.94,47,70,,8,,,,,,,,,,,,,,,,,,,,,,,,,,,,,,,,,,,,,SYN08672219 32566 20707 10128 20039 39821 40199 58011 91752 333 10128 20050 91016 555 93018=,FM-12,4,,,,,,,,,,,,,,,,,,,,,,,,,,,3/27/2007
72219013874,2020-01-30T13:52:00,FM-15,7,,,,,,,,,,,,,,,,,,,,,,,,,,,,,,,,,,,,,,,30.1,39,56,0,,,,53,30.11,FEW:02 36,29,10,48,VRB,,5,,,,,,,,,,,,,,,,,,,,,,,,,,,,,,,,,,,,,MET09901/30/20 13:52:02 METAR KATL 301852Z VRB04KT 10SM FEW036 13/04 A3010 RMK AO2 SLP196 T01330039 (JRN),FM-15,7,,,,,,,,,,,,,,,,,,,,,,,,,,,3/27/2007
72219013874,2020-01-30T14:52:00,FM-15,7,,,,,,,,,,,,,,,,,,,,,,,,,,,,,,,,,,,,,,,30.09,39,59,0,,,,48,30.09,FEW:02 40,28.99,10,49,110,,8,,,,,,,,,,,,,,,,,,,,,,,,,,,,,,,,,,,,,MET09901/30/20 14:52:02 METAR KATL 301952Z 11007KT 10SM FEW040 15/04 A3009 RMK AO2 SLP189 T01500039 (JRN),FM-15,7,,,,,,,,,,,,,,,,,,,,,,,,,,,3/27/2007
72219013874,2020-01-30T15:52:00,FM-15,7,,,,,,,,,,,,,,,,,,,,,,,,,,,,,,,,,,,,,,,30.08,38,58,0,,0.03,6,48,30.09,FEW:02 42,28.98,10,48,50,,8,,,,,,,,,,,,,,,,,,,,,,,,,,,,,,,,,,,,,MET10501/30/20 15:52:02 METAR KATL 302052Z 05007KT 10SM FEW042 14/03 A3008 RMK AO2 SLP189 T01440033 56010 (JRN),FM-15,7,,,,,,,,,,,,,,,,,,,,,,,,,,,3/27/2007
72219013874,2020-01-30T16:52:00,FM-15,7,,,,,,,,,,,,,,,,,,,,,,,,,,,,,,,,,,,,,,,30.1,38,57,0,,,,49,30.1,FEW:02 44,29,10,48,90,,8,,,,,,,,,,,,,,,,,,,,,,,,,,,,,,,,,,,,,MET09901/30/20 16:52:02 METAR KATL 302152Z 09007KT 10SM FEW044 14/03 A3010 RMK AO2 SLP194 T01390033 (JRN),FM-15,7,,,,,,,,,,,,,,,,,,,,,,,,,,,3/27/2007
72219013874,2020-01-30T17:52:00,FM-15,7,,,,,,,,,,,,,,,,,,,,,,,,,,,,,,,,,,,,,,,30.11,37,55,0,,,,51,30.11,FEW:02 45 SCT:04 250,29.01,10,46,100,,8,,,,,,,,,,,,,,,,,,,,,,,,,,,,,,,,,,,,,MET10501/30/20 17:52:02 METAR KATL 302252Z 10007KT 10SM FEW045 SCT250 13/03 A3011 RMK AO2 SLP198 T01280028 (RF),FM-15,7,,,,,,,,,,,,,,,,,,,,,,,,,,,3/27/2007
72219013874,2020-01-30T18:52:00,FM-15,7,,,,,,,,,,,,,,,,,,,,,,,,,,,,,,,,,,,,,,,30.12,37,53,0,,-0.03,1,55,30.13,FEW:02 45 SCT:04 250,29.02,10,45,100,,9,,,,,,,,,,,,,,,,,,,,,,,,,,,,,,,,,,,,,MET12301/30/20 18:52:02 METAR KATL 302352Z 10008KT 10SM FEW045 SCT250 12/03 A3012 RMK AO2 SLP202 T01170028 10150 20111 51011 (RF),FM-15,7,,,,,,,,,,,,,,,,,,,,,,,,,,,3/27/2007
72219013874,2020-01-30T19:00:00,FM-12,4,,,,,,,,,,,,,,,,,,,,,,,,,,,,,,,,,,,,,,,,37,53,,,-0.03,1,55,30.13,41,29.01,9.94,45,100,,9,,,,,,,,,,,,,,,,,,,,,,,,,,,,,,,,,,,,,SYN08072219 32666 41008 10117 20028 39825 40202 51011 92352 333 10150 20044 555 93100=,FM-12,4,,,,,,,,,,,,,,,,,,,,,,,,,,,3/27/2007
72219013874,2020-01-30T19:52:00,FM-15,7,,,,,,,,,,,,,,,,,,,,,,,,,,,,,,,,,,,,,,,30.13,37,51,0,,,,59,30.14,SCT:04 250,29.03,10,44,100,,7,,,,,,,,,,,,,,,,,,,,,,,,,,,,,,,,,,,,,MET09801/30/20 19:52:03 METAR KATL 310052Z 10006KT 10SM SCT250 11/03 A3013 RMK AO2 SLP208 T01060028 (RF),FM-15,7,,,,,,,,,,,,,,,,,,,,,,,,,,,3/27/2007
72219013874,2020-01-30T20:52:00,FM-15,7,,,,,,,,,,,,,,,,,,,,,,,,,,,,,,,,,,,,,,,30.14,37,49,0,,,,64,30.15,SCT:04 250,29.04,10,43,90,,10,,,,,,,,,,,,,,,,,,,,,,,,,,,,,,,,,,,,,MET09801/30/20 20:52:03 METAR KATL 310152Z 09009KT 10SM SCT250 09/03 A3014 RMK AO2 SLP210 T00940028 (RF),FM-15,7,,,,,,,,,,,,,,,,,,,,,,,,,,,3/27/2007
72219013874,2020-01-30T21:52:00,FM-15,7,,,,,,,,,,,,,,,,,,,,,,,,,,,,,,,,,,,,,,,30.15,37,47,0,,-0.03,1,69,30.15,BKN:07 250,29.05,10,42,100,,7,,,,,,,,,,,,,,,,,,,,,,,,,,,,,,,,,,,,,MET10401/30/20 21:52:03 METAR KATL 310252Z 10006KT 10SM BKN250 08/03 A3015 RMK AO2 SLP211 T00830028 51009 (RF),FM-15,7,,,,,,,,,,,,,,,,,,,,,,,,,,,3/27/2007
72219013874,2020-01-30T22:52:00,FM-15,7,,,,,,,,,,,,,,,,,,,,,,,,,,,,,,,,,,,,,,,30.16,37,48,0,,,,66,30.16,BKN:07 250,29.06,10,43,100,,8,,,,,,,,,,,,,,,,,,,,,,,,,,,,,,,,,,,,,MET09801/30/20 22:52:03 METAR KATL 310352Z 10007KT 10SM BKN250 09/03 A3016 RMK AO2 SLP214 T00890028 (RF),FM-15,7,,,,,,,,,,,,,,,,,,,,,,,,,,,3/27/2007
72219013874,2020-01-30T23:52:00,FM-15,7,,,,,,,,,,,,,,,,,,,,,,,,,,,,,,,,,,,,,,,30.16,37,45,0,,,,74,30.16,BKN:07 250,29.06,10,41,80,,8,,,,,,,,,,,,,,,,,,,,,,,,,,,,,,,,,,,,,MET10801/30/20 23:52:03 METAR KATL 310452Z 08007KT 10SM BKN250 07/03 A3016 RMK AO2 SLP215 T00720028 401500044 (RF),FM-15,7,,,,,,,,,,,,,,,,,,,,,,,,,,,3/27/2007
72219013874,2020-01-30T23:59:00,SOD  ,6,,,,,,,,,,,,,,,,,36,50,64,30.11,28.99,43,8,0,5.7,15,59,40,30,18,0,0,0,50,12,,,,,,,,,,,,,,,,,,,,,,,,,,,,,,,,,,,,,,,,,,,,,,,,,,,,,,,,SOD73924 HR PRECIPITATION (IN): 0.00 SNOW DEPTH (IN):0     24 HR SNOWFALL (IN):0.0  24 HR MAX TEMP (F): 5924 HR MIN TEMP (F): 40AVERAGE STATION PRESSURE:28.990 MINIMUM SEA LEVEL PRESSURE:30.04 TIME OF OCCURRENCE:0356 PEAK WIND SPEED (MPH): 18 PEAK WIND DIR (DEG): 30 PEAK WIND TIME (LST):      FASTEST 2MIN SPEED (MPH): 12FASTEST 2MIN DIR (DEG): 50 FASTEST 2MIN TIME (LST):     AVERAGE WIND SPEED (MPH): 8.0 24 HR AVG TEMP (F): 50DEPART FROM NORMAL:  6  HEATING DEGREE DAYS: 15 COOLING DEGREE DAYS:  0 LATEST DAY MAX TEMP (0700-1900 LST):59  LATEST NIGHT MIN TEMP(1900-0800 LST):40 HOURLY INCREMENTAL PRECIPITATION VALUES (IN):.00 0.00 0.00 0.00 0.00 0.00 0.00 0.00 0.00 0.00 0.00 0.00 0.00 0.00 0.00 0.00 0.00 0.00 0.00 0.00 0.00 0.00 0.00 0.00,SOD  ,6,,,,,,,,,,,,,,,,,,,,,,,,,736,1807,3/27/2007
72219013874,2020-01-31T00:52:00,FM-15,7,,,,,,,,,,,,,,,,,,,,,,,,,,,,,,,,,,,,,,,30.16,37,45,0,,-0.01,0,74,30.16,SCT:04 200 BKN:07 250,29.06,10,41,90,,8,,,,,,,,,,,,,,,,,,,,,,,,,,,,,,,,,,,,,MET12301/31/20 00:52:02 METAR KATL 310552Z 09007KT 10SM SCT200 BKN250 07/03 A3016 RMK AO2 SLP214 T00720028 10117 20067 50003 (RF),FM-15,7,,,,,,,,,,,,,,,,,,,,,,,,,,,3/27/2007
72219013874,2020-01-31T01:00:00,FM-12,4,,,,,,,,,,,,,,,,,,,,,,,,,,,,,,,,,,,,,,,,37,45,,,0.01,9,74,30.16,,29.05,9.94,41,90,,8,,,,,,,,,,,,,,,,,,,,,,,,,,,,,,,,,,,,,SYN08072219 32966 60907 10072 20028 39838 40214 50003 90552 333 10117 20044 555 93106=,FM-12,4,,,,,,,,,,,,,,,,,,,,,,,,,,,3/27/2007
72219013874,2020-01-31T01:52:00,FM-15,7,,,,,,,,,,,,,,,,,,,,,,,,,,,,,,,,,,,,,,,30.15,37,44,0,,,,76,30.16,FEW:02 150 BKN:07 200 OVC:08 250,29.05,10,41,90,,8,,,,,,,,,,,,,,,,,,,,,,,,,,,,,,,,,,,,,MET11201/31/20 01:52:02 METAR KATL 310652Z 09007KT 10SM FEW150 BKN200 OVC250 07/03 A3015 RMK AO2 SLP213 T00670028 (RF),FM-15,7,,,,,,,,,,,,,,,,,,,,,,,,,,,3/27/2007
72219013874,2020-01-31T02:52:00,FM-15,7,,,,,,,,,,,,,,,,,,,,,,,,,,,,,,,,,,,,,,,30.14,37,43,0,,,,80,30.14,FEW:02 150 BKN:07 200 BKN:07 250,29.04,10,40,90,,11,,,,,,,,,,,,,,,,,,,,,,,,,,,,,,,,,,,,,MET11301/31/20 02:52:02 METAR KATL 310752Z 09010KT 10SM FEW150 BKN200 BKN250 06/03 A3014 RMK AO2 SLP208 T00610028 (KAF),FM-15,7,,,,,,,,,,,,,,,,,,,,,,,,,,,3/27/2007
72219013874,2020-01-31T03:52:00,FM-15,7,,,,,,,,,,,,,,,,,,,,,,,,,,,,,,,,,,,,,,,30.15,36,43,0,,0.01,5,76,30.15,FEW:02 150 BKN:07 200 OVC:08 250,29.05,10,40,90,,13,,,,,,,,,,,,,,,,,,,,,,,,,,,,,,,,,,,,,MET11901/31/20 03:52:02 METAR KATL 310852Z 09011KT 10SM FEW150 BKN200 OVC250 06/02 A3015 RMK AO2 SLP211 T00610022 55002 (KAF),FM-15,7,,,,,,,,,,,,,,,,,,,,,,,,,,,3/27/2007
72219013874,2020-01-31T04:52:00,FM-15,7,,,,,,,,,,,,,,,,,,,,,,,,,,,,,,,,,,,,,,,30.16,36,43,0,,,,76,30.16,SCT:04 70 OVC:08 150,29.06,10,40,90,,9,,,,,,,,,,,,,,,,,,,,,,,,,,,,,,,,,,,,,MET13001/31/20 04:52:02 METAR KATL 310952Z 09008KT 10SM SCT070 OVC150 06/02 A3016 RMK AO2 SLP215 VIRGA SE-SW ACC SE-SW-W T00610022 (KAF),FM-15,7,,,,,,,,,,,,,,,,,,,,,,,,,,,3/27/2007
72219013874,2020-01-31T05:52:00,FM-15,7,,,,,,,,,,,,,,,,,,,,,,,,,,,,,,,,,,,,,,,30.15,35,43,0,,,,74,30.16,SCT:04 55 BKN:07 95 OVC:08 130,29.05,10,40,70,,11,,,,,,,,,,,,,,,,,,,,,,,,,,,,,,,,,,,,,MET12901/31/20 05:52:02 METAR KATL 311052Z 07010KT 10SM SCT055 BKN095 OVC130 06/02 A3015 RMK AO2 SLP213 VIRGA OHD-ALQDS T00610017 (KAF),FM-15,7,,,,,,,,,,,,,,,,,,,,,,,,,,,3/27/2007
72219013874,2020-01-31T06:52:00,FM-15,7,,,,,,,,,,,,,,,,,,,,,,,,,,,,,,,,,,,,,,,30.18,36,43,0.01,-RA:02 |RA |RA,-0.03,3,76,30.19,BKN:07 48 OVC:08 75,29.08,7,40,90,,11,,,,,,,,,,,,,,,,,,,,,,,,,,,,,,,,,,,,,MET15101/31/20 06:52:02 METAR KATL 311152Z 09010KT 7SM -RA BKN048 OVC075 06/02 A3018 RMK AO2 RAB26 SLP223 P0001 60001 70001 T00610022 10072 20061 53009 (KAF),FM-15,7,,,,,,,,,,,,,,,,,,,,,,,,,,,3/27/2007
72219013874,2020-01-31T07:00:00,FM-12,4,,,,,,,,,,,,,,,,,,,,,,,,,,,,,,,,,,,,,,,,36,43,,||RA,-0.03,3,76,30.19,41,29.07,6.84,40,90,,11,,,,,,,,,,,,,,,,,,,,,,,,,,,,,,,,,,,,,SYN09872219 11661 80910 10061 20022 39844 40223 53009 69931 761// 91152 333 10150 20061 70003 555 93112=,FM-12,4,,,,,,,,,,,,,,,,,,,,,,,,,,,3/27/2007
72219013874,2020-01-31T07:52:00,FM-15,7,,,,,,,,,,,,,,,,,,,,,,,,,,,,,,,,,,,,,,,30.16,36,41,0.01,,,,82,30.17,SCT:04 65 BKN:07 110 OVC:08 140,29.06,10,39,90,,9,,,,,,,,,,,,,,,,,,,,,,,,,,,,,,,,,,,,,MET12501/31/20 07:52:02 METAR KATL 311252Z 09008KT 10SM SCT065 BKN110 OVC140 05/02 A3016 RMK AO2 RAE24 SLP218 P0001 T00500022 (KAF),FM-15,7,,,,,,,,,,,,,,,,,,,,,,,,,,,3/27/2007
72219013874,2020-01-31T08:52:00,FM-15,7,,,,,,,,,,,,,,,,,,,,,,,,,,,,,,,,,,,,,,,30.18,36,41,0.02,-RA:02 |RA |RA,,,82,30.19,FEW:02 10 BKN:07 55 OVC:08 100,29.08,7,39,100,,10,,,,,,,,,,,,,,,,,,,,,,,,,,,,,,,,,,,,,MET12801/31/20 08:52:02 METAR KATL 311352Z 10009KT 7SM -RA FEW010 BKN055 OVC100 05/02 A3018 RMK AO2 RAB36 SLP225 P0001 T00500022 (KAF),FM-15,7,,,,,,,,,,,,,,,,,,,,,,,,,,,3/27/2007
72219013874,2020-01-31T08:56:00,FM-16,7,,,,,,,,,,,,,,,,,,,,,,,,,,,,,,,,,,,,,,,30.18,36,41,0.01,-RA:02 BR:1 |RA |RA,,,82,,FEW:02 10 BKN:07 55 OVC:08 100,29.08,3,39,100,,11,,,,,,,,,,,,,,,,,,,,,,,,,,,,,,,,,,,,,MET12801/31/20 08:56:02 SPECI KATL 311356Z 10010KT 3SM -RA BR FEW010 BKN055 OVC100 05/02 A3018 RMK AO2 SFC VIS 6 P0001 T00500022 (CPS),FM-16,7,,,,,,,,,,,,,,,,,,,,,,,,,,,3/27/2007
72219013874,2020-01-31T09:06:00,FM-16,7,,,,,,,,,,,,,,,,,,,,,,,,,,,,,,,,,,,,,,,30.17,38,41,0.02,-RA:02 BR:1 |RA |RA,,,89,,FEW:02 8 BKN:07 55 OVC:08 65,29.07,3,40,100,20,11,,,,,,,,,,,,,,,,,,,,,,,,,,,,,,,,,,,,,MET13101/31/20 09:06:02 SPECI KATL 311406Z 10010G17KT 3SM -RA BR FEW008 BKN055 OVC065 05/03 A3017 RMK AO2 SFC VIS 5 P0002 T00500033 (CPS),FM-16,7,,,,,,,,,,,,,,,,,,,,,,,,,,,3/27/2007
72219013874,2020-01-31T09:50:00,FM-16,6,,,,,,,,,,,,,,,,,,,,,,,,,,,,,,,,,,,,,,,30.18,37,41,,-RA:02 BR:1 |RA |RA,,,87,,BKN:07 9 BKN:07 50 OVC:08 65,29.08,3,39,80,,14,,,,,,,,,,,,,,,,,,,,,,,,,,,,,,,,,,,,,MET12301/31/20 09:50:02 SPECI KATL 311450Z 08012KT 3SM -RA BR BKN009 BKN050 OVC065 05/03 A3018 RMK AO2 SFC VIS 6 P0005 FIBI (CPS),FM-16,6,,,,,,,,,,,,,,,,,,,,,,,,,,,3/27/2007
72219013874,2020-01-31T09:52:00,FM-15,7,,,,,,,,,,,,,,,,,,,,,,,,,,,,,,,,,,,,,,,30.18,37,41,0.04,-RA:02 BR:1 |RA |RA,0,6,86,30.19,BKN:07 9 BKN:07 50 OVC:08 65,29.08,3,39,80,,14,,,,,,,,,,,,,,,,,,,,,,,,,,,,,,,,,,,,,MET16001/31/20 09:52:02 METAR KATL 311452Z 08012KT 3SM -RA BR BKN009 BKN050 OVC065 05/03 A3018 RMK AO2 SFC VIS 6 SLP224 BKN009 V SCT P0005 60007 T00500028 56001 (CPS),FM-15,7,,,,,,,,,,,,,,,,,,,,,,,,,,,3/27/2007
72219013874,2020-01-31T10:52:00,FM-15,7,,,,,,,,,,,,,,,,,,,,,,,,,,,,,,,,,,,,,,,30.2,37,41,0,,,,86,30.21,BKN:07 9 BKN:07 14 OVC:08 25,29.1,7,39,90,,10,,,,,,,,,,,,,,,,,,,,,,,,,,,,,,,,,,,,,MET13801/31/20 10:52:02 METAR KATL 311552Z 09009KT 7SM BKN009 BKN014 OVC025 05/03 A3020 RMK AO2 RAE1456 SLP230 CIG 007V011 P0000 T00500028 (CPS),FM-15,7,,,,,,,,,,,,,,,,,,,,,,,,,,,3/27/2007
72219013874,2020-01-31T11:23:00,FM-16,7,,,,,,,,,,,,,,,,,,,,,,,,,,,,,,,,,,,,,,,30.19,37,41,T,-RA:02 BR:1 |RA |RA,,,86,,BKN:07 8 OVC:08 20,29.09,3,39,90,,11,,,,,,,,,,,,,,,,,,,,,,,,,,,,,,,,,,,,,MET12701/31/20 11:23:02 SPECI KATL 311623Z 09010KT 3SM -RA BR BKN008 OVC020 05/03 A3019 RMK AO2 SFC VIS 5 RAB18 P0000 T00500028 (CPS),FM-16,7,,,,,,,,,,,,,,,,,,,,,,,,,,,3/27/2007
72219013874,2020-01-31T11:52:00,FM-15,7,,,,,,,,,,,,,,,,,,,,,,,,,,,,,,,,,,,,,,,30.19,38,41,T,-DZ:01 BR:1 |DZ |DZ,,,89,30.2,BKN:07 6 OVC:08 12,29.09,3,40,80,,15,,,,,,,,,,,,,,,,,,,,,,,,,,,,,,,,,,,,,MET14201/31/20 11:52:02 METAR KATL 311652Z 08013KT 3SM -DZ BR BKN006 OVC012 05/03 A3019 RMK AO2 SFC VIS 5 SLP228 RAB18E30DZB30 P0000 T00500033 (CPS),FM-15,7,,,,,,,,,,,,,,,,,,,,,,,,,,,3/27/2007
72219013874,2020-01-31T12:52:00,FM-15,7,,,,,,,,,,,,,,,,,,,,,,,,,,,,,,,,,,,,,,,30.16,38,42,T,-DZ:01 BR:1 |DZ |DZ,0.01,8,85,30.17,OVC:08 8,29.06,3,40,100,21,10,,,,,,,,,,,,,,,,,,,,,,,,,,,,,,,,,,,,,MET14801/31/20 12:52:02 METAR KATL 311752Z 10009G18KT 3SM -DZ BR OVC008 06/03 A3016 RMK AO2 SFC VIS 6 SLP218 P0000 60007 T00560033 10061 20050 58005 (CPS),FM-15,7,,,,,,,,,,,,,,,,,,,,,,,,,,,3/27/2007
72219013874,2020-01-31T13:00:00,FM-12,4,,,,,,,,,,,,,,,,,,,,,,,,,,,,,,,,,,,,,,,,38,42,,||DZ,0.01,8,85,30.17,8,29.05,2.98,40,100,,10,,,,,,,,,,,,,,,,,,,,,,,,,,,,,,,,,,,,,SYN10472219 11348 81009 10056 20033 39838 40218 58005 60021 751// 91752 333 10072 20050 91018 96010 555 93118=,FM-12,4,,,,,,,,,,,,,,,,,,,,,,,,,,,3/27/2007
72219013874,2020-01-31T13:52:00,FM-15,7,,,,,,,,,,,,,,,,,,,,,,,,,,,,,,,,,,,,,,,30.14,38,41,T,-DZ:01 BR:1 |DZ |DZ,,,89,30.15,OVC:08 7,29.04,2,40,70,,9,,,,,,,,,,,,,,,,,,,,,,,,,,,,,,,,,,,,,MET13301/31/20 13:52:02 METAR KATL 311852Z 07008KT 2SM -DZ BR OVC007 05/03 A3014 RMK AO2 SFC VIS 4 SLP210 CIG 005V009 P0000 T00500033 (CPS),FM-15,7,,,,,,,,,,,,,,,,,,,,,,,,,,,3/27/2007
72219013874,2020-01-31T14:52:00,FM-15,7,,,,,,,,,,,,,,,,,,,,,,,,,,,,,,,,,,,,,,,30.11,38,41,T,-DZ:01 BR:1 |DZ |DZ,,,89,30.13,BKN:07 7 OVC:08 13,29.01,2,40,70,,10,,,,,,,,,,,,,,,,,,,,,,,,,,,,,,,,,,,,,MET14001/31/20 14:52:02 METAR KATL 311952Z 07009KT 2SM -DZ BR BKN007 OVC013 05/03 A3011 RMK AO2 SFC VIS 5 SLP202 CIG 005V009 P0000 T00500033 (CPS),FM-15,7,,,,,,,,,,,,,,,,,,,,,,,,,,,3/27/2007
72219013874,2020-01-31T15:50:00,FM-16,6,,,,,,,,,,,,,,,,,,,,,,,,,,,,,,,,,,,,,,,30.11,37,43,,,,,81,,OVC:08 7,29.01,10,40,60,,10,,,,,,,,,,,,,,,,,,,,,,,,,,,,,,,,,,,,,MET09901/31/20 15:50:02 SPECI KATL 312050Z 06009KT 10SM OVC007 06/03 A3011 RMK AO2 DZE50 P0000 FIBI (CPS),FM-16,6,,,,,,,,,,,,,,,,,,,,,,,,,,,3/27/2007
72219013874,2020-01-31T15:52:00,FM-15,7,,,,,,,,,,,,,,,,,,,,,,,,,,,,,,,,,,,,,,,30.11,38,42,T,,0.05,6,85,30.12,BKN:07 8 OVC:08 12,29.01,10,40,60,,10,,,,,,,,,,,,,,,,,,,,,,,,,,,,,,,,,,,,,MET13001/31/20 15:52:02 METAR KATL 312052Z 06009KT 10SM BKN008 OVC012 06/03 A3011 RMK AO2 SLP199 DZE38 P0000 60000 T00560033 56018 (CPS),FM-15,7,,,,,,,,,,,,,,,,,,,,,,,,,,,3/27/2007
72219013874,2020-01-31T16:52:00,FM-15,7,,,,,,,,,,,,,,,,,,,,,,,,,,,,,,,,,,,,,,,30.1,37,41,0,,,,86,30.11,BKN:07 6 OVC:08 12,29,8,39,70,,11,,,,,,,,,,,,,,,,,,,,,,,,,,,,,,,,,,,,,MET10501/31/20 16:52:02 METAR KATL 312152Z 07010KT 8SM BKN006 OVC012 05/03 A3010 RMK AO2 SLP196 T00500028 (CPS),FM-15,7,,,,,,,,,,,,,,,,,,,,,,,,,,,3/27/2007
72219013874,2020-01-31T17:52:00,FM-15,7,,,,,,,,,,,,,,,,,,,,,,,,,,,,,,,,,,,,,,,30.1,37,41,0,,,,86,30.11,BKN:07 6 OVC:08 12,29,7,39,40,,11,,,,,,,,,,,,,,,,,,,,,,,,,,,,,,,,,,,,,MET10401/31/20 17:52:02 METAR KATL 312252Z 04010KT 7SM BKN006 OVC012 05/03 A3010 RMK AO2 SLP198 T00500028 (RF),FM-15,7,,,,,,,,,,,,,,,,,,,,,,,,,,,3/27/2007
72219013874,2020-01-31T18:52:00,FM-15,7,,,,,,,,,,,,,,,,,,,,,,,,,,,,,,,,,,,,,,,30.1,36,41,0,,0,6,82,30.11,OVC:08 8,29,7,39,60,,13,,,,,,,,,,,,,,,,,,,,,,,,,,,,,,,,,,,,,MET13301/31/20 18:52:02 METAR KATL 312352Z 06011KT 7SM OVC008 05/02 A3010 RMK AO2 SLP198 CIG 006V010 60000 T00500022 10061 20044 56001 (RF),FM-15,7,,,,,,,,,,,,,,,,,,,,,,,,,,,3/27/2007
72219013874,2020-01-31T19:00:00,FM-12,4,,,,,,,,,,,,,,,,,,,,,,,,,,,,,,,,,,,,,,,,36,41,,,0,6,82,30.11,8,28.99,6.84,39,60,,13,,,,,,,,,,,,,,,,,,,,,,,,,,,,,,,,,,,,,SYN08672219 12361 80611 10050 20022 39818 40198 56001 69901 92352 333 10061 20044 555 90100=,FM-12,4,,,,,,,,,,,,,,,,,,,,,,,,,,,3/27/2007
72219013874,2020-01-31T19:52:00,FM-15,7,,,,,,,,,,,,,,,,,,,,,,,,,,,,,,,,,,,,,,,30.12,36,41,0,,,,82,30.13,OVC:08 7,29.02,7,39,80,,10,,,,,,,,,,,,,,,,,,,,,,,,,,,,,,,,,,,,,MET09701/31/20 19:52:03 METAR KATL 010052Z 08009KT 7SM OVC007 05/02 A3012 RMK AO2 SLP204 T00500022 (RF),FM-15,7,,,,,,,,,,,,,,,,,,,,,,,,,,,3/27/2007
72219013874,2020-01-31T20:52:00,FM-15,7,,,,,,,,,,,,,,,,,,,,,,,,,,,,,,,,,,,,,,,30.12,37,41,0,BR:1 ||,,,86,30.13,OVC:08 6,29.02,4,39,80,,9,,,,,,,,,,,,,,,,,,,,,,,,,,,,,,,,,,,,,MET10001/31/20 20:52:03 METAR KATL 010152Z 08008KT 4SM BR OVC006 05/03 A3012 RMK AO2 SLP204 T00500028 (RF),FM-15,7,,,,,,,,,,,,,,,,,,,,,,,,,,,3/27/2007
72219013874,2020-01-31T21:52:00,FM-15,7,,,,,,,,,,,,,,,,,,,,,,,,,,,,,,,,,,,,,,,30.11,36,40,0,BR:1 ||,-0.01,0,86,30.12,OVC:08 7,29.01,5,38,60,,9,,,,,,,,,,,,,,,,,,,,,,,,,,,,,,,,,,,,,MET10601/31/20 21:52:03 METAR KATL 010252Z 06008KT 5SM BR OVC007 04/02 A3011 RMK AO2 SLP201 T00440022 50002 (RF),FM-15,7,,,,,,,,,,,,,,,,,,,,,,,,,,,3/27/2007
72219013874,2020-01-31T22:52:00,FM-15,7,,,,,,,,,,,,,,,,,,,,,,,,,,,,,,,,,,,,,,,30.1,36,40,0,,,,86,30.11,SCT:04 7 BKN:07 11 OVC:08 50,29,7,38,50,,9,,,,,,,,,,,,,,,,,,,,,,,,,,,,,,,,,,,,,MET11801/31/20 22:52:03 METAR KATL 010352Z 05008KT 7SM SCT007 BKN011 OVC050 04/02 A3010 RMK AO2 SLP197 BINOVC T00440022 (RF),FM-15,7,,,,,,,,,,,,,,,,,,,,,,,,,,,3/27/2007
72219013874,2020-01-31T23:52:00,FM-15,7,,,,,,,,,,,,,,,,,,,,,,,,,,,,,,,,,,,,,,,30.09,36,40,0,BR:1 ||,,,86,30.1,SCT:04 8 OVC:08 50,28.99,6,38,70,,6,,,,,,,,,,,,,,,,,,,,,,,,,,,,,,,,,,,,,MET12401/31/20 23:52:03 METAR KATL 010452Z 07005KT 6SM BR SCT008 OVC050 04/02 A3009 RMK AO2 SLP193 BINOVC T00440022 400720044 (RF),FM-15,7,,,,,,,,,,,,,,,,,,,,,,,,,,,3/27/2007
72219013874,2020-01-31T23:59:00,SOD  ,6,,,,,,,,,,,,,,,,,37,43,83,30.15,29.05,39,10.4,0,-1.5,22,45,40,80,21,0.08,0,0,80,17,RA DZ BR,,,,,,,,,,,,,,,,,,,,,,,,,,,,,,,,,,,,,,,,,,,,,,,,,,,,,,,SOD78424 HR PRECIPITATION (IN): 0.08 SNOW DEPTH (IN):0     24 HR SNOWFALL (IN):0.0  WEATHER(CODE):18  24 HR MAX TEMP (F): 4524 HR MIN TEMP (F): 40AVERAGE STATION PRESSURE:29.045 MINIMUM SEA LEVEL PRESSURE:29.05 TIME OF OCCURRENCE:2359 PEAK WIND SPEED (MPH): 21 PEAK WIND DIR (DEG): 80 PEAK WIND TIME (LST):      FASTEST 2MIN SPEED (MPH): 17FASTEST 2MIN DIR (DEG): 80 FASTEST 2MIN TIME (LST):     AVERAGE WIND SPEED (MPH):10.4 24 HR AVG TEMP (F): 43DEPART FROM NORMAL: -1  SKY COVER SR-SS (TENTHS): 1HEATING DEGREE DAYS: 22 COOLING DEGREE DAYS:  0 LATEST DAY MAX TEMP (0700-1900 LST):43  LATEST NIGHT MIN TEMP(1900-0800 LST):41 HOURLY INCREMENTAL PRECIPITATION VALUES (IN):.00 0.00 0.00 0.00 0.00 0.00 0.01 0.01 0.02 0.04 0.00 T    T    T    T    T    0.00 0.00 0.00 0.00 0.00 0.00 0.00 0.00,SOD  ,6,,,,,,,,,,,,,,,,,,,,,,,,,735,1808,3/27/2007
72219013874,2020-01-31T23:59:00,SOM  ,6,8.7,,,,,,,,,,,0,0,0,4,3,,,,,,,,,,,,,,,,,,,,,1348,490,,,,,,,,,,,,,,,,,,13,10,5,0,0,0,5.9,0,-183,4.8,7,3.81,,1.99,13-14,0,,0,,30.56,17,1052,57.1,49.2,29.82,3,1430,41.3,30.18,29.08,8.01,,,-7777,673,SOM861PCP MTOT:8.01 DEPNRM:+3.81 PCP GT 24HRS:1.99 DATE(S):13-14 DAYS W/PCP >=.01:13 DAYS W/PCP >=.10:10 DAYS W/ PCP >=.50:8 DAYS W/PCP >=1.00:2 MSDP AMTS W/DATE-TIME TAGS:MIN:5 0.31  11/1813 MIN:10 0.45  11/1814 MIN:15 0.53  11/1813 MIN:20 0.75  11/1813 MIN:30 0.86  11/1820 MIN:45 0.93  11/1835 MIN:60 1.01  11/1849 MIN:80 1.08  11/1909 MIN:100 1.10  11/1929 MIN:120 1.13  11/1948 MIN:150 1.14  11/1957 MIN:180 1.14  11/1957 SN GT DP ON GRND:0 SN GT IN 24HRS:0.0 SN MTOT:0.0 AVG DLY MIN:41.3  AVG DLY MAX:57.1  AVG MLY TMP:49.2  DEP NORM:5.9   MIN TMP:23 DATE(S):21 MAX TMP:72  DATE(S):15 DAYS MAX <=32:0 DAYS MAX >=90:0  DAYS MIN <=32:5  DAYS MIN  <=0:0  AVG STP:29.080 LWST SLP:29.82 DATE/TIME:031430 HGST SLP:30.57 DATE/TIME:091047 HDD MTH TOT:482 DEP NORM:-191 SEASON(JUL 1-JUN 30):1325 DEP NORM:-429 CDD MTH TOT:0 DEP NORM: 0 SEASON(JAN 1-DEC 31):0 DEP NORM: 0,SOM  ,6,1/11/2020 18:13,1/11/2020 18:14,1/11/2020 18:13,1/11/2020 18:13,1/11/2020 18:20,1/11/2020 18:35,1/11/2020 18:49,1/11/2020 19:09,1/11/2020 19:29,1/11/2020 19:48,1/11/2020 19:57,1/11/2020 19:57,0.31,0.45,0.53,0.75,0.86,0.93,1.01,1.08,1.1,1.13,1.14,1.14,,,3/27/2007
72219013874,2020-02-01T00:50:00,FM-16,6,,,,,,,,,,,,,,,,,,,,,,,,,,,,,,,,,,,,,,,30.06,36,39,,,,,87,,SCT:04 8 BKN:07 13 OVC:08 50,28.96,7,38,110,,5,,,,,,,,,,,,,,,,,,,,,,,,,,,,,,,,,,,,,MET09902/01/20 00:50:02 SPECI KATL 010550Z 11004KT 7SM SCT008 BKN013 OVC050 04/02 A3006 RMK AO2 FIBI (RF),FM-16,6,,,,,,,,,,,,,,,,,,,,,,,,,,,3/27/2007
72219013874,2020-02-01T00:52:00,FM-15,7,,,,,,,,,,,,,,,,,,,,,,,,,,,,,,,,,,,,,,,30.06,36,40,0,,0.04,8,86,30.08,SCT:04 8 BKN:07 13 OVC:08 50,28.96,7,38,100,,3,,,,,,,,,,,,,,,,,,,,,,,,,,,,,,,,,,,,,MET12902/01/20 00:52:02 METAR KATL 010552Z 10003KT 7SM SCT008 BKN013 OVC050 04/02 A3006 RMK AO2 SLP186 T00440022 10050 20044 58014 (RF),FM-15,7,,,,,,,,,,,,,,,,,,,,,,,,,,,3/27/2007
72219013874,2020-02-01T01:00:00,FM-12,4,,,,,,,,,,,,,,,,,,,,,,,,,,,,,,,,,,,,,,,,36,40,,,0.04,8,86,30.08,8,28.95,6.84,38,100,,3,,,,,,,,,,,,,,,,,,,,,,,,,,,,,,,,,,,,,SYN08072219 32361 81003 10044 20022 39805 40186 58014 90552 333 10061 20044 555 90106=,FM-12,4,,,,,,,,,,,,,,,,,,,,,,,,,,,3/27/2007
72219013874,2020-02-01T01:17:00,FM-16,7,,,,,,,,,,,,,,,,,,,,,,,,,,,,,,,,,,,,,,,30.05,36,40,,,,,86,,BKN:07 8 OVC:08 13,28.95,7,38,80,,6,,,,,,,,,,,,,,,,,,,,,,,,,,,,,,,,,,,,,MET09702/01/20 01:17:02 SPECI KATL 010617Z 08005KT 7SM BKN008 OVC013 04/02 A3005 RMK AO2 T00440022 (DB),FM-16,7,,,,,,,,,,,,,,,,,,,,,,,,,,,3/27/2007
72219013874,2020-02-01T01:52:00,FM-15,7,,,,,,,,,,,,,,,,,,,,,,,,,,,,,,,,,,,,,,,30.05,36,40,0,,,,86,30.07,BKN:07 8 OVC:08 12,28.95,8,38,110,,3,,,,,,,,,,,,,,,,,,,,,,,,,,,,,,,,,,,,,MET10402/01/20 01:52:02 METAR KATL 010652Z 11003KT 8SM BKN008 OVC012 04/02 A3005 RMK AO2 SLP183 T00440022 (DB),FM-15,7,,,,,,,,,,,,,,,,,,,,,,,,,,,3/27/2007
72219013874,2020-02-01T02:52:00,FM-15,7,,,,,,,,,,,,,,,,,,,,,,,,,,,,,,,,,,,,,,,30.05,36,40,0,BR:1 ||,,,86,30.06,BKN:07 8 OVC:08 70,28.95,6,38,120,,6,,,,,,,,,,,,,,,,,,,,,,,,,,,,,,,,,,,,,MET10702/01/20 02:52:02 METAR KATL 010752Z 12005KT 6SM BR BKN008 OVC070 04/02 A3005 RMK AO2 SLP180 T00440022 (DB),FM-15,7,,,,,,,,,,,,,,,,,,,,,,,,,,,3/27/2007
72219013874,2020-02-01T03:52:00,FM-15,7,,,,,,,,,,,,,,,,,,,,,,,,,,,,,,,,,,,,,,,30.03,36,40,0,BR:1 ||,0.03,8,86,30.05,BKN:07 7 OVC:08 75,28.93,6,38,110,,6,,,,,,,,,,,,,,,,,,,,,,,,,,,,,,,,,,,,,MET11302/01/20 03:52:02 METAR KATL 010852Z 11005KT 6SM BR BKN007 OVC075 04/02 A3003 RMK AO2 SLP175 T00440022 58010 (DB),FM-15,7,,,,,,,,,,,,,,,,,,,,,,,,,,,3/27/2007
72219013874,2020-02-01T04:52:00,FM-15,7,,,,,,,,,,,,,,,,,,,,,,,,,,,,,,,,,,,,,,,30.04,37,41,0,BR:1 ||,,,86,30.05,OVC:08 6,28.94,6,39,330,,5,,,,,,,,,,,,,,,,,,,,,,,,,,,,,,,,,,,,,MET10002/01/20 04:52:02 METAR KATL 010952Z 33004KT 6SM BR OVC006 05/03 A3004 RMK AO2 SLP177 T00500028 (DB),FM-15,7,,,,,,,,,,,,,,,,,,,,,,,,,,,3/27/2007
72219013874,2020-02-01T05:52:00,FM-15,7,,,,,,,,,,,,,,,,,,,,,,,,,,,,,,,,,,,,,,,30.03,37,41,0,BR:1 ||,,,86,30.05,OVC:08 7,28.93,5,39,0,,0,,,,,,,,,,,,,,,,,,,,,,,,,,,,,,,,,,,,,MET10002/01/20 05:52:02 METAR KATL 011052Z 00000KT 5SM BR OVC007 05/03 A3003 RMK AO2 SLP176 T00500028 (DB),FM-15,7,,,,,,,,,,,,,,,,,,,,,,,,,,,3/27/2007
72219013874,2020-02-01T06:52:00,FM-15,7,,,,,,,,,,,,,,,,,,,,,,,,,,,,,,,,,,,,,,,30.03,38,41,0,BR:1 ||,0,8,89,30.04,OVC:08 6,28.93,5,40,0,,0,,,,,,,,,,,,,,,,,,,,,,,,,,,,,,,,,,,,,MET12402/01/20 06:52:02 METAR KATL 011152Z 00000KT 5SM BR OVC006 05/03 A3003 RMK AO2 SLP174 70007 T00500033 10050 20044 58000 (DB),FM-15,7,,,,,,,,,,,,,,,,,,,,,,,,,,,3/27/2007
72219013874,2020-02-01T07:00:00,FM-12,4,,,,,,,,,,,,,,,,,,,,,,,,,,,,,,,,,,,,,,,,38,41,,,,,89,30.04,5,28.92,4.97,40,0,,0,,,,,,,,,,,,,,,,,,,,,,,,,,,,,,,,,,,,,SYN09272219 31258 80000 10050 20033 39795 40174 58000 710// 91152 333 10072 20044 70018 555 90112=,FM-12,4,,,,,,,,,,,,,,,,,,,,,,,,,,,3/27/2007
72219013874,2020-02-01T07:52:00,FM-15,7,,,,,,,,,,,,,,,,,,,,,,,,,,,,,,,,,,,,,,,30.03,37,41,0,BR:1 ||,,,86,30.05,BKN:07 6 OVC:08 12,28.93,4,39,0,,0,,,,,,,,,,,,,,,,,,,,,,,,,,,,,,,,,,,,,MET10702/01/20 07:52:02 METAR KATL 011252Z 00000KT 4SM BR BKN006 OVC012 05/03 A3003 RMK AO2 SLP175 T00500028 (DB),FM-15,7,,,,,,,,,,,,,,,,,,,,,,,,,,,3/27/2007
72219013874,2020-02-01T08:52:00,FM-15,7,,,,,,,,,,,,,,,,,,,,,,,,,,,,,,,,,,,,,,,30.03,37,42,0,BR:1 ||,,,82,30.05,BKN:07 6 OVC:08 11,28.93,5,40,290,,6,,,,,,,,,,,,,,,,,,,,,,,,,,,,,,,,,,,,,MET10702/01/20 08:52:02 METAR KATL 011352Z 29005KT 5SM BR BKN006 OVC011 06/03 A3003 RMK AO2 SLP175 T00560028 (DB),FM-15,7,,,,,,,,,,,,,,,,,,,,,,,,,,,3/27/2007
72219013874,2020-02-01T09:05:00,FM-16,7,,,,,,,,,,,,,,,,,,,,,,,,,,,,,,,,,,,,,,,30.03,37,42,,BR:1 ||,,,82,,OVC:08 11,28.93,5,40,330,,7,,,,,,,,,,,,,,,,,,,,,,,,,,,,,,,,,,,,,MET09402/01/20 09:05:02 SPECI KATL 011405Z 33006KT 5SM BR OVC011 06/03 A3003 RMK AO2 T00560028 (JRN),FM-16,7,,,,,,,,,,,,,,,,,,,,,,,,,,,3/27/2007
72219013874,2020-02-01T09:16:00,FM-16,7,,,,,,,,,,,,,,,,,,,,,,,,,,,,,,,,,,,,,,,30.03,38,42,,BR:1 ||,,,85,,SCT:04 9 OVC:08 35,28.93,5,40,0,,0,,,,,,,,,,,,,,,,,,,,,,,,,,,,,,,,,,,,,MET10102/01/20 09:16:02 SPECI KATL 011416Z 00000KT 5SM BR SCT009 OVC035 06/03 A3003 RMK AO2 T00560033 (JRN),FM-16,7,,,,,,,,,,,,,,,,,,,,,,,,,,,3/27/2007
72219013874,2020-02-01T09:31:00,FM-16,7,,,,,,,,,,,,,,,,,,,,,,,,,,,,,,,,,,,,,,,30.04,37,42,,BR:1 ||,,,82,,BKN:07 9 OVC:08 35,28.94,5,40,310,,5,,,,,,,,,,,,,,,,,,,,,,,,,,,,,,,,,,,,,MET10102/01/20 09:31:02 SPECI KATL 011431Z 31004KT 5SM BR BKN009 OVC035 06/03 A3004 RMK AO2 T00560028 (JRN),FM-16,7,,,,,,,,,,,,,,,,,,,,,,,,,,,3/27/2007
72219013874,2020-02-01T09:52:00,FM-15,7,,,,,,,,,,,,,,,,,,,,,,,,,,,,,,,,,,,,,,,30.04,38,43,0,BR:1 ||,-0.01,3,82,30.05,BKN:07 8 BKN:07 35,28.94,6,41,310,,6,,,,,,,,,,,,,,,,,,,,,,,,,,,,,,,,,,,,,MET11402/01/20 09:52:02 METAR KATL 011452Z 31005KT 6SM BR BKN008 BKN035 06/03 A3004 RMK AO2 SLP176 T00610033 53003 (JRN),FM-15,7,,,,,,,,,,,,,,,,,,,,,,,,,,,3/27/2007
72219013874,2020-02-01T10:06:00,FM-16,7,,,,,,,,,,,,,,,,,,,,,,,,,,,,,,,,,,,,,,,30.03,38,43,,BR:1 ||,,,82,,SCT:04 8 BKN:07 18,28.93,6,41,300,,3,,,,,,,,,,,,,,,,,,,,,,,,,,,,,,,,,,,,,MET10102/01/20 10:06:02 SPECI KATL 011506Z 30003KT 6SM BR SCT008 BKN018 06/03 A3003 RMK AO2 T00610033 (JRN),FM-16,7,,,,,,,,,,,,,,,,,,,,,,,,,,,3/27/2007
72219013874,2020-02-01T10:52:00,FM-15,7,,,,,,,,,,,,,,,,,,,,,,,,,,,,,,,,,,,,,,,30.02,39,46,0,,,,77,30.03,FEW:02 9 BKN:07 15,28.92,7,43,VRB,,3,,,,,,,,,,,,,,,,,,,,,,,,,,,,,,,,,,,,,MET10502/01/20 10:52:02 METAR KATL 011552Z VRB03KT 7SM FEW009 BKN015 08/04 A3002 RMK AO2 SLP171 T00780039 (JRN),FM-15,7,,,,,,,,,,,,,,,,,,,,,,,,,,,3/27/2007
72219013874,2020-02-01T11:06:00,FM-16,7,,,,,,,,,,,,,,,,,,,,,,,,,,,,,,,,,,,,,,,30.03,40,47,,,,,77,,OVC:08 13,28.93,7,44,300,,6,,,,,,,,,,,,,,,,,,,,,,,,,,,,,,,,,,,,,MET09102/01/20 11:06:02 SPECI KATL 011606Z 30005KT 7SM OVC013 08/04 A3003 RMK AO2 T00830044 (JRN),FM-16,7,,,,,,,,,,,,,,,,,,,,,,,,,,,3/27/2007
72219013874,2020-02-01T11:52:00,FM-15,7,,,,,,,,,,,,,,,,,,,,,,,,,,,,,,,,,,,,,,,30.02,40,47,0,,,,77,30.03,BKN:07 10 OVC:08 18,28.92,7,44,300,,10,,,,,,,,,,,,,,,,,,,,,,,,,,,,,,,,,,,,,MET10502/01/20 11:52:02 METAR KATL 011652Z 30009KT 7SM BKN010 OVC018 08/04 A3002 RMK AO2 SLP171 T00830044 (JRN),FM-15,7,,,,,,,,,,,,,,,,,,,,,,,,,,,3/27/2007
72219013874,2020-02-01T12:47:00,FM-16,7,,,,,,,,,,,,,,,,,,,,,,,,,,,,,,,,,,,,,,,30,41,50,,,,,71,,SCT:04 15 BKN:07 65,28.9,10,46,300,,9,,,,,,,,,,,,,,,,,,,,,,,,,,,,,,,,,,,,,MET08902/01/20 12:47:02 SPECI KATL 011747Z 30008KT 10SM SCT015 BKN065 10/05 A3000 RMK AO2 (JRN),FM-16,7,,,,,,,,,,,,,,,,,,,,,,,,,,,3/27/2007
72219013874,2020-02-01T12:52:00,FM-15,7,,,,,,,,,,,,,,,,,,,,,,,,,,,,,,,,,,,,,,,30,41,49,0,,0.02,7,74,30.01,FEW:02 15 SCT:04 22 BKN:07 65,28.9,10,45,290,,14,,,,,,,,,,,,,,,,,,,,,,,,,,,,,,,,,,,,,MET13102/01/20 12:52:02 METAR KATL 011752Z 29012KT 10SM FEW015 SCT022 BKN065 09/05 A3000 RMK AO2 SLP162 T00940050 10100 20050 57008 (JRN),FM-15,7,,,,,,,,,,,,,,,,,,,,,,,,,,,3/27/2007
72219013874,2020-02-01T13:00:00,FM-12,4,,,,,,,,,,,,,,,,,,,,,,,,,,,,,,,,,,,,,,,,41,49,,,0.02,7,74,30.01,15,28.9,9.94,45,290,,14,,,,,,,,,,,,,,,,,,,,,,,,,,,,,,,,,,,,,SYN08072219 32466 62912 10094 20050 39785 40162 57008 91752 333 10100 20044 555 90118=,FM-12,4,,,,,,,,,,,,,,,,,,,,,,,,,,,3/27/2007
72219013874,2020-02-01T13:02:00,FM-16,7,,,,,,,,,,,,,,,,,,,,,,,,,,,,,,,,,,,,,,,29.99,41,49,,,,,74,,OVC:08 16,28.89,10,45,300,,13,,,,,,,,,,,,,,,,,,,,,,,,,,,,,,,,,,,,,MET09202/01/20 13:02:02 SPECI KATL 011802Z 30011KT 10SM OVC016 09/05 A2999 RMK AO2 T00940050 (JRN),FM-16,7,,,,,,,,,,,,,,,,,,,,,,,,,,,3/27/2007
72219013874,2020-02-01T13:52:00,FM-15,7,,,,,,,,,,,,,,,,,,,,,,,,,,,,,,,,,,,,,,,29.97,41,50,0,,,,71,29.97,OVC:08 17,28.87,10,46,320,,13,,,,,,,,,,,,,,,,,,,,,,,,,,,,,,,,,,,,,MET09902/01/20 13:52:02 METAR KATL 011852Z 32011KT 10SM OVC017 10/05 A2997 RMK AO2 SLP150 T01000050 (JRN),FM-15,7,,,,,,,,,,,,,,,,,,,,,,,,,,,3/27/2007
72219013874,2020-02-01T14:52:00,FM-15,7,,,,,,,,,,,,,,,,,,,,,,,,,,,,,,,,,,,,,,,29.96,41,50,0,,,,71,29.97,BKN:07 17 BKN:07 35,28.87,10,46,320,,11,,,,,,,,,,,,,,,,,,,,,,,,,,,,,,,,,,,,,MET10602/01/20 14:52:02 METAR KATL 011952Z 32010KT 10SM BKN017 BKN035 10/05 A2996 RMK AO2 SLP148 T01000050 (JRN),FM-15,7,,,,,,,,,,,,,,,,,,,,,,,,,,,3/27/2007
72219013874,2020-02-01T15:52:00,FM-15,7,,,,,,,,,,,,,,,,,,,,,,,,,,,,,,,,,,,,,,,29.97,41,49,0,,0.03,5,74,29.98,BKN:07 18 OVC:08 25,28.87,10,45,310,,14,,,,,,,,,,,,,,,,,,,,,,,,,,,,,,,,,,,,,MET11202/01/20 15:52:02 METAR KATL 012052Z 31012KT 10SM BKN018 OVC025 09/05 A2997 RMK AO2 SLP151 T00940050 55011 (JRN),FM-15,7,,,,,,,,,,,,,,,,,,,,,,,,,,,3/27/2007
72219013874,2020-02-01T16:36:00,FM-16,7,,,,,,,,,,,,,,,,,,,,,,,,,,,,,,,,,,,,,,,29.97,40,48,,,,,74,,FEW:02 20 SCT:04 27 OVC:08 40,28.87,10,44,300,,11,,,,,,,,,,,,,,,,,,,,,,,,,,,,,,,,,,,,,MET10602/01/20 16:36:02 SPECI KATL 012136Z 30010KT 10SM FEW020 SCT027 OVC040 09/04 A2997 RMK AO2 T00890044 (JRN),FM-16,7,,,,,,,,,,,,,,,,,,,,,,,,,,,3/27/2007
72219013874,2020-02-01T16:52:00,FM-15,7,,,,,,,,,,,,,,,,,,,,,,,,,,,,,,,,,,,,,,,29.97,40,49,0,,,,71,29.98,FEW:02 20 SCT:04 40 BKN:07 60,28.87,10,45,300,,9,,,,,,,,,,,,,,,,,,,,,,,,,,,,,,,,,,,,,MET11302/01/20 16:52:02 METAR KATL 012152Z 30008KT 10SM FEW020 SCT040 BKN060 09/04 A2997 RMK AO2 SLP152 T00940044 (JRN),FM-15,7,,,,,,,,,,,,,,,,,,,,,,,,,,,3/27/2007
72219013874,2020-02-01T17:52:00,FM-15,7,,,,,,,,,,,,,,,,,,,,,,,,,,,,,,,,,,,,,,,29.97,39,48,0,,,,71,29.98,FEW:02 22 BKN:07 55,28.87,10,44,290,,8,,,,,,,,,,,,,,,,,,,,,,,,,,,,,,,,,,,,,MET10602/01/20 17:52:02 METAR KATL 012252Z 29007KT 10SM FEW022 BKN055 09/04 A2997 RMK AO2 SLP152 T00890039 (KAF),FM-15,7,,,,,,,,,,,,,,,,,,,,,,,,,,,3/27/2007
72219013874,2020-02-01T18:52:00,FM-15,7,,,,,,,,,,,,,,,,,,,,,,,,,,,,,,,,,,,,,,,30,39,46,0,,-0.03,3,77,30.01,FEW:02 24 BKN:07 60,28.9,10,43,290,,8,,,,,,,,,,,,,,,,,,,,,,,,,,,,,,,,,,,,,MET12402/01/20 18:52:02 METAR KATL 012352Z 29007KT 10SM FEW024 BKN060 08/04 A3000 RMK AO2 SLP162 T00780039 10111 20078 53010 (KAF),FM-15,7,,,,,,,,,,,,,,,,,,,,,,,,,,,3/27/2007
72219013874,2020-02-01T19:00:00,FM-12,4,,,,,,,,,,,,,,,,,,,,,,,,,,,,,,,,,,,,,,,,39,46,,,-0.03,3,77,30.01,26,28.9,9.94,43,290,,8,,,,,,,,,,,,,,,,,,,,,,,,,,,,,,,,,,,,,SYN08072219 32566 62907 10078 20039 39785 40162 53010 92352 333 10111 20044 555 90200=,FM-12,4,,,,,,,,,,,,,,,,,,,,,,,,,,,3/27/2007
72219013874,2020-02-01T19:52:00,FM-15,7,,,,,,,,,,,,,,,,,,,,,,,,,,,,,,,,,,,,,,,30.01,39,47,0,,,,74,30.02,FEW:02 32 SCT:04 55,28.91,10,43,290,,13,,,,,,,,,,,,,,,,,,,,,,,,,,,,,,,,,,,,,MET10002/01/20 19:52:01 METAR KATL 020052Z 29011KT 10SM FEW032 SCT055 08/04 A3001 RMK AO2 SLP166 T00830039,FM-15,7,,,,,,,,,,,,,,,,,,,,,,,,,,,3/27/2007
72219013874,2020-02-01T20:52:00,FM-15,6,,,,,,,,,,,,,,,,,,,,,,,,,,,,,,,,,,,,,,,30.02,37,45,0,,,,74,30.03,FEW:02 55,28.92,10,41,290,,9,,,,,,,,,,,,,,,,,,,,,,,,,,,,,,,,,,,,,MET09902/01/20 20:52:03 METAR KATL 020152Z 29008KT 10SM FEW055 07/03 A3002 RMK AO2 SLP169 T00720028 (KAF),FM-15,6,,,,,,,,,,,,,,,,,,,,,,,,,,,3/27/2007
72219013874,2020-02-01T21:52:00,FM-15,7,,,,,,,,,,,,,,,,,,,,,,,,,,,,,,,,,,,,,,,30.04,35,46,0,,-0.04,3,66,30.05,BKN:07 45,28.94,10,41,290,,13,,,,,,,,,,,,,,,,,,,,,,,,,,,,,,,,,,,,,MET09902/01/20 21:52:01 METAR KATL 020252Z 29011KT 10SM BKN045 08/02 A3004 RMK AO2 SLP175 T00780017 53013,FM-15,7,,,,,,,,,,,,,,,,,,,,,,,,,,,3/27/2007
72219013874,2020-02-01T22:52:00,FM-15,7,,,,,,,,,,,,,,,,,,,,,,,,,,,,,,,,,,,,,,,30.03,34,45,0,,,,66,30.04,BKN:07 43,28.93,10,40,290,,14,,,,,,,,,,,,,,,,,,,,,,,,,,,,,,,,,,,,,MET09302/01/20 22:52:01 METAR KATL 020352Z 29012KT 10SM BKN043 07/01 A3003 RMK AO2 SLP174 T00720011,FM-15,7,,,,,,,,,,,,,,,,,,,,,,,,,,,3/27/2007
72219013874,2020-02-01T23:52:00,FM-15,7,,,,,,,,,,,,,,,,,,,,,,,,,,,,,,,,,,,,,,,30.05,33,44,0,,,,65,30.06,FEW:02 46,28.95,10,39,290,,14,,,,,,,,,,,,,,,,,,,,,,,,,,,,,,,,,,,,,MET10302/01/20 23:52:02 METAR KATL 020452Z 29012KT 10SM FEW046 07/01 A3005 RMK AO2 SLP179 T00670006 401110044,FM-15,7,,,,,,,,,,,,,,,,,,,,,,,,,,,3/27/2007
72219013874,2020-02-01T23:59:00,SOD  ,6,,,,,,,,,,,,,,,,,38,46,78,30.03,28.92,41,7.8,0,1.4,19,52,40,320,23,0,0,0,310,18,BR,,,,,,,,,,,,,,,,,,,,,,,,,,,,,,,,,,,,,,,,,,,,,,,,,,,,,,,SOD75624 HR PRECIPITATION (IN): 0.00 SNOW DEPTH (IN):0     24 HR SNOWFALL (IN):0.0  WEATHER(CODE):1  24 HR MAX TEMP (F): 5224 HR MIN TEMP (F): 40AVERAGE STATION PRESSURE:28.920 MINIMUM SEA LEVEL PRESSURE:29.96 TIME OF OCCURRENCE:1508 PEAK WIND SPEED (MPH): 23 PEAK WIND DIR (DEG):320 PEAK WIND TIME (LST):      FASTEST 2MIN SPEED (MPH): 18FASTEST 2MIN DIR (DEG):310 FASTEST 2MIN TIME (LST):     AVERAGE WIND SPEED (MPH): 7.8 24 HR AVG TEMP (F): 46DEPART FROM NORMAL:  1  HEATING DEGREE DAYS: 19 COOLING DEGREE DAYS:  0 LATEST DAY MAX TEMP (0700-1900 LST):52  LATEST NIGHT MIN TEMP(1900-0800 LST):40 HOURLY INCREMENTAL PRECIPITATION VALUES (IN):.00 0.00 0.00 0.00 0.00 0.00 0.00 0.00 0.00 0.00 0.00 0.00 0.00 0.00 0.00 0.00 0.00 0.00 0.00 0.00 0.00 0.00 0.00 0.00,SOD  ,6,,,,,,,,,,,,,,,,,,,,,,,,,734,1809,3/27/2007
72219013874,2020-02-02T00:52:00,FM-15,7,,,,,,,,,,,,,,,,,,,,,,,,,,,,,,,,,,,,,,,30.04,32,42,0,,0,0,68,30.05,FEW:02 44,28.94,10,38,270,,9,,,,,,,,,,,,,,,,,,,,,,,,,,,,,,,,,,,,,MET11702/02/20 00:52:02 METAR KATL 020552Z 27008KT 10SM FEW044 06/00 A3004 RMK AO2 SLP176 T00560000 10083 20056 50001 (KAF),FM-15,7,,,,,,,,,,,,,,,,,,,,,,,,,,,3/27/2007
72219013874,2020-02-02T01:00:00,FM-12,4,,,,,,,,,,,,,,,,,,,,,,,,,,,,,,,,,,,,,,,,32,42,,,0,9,68,30.05,41,28.93,9.94,38,270,,9,,,,,,,,,,,,,,,,,,,,,,,,,,,,,,,,,,,,,SYN08072219 32666 22708 10056 20000 39798 40176 50001 90552 333 10083 20044 555 90206=,FM-12,4,,,,,,,,,,,,,,,,,,,,,,,,,,,3/27/2007
72219013874,2020-02-02T01:52:00,FM-15,7,,,,,,,,,,,,,,,,,,,,,,,,,,,,,,,,,,,,,,,30.03,32,41,0,,,,70,30.04,CLR:00,28.93,10,37,280,,10,,,,,,,,,,,,,,,,,,,,,,,,,,,,,,,,,,,,,MET09502/02/20 01:52:02 METAR KATL 020652Z 28009KT 10SM CLR 05/00 A3003 RMK AO2 SLP174 T00500000 (DB),FM-15,7,,,,,,,,,,,,,,,,,,,,,,,,,,,3/27/2007
72219013874,2020-02-02T02:52:00,FM-15,7,,,,,,,,,,,,,,,,,,,,,,,,,,,,,,,,,,,,,,,30.03,32,40,0,,,,73,30.04,CLR:00,28.93,10,37,270,,10,,,,,,,,,,,,,,,,,,,,,,,,,,,,,,,,,,,,,MET09502/02/20 02:52:02 METAR KATL 020752Z 27009KT 10SM CLR 04/00 A3003 RMK AO2 SLP174 T00440000 (DB),FM-15,7,,,,,,,,,,,,,,,,,,,,,,,,,,,3/27/2007
72219013874,2020-02-02T03:52:00,FM-15,7,,,,,,,,,,,,,,,,,,,,,,,,,,,,,,,,,,,,,,,30.04,32,39,0,,0,5,76,30.05,CLR:00,28.94,10,36,270,,6,,,,,,,,,,,,,,,,,,,,,,,,,,,,,,,,,,,,,MET10102/02/20 03:52:02 METAR KATL 020852Z 27005KT 10SM CLR 04/00 A3004 RMK AO2 SLP177 T00390000 55000 (DB),FM-15,7,,,,,,,,,,,,,,,,,,,,,,,,,,,3/27/2007
72219013874,2020-02-02T04:52:00,FM-15,7,,,,,,,,,,,,,,,,,,,,,,,,,,,,,,,,,,,,,,,30.04,32,38,0,,,,79,30.05,CLR:00,28.94,10,36,260,,8,,,,,,,,,,,,,,,,,,,,,,,,,,,,,,,,,,,,,MET09502/02/20 04:52:02 METAR KATL 020952Z 26007KT 10SM CLR 03/00 A3004 RMK AO2 SLP176 T00330000 (DB),FM-15,7,,,,,,,,,,,,,,,,,,,,,,,,,,,3/27/2007
72219013874,2020-02-02T05:52:00,FM-15,7,,,,,,,,,,,,,,,,,,,,,,,,,,,,,,,,,,,,,,,30.04,32,37,0,,,,82,30.06,CLR:00,28.94,10,35,270,,6,,,,,,,,,,,,,,,,,,,,,,,,,,,,,,,,,,,,,MET09502/02/20 05:52:02 METAR KATL 021052Z 27005KT 10SM CLR 03/00 A3004 RMK AO2 SLP178 T00280000 (DB),FM-15,7,,,,,,,,,,,,,,,,,,,,,,,,,,,3/27/2007
72219013874,2020-02-02T06:52:00,FM-15,7,,,,,,,,,,,,,,,,,,,,,,,,,,,,,,,,,,,,,,,30.06,32,36,0,,-0.01,3,86,30.07,CLR:00,28.96,10,34,270,,6,,,,,,,,,,,,,,,,,,,,,,,,,,,,,,,,,,,,,MET11302/02/20 06:52:02 METAR KATL 021152Z 27005KT 10SM CLR 02/00 A3006 RMK AO2 SLP184 T00220000 10056 20022 53005 (DB),FM-15,7,,,,,,,,,,,,,,,,,,,,,,,,,,,3/27/2007
72219013874,2020-02-02T07:00:00,FM-12,4,,,,,,,,,,,,,,,,,,,,,,,,,,,,,,,,,,,,,,,,32,36,,,-0.01,3,86,30.07,,28.95,9.94,34,270,,6,,,,,,,,,,,,,,,,,,,,,,,,,,,,,,,,,,,,,SYN08072219 32966 02705 10022 20000 39805 40184 53005 91152 333 10111 20022 555 90212=,FM-12,4,,,,,,,,,,,,,,,,,,,,,,,,,,,3/27/2007
72219013874,2020-02-02T07:52:00,FM-15,7,,,,,,,,,,,,,,,,,,,,,,,,,,,,,,,,,,,,,,,30.06,31,36,0,,,,82,30.08,FEW:02 200 FEW:02 250,28.96,10,34,280,,3,,,,,,,,,,,,,,,,,,,,,,,,,,,,,,,,,,,,,MET10602/02/20 07:52:02 METAR KATL 021252Z 28003KT 10SM FEW200 FEW250 02/M01 A3006 RMK AO2 SLP185 T00221006 (DB),FM-15,7,,,,,,,,,,,,,,,,,,,,,,,,,,,3/27/2007
72219013874,2020-02-02T08:52:00,FM-15,7,,,,,,,,,,,,,,,,,,,,,,,,,,,,,,,,,,,,,,,30.06,34,41,0,,,,76,30.08,FEW:02 250,28.96,10,38,250,,5,,,,,,,,,,,,,,,,,,,,,,,,,,,,,,,,,,,,,MET09802/02/20 08:52:02 METAR KATL 021352Z 25004KT 10SM FEW250 05/01 A3006 RMK AO2 SLP185 T00500011 (DB),FM-15,7,,,,,,,,,,,,,,,,,,,,,,,,,,,3/27/2007
72219013874,2020-02-02T09:52:00,FM-15,7,,,,,,,,,,,,,,,,,,,,,,,,,,,,,,,,,,,,,,,30.09,35,48,0,,-0.03,3,61,30.09,CLR:00,28.99,10,42,260,,11,,,,,,,,,,,,,,,,,,,,,,,,,,,,,,,,,,,,,MET10202/02/20 09:52:02 METAR KATL 021452Z 26010KT 10SM CLR 09/02 A3009 RMK AO2 SLP191 T00890017 53010 (JRN),FM-15,7,,,,,,,,,,,,,,,,,,,,,,,,,,,3/27/2007
72219013874,2020-02-02T10:52:00,FM-15,7,,,,,,,,,,,,,,,,,,,,,,,,,,,,,,,,,,,,,,,30.09,34,52,0,,,,50,30.09,CLR:00,28.99,10,44,260,,8,,,,,,,,,,,,,,,,,,,,,,,,,,,,,,,,,,,,,MET09602/02/20 10:52:02 METAR KATL 021552Z 26007KT 10SM CLR 11/01 A3009 RMK AO2 SLP190 T01110011 (JRN),FM-15,7,,,,,,,,,,,,,,,,,,,,,,,,,,,3/27/2007
72219013874,2020-02-02T11:52:00,FM-15,7,,,,,,,,,,,,,,,,,,,,,,,,,,,,,,,,,,,,,,,30.07,33,57,0,,,,41,30.07,CLR:00,28.97,10,46,250,21,14,,,,,,,,,,,,,,,,,,,,,,,,,,,,,,,,,,,,,MET09902/02/20 11:52:02 METAR KATL 021652Z 25012G18KT 10SM CLR 14/01 A3007 RMK AO2 SLP183 T01390006 (JRN),FM-15,7,,,,,,,,,,,,,,,,,,,,,,,,,,,3/27/2007
72219013874,2020-02-02T12:52:00,FM-15,7,,,,,,,,,,,,,,,,,,,,,,,,,,,,,,,,,,,,,,,30.03,33,60,0,,0.06,8,36,30.03,FEW:02 250,28.93,10,47,260,,10,,,,,,,,,,,,,,,,,,,,,,,,,,,,,,,,,,,,,MET11702/02/20 12:52:02 METAR KATL 021752Z 26009KT 10SM FEW250 16/01 A3003 RMK AO2 SLP168 T01560006 10156 20017 58020 (JRN),FM-15,7,,,,,,,,,,,,,,,,,,,,,,,,,,,3/27/2007
72219013874,2020-02-02T13:00:00,FM-12,4,,,,,,,,,,,,,,,,,,,,,,,,,,,,,,,,,,,,,,,,33,60,,,0.06,8,36,30.03,,28.92,9.94,47,260,,10,,,,,,,,,,,,,,,,,,,,,,,,,,,,,,,,,,,,,SYN08072219 32966 22609 10156 20006 39795 40168 58020 91752 333 10156 20017 555 90218=,FM-12,4,,,,,,,,,,,,,,,,,,,,,,,,,,,3/27/2007
72219013874,2020-02-02T13:52:00,FM-15,7,,,,,,,,,,,,,,,,,,,,,,,,,,,,,,,,,,,,,,,30,30,62,0,,,,30,30,FEW:02 250,28.9,10,47,280,,14,,,,,,,,,,,,,,,,,,,,,,,,,,,,,,,,,,,,,MET10002/02/20 13:52:02 METAR KATL 021852Z 28012KT 10SM FEW250 17/M01 A3000 RMK AO2 SLP159 T01671011 (JRN),FM-15,7,,,,,,,,,,,,,,,,,,,,,,,,,,,3/27/2007
72219013874,2020-02-02T14:52:00,FM-15,7,,,,,,,,,,,,,,,,,,,,,,,,,,,,,,,,,,,,,,,29.98,28,64,0,,,,26,29.98,SCT:04 250,28.88,10,48,240,23,14,,,,,,,,,,,,,,,,,,,,,,,,,,,,,,,,,,,,,MET10302/02/20 14:52:02 METAR KATL 021952Z 24012G20KT 10SM SCT250 18/M02 A2998 RMK AO2 SLP152 T01781022 (JRN),FM-15,7,,,,,,,,,,,,,,,,,,,,,,,,,,,3/27/2007
72219013874,2020-02-02T15:52:00,FM-15,7,,,,,,,,,,,,,,,,,,,,,,,,,,,,,,,,,,,,,,,29.97,31,66,0,,0.06,6,27,29.97,BKN:07 250,28.87,10,49,260,24,9,,,,,,,,,,,,,,,,,,,,,,,,,,,,,,,,,,,,,MET10902/02/20 15:52:02 METAR KATL 022052Z 26008G21KT 10SM BKN250 19/M01 A2997 RMK AO2 SLP149 T01891006 56019 (JRN),FM-15,7,,,,,,,,,,,,,,,,,,,,,,,,,,,3/27/2007
72219013874,2020-02-02T16:52:00,FM-15,7,,,,,,,,,,,,,,,,,,,,,,,,,,,,,,,,,,,,,,,29.96,30,65,0,,,,27,29.96,SCT:04 250,28.87,10,49,270,21,13,,,,,,,,,,,,,,,,,,,,,,,,,,,,,,,,,,,,,MET10302/02/20 16:52:02 METAR KATL 022152Z 27011G18KT 10SM SCT250 18/M01 A2996 RMK AO2 SLP145 T01831011 (JRN),FM-15,7,,,,,,,,,,,,,,,,,,,,,,,,,,,3/27/2007
72219013874,2020-02-02T17:52:00,FM-15,7,,,,,,,,,,,,,,,,,,,,,,,,,,,,,,,,,,,,,,,29.97,30,63,0,,,,29,29.97,FEW:02 200 SCT:04 250,28.87,10,48,240,,14,,,,,,,,,,,,,,,,,,,,,,,,,,,,,,,,,,,,,MET10702/02/20 17:52:02 METAR KATL 022252Z 24012KT 10SM FEW200 SCT250 17/M01 A2997 RMK AO2 SLP149 T01721011 (KAF),FM-15,7,,,,,,,,,,,,,,,,,,,,,,,,,,,3/27/2007
72219013874,2020-02-02T18:52:00,FM-15,7,,,,,,,,,,,,,,,,,,,,,,,,,,,,,,,,,,,,,,,29.99,32,59,0,,-0.02,3,36,30,FEW:02 200 SCT:04 250,28.89,10,47,250,,7,,,,,,,,,,,,,,,,,,,,,,,,,,,,,,,,,,,,,MET12402/02/20 18:52:02 METAR KATL 022352Z 25006KT 10SM FEW200 SCT250 15/00 A2999 RMK AO2 SLP158 T01500000 10189 20150 53007 (KAF),FM-15,7,,,,,,,,,,,,,,,,,,,,,,,,,,,3/27/2007
72219013874,2020-02-02T19:00:00,FM-12,4,,,,,,,,,,,,,,,,,,,,,,,,,,,,,,,,,,,,,,,,32,59,,,-0.02,3,36,30,,28.89,9.94,47,250,,7,,,,,,,,,,,,,,,,,,,,,,,,,,,,,,,,,,,,,SYN08072219 32966 42506 10150 20000 39782 40158 53007 92352 333 10189 20022 555 90300=,FM-12,4,,,,,,,,,,,,,,,,,,,,,,,,,,,3/27/2007
72219013874,2020-02-02T19:52:00,FM-15,7,,,,,,,,,,,,,,,,,,,,,,,,,,,,,,,,,,,,,,,30.01,33,56,0,,,,42,30.02,SCT:04 250,28.91,10,45,230,,6,,,,,,,,,,,,,,,,,,,,,,,,,,,,,,,,,,,,,MET09302/02/20 19:52:01 METAR KATL 030052Z 23005KT 10SM SCT250 13/01 A3001 RMK AO2 SLP165 T01330006,FM-15,7,,,,,,,,,,,,,,,,,,,,,,,,,,,3/27/2007
72219013874,2020-02-02T20:52:00,FM-15,7,,,,,,,,,,,,,,,,,,,,,,,,,,,,,,,,,,,,,,,30.01,34,54,0,,,,47,30.02,FEW:02 250,28.91,10,45,230,,7,,,,,,,,,,,,,,,,,,,,,,,,,,,,,,,,,,,,,MET09302/02/20 20:52:01 METAR KATL 030152Z 23006KT 10SM FEW250 12/01 A3001 RMK AO2 SLP165 T01220011,FM-15,7,,,,,,,,,,,,,,,,,,,,,,,,,,,3/27/2007
72219013874,2020-02-02T21:52:00,FM-15,7,,,,,,,,,,,,,,,,,,,,,,,,,,,,,,,,,,,,,,,30.02,34,54,0,,-0.03,1,47,30.02,FEW:02 250,28.92,10,45,230,,7,,,,,,,,,,,,,,,,,,,,,,,,,,,,,,,,,,,,,MET09902/02/20 21:52:01 METAR KATL 030252Z 23006KT 10SM FEW250 12/01 A3002 RMK AO2 SLP166 T01220011 51009,FM-15,7,,,,,,,,,,,,,,,,,,,,,,,,,,,3/27/2007
72219013874,2020-02-02T22:52:00,FM-15,7,,,,,,,,,,,,,,,,,,,,,,,,,,,,,,,,,,,,,,,30.03,33,52,0,,,,49,30.03,FEW:02 250,28.93,10,43,240,,7,,,,,,,,,,,,,,,,,,,,,,,,,,,,,,,,,,,,,MET09302/02/20 22:52:01 METAR KATL 030352Z 24006KT 10SM FEW250 11/01 A3003 RMK AO2 SLP170 T01110006,FM-15,7,,,,,,,,,,,,,,,,,,,,,,,,,,,3/27/2007
72219013874,2020-02-02T23:52:00,FM-15,7,,,,,,,,,,,,,,,,,,,,,,,,,,,,,,,,,,,,,,,30.04,34,53,0,,,,48,30.03,CLR:00,28.94,10,44,250,,7,,,,,,,,,,,,,,,,,,,,,,,,,,,,,,,,,,,,,MET10002/02/20 23:52:02 METAR KATL 030452Z 25006KT 10SM CLR 12/01 A3004 RMK AO2 SLP171 T01170011 401890017,FM-15,7,,,,,,,,,,,,,,,,,,,,,,,,,,,3/27/2007
72219013874,2020-02-02T23:59:00,SOD  ,6,,,,,,,,,,,,,,,,,32,51,53,30.03,28.93,42,8.8,0,6.3,14,66,35,270,26,0,0,0,280,21,,,,,,,,,,,,,,,,,,,,,,,,,,,,,,,,,,,,,,,,,,,,,,,,,,,,,,,,SOD73924 HR PRECIPITATION (IN): 0.00 SNOW DEPTH (IN):0     24 HR SNOWFALL (IN):0.0  24 HR MAX TEMP (F): 6624 HR MIN TEMP (F): 35AVERAGE STATION PRESSURE:28.930 MINIMUM SEA LEVEL PRESSURE:29.96 TIME OF OCCURRENCE:1719 PEAK WIND SPEED (MPH): 26 PEAK WIND DIR (DEG):270 PEAK WIND TIME (LST):      FASTEST 2MIN SPEED (MPH): 21FASTEST 2MIN DIR (DEG):280 FASTEST 2MIN TIME (LST):     AVERAGE WIND SPEED (MPH): 8.8 24 HR AVG TEMP (F): 51DEPART FROM NORMAL:  6  HEATING DEGREE DAYS: 14 COOLING DEGREE DAYS:  0 LATEST DAY MAX TEMP (0700-1900 LST):66  LATEST NIGHT MIN TEMP(1900-0800 LST):35 HOURLY INCREMENTAL PRECIPITATION VALUES (IN):.00 0.00 0.00 0.00 0.00 0.00 0.00 0.00 0.00 0.00 0.00 0.00 0.00 0.00 0.00 0.00 0.00 0.00 0.00 0.00 0.00 0.00 0.00 0.00,SOD  ,6,,,,,,,,,,,,,,,,,,,,,,,,,734,1810,3/27/2007
72219013874,2020-02-03T00:52:00,FM-15,7,,,,,,,,,,,,,,,,,,,,,,,,,,,,,,,,,,,,,,,30.04,34,53,0,,-0.02,1,48,30.03,CLR:00,28.94,10,44,240,,7,,,,,,,,,,,,,,,,,,,,,,,,,,,,,,,,,,,,,MET11402/03/20 00:52:02 METAR KATL 030552Z 24006KT 10SM CLR 12/01 A3004 RMK AO2 SLP170 T01170011 10150 20111 51006 (KAF),FM-15,7,,,,,,,,,,,,,,,,,,,,,,,,,,,3/27/2007
72219013874,2020-02-03T01:00:00,FM-12,4,,,,,,,,,,,,,,,,,,,,,,,,,,,,,,,,,,,,,,,,34,53,,,-0.02,1,48,30.03,,28.93,9.94,44,240,,7,,,,,,,,,,,,,,,,,,,,,,,,,,,,,,,,,,,,,SYN08072219 32966 02406 10117 20011 39798 40170 51006 90552 333 10150 20022 555 90306=,FM-12,4,,,,,,,,,,,,,,,,,,,,,,,,,,,3/27/2007
72219013874,2020-02-03T01:52:00,FM-15,7,,,,,,,,,,,,,,,,,,,,,,,,,,,,,,,,,,,,,,,30.02,34,52,0,,,,50,30.02,CLR:00,28.92,10,44,250,,6,,,,,,,,,,,,,,,,,,,,,,,,,,,,,,,,,,,,,MET09502/03/20 01:52:02 METAR KATL 030652Z 25005KT 10SM CLR 11/01 A3002 RMK AO2 SLP166 T01110011 (DB),FM-15,7,,,,,,,,,,,,,,,,,,,,,,,,,,,3/27/2007
72219013874,2020-02-03T02:52:00,FM-15,7,,,,,,,,,,,,,,,,,,,,,,,,,,,,,,,,,,,,,,,30.04,35,50,0,,,,57,30.03,CLR:00,28.94,10,43,250,,5,,,,,,,,,,,,,,,,,,,,,,,,,,,,,,,,,,,,,MET09502/03/20 02:52:02 METAR KATL 030752Z 25004KT 10SM CLR 10/02 A3004 RMK AO2 SLP171 T01000017 (DB),FM-15,7,,,,,,,,,,,,,,,,,,,,,,,,,,,3/27/2007
72219013874,2020-02-03T03:52:00,FM-15,7,,,,,,,,,,,,,,,,,,,,,,,,,,,,,,,,,,,,,,,30.06,35,45,0,,-0.02,3,68,30.05,CLR:00,28.96,10,41,270,,6,,,,,,,,,,,,,,,,,,,,,,,,,,,,,,,,,,,,,MET10102/03/20 03:52:02 METAR KATL 030852Z 27005KT 10SM CLR 07/02 A3006 RMK AO2 SLP177 T00720017 53007 (DB),FM-15,7,,,,,,,,,,,,,,,,,,,,,,,,,,,3/27/2007
72219013874,2020-02-03T04:52:00,FM-15,7,,,,,,,,,,,,,,,,,,,,,,,,,,,,,,,,,,,,,,,30.06,34,44,0,,,,68,30.05,FEW:02 250,28.96,10,40,280,,6,,,,,,,,,,,,,,,,,,,,,,,,,,,,,,,,,,,,,MET09802/03/20 04:52:02 METAR KATL 030952Z 28005KT 10SM FEW250 07/01 A3006 RMK AO2 SLP177 T00670011 (DB),FM-15,7,,,,,,,,,,,,,,,,,,,,,,,,,,,3/27/2007
72219013874,2020-02-03T05:52:00,FM-15,7,,,,,,,,,,,,,,,,,,,,,,,,,,,,,,,,,,,,,,,30.04,34,44,0,,,,68,30.04,FEW:02 200 FEW:02 250,28.94,10,40,0,,0,,,,,,,,,,,,,,,,,,,,,,,,,,,,,,,,,,,,,MET10502/03/20 05:52:02 METAR KATL 031052Z 00000KT 10SM FEW200 FEW250 07/01 A3004 RMK AO2 SLP173 T00670011 (DB),FM-15,7,,,,,,,,,,,,,,,,,,,,,,,,,,,3/27/2007
72219013874,2020-02-03T06:52:00,FM-15,7,,,,,,,,,,,,,,,,,,,,,,,,,,,,,,,,,,,,,,,30.07,34,43,0,,-0.01,3,71,30.07,FEW:02 200 SCT:04 250,28.97,10,39,230,,3,,,,,,,,,,,,,,,,,,,,,,,,,,,,,,,,,,,,,MET12302/03/20 06:52:02 METAR KATL 031152Z 23003KT 10SM FEW200 SCT250 06/01 A3007 RMK AO2 SLP182 T00610011 10111 20056 53003 (DB),FM-15,7,,,,,,,,,,,,,,,,,,,,,,,,,,,3/27/2007
72219013874,2020-02-03T07:00:00,FM-12,4,,,,,,,,,,,,,,,,,,,,,,,,,,,,,,,,,,,,,,,,34,43,,,-0.01,3,71,30.07,,28.96,9.94,39,230,,3,,,,,,,,,,,,,,,,,,,,,,,,,,,,,,,,,,,,,SYN08072219 32966 42303 10061 20011 39808 40182 53003 91152 333 10189 20056 555 90312=,FM-12,4,,,,,,,,,,,,,,,,,,,,,,,,,,,3/27/2007
72219013874,2020-02-03T07:52:00,FM-15,7,,,,,,,,,,,,,,,,,,,,,,,,,,,,,,,,,,,,,,,30.09,35,44,0,,,,71,30.09,FEW:02 150 SCT:04 200 BKN:07 250,28.99,10,40,230,,3,,,,,,,,,,,,,,,,,,,,,,,,,,,,,,,,,,,,,MET11202/03/20 07:52:02 METAR KATL 031252Z 23003KT 10SM FEW150 SCT200 BKN250 07/02 A3009 RMK AO2 SLP190 T00670017 (DB),FM-15,7,,,,,,,,,,,,,,,,,,,,,,,,,,,3/27/2007
72219013874,2020-02-03T08:52:00,FM-15,7,,,,,,,,,,,,,,,,,,,,,,,,,,,,,,,,,,,,,,,30.09,38,47,0,,,,71,30.09,FEW:02 150 SCT:04 200 BKN:07 250,28.99,10,43,0,,0,,,,,,,,,,,,,,,,,,,,,,,,,,,,,,,,,,,,,MET11202/03/20 08:52:02 METAR KATL 031352Z 00000KT 10SM FEW150 SCT200 BKN250 08/03 A3009 RMK AO2 SLP191 T00830033 (DB),FM-15,7,,,,,,,,,,,,,,,,,,,,,,,,,,,3/27/2007
72219013874,2020-02-03T09:52:00,FM-15,7,,,,,,,,,,,,,,,,,,,,,,,,,,,,,,,,,,,,,,,30.11,39,54,0,,-0.05,3,57,30.11,FEW:02 150 SCT:04 200 BKN:07 250,29.01,10,47,240,,7,,,,,,,,,,,,,,,,,,,,,,,,,,,,,,,,,,,,,MET11902/03/20 09:52:02 METAR KATL 031452Z 24006KT 10SM FEW150 SCT200 BKN250 12/04 A3011 RMK AO2 SLP197 T01220039 53016 (CPS),FM-15,7,,,,,,,,,,,,,,,,,,,,,,,,,,,3/27/2007
72219013874,2020-02-03T10:52:00,FM-15,7,,,,,,,,,,,,,,,,,,,,,,,,,,,,,,,,,,,,,,,30.12,41,60,0,,,,50,30.12,FEW:02 150 FEW:02 200 BKN:07 250,29.02,10,50,230,,5,,,,,,,,,,,,,,,,,,,,,,,,,,,,,,,,,,,,,MET11302/03/20 10:52:02 METAR KATL 031552Z 23004KT 10SM FEW150 FEW200 BKN250 16/05 A3012 RMK AO2 SLP200 T01560050 (CPS),FM-15,7,,,,,,,,,,,,,,,,,,,,,,,,,,,3/27/2007
72219013874,2020-02-03T11:52:00,FM-15,7,,,,,,,,,,,,,,,,,,,,,,,,,,,,,,,,,,,,,,,30.12,39,67,0,,,,36,30.11,FEW:02 150 FEW:02 200 BKN:07 250,29.02,10,53,290,,7,,,,,,,,,,,,,,,,,,,,,,,,,,,,,,,,,,,,,MET11302/03/20 11:52:02 METAR KATL 031652Z 29006KT 10SM FEW150 FEW200 BKN250 19/04 A3012 RMK AO2 SLP197 T01940039 (CPS),FM-15,7,,,,,,,,,,,,,,,,,,,,,,,,,,,3/27/2007
72219013874,2020-02-03T12:52:00,FM-15,7,,,,,,,,,,,,,,,,,,,,,,,,,,,,,,,,,,,,,,,30.09,37,72,0,,0.02,8,28,30.08,SCT:04 150 SCT:04 200 BKN:07 250,28.99,10,54,230,,11,,,,,,,,,,,,,,,,,,,,,,,,,,,,,,,,,,,,,MET13102/03/20 12:52:02 METAR KATL 031752Z 23010KT 10SM SCT150 SCT200 BKN250 22/03 A3009 RMK AO2 SLP186 T02220028 10222 20061 58007 (CPS),FM-15,7,,,,,,,,,,,,,,,,,,,,,,,,,,,3/27/2007
72219013874,2020-02-03T13:00:00,FM-12,4,,,,,,,,,,,,,,,,,,,,,,,,,,,,,,,,,,,,,,,,37,72,,,0.02,8,28,30.08,,28.98,9.94,54,230,,11,,,,,,,,,,,,,,,,,,,,,,,,,,,,,,,,,,,,,SYN08072219 32966 62310 10222 20028 39815 40186 58007 91752 333 10222 20061 555 90318=,FM-12,4,,,,,,,,,,,,,,,,,,,,,,,,,,,3/27/2007
72219013874,2020-02-03T13:52:00,FM-15,7,,,,,,,,,,,,,,,,,,,,,,,,,,,,,,,,,,,,,,,30.06,36,74,0,,,,25,30.05,FEW:02 150 FEW:02 200 BKN:07 250,28.96,10,55,240,,10,,,,,,,,,,,,,,,,,,,,,,,,,,,,,,,,,,,,,MET11302/03/20 13:52:02 METAR KATL 031852Z 24009KT 10SM FEW150 FEW200 BKN250 23/02 A3006 RMK AO2 SLP177 T02330022 (CPS),FM-15,7,,,,,,,,,,,,,,,,,,,,,,,,,,,3/27/2007
72219013874,2020-02-03T14:52:00,FM-15,7,,,,,,,,,,,,,,,,,,,,,,,,,,,,,,,,,,,,,,,30.04,36,75,0,,,,24,30.02,FEW:02 150 SCT:04 200 BKN:07 250,28.94,10,55,220,,11,,,,,,,,,,,,,,,,,,,,,,,,,,,,,,,,,,,,,MET11302/03/20 14:52:02 METAR KATL 031952Z 22010KT 10SM FEW150 SCT200 BKN250 24/02 A3004 RMK AO2 SLP167 T02390022 (CPS),FM-15,7,,,,,,,,,,,,,,,,,,,,,,,,,,,3/27/2007
72219013874,2020-02-03T15:52:00,FM-15,7,,,,,,,,,,,,,,,,,,,,,,,,,,,,,,,,,,,,,,,30.02,34,76,0,,0.06,6,22,30.01,FEW:02 150 FEW:02 200 BKN:07 300,28.92,10,55,230,23,16,,,,,,,,,,,,,,,,,,,,,,,,,,,,,,,,,,,,,MET12202/03/20 15:52:02 METAR KATL 032052Z 23014G20KT 10SM FEW150 FEW200 BKN300 24/01 A3002 RMK AO2 SLP164 T02440011 56022 (CPS),FM-15,7,,,,,,,,,,,,,,,,,,,,,,,,,,,3/27/2007
72219013874,2020-02-03T16:52:00,FM-15,7,,,,,,,,,,,,,,,,,,,,,,,,,,,,,,,,,,,,,,,30.03,34,74,0,,,,23,30.02,FEW:02 150 SCT:04 210 BKN:07 300,28.93,10,54,210,21,13,,,,,,,,,,,,,,,,,,,,,,,,,,,,,,,,,,,,,MET11602/03/20 16:52:02 METAR KATL 032152Z 21011G18KT 10SM FEW150 SCT210 BKN300 23/01 A3003 RMK AO2 SLP166 T02330011 (CPS),FM-15,7,,,,,,,,,,,,,,,,,,,,,,,,,,,3/27/2007
72219013874,2020-02-03T17:52:00,FM-15,7,,,,,,,,,,,,,,,,,,,,,,,,,,,,,,,,,,,,,,,30.03,35,71,0,,,,27,30.02,FEW:02 150 SCT:04 200 BKN:07 250,28.93,10,53,200,,9,,,,,,,,,,,,,,,,,,,,,,,,,,,,,,,,,,,,,MET11202/03/20 17:52:02 METAR KATL 032252Z 20008KT 10SM FEW150 SCT200 BKN250 22/02 A3003 RMK AO2 SLP167 T02170017 (RF),FM-15,7,,,,,,,,,,,,,,,,,,,,,,,,,,,3/27/2007
72219013874,2020-02-03T18:52:00,FM-15,7,,,,,,,,,,,,,,,,,,,,,,,,,,,,,,,,,,,,,,,30.03,36,69,0,,-0.01,1,30,30.03,BKN:07 150 BKN:07 250,28.93,10,52,210,,9,,,,,,,,,,,,,,,,,,,,,,,,,,,,,,,,,,,,,MET12302/03/20 18:52:02 METAR KATL 032352Z 21008KT 10SM BKN150 BKN250 21/02 A3003 RMK AO2 SLP169 T02060022 10244 20200 51003 (RF),FM-15,7,,,,,,,,,,,,,,,,,,,,,,,,,,,3/27/2007
72219013874,2020-02-03T19:00:00,FM-12,4,,,,,,,,,,,,,,,,,,,,,,,,,,,,,,,,,,,,,,,,36,69,,,-0.01,1,30,30.03,,28.92,9.94,52,210,,9,,,,,,,,,,,,,,,,,,,,,,,,,,,,,,,,,,,,,SYN08072219 32966 62108 10206 20022 39795 40169 51003 92352 333 10244 20056 555 90400=,FM-12,4,,,,,,,,,,,,,,,,,,,,,,,,,,,3/27/2007
72219013874,2020-02-03T19:52:00,FM-15,7,,,,,,,,,,,,,,,,,,,,,,,,,,,,,,,,,,,,,,,30.05,37,67,0,,,,33,30.04,FEW:02 150 BKN:07 180 BKN:07 250,28.95,10,52,200,,10,,,,,,,,,,,,,,,,,,,,,,,,,,,,,,,,,,,,,MET10702/03/20 19:52:01 METAR KATL 040052Z 20009KT 10SM FEW150 BKN180 BKN250 19/03 A3005 RMK AO2 SLP174 T01940028,FM-15,7,,,,,,,,,,,,,,,,,,,,,,,,,,,3/27/2007
72219013874,2020-02-03T20:52:00,FM-15,7,,,,,,,,,,,,,,,,,,,,,,,,,,,,,,,,,,,,,,,30.06,38,65,0,,,,37,30.06,FEW:02 150 SCT:04 180 BKN:07 250,28.96,10,51,210,,10,,,,,,,,,,,,,,,,,,,,,,,,,,,,,,,,,,,,,MET10702/03/20 20:52:01 METAR KATL 040152Z 21009KT 10SM FEW150 SCT180 BKN250 18/03 A3006 RMK AO2 SLP179 T01830033,FM-15,7,,,,,,,,,,,,,,,,,,,,,,,,,,,3/27/2007
72219013874,2020-02-03T21:52:00,FM-15,7,,,,,,,,,,,,,,,,,,,,,,,,,,,,,,,,,,,,,,,30.07,39,64,0,,-0.04,1,40,30.06,FEW:02 150 BKN:07 250,28.97,10,51,210,,11,,,,,,,,,,,,,,,,,,,,,,,,,,,,,,,,,,,,,MET10602/03/20 21:52:01 METAR KATL 040252Z 21010KT 10SM FEW150 BKN250 18/04 A3007 RMK AO2 SLP180 T01780039 51012,FM-15,7,,,,,,,,,,,,,,,,,,,,,,,,,,,3/27/2007
72219013874,2020-02-03T22:52:00,FM-15,7,,,,,,,,,,,,,,,,,,,,,,,,,,,,,,,,,,,,,,,30.06,40,62,0,,,,44,30.06,SCT:04 150 BKN:07 250,28.96,10,51,200,,10,,,,,,,,,,,,,,,,,,,,,,,,,,,,,,,,,,,,,MET10002/03/20 22:52:01 METAR KATL 040352Z 20009KT 10SM SCT150 BKN250 17/04 A3006 RMK AO2 SLP178 T01670044,FM-15,7,,,,,,,,,,,,,,,,,,,,,,,,,,,3/27/2007
72219013874,2020-02-03T23:52:00,FM-15,7,,,,,,,,,,,,,,,,,,,,,,,,,,,,,,,,,,,,,,,30.06,41,60,0,,,,50,30.04,SCT:04 180 BKN:07 250,28.96,10,50,210,,9,,,,,,,,,,,,,,,,,,,,,,,,,,,,,,,,,,,,,MET11002/03/20 23:52:02 METAR KATL 040452Z 21008KT 10SM SCT180 BKN250 16/05 A3006 RMK AO2 SLP174 T01560050 402440056,FM-15,7,,,,,,,,,,,,,,,,,,,,,,,,,,,3/27/2007
72219013874,2020-02-03T23:59:00,SOD  ,6,,,,,,,,,,,,,,,,,36,59,46,30.05,28.95,48,7.8,0,14.1,6,76,42,210,25,0,0,0,200,20,,,,,,,,,,,,,,,,,,,,,,,,,,,,,,,,,,,,,,,,,,,,,,,,,,,,,,,,SOD73924 HR PRECIPITATION (IN): 0.00 SNOW DEPTH (IN):0     24 HR SNOWFALL (IN):0.0  24 HR MAX TEMP (F): 7624 HR MIN TEMP (F): 42AVERAGE STATION PRESSURE:28.955 MINIMUM SEA LEVEL PRESSURE:30.01 TIME OF OCCURRENCE:1610 PEAK WIND SPEED (MPH): 25 PEAK WIND DIR (DEG):210 PEAK WIND TIME (LST):      FASTEST 2MIN SPEED (MPH): 20FASTEST 2MIN DIR (DEG):200 FASTEST 2MIN TIME (LST):     AVERAGE WIND SPEED (MPH): 7.8 24 HR AVG TEMP (F): 59DEPART FROM NORMAL: 14  HEATING DEGREE DAYS:  6 COOLING DEGREE DAYS:  0 LATEST DAY MAX TEMP (0700-1900 LST):76  LATEST NIGHT MIN TEMP(1900-0800 LST):42 HOURLY INCREMENTAL PRECIPITATION VALUES (IN):.00 0.00 0.00 0.00 0.00 0.00 0.00 0.00 0.00 0.00 0.00 0.00 0.00 0.00 0.00 0.00 0.00 0.00 0.00 0.00 0.00 0.00 0.00 0.00,SOD  ,6,,,,,,,,,,,,,,,,,,,,,,,,,733,1811,3/27/2007
72219013874,2020-02-04T00:52:00,FM-15,7,,,,,,,,,,,,,,,,,,,,,,,,,,,,,,,,,,,,,,,30.06,42,59,0,,0.01,6,54,30.04,BKN:07 180 BKN:07 250,28.96,10,50,220,,11,,,,,,,,,,,,,,,,,,,,,,,,,,,,,,,,,,,,,MET12302/04/20 00:52:02 METAR KATL 040552Z 22010KT 10SM BKN180 BKN250 15/06 A3006 RMK AO2 SLP172 T01500056 10206 20150 56005 (RF),FM-15,7,,,,,,,,,,,,,,,,,,,,,,,,,,,3/27/2007
72219013874,2020-02-04T01:00:00,FM-12,4,,,,,,,,,,,,,,,,,,,,,,,,,,,,,,,,,,,,,,,,42,59,,,0.01,6,54,30.04,,28.95,9.94,50,220,,11,,,,,,,,,,,,,,,,,,,,,,,,,,,,,,,,,,,,,SYN08072219 32966 62210 10150 20056 39805 40172 56005 90552 333 10206 20056 555 90406=,FM-12,4,,,,,,,,,,,,,,,,,,,,,,,,,,,3/27/2007
72219013874,2020-02-04T01:52:00,FM-15,7,,,,,,,,,,,,,,,,,,,,,,,,,,,,,,,,,,,,,,,30.06,44,58,0,,,,60,30.04,FEW:02 180 BKN:07 220 BKN:07 250,28.96,10,51,240,,11,,,,,,,,,,,,,,,,,,,,,,,,,,,,,,,,,,,,,MET11202/04/20 01:52:02 METAR KATL 040652Z 24010KT 10SM FEW180 BKN220 BKN250 14/07 A3006 RMK AO2 SLP174 T01440067 (DB),FM-15,7,,,,,,,,,,,,,,,,,,,,,,,,,,,3/27/2007
72219013874,2020-02-04T02:52:00,FM-15,7,,,,,,,,,,,,,,,,,,,,,,,,,,,,,,,,,,,,,,,30.06,47,58,0,,,,67,30.04,FEW:02 150 BKN:07 180 BKN:07 220,28.96,10,52,240,,13,,,,,,,,,,,,,,,,,,,,,,,,,,,,,,,,,,,,,MET11602/04/20 02:52:02 METAR KATL 040752Z 24011KT 10SM FEW150 BKN180 BKN220 CLR 14/08 A3006 RMK AO2 SLP174 T01440083 (DB),FM-15,7,,,,,,,,,,,,,,,,,,,,,,,,,,,3/27/2007
72219013874,2020-02-04T03:52:00,FM-15,7,,,,,,,,,,,,,,,,,,,,,,,,,,,,,,,,,,,,,,,30.07,48,58,0,,-0.01,3,70,30.05,FEW:02 150 BKN:07 180 BKN:07 220,28.97,10,53,240,,11,,,,,,,,,,,,,,,,,,,,,,,,,,,,,,,,,,,,,MET11802/04/20 03:52:02 METAR KATL 040852Z 24010KT 10SM FEW150 BKN180 BKN220 14/09 A3007 RMK AO2 SLP177 T01440089 53005 (DB),FM-15,7,,,,,,,,,,,,,,,,,,,,,,,,,,,3/27/2007
72219013874,2020-02-04T04:48:00,FM-16,7,,,,,,,,,,,,,,,,,,,,,,,,,,,,,,,,,,,,,,,30.07,48,57,,,,,72,,BKN:07 21 BKN:07 150 BKN:07 220,28.97,10,52,260,,9,,,,,,,,,,,,,,,,,,,,,,,,,,,,,,,,,,,,,MET09502/04/20 04:48:02 SPECI KATL 040948Z 26008KT 10SM BKN021 BKN150 BKN220 14/09 A3007 RMK AO2 (DB),FM-16,7,,,,,,,,,,,,,,,,,,,,,,,,,,,3/27/2007
72219013874,2020-02-04T04:52:00,FM-15,7,,,,,,,,,,,,,,,,,,,,,,,,,,,,,,,,,,,,,,,30.07,49,58,0,,,,72,30.06,BKN:07 21 BKN:07 150 BKN:07 220,28.97,10,53,250,,9,,,,,,,,,,,,,,,,,,,,,,,,,,,,,,,,,,,,,MET11202/04/20 04:52:02 METAR KATL 040952Z 25008KT 10SM BKN021 BKN150 BKN220 14/09 A3007 RMK AO2 SLP179 T01440094 (DB),FM-15,7,,,,,,,,,,,,,,,,,,,,,,,,,,,3/27/2007
72219013874,2020-02-04T05:30:00,FM-16,7,,,,,,,,,,,,,,,,,,,,,,,,,,,,,,,,,,,,,,,30.08,50,57,,,,,78,,SCT:04 21 SCT:04 150 BKN:07 200,28.98,10,53,250,,7,,,,,,,,,,,,,,,,,,,,,,,,,,,,,,,,,,,,,MET10502/04/20 05:30:02 SPECI KATL 041030Z 25006KT 10SM SCT021 SCT150 BKN200 14/10 A3008 RMK AO2 T01390100 (DB),FM-16,7,,,,,,,,,,,,,,,,,,,,,,,,,,,3/27/2007
72219013874,2020-02-04T05:52:00,FM-15,7,,,,,,,,,,,,,,,,,,,,,,,,,,,,,,,,,,,,,,,30.08,50,57,0,,,,78,30.06,FEW:02 21 SCT:04 150 BKN:07 180,28.98,10,53,250,21,10,,,,,,,,,,,,,,,,,,,,,,,,,,,,,,,,,,,,,MET11502/04/20 05:52:02 METAR KATL 041052Z 25009G18KT 10SM FEW021 SCT150 BKN180 14/10 A3008 RMK AO2 SLP181 T01390100 (DB),FM-15,7,,,,,,,,,,,,,,,,,,,,,,,,,,,3/27/2007
72219013874,2020-02-04T06:52:00,FM-15,7,,,,,,,,,,,,,,,,,,,,,,,,,,,,,,,,,,,,,,,30.07,50,57,0,,0,8,78,30.06,FEW:02 24 BKN:07 120 BKN:07 150,28.97,10,53,220,,5,,,,,,,,,,,,,,,,,,,,,,,,,,,,,,,,,,,,,MET13002/04/20 06:52:02 METAR KATL 041152Z 22004KT 10SM FEW024 BKN120 BKN150 14/10 A3007 RMK AO2 SLP178 T01390100 10150 20139 58001 (DB),FM-15,7,,,,,,,,,,,,,,,,,,,,,,,,,,,3/27/2007
72219013874,2020-02-04T07:00:00,FM-12,4,,,,,,,,,,,,,,,,,,,,,,,,,,,,,,,,,,,,,,,,50,57,,,0,8,78,30.06,26,28.96,9.94,53,220,,5,,,,,,,,,,,,,,,,,,,,,,,,,,,,,,,,,,,,,SYN08072219 32566 62204 10139 20100 39808 40178 58001 91152 333 10244 20139 555 90412=,FM-12,4,,,,,,,,,,,,,,,,,,,,,,,,,,,3/27/2007
72219013874,2020-02-04T07:52:00,FM-15,7,,,,,,,,,,,,,,,,,,,,,,,,,,,,,,,,,,,,,,,30.08,51,57,0,,,,81,30.07,FEW:02 19 BKN:07 100 BKN:07 150,28.98,10,54,240,,9,,,,,,,,,,,,,,,,,,,,,,,,,,,,,,,,,,,,,MET11202/04/20 07:52:02 METAR KATL 041252Z 24008KT 10SM FEW019 BKN100 BKN150 14/11 A3008 RMK AO2 SLP182 T01390106 (DB),FM-15,7,,,,,,,,,,,,,,,,,,,,,,,,,,,3/27/2007
72219013874,2020-02-04T08:00:00,FM-16,7,,,,,,,,,,,,,,,,,,,,,,,,,,,,,,,,,,,,,,,30.08,51,57,,,,,81,,BKN:07 18 BKN:07 90 BKN:07 110,28.98,10,54,230,,9,,,,,,,,,,,,,,,,,,,,,,,,,,,,,,,,,,,,,MET10502/04/20 08:00:02 SPECI KATL 041300Z 23008KT 10SM BKN018 BKN090 BKN110 14/11 A3008 RMK AO2 T01390106 (DB),FM-16,7,,,,,,,,,,,,,,,,,,,,,,,,,,,3/27/2007
72219013874,2020-02-04T08:49:00,FM-16,7,,,,,,,,,,,,,,,,,,,,,,,,,,,,,,,,,,,,,,,30.08,52,57,,,,,82,,BKN:07 11 OVC:08 18,28.98,10,54,240,,9,,,,,,,,,,,,,,,,,,,,,,,,,,,,,,,,,,,,,MET08802/04/20 08:49:02 SPECI KATL 041349Z 24008KT 10SM BKN011 OVC018 14/11 A3008 RMK AO2 (DB),FM-16,7,,,,,,,,,,,,,,,,,,,,,,,,,,,3/27/2007
72219013874,2020-02-04T08:52:00,FM-15,7,,,,,,,,,,,,,,,,,,,,,,,,,,,,,,,,,,,,,,,30.08,52,58,0,,,,81,30.07,BKN:07 12 OVC:08 20,28.98,10,55,230,,8,,,,,,,,,,,,,,,,,,,,,,,,,,,,,,,,,,,,,MET10502/04/20 08:52:02 METAR KATL 041352Z 23007KT 10SM BKN012 OVC020 14/11 A3008 RMK AO2 SLP184 T01440111 (DB),FM-15,7,,,,,,,,,,,,,,,,,,,,,,,,,,,3/27/2007
72219013874,2020-02-04T09:52:00,FM-15,7,,,,,,,,,,,,,,,,,,,,,,,,,,,,,,,,,,,,,,,30.08,54,60,0,,-0.01,1,80,30.07,BKN:07 10 OVC:08 20,28.98,10,57,230,22,9,,,,,,,,,,,,,,,,,,,,,,,,,,,,,,,,,,,,,MET11602/04/20 09:52:02 METAR KATL 041452Z 23008G19KT 10SM BKN010 OVC020 16/12 A3008 RMK AO2 SLP184 T01560122 51005 $ (DB),FM-15,7,,,,,,,,,,,,,,,,,,,,,,,,,,,3/27/2007
72219013874,2020-02-04T10:52:00,FM-15,7,,,,,,,,,,,,,,,,,,,,,,,,,,,,,,,,,,,,,,,30.07,54,60,0,,,,80,30.06,BKN:07 11 BKN:07 18 OVC:08 85,28.97,10,57,230,,9,,,,,,,,,,,,,,,,,,,,,,,,,,,,,,,,,,,,,MET11302/04/20 10:52:02 METAR KATL 041552Z 23008KT 10SM BKN011 BKN018 OVC085 16/12 A3007 RMK AO2 SLP180 T01560122 (KAF),FM-15,7,,,,,,,,,,,,,,,,,,,,,,,,,,,3/27/2007
72219013874,2020-02-04T11:45:00,FM-16,7,,,,,,,,,,,,,,,,,,,,,,,,,,,,,,,,,,,,,,,30.08,55,61,,,,,81,,FEW:02 13 SCT:04 26 BKN:07 85,28.98,10,58,230,,8,,,,,,,,,,,,,,,,,,,,,,,,,,,,,,,,,,,,,MET10602/04/20 11:45:02 SPECI KATL 041645Z 23007KT 10SM FEW013 SCT026 BKN085 16/13 A3008 RMK AO2 T01610128 (KAF),FM-16,7,,,,,,,,,,,,,,,,,,,,,,,,,,,3/27/2007
72219013874,2020-02-04T11:52:00,FM-15,7,,,,,,,,,,,,,,,,,,,,,,,,,,,,,,,,,,,,,,,30.07,55,62,0,,,,78,30.06,FEW:02 14 SCT:04 26 BKN:07 90,28.97,10,58,230,,5,,,,,,,,,,,,,,,,,,,,,,,,,,,,,,,,,,,,,MET11302/04/20 11:52:02 METAR KATL 041652Z 23004KT 10SM FEW014 SCT026 BKN090 17/13 A3007 RMK AO2 SLP180 T01670128 (KAF),FM-15,7,,,,,,,,,,,,,,,,,,,,,,,,,,,3/27/2007
72219013874,2020-02-04T12:52:00,FM-15,7,,,,,,,,,,,,,,,,,,,,,,,,,,,,,,,,,,,,,,,30.04,54,65,0,,0.04,8,68,30.03,FEW:02 20 SCT:04 32 BKN:07 100,28.94,10,59,240,,10,,,,,,,,,,,,,,,,,,,,,,,,,,,,,,,,,,,,,MET13102/04/20 12:52:02 METAR KATL 041752Z 24009KT 10SM FEW020 SCT032 BKN100 18/12 A3004 RMK AO2 SLP170 T01830122 10183 20139 58014 (KAF),FM-15,7,,,,,,,,,,,,,,,,,,,,,,,,,,,3/27/2007
72219013874,2020-02-04T13:00:00,FM-12,4,,,,,,,,,,,,,,,,,,,,,,,,,,,,,,,,,,,,,,,,54,65,,,0.04,8,68,30.03,26,28.93,9.94,59,240,,10,,,,,,,,,,,,,,,,,,,,,,,,,,,,,,,,,,,,,SYN08072219 32566 82409 10183 20122 39798 40170 58014 91752 333 10183 20139 555 90418=,FM-12,4,,,,,,,,,,,,,,,,,,,,,,,,,,,3/27/2007
72219013874,2020-02-04T13:19:00,FM-16,7,,,,,,,,,,,,,,,,,,,,,,,,,,,,,,,,,,,,,,,30.02,54,65,,,,,68,,BKN:07 24 BKN:07 34 BKN:07 100,28.92,10,59,240,,10,,,,,,,,,,,,,,,,,,,,,,,,,,,,,,,,,,,,,MET10602/04/20 13:19:02 SPECI KATL 041819Z 24009KT 10SM BKN024 BKN034 BKN100 18/12 A3002 RMK AO2 T01830122 (KAF),FM-16,7,,,,,,,,,,,,,,,,,,,,,,,,,,,3/27/2007
72219013874,2020-02-04T13:50:00,FM-16,6,,,,,,,,,,,,,,,,,,,,,,,,,,,,,,,,,,,,,,,30.01,55,66,,,,,68,,SCT:04 24 BKN:07 34 BKN:07 100,28.91,10,60,,,,,,,,,,,,,,,,,,,,,,,,,,,,,,,,,,,,,,,,MET10102/04/20 13:50:02 SPECI KATL 041850Z      KT 10SM SCT024 BKN034 BKN100 19/13 A3001 RMK AO2 FIBI (KAF),FM-16,6,,,,,,,,,,,,,,,,,,,,,,,,,,,3/27/2007
72219013874,2020-02-04T13:52:00,FM-15,7,,,,,,,,,,,,,,,,,,,,,,,,,,,,,,,,,,,,,,,30.01,54,66,0,,,,65,30,SCT:04 24 BKN:07 34 BKN:07 100,28.91,10,59,230,,10,,,,,,,,,,,,,,,,,,,,,,,,,,,,,,,,,,,,,MET11302/04/20 13:52:02 METAR KATL 041852Z 23009KT 10SM SCT024 BKN034 BKN100 19/12 A3001 RMK AO2 SLP159 T01890122 (KAF),FM-15,7,,,,,,,,,,,,,,,,,,,,,,,,,,,3/27/2007
72219013874,2020-02-04T14:52:00,FM-15,7,,,,,,,,,,,,,,,,,,,,,,,,,,,,,,,,,,,,,,,29.98,54,68,0,,,,61,29.96,SCT:04 34 SCT:04 100 BKN:07 140,28.88,10,60,200,,9,,,,,,,,,,,,,,,,,,,,,,,,,,,,,,,,,,,,,MET11302/04/20 14:52:02 METAR KATL 041952Z 20008KT 10SM SCT034 SCT100 BKN140 20/12 A2998 RMK AO2 SLP147 T02000122 (KAF),FM-15,7,,,,,,,,,,,,,,,,,,,,,,,,,,,3/27/2007
72219013874,2020-02-04T15:52:00,FM-15,6,,,,,,,,,,,,,,,,,,,,,,,,,,,,,,,,,,,,,,,29.96,54,68,0,,0.08,6,61,29.95,SCT:04 35 SCT:04 110 BKN:07 140,28.87,10,60,200,,9,,,,,,,,,,,,,,,,,,,,,,,,,,,,,,,,,,,,,MET11902/04/20 15:52:02 METAR KATL 042052Z 20008KT 10SM SCT035 SCT110 BKN140 20/12 A2996 RMK AO2 SLP142 T02000122 56026 (KAF),FM-15,6,,,,,,,,,,,,,,,,,,,,,,,,,,,3/27/2007
72219013874,2020-02-04T16:52:00,FM-15,7,,,,,,,,,,,,,,,,,,,,,,,,,,,,,,,,,,,,,,,29.98,54,68,0,,,,61,29.96,BKN:07 36 BKN:07 110 BKN:07 140,28.88,10,60,210,18,9,,,,,,,,,,,,,,,,,,,,,,,,,,,,,,,,,,,,,MET12802/04/20 16:52:02 METAR KATL 042152Z 21008G16KT 10SM BKN036 BKN110 BKN140 20/12 A2998 RMK AO2 SLP147 VIRGA NW-NE T02000122 (KAF),FM-15,7,,,,,,,,,,,,,,,,,,,,,,,,,,,3/27/2007
72219013874,2020-02-04T17:52:00,FM-15,7,,,,,,,,,,,,,,,,,,,,,,,,,,,,,,,,,,,,,,,29.99,54,67,T,|RA |,,,63,29.97,FEW:02 35 SCT:04 85 BKN:07 110,28.89,10,59,210,,11,,,,,,,,,,,,,,,,,,,,,,,,,,,,,,,,,,,,,MET12802/04/20 17:52:02 METAR KATL 042252Z 21010KT 10SM -RA FEW035 SCT085 BKN110 19/12 A2999 RMK AO2 RAB50 SLP150 P0000 T01940122 (RF),FM-15,7,,,,,,,,,,,,,,,,,,,,,,,,,,,3/27/2007
72219013874,2020-02-04T18:52:00,FM-15,7,,,,,,,,,,,,,,,,,,,,,,,,,,,,,,,,,,,,,,,30,54,65,T,,-0.03,1,68,29.98,FEW:02 100 BKN:07 150 BKN:07 250,28.9,10,59,210,,7,,,,,,,,,,,,,,,,,,,,,,,,,,,,,,,,,,,,,MET14802/04/20 18:52:02 METAR KATL 042352Z 21006KT 10SM FEW100 BKN150 BKN250 18/12 A3000 RMK AO2 RAE42 SLP154 P0000 60000 T01830122 10206 20183 51011 (RF),FM-15,7,,,,,,,,,,,,,,,,,,,,,,,,,,,3/27/2007
72219013874,2020-02-04T19:00:00,FM-12,4,,,,,,,,,,,,,,,,,,,,,,,,,,,,,,,,,,,,,,,,54,65,,,-0.03,1,68,29.98,,28.9,9.94,59,210,,7,,,,,,,,,,,,,,,,,,,,,,,,,,,,,,,,,,,,,SYN08672219 12966 62106 10183 20122 39785 40154 51011 69901 92352 333 10206 20139 555 90500=,FM-12,4,,,,,,,,,,,,,,,,,,,,,,,,,,,3/27/2007
72219013874,2020-02-04T19:52:00,FM-15,7,,,,,,,,,,,,,,,,,,,,,,,,,,,,,,,,,,,,,,,30,54,65,0,,,,68,29.99,FEW:02 90 BKN:07 140 OVC:08 200,28.9,10,59,200,,6,,,,,,,,,,,,,,,,,,,,,,,,,,,,,,,,,,,,,MET10702/04/20 19:52:01 METAR KATL 050052Z 20005KT 10SM FEW090 BKN140 OVC200 18/12 A3000 RMK AO2 SLP156 T01830122,FM-15,7,,,,,,,,,,,,,,,,,,,,,,,,,,,3/27/2007
72219013874,2020-02-04T20:52:00,FM-15,7,,,,,,,,,,,,,,,,,,,,,,,,,,,,,,,,,,,,,,,30,55,64,0,,,,73,29.99,SCT:04 100 BKN:07 140 BKN:07 250,28.9,10,59,200,,7,,,,,,,,,,,,,,,,,,,,,,,,,,,,,,,,,,,,,MET10702/04/20 20:52:01 METAR KATL 050152Z 20006KT 10SM SCT100 BKN140 BKN250 18/13 A3000 RMK AO2 SLP155 T01780128,FM-15,7,,,,,,,,,,,,,,,,,,,,,,,,,,,3/27/2007
72219013874,2020-02-04T21:52:00,FM-15,7,,,,,,,,,,,,,,,,,,,,,,,,,,,,,,,,,,,,,,,29.99,55,63,0,,0.01,8,75,29.98,SCT:04 60 BKN:07 100 BKN:07 250,28.89,10,58,190,,10,,,,,,,,,,,,,,,,,,,,,,,,,,,,,,,,,,,,,MET11302/04/20 21:52:01 METAR KATL 050252Z 19009KT 10SM SCT060 BKN100 BKN250 17/13 A2999 RMK AO2 SLP152 T01720128 58002,FM-15,7,,,,,,,,,,,,,,,,,,,,,,,,,,,3/27/2007
72219013874,2020-02-04T22:52:00,FM-15,7,,,,,,,,,,,,,,,,,,,,,,,,,,,,,,,,,,,,,,,29.99,55,63,0,,,,75,29.98,FEW:02 40 BKN:07 100 BKN:07 250,28.89,10,58,200,,11,,,,,,,,,,,,,,,,,,,,,,,,,,,,,,,,,,,,,MET10702/04/20 22:52:01 METAR KATL 050352Z 20010KT 10SM FEW040 BKN100 BKN250 17/13 A2999 RMK AO2 SLP151 T01720128,FM-15,7,,,,,,,,,,,,,,,,,,,,,,,,,,,3/27/2007
72219013874,2020-02-04T23:52:00,FM-15,7,,,,,,,,,,,,,,,,,,,,,,,,,,,,,,,,,,,,,,,29.97,56,63,0,,,,78,29.96,FEW:02 35 SCT:04 50 BKN:07 150,28.87,10,59,200,,10,,,,,,,,,,,,,,,,,,,,,,,,,,,,,,,,,,,,,MET11702/04/20 23:52:02 METAR KATL 050452Z 20009KT 10SM FEW035 SCT050 BKN150 17/13 A2997 RMK AO2 SLP145 T01720133 402060139,FM-15,7,,,,,,,,,,,,,,,,,,,,,,,,,,,3/27/2007
72219013874,2020-02-04T23:59:00,SOD  ,6,,,,,,,,,,,,,,,,,52,63,71,30.02,28.94,56,9.3,0,18,2,69,57,190,22,T,0,0,190,15,RA,,,,,,,,,,,,,,,,,,,,,,,,,,,,,,,,,,,,,,,,,,,,,,,,,,,,,,,SOD73924 HR PRECIPITATION (IN):    T SNOW DEPTH (IN):0     24 HR SNOWFALL (IN):0.0  24 HR MAX TEMP (F): 6924 HR MIN TEMP (F): 57AVERAGE STATION PRESSURE:28.940 MINIMUM SEA LEVEL PRESSURE:29.94 TIME OF OCCURRENCE:1628 PEAK WIND SPEED (MPH): 22 PEAK WIND DIR (DEG):190 PEAK WIND TIME (LST):      FASTEST 2MIN SPEED (MPH): 15FASTEST 2MIN DIR (DEG):190 FASTEST 2MIN TIME (LST):     AVERAGE WIND SPEED (MPH): 9.3 24 HR AVG TEMP (F): 63DEPART FROM NORMAL: 18  HEATING DEGREE DAYS:  2 COOLING DEGREE DAYS:  0 LATEST DAY MAX TEMP (0700-1900 LST):69  LATEST NIGHT MIN TEMP(1900-0800 LST):57 HOURLY INCREMENTAL PRECIPITATION VALUES (IN):.00 0.00 0.00 0.00 0.00 0.00 0.00 0.00 0.00 0.00 0.00 0.00 0.00 0.00 0.00 0.00 0.00 T    T    0.00 0.00 0.00 0.00 0.00,SOD  ,6,,,,,,,,,,,,,,,,,,,,,,,,,732,1812,3/27/2007
72219013874,2020-02-05T00:52:00,FM-15,7,,,,,,,,,,,,,,,,,,,,,,,,,,,,,,,,,,,,,,,29.96,57,62,0.01,-RA:02 |RA |RA,0.03,8,84,29.94,SCT:04 25 BKN:07 40 OVC:08 150,28.87,8,59,190,,10,,,,,,,,,,,,,,,,,,,,,,,,,,,,,,,,,,,,,MET15102/05/20 00:52:02 METAR KATL 050552Z 19009KT 8SM -RA SCT025 BKN040 OVC150 17/14 A2996 RMK AO2 RAB41 SLP140 P0001 60001 T01670139 10189 20167 58010 (RF),FM-15,7,,,,,,,,,,,,,,,,,,,,,,,,,,,3/27/2007
72219013874,2020-02-05T01:00:00,FM-12,4,,,,,,,,,,,,,,,,,,,,,,,,,,,,,,,,,,,,,,,,57,62,,||RA,0.03,8,84,29.94,26,28.86,7.46,59,190,,10,,,,,,,,,,,,,,,,,,,,,,,,,,,,,,,,,,,,,SYN09272219 11562 81909 10167 20139 39772 40140 58010 69931 761// 90552 333 10189 20139 555 90506=,FM-12,4,,,,,,,,,,,,,,,,,,,,,,,,,,,3/27/2007
72219013874,2020-02-05T01:29:00,FM-16,7,,,,,,,,,,,,,,,,,,,,,,,,,,,,,,,,,,,,,,,29.95,57,62,T,,,,84,,BKN:07 16 BKN:07 25 OVC:08 40,28.85,10,59,190,,8,,,,,,,,,,,,,,,,,,,,,,,,,,,,,,,,,,,,,MET11902/05/20 01:29:02 SPECI KATL 050629Z 19007KT 10SM BKN016 BKN025 OVC040 17/14 A2995 RMK AO2 RAE0553 P0000 T01670139 (DB),FM-16,7,,,,,,,,,,,,,,,,,,,,,,,,,,,3/27/2007
72219013874,2020-02-05T01:40:00,FM-16,7,,,,,,,,,,,,,,,,,,,,,,,,,,,,,,,,,,,,,,,29.93,57,62,T,,,,84,,SCT:04 16 SCT:04 40 OVC:08 100,28.84,10,59,170,,9,,,,,,,,,,,,,,,,,,,,,,,,,,,,,,,,,,,,,MET13202/05/20 01:40:02 SPECI KATL 050640Z 17008KT 10SM SCT016 SCT040 OVC100 17/14 A2993 RMK AO2 RAE0553B31E40 PRESFR P0000 T01670139 (DB),FM-16,7,,,,,,,,,,,,,,,,,,,,,,,,,,,3/27/2007
72219013874,2020-02-05T01:52:00,FM-15,7,,,,,,,,,,,,,,,,,,,,,,,,,,,,,,,,,,,,,,,29.94,57,62,0.01,-RA:02 |RA |RA,,,84,29.93,SCT:04 16 BKN:07 75 OVC:08 100,28.84,8,59,190,,8,,,,,,,,,,,,,,,,,,,,,,,,,,,,,,,,,,,,,MET13202/05/20 01:52:02 METAR KATL 050652Z 19007KT 8SM -RA SCT016 BKN075 OVC100 17/14 A2994 RMK AO2 RAE0553B31 SLP134 P0001 T01670139 (DB),FM-15,7,,,,,,,,,,,,,,,,,,,,,,,,,,,3/27/2007
72219013874,2020-02-05T01:59:00,FM-16,7,,,,,,,,,,,,,,,,,,,,,,,,,,,,,,,,,,,,,,,29.95,57,62,T,,,,84,,BKN:07 14 BKN:07 75 OVC:08 110,28.85,10,59,240,,7,,,,,,,,,,,,,,,,,,,,,,,,,,,,,,,,,,,,,MET11702/05/20 01:59:02 SPECI KATL 050659Z 24006KT 10SM BKN014 BKN075 OVC110 17/14 A2995 RMK AO2 RAE58 P0000 T01670139 (DB),FM-16,7,,,,,,,,,,,,,,,,,,,,,,,,,,,3/27/2007
72219013874,2020-02-05T02:52:00,FM-15,7,,,,,,,,,,,,,,,,,,,,,,,,,,,,,,,,,,,,,,,29.94,58,61,T,-RA:02 |RA |RA,,,90,29.93,BKN:07 10 OVC:08 16,28.84,9,59,210,,8,,,,,,,,,,,,,,,,,,,,,,,,,,,,,,,,,,,,,MET12502/05/20 02:52:02 METAR KATL 050752Z 21007KT 9SM -RA BKN010 OVC016 16/14 A2994 RMK AO2 RAE0658B45 SLP134 P0000 T01610144 (DB),FM-15,7,,,,,,,,,,,,,,,,,,,,,,,,,,,3/27/2007
72219013874,2020-02-05T03:07:00,FM-16,7,,,,,,,,,,,,,,,,,,,,,,,,,,,,,,,,,,,,,,,29.95,58,61,T,,,,90,,OVC:08 9,28.85,10,59,220,,6,,,,,,,,,,,,,,,,,,,,,,,,,,,,,,,,,,,,,MET10702/05/20 03:07:02 SPECI KATL 050807Z 22005KT 10SM OVC009 16/14 A2995 RMK AO2 RAE0758 P0000 T01610144 $ (DB),FM-16,7,,,,,,,,,,,,,,,,,,,,,,,,,,,3/27/2007
72219013874,2020-02-05T03:52:00,FM-15,7,,,,,,,,,,,,,,,,,,,,,,,,,,,,,,,,,,,,,,,29.94,58,62,0,,0.01,6,86,29.93,BKN:07 7 OVC:08 12,28.84,8,60,210,,8,,,,,,,,,,,,,,,,,,,,,,,,,,,,,,,,,,,,,MET13202/05/20 03:52:02 METAR KATL 050852Z 21007KT 8SM BKN007 OVC012 17/14 A2994 RMK AO2 RAE0758 SLP134 P0000 60001 T01670144 56005 $ (DB),FM-15,7,,,,,,,,,,,,,,,,,,,,,,,,,,,3/27/2007
72219013874,2020-02-05T04:52:00,FM-15,7,,,,,,,,,,,,,,,,,,,,,,,,,,,,,,,,,,,,,,,29.94,59,62,0,,,,90,29.93,OVC:08 5,28.84,8,60,220,,9,,,,,,,,,,,,,,,,,,,,,,,,,,,,,,,,,,,,,MET09702/05/20 04:52:02 METAR KATL 050952Z 22008KT 8SM OVC005 17/15 A2994 RMK AO2 SLP134 T01670150 (DB),FM-15,7,,,,,,,,,,,,,,,,,,,,,,,,,,,3/27/2007
72219013874,2020-02-05T05:52:00,FM-15,7,,,,,,,,,,,,,,,,,,,,,,,,,,,,,,,,,,,,,,,29.94,59,63,0,,,,87,29.92,OVC:08 6,28.84,8,61,210,,9,,,,,,,,,,,,,,,,,,,,,,,,,,,,,,,,,,,,,MET09702/05/20 05:52:02 METAR KATL 051052Z 21008KT 8SM OVC006 17/15 A2994 RMK AO2 SLP133 T01720150 (DB),FM-15,7,,,,,,,,,,,,,,,,,,,,,,,,,,,3/27/2007
72219013874,2020-02-05T06:52:00,FM-15,7,,,,,,,,,,,,,,,,,,,,,,,,,,,,,,,,,,,,,,,29.95,59,63,0,,-0.01,3,87,29.94,OVC:08 7,28.85,8,61,210,,11,,,,,,,,,,,,,,,,,,,,,,,,,,,,,,,,,,,,,MET13902/05/20 06:52:02 METAR KATL 051152Z 21010KT 8SM OVC007 17/15 A2995 RMK AO2 SLP138 CIG 006V008 60001 70002 T01720150 10172 20161 53003 (DB),FM-15,7,,,,,,,,,,,,,,,,,,,,,,,,,,,3/27/2007
72219013874,2020-02-05T07:00:00,FM-12,4,,,,,,,,,,,,,,,,,,,,,,,,,,,,,,,,,,,,,,,,59,63,,,-0.01,3,87,29.94,8,28.85,7.46,61,210,,11,,,,,,,,,,,,,,,,,,,,,,,,,,,,,,,,,,,,,SYN09272219 12362 82110 10172 20150 39769 40138 53003 69931 91152 333 10206 20161 70005 555 90512=,FM-12,4,,,,,,,,,,,,,,,,,,,,,,,,,,,3/27/2007
72219013874,2020-02-05T07:52:00,FM-15,7,,,,,,,,,,,,,,,,,,,,,,,,,,,,,,,,,,,,,,,29.96,59,63,0,,,,87,29.95,OVC:08 6,28.87,7,61,220,,10,,,,,,,,,,,,,,,,,,,,,,,,,,,,,,,,,,,,,MET09702/05/20 07:52:02 METAR KATL 051252Z 22009KT 7SM OVC006 17/15 A2996 RMK AO2 SLP142 T01720150 (DB),FM-15,7,,,,,,,,,,,,,,,,,,,,,,,,,,,3/27/2007
72219013874,2020-02-05T08:52:00,FM-15,7,,,,,,,,,,,,,,,,,,,,,,,,,,,,,,,,,,,,,,,29.96,60,63,0,,,,90,29.94,OVC:08 6,28.87,7,61,200,,10,,,,,,,,,,,,,,,,,,,,,,,,,,,,,,,,,,,,,MET09702/05/20 08:52:02 METAR KATL 051352Z 20009KT 7SM OVC006 17/16 A2996 RMK AO2 SLP140 T01720156 (DB),FM-15,7,,,,,,,,,,,,,,,,,,,,,,,,,,,3/27/2007
72219013874,2020-02-05T09:10:00,FM-16,7,,,,,,,,,,,,,,,,,,,,,,,,,,,,,,,,,,,,,,,29.96,60,63,,,,,90,,OVC:08 5,28.87,3,61,210,,13,,,,,,,,,,,,,,,,,,,,,,,,,,,,,,,,,,,,,MET10102/05/20 09:10:02 SPECI KATL 051410Z 21011KT 3SM OVC005 17/16 A2996 RMK AO2 SFC VIS 7 T01720156 (JRN),FM-16,7,,,,,,,,,,,,,,,,,,,,,,,,,,,3/27/2007
72219013874,2020-02-05T09:52:00,FM-15,7,,,,,,,,,,,,,,,,,,,,,,,,,,,,,,,,,,,,,,,29.96,59,63,0,BR:1 ||,-0.01,0,87,29.94,OVC:08 5,28.87,3,61,200,,11,,,,,,,,,,,,,,,,,,,,,,,,,,,,,,,,,,,,,MET11702/05/20 09:52:02 METAR KATL 051452Z 20010KT 3SM BR OVC005 17/15 A2996 RMK AO2 SFC VIS 6 SLP140 T01720150 50002 (JRN),FM-15,7,,,,,,,,,,,,,,,,,,,,,,,,,,,3/27/2007
72219013874,2020-02-05T10:52:00,FM-15,7,,,,,,,,,,,,,,,,,,,,,,,,,,,,,,,,,,,,,,,29.97,59,63,0,,,,87,29.96,OVC:08 6,28.87,3,61,200,20,14,,,,,,,,,,,,,,,,,,,,,,,,,,,,,,,,,,,,,MET11102/05/20 10:52:02 METAR KATL 051552Z 20012G17KT 3SM OVC006 17/15 A2997 RMK AO2 SFC VIS 7 SLP145 T01720150 (JRN),FM-15,7,,,,,,,,,,,,,,,,,,,,,,,,,,,3/27/2007
72219013874,2020-02-05T11:52:00,FM-15,7,,,,,,,,,,,,,,,,,,,,,,,,,,,,,,,,,,,,,,,29.94,60,64,0,,,,87,29.93,OVC:08 7,28.84,3,62,190,,10,,,,,,,,,,,,,,,,,,,,,,,,,,,,,,,,,,,,,MET10802/05/20 11:52:02 METAR KATL 051652Z 19009KT 3SM OVC007 18/16 A2994 RMK AO2 SFC VIS 7 SLP135 T01780156 (JRN),FM-15,7,,,,,,,,,,,,,,,,,,,,,,,,,,,3/27/2007
72219013874,2020-02-05T11:59:00,FM-16,7,,,,,,,,,,,,,,,,,,,,,,,,,,,,,,,,,,,,,,,29.94,60,65,,,,,84,,OVC:08 7,28.84,10,62,190,,9,,,,,,,,,,,,,,,,,,,,,,,,,,,,,,,,,,,,,MET09202/05/20 11:59:02 SPECI KATL 051659Z 19008KT 10SM OVC007 18/16 A2994 RMK AO2 T01830156 (JRN),FM-16,7,,,,,,,,,,,,,,,,,,,,,,,,,,,3/27/2007
72219013874,2020-02-05T12:22:00,FM-16,7,,,,,,,,,,,,,,,,,,,,,,,,,,,,,,,,,,,,,,,29.92,60,65,,,,,84,,OVC:08 10,28.82,10,62,190,,11,,,,,,,,,,,,,,,,,,,,,,,,,,,,,,,,,,,,,MET09202/05/20 12:22:02 SPECI KATL 051722Z 19010KT 10SM OVC010 18/16 A2992 RMK AO2 T01830156 (JRN),FM-16,7,,,,,,,,,,,,,,,,,,,,,,,,,,,3/27/2007
72219013874,2020-02-05T12:52:00,FM-15,7,,,,,,,,,,,,,,,,,,,,,,,,,,,,,,,,,,,,,,,29.9,60,66,0,,0.06,8,81,29.88,BKN:07 12 OVC:08 18,28.81,10,62,190,18,11,,,,,,,,,,,,,,,,,,,,,,,,,,,,,,,,,,,,,MET12702/05/20 12:52:02 METAR KATL 051752Z 19010G16KT 10SM BKN012 OVC018 19/16 A2990 RMK AO2 SLP120 T01890156 10189 20172 58019 (JRN),FM-15,7,,,,,,,,,,,,,,,,,,,,,,,,,,,3/27/2007
72219013874,2020-02-05T13:00:00,FM-12,4,,,,,,,,,,,,,,,,,,,,,,,,,,,,,,,,,,,,,,,,60,66,,,0.06,8,81,29.88,15,28.8,9.94,62,190,,11,,,,,,,,,,,,,,,,,,,,,,,,,,,,,,,,,,,,,SYN08672219 32466 81910 10189 20156 39752 40120 58019 91752 333 10189 20172 91016 555 90518=,FM-12,4,,,,,,,,,,,,,,,,,,,,,,,,,,,3/27/2007
72219013874,2020-02-05T13:52:00,FM-15,7,,,,,,,,,,,,,,,,,,,,,,,,,,,,,,,,,,,,,,,29.86,60,67,0,,,,79,29.84,BKN:07 14 BKN:07 19 OVC:08 30,28.77,10,63,190,,14,,,,,,,,,,,,,,,,,,,,,,,,,,,,,,,,,,,,,MET11302/05/20 13:52:02 METAR KATL 051852Z 19012KT 10SM BKN014 BKN019 OVC030 19/16 A2986 RMK AO2 SLP105 T01940156 (JRN),FM-15,7,,,,,,,,,,,,,,,,,,,,,,,,,,,3/27/2007
72219013874,2020-02-05T14:18:00,FM-16,7,,,,,,,,,,,,,,,,,,,,,,,,,,,,,,,,,,,,,,,29.85,60,67,,,,,79,,BKN:07 15 BKN:07 33 BKN:07 40,28.76,10,63,200,,13,,,,,,,,,,,,,,,,,,,,,,,,,,,,,,,,,,,,,MET10602/05/20 14:18:02 SPECI KATL 051918Z 20011KT 10SM BKN015 BKN033 BKN040 19/16 A2985 RMK AO2 T01940156 (JRN),FM-16,7,,,,,,,,,,,,,,,,,,,,,,,,,,,3/27/2007
72219013874,2020-02-05T14:52:00,FM-15,7,,,,,,,,,,,,,,,,,,,,,,,,,,,,,,,,,,,,,,,29.83,60,67,0,,,,79,29.81,SCT:04 15 BKN:07 27 OVC:08 35,28.74,10,63,190,,14,,,,,,,,,,,,,,,,,,,,,,,,,,,,,,,,,,,,,MET11302/05/20 14:52:02 METAR KATL 051952Z 19012KT 10SM SCT015 BKN027 OVC035 19/16 A2983 RMK AO2 SLP096 T01940156 (JRN),FM-15,7,,,,,,,,,,,,,,,,,,,,,,,,,,,3/27/2007
72219013874,2020-02-05T15:52:00,FM-15,7,,,,,,,,,,,,,,,,,,,,,,,,,,,,,,,,,,,,,,,29.82,60,67,0,,0.08,6,79,29.8,SCT:04 16 BKN:07 22 OVC:08 28,28.73,10,63,200,,10,,,,,,,,,,,,,,,,,,,,,,,,,,,,,,,,,,,,,MET11902/05/20 15:52:02 METAR KATL 052052Z 20009KT 10SM SCT016 BKN022 OVC028 19/16 A2982 RMK AO2 SLP091 T01940156 56028 (JRN),FM-15,7,,,,,,,,,,,,,,,,,,,,,,,,,,,3/27/2007
72219013874,2020-02-05T16:52:00,FM-15,7,,,,,,,,,,,,,,,,,,,,,,,,,,,,,,,,,,,,,,,29.83,60,66,0,,,,81,29.81,FEW:02 14 BKN:07 21 OVC:08 27,28.74,10,62,180,,3,,,,,,,,,,,,,,,,,,,,,,,,,,,,,,,,,,,,,MET14602/05/20 16:52:02 METAR KATL 052152Z 18003KT 10SM FEW014 BKN021 OVC027 19/16 A2983 RMK AO2 LTG DSNT E AND SE SLP096 CB DSNT E & SE T01890156 (JRN),FM-15,7,,,,,,,,,,,,,,,,,,,,,,,,,,,3/27/2007
72219013874,2020-02-05T17:52:00,FM-15,7,,,,,,,,,,,,,,,,,,,,,,,,,,,,,,,,,,,,,,,29.82,61,65,0.01,-RA:02 BR:1 |RA |RA,,,87,29.8,SCT:04 18 BKN:07 25 OVC:08 50,28.73,5,63,170,,9,,,,,,,,,,,,,,,,,,,,,,,,,,,,,,,,,,,,,MET17002/05/20 17:52:02 METAR KATL 052252Z 17008KT 5SM -RA BR SCT018CB BKN025 OVC050 18/16 A2982 RMK AO2 RAB42 SLP093 VIS LWR SE-SW CB SE-SW DSNT NW MOV NE P0001 T01830161 (RF),FM-15,7,,,,,,,,,,,,,,,,,,,,,,,,,,,3/27/2007
72219013874,2020-02-05T18:40:00,FM-16,7,,,,,,,,,,,,,,,,,,,,,,,,,,,,,,,,,,,,,,,29.76,61,64,0.01,,,,90,,BKN:07 8 BKN:07 13 OVC:08 30,28.67,10,62,160,,8,,,,,,,,,,,,,,,,,,,,,,,,,,,,,,,,,,,,,MET14202/05/20 18:40:02 SPECI KATL 052340Z 16007KT 10SM BKN008 BKN013 OVC030 18/16 A2976 RMK AO2 LTG DSNT NE RAE35 CB DSNT N-NE P0001 T01780161 (RF),FM-16,7,,,,,,,,,,,,,,,,,,,,,,,,,,,3/27/2007
72219013874,2020-02-05T18:52:00,FM-15,7,,,,,,,,,,,,,,,,,,,,,,,,,,,,,,,,,,,,,,,29.74,61,65,0.01,,0.07,8,87,29.73,BKN:07 8 BKN:07 13 OVC:08 30,28.65,10,63,160,20,14,,,,,,,,,,,,,,,,,,,,,,,,,,,,,,,,,,,,,MET15102/05/20 18:52:02 METAR KATL 052352Z 16012G17KT 10SM BKN008 BKN013 OVC030 18/16 A2974 RMK AO2 RAE35 SLP067 P0001 60002 T01830161 10194 20178 58024 (RF),FM-15,7,,,,,,,,,,,,,,,,,,,,,,,,,,,3/27/2007
72219013874,2020-02-05T19:00:00,FM-12,4,,,,,,,,,,,,,,,,,,,,,,,,,,,,,,,,,,,,,,,,61,65,,,0.07,8,87,29.73,8,28.64,9.94,63,160,,14,,,,,,,,,,,,,,,,,,,,,,,,,,,,,,,,,,,,,SYN09272219 12366 81612 10183 20161 39700 40067 58024 69951 92352 333 10194 20161 91017 555 90600=,FM-12,4,,,,,,,,,,,,,,,,,,,,,,,,,,,3/27/2007
72219013874,2020-02-05T19:34:00,FM-16,7,,,,,,,,,,,,,,,,,,,,,,,,,,,,,,,,,,,,,,,29.74,60,64,,,,,87,,SCT:04 9 BKN:07 140 OVC:08 200,28.65,10,62,170,,11,,,,,,,,,,,,,,,,,,,,,,,,,,,,,,,,,,,,,MET11302/05/20 19:34:01 SPECI KATL 060034Z 17010KT 10SM SCT009 BKN140 OVC200 18/16 A2974 RMK AO2 SCT009 V BKN T01780156,FM-16,7,,,,,,,,,,,,,,,,,,,,,,,,,,,3/27/2007
72219013874,2020-02-05T19:52:00,FM-15,7,,,,,,,,,,,,,,,,,,,,,,,,,,,,,,,,,,,,,,,29.75,60,64,0,,,,87,29.73,FEW:02 9 BKN:07 140 OVC:08 200,28.66,10,62,180,21,15,,,,,,,,,,,,,,,,,,,,,,,,,,,,,,,,,,,,,MET12102/05/20 19:52:01 METAR KATL 060052Z 18013G18KT 10SM FEW009 BKN140 OVC200 18/16 A2975 RMK AO2 SLP068 SHRA SE-SW T01780156,FM-15,7,,,,,,,,,,,,,,,,,,,,,,,,,,,3/27/2007
72219013874,2020-02-05T20:52:00,FM-15,7,,,,,,,,,,,,,,,,,,,,,,,,,,,,,,,,,,,,,,,29.74,59,63,0.04,-RA:02 |RA |RA,,,87,29.72,FEW:02 9 BKN:07 100 OVC:08 150,28.65,7,61,170,24,17,,,,,,,,,,,,,,,,,,,,,,,,,,,,,,,,,,,,,MET13202/05/20 20:52:01 METAR KATL 060152Z 17015G21KT 7SM -RA FEW009 BKN100 OVC150 17/15 A2974 RMK AO2 RAB07 PRESFR SLP066 P0002 T01720150,FM-15,7,,,,,,,,,,,,,,,,,,,,,,,,,,,3/27/2007
72219013874,2020-02-05T21:25:00,FM-16,7,,,,,,,,,,,,,,,,,,,,,,,,,,,,,,,,,,,,,,,29.74,59,62,0.03,-RA:02 |RA |RA,,,90,,BKN:07 10 BKN:07 50 OVC:08 110,28.65,8,60,180,25,15,,,,,,,,,,,,,,,,,,,,,,,,,,,,,,,,,,,,,MET11202/05/20 21:25:01 SPECI KATL 060225Z 18013G22KT 8SM -RA BKN010 BKN050 OVC110 17/15 A2974 RMK AO2 P0003 T01670150,FM-16,7,,,,,,,,,,,,,,,,,,,,,,,,,,,3/27/2007
72219013874,2020-02-05T21:50:00,FM-16,6,,,,,,,,,,,,,,,,,,,,,,,,,,,,,,,,,,,,,,,29.76,59,63,,RA:02 BR:1 |RA |RA,,,88,,SCT:04 7 BKN:07 12 OVC:08 110,28.67,5,61,180,23,14,,,,,,,,,,,,,,,,,,,,,,,,,,,,,,,,,,,,,MET11402/05/20 21:50:03 SPECI KATL 060250Z 18012G20KT 5SM RA BR SCT007 BKN012 OVC110 17/15 A2976 RMK AO2 P0007 FIBI (RF),FM-16,6,,,,,,,,,,,,,,,,,,,,,,,,,,,3/27/2007
72219013874,2020-02-05T21:52:00,FM-15,7,,,,,,,,,,,,,,,,,,,,,,,,,,,,,,,,,,,,,,,29.76,59,62,0.08,RA:02 BR:1 |RA |RA,-0.02,3,90,29.75,SCT:04 7 BKN:07 12 OVC:08 110,28.67,5,60,180,23,17,,,,,,,,,,,,,,,,,,,,,,,,,,,,,,,,,,,,,MET13302/05/20 21:52:01 METAR KATL 060252Z 18015G20KT 5SM RA BR SCT007 BKN012 OVC110 17/15 A2976 RMK AO2 SLP073 P0008 60010 T01670150 53006,FM-15,7,,,,,,,,,,,,,,,,,,,,,,,,,,,3/27/2007
72219013874,2020-02-05T22:52:00,FM-15,7,,,,,,,,,,,,,,,,,,,,,,,,,,,,,,,,,,,,,,,29.75,59,62,0.21,-RA:02 BR:1 |RA |RA,,,90,29.73,BKN:07 6 BKN:07 12 OVC:08 40,28.66,4,60,170,20,11,,,,,,,,,,,,,,,,,,,,,,,,,,,,,,,,,,,,,MET12202/05/20 22:52:01 METAR KATL 060352Z 17010G17KT 4SM -RA BR BKN006 BKN012 OVC040 17/15 A2975 RMK AO2 SLP069 P0021 T01670150,FM-15,7,,,,,,,,,,,,,,,,,,,,,,,,,,,3/27/2007
72219013874,2020-02-05T23:38:00,FM-16,7,,,,,,,,,,,,,,,,,,,,,,,,,,,,,,,,,,,,,,,29.72,60,63,0.13,TS:7 RA:02 BR:1 |RA TS |RA,,,90,,BKN:07 6 BKN:07 15 OVC:08 40,28.63,4,61,160,,11,,,,,,,,,,,,,,,,,,,,,,,,,,,,,,,,,,,,,MET15402/05/20 23:38:02 SPECI KATL 060438Z 16010KT 4SM TSRA BR BKN006 BKN015CB OVC040 17/16 A2972 RMK AO2 TSB38 OCNL LTGIC SE-SW TS SE-SW MOV NE P0013 T01720156,FM-16,7,,,,,,,,,,,,,,,,,,,,,,,,,,,3/27/2007
72219013874,2020-02-05T23:50:00,FM-16,6,,,,,,,,,,,,,,,,,,,,,,,,,,,,,,,,,,,,,,,29.72,61,63,,TS:7 RA:02 BR:1 |RA TS |RA,,,94,,SCT:04 6 BKN:07 15 OVC:08 60,28.63,5,62,180,,9,,,,,,,,,,,,,,,,,,,,,,,,,,,,,,,,,,,,,MET15602/05/20 23:50:03 SPECI KATL 060450Z 18008KT 5SM TSRA BR SCT006 BKN015CB OVC060 17/16 A2972 RMK AO2 TSB38 OCNL LTGIC S-W-NW TS S-W-NW MOV NE P0016 FIBI (RF),FM-16,6,,,,,,,,,,,,,,,,,,,,,,,,,,,3/27/2007
72219013874,2020-02-05T23:52:00,FM-15,7,,,,,,,,,,,,,,,,,,,,,,,,,,,,,,,,,,,,,,,29.72,60,63,0.19,TS:7 -RA:02 BR:1 |RA TS |RA,,,90,29.71,SCT:04 6 BKN:07 15 OVC:08 60,28.63,5,61,190,,14,,,,,,,,,,,,,,,,,,,,,,,,,,,,,,,,,,,,,MET17402/05/20 23:52:02 METAR KATL 060452Z 19012KT 5SM -TSRA BR SCT006 BKN015CB OVC060 17/16 A2972 RMK AO2 TSB38 SLP060 OCNL LTGIC S-W-NW TS S-W-NW MOV NE P0016 T01720156 401940161,FM-15,7,,,,,,,,,,,,,,,,,,,,,,,,,,,3/27/2007
72219013874,2020-02-05T23:59:00,SOD  ,6,,,,,,,,,,,,,,,,,59,64,86,29.86,28.79,61,11.3,0,18.8,1,67,61,180,26,0.56,0,0,170,18,TS RA BR,,,,,,,,,,,,,,,,,,,,,,,,,,,,,,,,,,,,,,,,,,,,,,,,,,,,,,,SOD78424 HR PRECIPITATION (IN): 0.56 SNOW DEPTH (IN):0     24 HR SNOWFALL (IN):0.0  WEATHER(CODE):13  24 HR MAX TEMP (F): 6724 HR MIN TEMP (F): 61AVERAGE STATION PRESSURE:28.790 MINIMUM SEA LEVEL PRESSURE:29.69 TIME OF OCCURRENCE:2344 PEAK WIND SPEED (MPH): 26 PEAK WIND DIR (DEG):180 PEAK WIND TIME (LST):      FASTEST 2MIN SPEED (MPH): 18FASTEST 2MIN DIR (DEG):170 FASTEST 2MIN TIME (LST):     AVERAGE WIND SPEED (MPH):11.3 24 HR AVG TEMP (F): 64DEPART FROM NORMAL: 19  SKY COVER SR-SS (TENTHS): 1HEATING DEGREE DAYS:  1 COOLING DEGREE DAYS:  0 LATEST DAY MAX TEMP (0700-1900 LST):67  LATEST NIGHT MIN TEMP(1900-0800 LST):61 HOURLY INCREMENTAL PRECIPITATION VALUES (IN):.01 0.01 T    0.00 0.00 0.00 0.00 0.00 0.00 0.00 0.00 0.00 0.00 0.00 0.00 0.00 0.00 0.01 0.01 0.00 0.04 0.08 0.21 0.19,SOD  ,6,,,,,,,,,,,,,,,,,,,,,,,,,731,1813,3/27/2007
72219013874,2020-02-06T00:29:00,FM-16,7,,,,,,,,,,,,,,,,,,,,,,,,,,,,,,,,,,,,,,,29.72,60,63,0.08,-RA:02 |RA |RA,,,90,,BKN:07 6 BKN:07 15 OVC:08 60,28.63,8,61,170,,15,,,,,,,,,,,,,,,,,,,,,,,,,,,,,,,,,,,,,MET13002/06/20 00:29:02 SPECI KATL 060529Z 17013KT 8SM -RA BKN006 BKN015 OVC060 17/16 A2972 RMK AO2 TSE28 TS DSIPTD P0008 T01720156 (RF),FM-16,7,,,,,,,,,,,,,,,,,,,,,,,,,,,3/27/2007
72219013874,2020-02-06T00:52:00,FM-15,7,,,,,,,,,,,,,,,,,,,,,,,,,,,,,,,,,,,,,,,29.71,60,63,0.04,-RA:02 |RA |RA,0.05,8,90,29.69,BKN:07 7 BKN:07 12 OVC:08 32,28.62,8,61,170,,14,,,,,,,,,,,,,,,,,,,,,,,,,,,,,,,,,,,,,MET17302/06/20 00:52:02 METAR KATL 060552Z 17012KT 8SM -RA BKN007 BKN012 OVC032 17/16 A2971 RMK AO2 TSE28 SLP054 TS DSIPTD CIG 005V009 P0009 60056 T01720156 10183 20167 58018 (RF),FM-15,7,,,,,,,,,,,,,,,,,,,,,,,,,,,3/27/2007
72219013874,2020-02-06T01:00:00,FM-12,4,,,,,,,,,,,,,,,,,,,,,,,,,,,,,,,,,,,,,,,,60,63,,||RA,0.05,8,90,29.69,8,28.61,7.46,61,170,,14,,,,,,,,,,,,,,,,,,,,,,,,,,,,,,,,,,,,,SYN09272219 11362 81712 10172 20156 39690 40054 58018 60141 761// 90552 333 10183 20161 555 90606=,FM-12,4,,,,,,,,,,,,,,,,,,,,,,,,,,,3/27/2007
72219013874,2020-02-06T01:52:00,FM-15,7,,,,,,,,,,,,,,,,,,,,,,,,,,,,,,,,,,,,,,,29.68,60,63,0.03,-RA:02 |RA |RA,,,90,29.66,BKN:07 8 BKN:07 16 OVC:08 34,28.59,8,61,150,,11,,,,,,,,,,,,,,,,,,,,,,,,,,,,,,,,,,,,,MET13402/06/20 01:52:02 METAR KATL 060652Z 15010KT 8SM -RA BKN008 BKN016 OVC034 17/16 A2968 RMK AO2 SLP043 CIG 006V010 P0003 T01720156 (KAF),FM-15,7,,,,,,,,,,,,,,,,,,,,,,,,,,,3/27/2007
72219013874,2020-02-06T02:52:00,FM-15,7,,,,,,,,,,,,,,,,,,,,,,,,,,,,,,,,,,,,,,,29.63,61,63,0.05,-RA:02 BR:1 |RA |RA,,,93,29.62,BKN:07 6 OVC:08 12,28.54,6,62,160,,9,,,,,,,,,,,,,,,,,,,,,,,,,,,,,,,,,,,,,MET14102/06/20 02:52:02 METAR KATL 060752Z 16008KT 6SM -RA BR BKN006 OVC012 17/16 A2963 RMK AO2 RAE0656B33 SLP029 CIG 005V008 P0004 T01720161 (KAF),FM-15,7,,,,,,,,,,,,,,,,,,,,,,,,,,,3/27/2007
72219013874,2020-02-06T03:47:00,FM-16,7,,,,,,,,,,,,,,,,,,,,,,,,,,,,,,,,,,,,,,,29.6,61,64,0.05,TS:7 -RA:02 BR:1 |RA TS |RA,,,88,,OVC:08 5,28.51,3,62,170,,9,,,,,,,,,,,,,,,,,,,,,,,,,,,,,,,,,,,,,MET13902/06/20 03:47:02 SPECI KATL 060847Z 17008KT 3SM -TSRA BR OVC005CB 18/16 A2960 RMK AO2 TSB46 OCNL LTGICCA SE-SW TS SE-SW MOV NE P0005 (KAF),FM-16,7,,,,,,,,,,,,,,,,,,,,,,,,,,,3/27/2007
72219013874,2020-02-06T03:52:00,FM-15,7,,,,,,,,,,,,,,,,,,,,,,,,,,,,,,,,,,,,,,,29.6,61,64,0.1,TS:7 RA:02 BR:1 |RA TS |RA,0.07,6,90,29.58,OVC:08 5,28.51,3,62,160,,6,,,,,,,,,,,,,,,,,,,,,,,,,,,,,,,,,,,,,MET16702/06/20 03:52:02 METAR KATL 060852Z 16005KT 3SM TSRA BR OVC005CB 18/16 A2960 RMK AO2 TSB46 SLP017 OCNL LTGICCA SE-SW TS SE-SW MOV NE P0010 60017 T01780161 56025 (KAF),FM-15,7,,,,,,,,,,,,,,,,,,,,,,,,,,,3/27/2007
72219013874,2020-02-06T04:10:00,FM-16,7,,,,,,,,,,,,,,,,,,,,,,,,,,,,,,,,,,,,,,,29.59,62,64,0.04,-RA:02 BR:1 |RA |RA,,,93,,BKN:07 5 OVC:08 15,28.51,5,63,170,,6,,,,,,,,,,,,,,,,,,,,,,,,,,,,,,,,,,,,,MET15902/06/20 04:10:02 SPECI KATL 060910Z 17005KT 5SM -RA BR BKN005 OVC015 18/17 A2959 RMK AO2 LTG DSNT NE AND E TSE09 TS MOVD NE CB DSNT NE-E P0004 T01780167 (KAF),FM-16,7,,,,,,,,,,,,,,,,,,,,,,,,,,,3/27/2007
72219013874,2020-02-06T04:52:00,FM-15,7,,,,,,,,,,,,,,,,,,,,,,,,,,,,,,,,,,,,,,,29.57,61,64,0.28,-RA:02 BR:1 |RA |RA,,,90,29.54,BKN:07 5 OVC:08 12,28.48,5,62,160,,7,,,,,,,,,,,,,,,,,,,,,,,,,,,,,,,,,,,,,MET18302/06/20 04:52:02 METAR KATL 060952Z 16006KT 5SM -RA BR BKN005 OVC012CB 18/16 A2957 RMK AO2 LTG DSNT W AND NW TSE09 SLP005 TS MOVD NE CB N-NE MOV NE CB DSNT W NW P0029 T01780161 (KAF),FM-15,7,,,,,,,,,,,,,,,,,,,,,,,,,,,3/27/2007
72219013874,2020-02-06T05:22:00,FM-16,7,,,,,,,,,,,,,,,,,,,,,,,,,,,,,,,,,,,,,,,29.55,63,66,0.01,-RA:02 |RA |RA,,,90,,SCT:04 5 BKN:07 14 OVC:08 38,28.47,7,64,190,18,13,,,,,,,,,,,,,,,,,,,,,,,,,,,,,,,,,,,,,MET15102/06/20 05:22:02 SPECI KATL 061022Z 19011G16KT 7SM -RA SCT005 BKN014 OVC038 19/17 A2955 RMK AO2 LTG DSNT N AND NW CB DSNT N NW P0001 T01890172 $ (KAF),FM-16,7,,,,,,,,,,,,,,,,,,,,,,,,,,,3/27/2007
72219013874,2020-02-06T05:52:00,FM-15,7,,,,,,,,,,,,,,,,,,,,,,,,,,,,,,,,,,,,,,,29.53,64,67,0.01,-RA:02 |RA |RA,,,91,29.51,SCT:04 8 OVC:08 14,28.45,8,65,200,,9,,,,,,,,,,,,,,,,,,,,,,,,,,,,,,,,,,,,,MET13602/06/20 05:52:02 METAR KATL 061052Z 20008KT 8SM -RA SCT008 OVC014 19/18 A2953 RMK AO2 LTG DSNT S SLP994 CB DSNT S P0001 T01940178 (KAF),FM-15,7,,,,,,,,,,,,,,,,,,,,,,,,,,,3/27/2007
72219013874,2020-02-06T06:31:00,FM-16,7,,,,,,,,,,,,,,,,,,,,,,,,,,,,,,,,,,,,,,,29.5,64,67,0.01,,,,91,,FEW:02 8 BKN:07 15 OVC:08 27,28.42,10,65,190,,7,,,,,,,,,,,,,,,,,,,,,,,,,,,,,,,,,,,,,MET14902/06/20 06:31:02 SPECI KATL 061131Z 19006KT 10SM FEW008 BKN015 OVC027 19/18 A2950 RMK AO2 LTG DSNT ALQDS RAE1058 CB DSNT ALQDS P0001 T01940178 (KAF),FM-16,7,,,,,,,,,,,,,,,,,,,,,,,,,,,3/27/2007
72219013874,2020-02-06T06:52:00,FM-15,7,,,,,,,,,,,,,,,,,,,,,,,,,,,,,,,,,,,,,,,29.49,64,68,0.01,-RA:02 |RA |RA,0.1,8,87,29.47,SCT:04 7 BKN:07 15 OVC:08 23,28.41,10,65,170,,8,,,,,,,,,,,,,,,,,,,,,,,,,,,,,,,,,,,,,MET18502/06/20 06:52:02 METAR KATL 061152Z 17007KT 10SM -RA SCT007 BKN015 OVC023 20/18 A2949 RMK AO2 LTG DSNT N RAE1058B43 SLP979 CB DSNT N P0001 60048 70106 T02000178 10200 20172 58035 (KAF),FM-15,7,,,,,,,,,,,,,,,,,,,,,,,,,,,3/27/2007
72219013874,2020-02-06T07:00:00,FM-12,4,,,,,,,,,,,,,,,,,,,,,,,,,,,,,,,,,,,,,,,,64,68,,||RA,0.1,8,87,29.47,8,28.4,9.94,65,170,,8,,,,,,,,,,,,,,,,,,,,,,,,,,,,,,,,,,,,,SYN09872219 11366 81707 10200 20178 39618 49979 58035 60121 761// 91152 333 10194 20167 70269 555 90612=,FM-12,4,,,,,,,,,,,,,,,,,,,,,,,,,,,3/27/2007
72219013874,2020-02-06T07:35:00,FM-16,7,,,,,,,,,,,,,,,,,,,,,,,,,,,,,,,,,,,,,,,29.47,65,69,0.02,-RA:02 BR:1 |RA |RA,,,87,,SCT:04 12 BKN:07 18 OVC:08 40,28.39,2,66,200,23,16,,,,,,,,,,,,,,,,,,,,,,,,,,,,,,,,,,,,,MET18002/06/20 07:35:02 SPECI KATL 061235Z 20014G20KT 2SM -RA BR SCT012 BKN018CB OVC040 21/18 A2947 RMK AO2 SFC VIS 4 LTG DSNT N AND NW CB SW-NW MOV NE CB DSNT N NW P0002 T02060183 (KAF),FM-16,7,,,,,,,,,,,,,,,,,,,,,,,,,,,3/27/2007
72219013874,2020-02-06T07:42:00,FM-16,7,,,,,,,,,,,,,,,,,,,,,,,,,,,,,,,,,,,,,,,29.47,65,69,0.03,TS:7 RA:02 BR:1 |RA TS |RA,,,87,,SCT:04 14 BKN:07 18 OVC:08 38,28.39,2,66,190,25,17,,,,,,,,,,,,,,,,,,,,,,,,,,,,,,,,,,,,,MET20802/06/20 07:42:02 SPECI KATL 061242Z 19015G22KT 2SM TSRA BR SCT014 BKN018CB OVC038 21/18 A2947 RMK AO2 SFC VIS 4 LTG DSNT NW-NE TSB41 OCNL LTGICCA SW-NW-N TS SW-NW-N MOV NE CB DSNT NW-NE P0003 T02060183 (KAF),FM-16,7,,,,,,,,,,,,,,,,,,,,,,,,,,,3/27/2007
72219013874,2020-02-06T07:52:00,FM-15,7,,,,,,,,,,,,,,,,,,,,,,,,,,,,,,,,,,,,,,,29.46,65,69,0.06,TS:7 -RA:02 |RA TS TS |RA,,,87,29.43,SCT:04 12 BKN:07 18 OVC:08 38,28.38,8,66,200,29,20,,,,,,,,,,,,,,,,,,,,,,,,,,,,,,,,,,,,,MET20502/06/20 07:52:02 METAR KATL 061252Z 20017G25KT 8SM -TSRA SCT012 BKN018CB OVC038 21/18 A2946 RMK AO2 LTG DSNT NW-NE TSB41 SLP967 OCNL LTGICCA SW-NW-NE TS SW-NW-NE MOV NE CB DSNT NW-NE P0006 T02060183 (KAF),FM-15,7,,,,,,,,,,,,,,,,,,,,,,,,,,,3/27/2007
72219013874,2020-02-06T08:07:00,FM-16,7,,,,,,,,,,,,,,,,,,,,,,,,,,,,,,,,,,,,,,,29.5,65,70,T,,,,84,,SCT:04 11 BKN:07 16 OVC:08 36,28.42,10,67,230,23,11,,,,,,,,,,,,,,,,,,,,,,,,,,,,,,,,,,,,,MET16702/06/20 08:07:02 SPECI KATL 061307Z 23010G20KT 10SM SCT011 BKN016 OVC036 21/18 A2950 RMK AO2 PK WND 23027/1253 RAE07 TSE07 TS MOVD NE CB DSNT NE P0000 T02110183 (KAF),FM-16,7,,,,,,,,,,,,,,,,,,,,,,,,,,,3/27/2007
72219013874,2020-02-06T08:35:00,FM-16,7,,,,,,,,,,,,,,,,,,,,,,,,,,,,,,,,,,,,,,,29.49,65,71,T,-RA:02 |RA |RA,,,81,,SCT:04 14 BKN:07 26 OVC:08 50,28.41,2,67,220,28,17,,,,,,,,,,,,,,,,,,,,,,,,,,,,,,,,,,,,,MET20302/06/20 08:35:02 SPECI KATL 061335Z 22015G24KT 2SM -RA SCT014 BKN026 OVC050 22/18 A2949 RMK AO2 PK WND 23027/1253 SFC VIS 4 LTG DSNT N AND SE RAE07B23 TSE07 TS MOVD NE CB DSNT N SE P0000 T02170183 (KAF),FM-16,7,,,,,,,,,,,,,,,,,,,,,,,,,,,3/27/2007
72219013874,2020-02-06T08:50:00,FM-16,6,,,,,,,,,,,,,,,,,,,,,,,,,,,,,,,,,,,,,,,29.47,66,70,,||RA,,,88,,SCT:04 20 BKN:07 40 BKN:07 85,28.39,7,67,210,32,11,,,,,,,,,,,,,,,,,,,,,,,,,,,,,,,,,,,,,MET17302/06/20 08:50:02 SPECI KATL 061350Z 21010G28KT 7SM -RA SCT020 BKN040 BKN085 21/19 A2947 RMK AO2 PK WND 22028/1343 RAE07B23 TSE07 TS MOVD NE CB DSNT NE-SE-S P0003 FIBI (KAF),FM-16,6,,,,,,,,,,,,,,,,,,,,,,,,,,,3/27/2007
72219013874,2020-02-06T08:52:00,FM-15,7,,,,,,,,,,,,,,,,,,,,,,,,,,,,,,,,,,,,,,,29.47,66,70,0.03,|RA |RA,,,87,29.45,SCT:04 20 BKN:07 40 BKN:07 85,28.39,9,67,210,32,15,,,,,,,,,,,,,,,,,,,,,,,,,,,,,,,,,,,,,MET18502/06/20 08:52:02 METAR KATL 061352Z 21013G28KT 9SM -RA SCT020 BKN040 BKN085 21/19 A2947 RMK AO2 PK WND 22028/1343 RAE07B23 TSE07 SLP973 TS MOVD NE CB DSNT NE-SE-S P0003 T02110189 (KAF),FM-15,7,,,,,,,,,,,,,,,,,,,,,,,,,,,3/27/2007
72219013874,2020-02-06T09:22:00,FM-16,7,,,,,,,,,,,,,,,,,,,,,,,,,,,,,,,,,,,,,,,29.48,65,71,T,,,,81,,FEW:02 17 OVC:08 26,28.4,10,67,220,28,18,,,,,,,,,,,,,,,,,,,,,,,,,,,,,,,,,,,,,MET16502/06/20 09:22:02 SPECI KATL 061422Z 22016G24KT 10SM FEW017 OVC026 22/18 A2948 RMK AO2 PK WND 20027/1401 LTG DSNT W AND NW RAE1355 CB DSNT W-NW P0000 T02170183 (JRN),FM-16,7,,,,,,,,,,,,,,,,,,,,,,,,,,,3/27/2007
72219013874,2020-02-06T09:31:00,FM-16,7,,,,,,,,,,,,,,,,,,,,,,,,,,,,,,,,,,,,,,,29.49,65,71,T,VCTS:7 ||,,,81,,SCT:04 17 OVC:08 22,28.41,10,67,230,29,22,,,,,,,,,,,,,,,,,,,,,,,,,,,,,,,,,,,,,MET20802/06/20 09:31:02 SPECI KATL 061431Z 23019G25KT 10SM VCTS SCT017CB OVC022 22/18 A2949 RMK AO2 PK WND 20027/1401 LTG DSNT ALQDS RAE1355 TSB25 PRESRR OCNL LTGICCGC ALQDS TS VC ALQDS MOV NE P0000 T02170183 (JRN),FM-16,7,,,,,,,,,,,,,,,,,,,,,,,,,,,3/27/2007
72219013874,2020-02-06T09:45:00,FM-16,7,,,,,,,,,,,,,,,,,,,,,,,,,,,,,,,,,,,,,,,29.5,65,72,T,,,,79,,SCT:04 17 OVC:08 22,28.42,10,67,220,30,22,,,,,,,,,,,,,,,,,,,,,,,,,,,,,,,,,,,,,MET17902/06/20 09:45:02 SPECI KATL 061445Z 22019G26KT 10SM SCT017 OVC022 22/18 A2950 RMK AO2 PK WND 25035/1434 LTG DSNT NW-E RAE1355 TSE25 TS MOVD NE CB DSNT ALQDS P0000 T02220183 (JRN),FM-16,7,,,,,,,,,,,,,,,,,,,,,,,,,,,3/27/2007
72219013874,2020-02-06T09:52:00,FM-15,7,,,,,,,,,,,,,,,,,,,,,,,,,,,,,,,,,,,,,,,29.5,65,72,T,,,,79,29.47,SCT:04 17 OVC:08 22,28.42,10,67,220,33,26,,,,,,,,,,,,,,,,,,,,,,,,,,,,,,,,,,,,,MET19802/06/20 09:52:02 METAR KATL 061452Z 22023G29KT 10SM SCT017 OVC022 22/18 A2950 RMK AO2 PK WND 25035/1434 LTG DSNT NW-NE RAE1355 TSB25E40 SLP981 TS MOVD NE CB DSNT N-E AND NW P0000 60009 T02220183 51,FM-15,7,,,,,,,,,,,,,,,,,,,,,,,,,,,3/27/2007
72219013874,2020-02-06T10:01:00,FM-16,7,,,,,,,,,,,,,,,,,,,,,,,,,,,,,,,,,,,,,,,29.51,65,72,0.01,-RA:02 |RA |RA,,,79,,SCT:04 22 BKN:07 29 OVC:08 70,28.43,3,67,230,33,20,,,,,,,,,,,,,,,,,,,,,,,,,,,,,,,,,,,,,MET17502/06/20 10:01:02 SPECI KATL 061501Z 23017G29KT 3SM -RA SCT022 BKN029 OVC070 22/18 A2951 RMK AO2 PK WND 22026/1455 LTG DSNT N AND NW RAB1457 CB DSNT NW-N P0001 T02220183 (JRN),FM-16,7,,,,,,,,,,,,,,,,,,,,,,,,,,,3/27/2007
72219013874,2020-02-06T10:10:00,FM-16,7,,,,,,,,,,,,,,,,,,,,,,,,,,,,,,,,,,,,,,,29.51,62,68,0.06,RA:02 |RA |RA,,,81,,FEW:02 7 OVC:08 16,28.43,2,64,270,43,25,,,,,,,,,,,,,,,,,,,,,,,,,,,,,,,,,,,,,MET18902/06/20 10:10:02 SPECI KATL 061510Z 27022G37KT 2SM RA FEW007 OVC016 20/17 A2951 RMK AO2 PK WND 27037/1508 WSHFT 1456 LTG DSNT N AND NW RAB1457 CB DSNT NW-N VSBY LWR N P0006 T02000167 (JRN),FM-16,7,,,,,,,,,,,,,,,,,,,,,,,,,,,3/27/2007
72219013874,2020-02-06T10:19:00,FM-16,7,,,,,,,,,,,,,,,,,,,,,,,,,,,,,,,,,,,,,,,29.51,60,65,0.2,+RA:02 |RA |RA,,,84,,FEW:02 7 OVC:08 16,28.43,1,62,260,32,15,,,,,,,,,,,,,,,,,,,,,,,,,,,,,,,,,,,,,MET18702/06/20 10:19:02 SPECI KATL 061519Z 26013G28KT 1SM R09R/4500VP6000FT +RA FEW007 OVC016 18/16 A2951 RMK AO2 PK WND 27037/1508 WSHFT 1456 LTG DSNT N RAB1457 CB DSNT N P0020 T01830156 (JRN),FM-16,7,,,,,,,,,,,,,,,,,,,,,,,,,,,3/27/2007
72219013874,2020-02-06T10:39:00,FM-16,7,,,,,,,,,,,,,,,,,,,,,,,,,,,,,,,,,,,,,,,29.51,61,64,0.44,VCTS:7 +RA:02 BR:1 |RA |RA,,,90,,FEW:02 7 OVC:08 16,28.43,1,62,230,23,13,,,,,,,,,,,,,,,,,,,,,,,,,,,,,,,,,,,,,MET21402/06/20 10:39:02 SPECI KATL 061539Z 23011G20KT 1SM R09R/4500VP6000FT VCTS +RA BR FEW007 OVC016CB 18/16 A2951 RMK AO2 PK WND 27037/1508 WSHFT 1456 RAB1457 TSB33 OCNL LTGICCG NE TS VC NE MOV NE P0044 T01780161 (JRN),FM-16,7,,,,,,,,,,,,,,,,,,,,,,,,,,,3/27/2007
72219013874,2020-02-06T10:50:00,FM-16,6,,,,,,,,,,,,,,,,,,,,,,,,,,,,,,,,,,,,,,,29.51,61,64,,+RA:02 BR:1 |RA |RA,,,88,,FEW:02 7 OVC:08 16,28.43,1,62,250,,13,,,,,,,,,,,,,,,,,,,,,,,,,,,,,,,,,,,,,MET20202/06/20 10:50:02 SPECI KATL 061550Z 25011KT 1SM R09R/3000VP6000FT +RA BR FEW007 OVC016 18/16 A2951 RMK AO2 PK WND 27037/1508 WSHFT 1456 TWR VIS 2 LTG DSNT W RAB1457 TSB33E48 TS MOVD NE P0067 FIBI (JRN),FM-16,6,,,,,,,,,,,,,,,,,,,,,,,,,,,3/27/2007
72219013874,2020-02-06T10:52:00,FM-15,7,,,,,,,,,,,,,,,,,,,,,,,,,,,,,,,,,,,,,,,29.51,61,64,0.73,+RA:02 BR:1 |RA |RA,,,90,29.49,FEW:02 7 OVC:08 16,28.43,2,62,250,,14,,,,,,,,,,,,,,,,,,,,,,,,,,,,,,,,,,,,,MET21402/06/20 10:52:02 METAR KATL 061552Z 25012KT 2SM R09R/3000VP6000FT +RA BR FEW007 OVC016 18/16 A2951 RMK AO2 PK WND 27037/1508 WSHFT 1456 LTG DSNT W RAB1457 SLP988 TSB33E48 TS MOVD NE CB DSNT W P0068 T01780161 (JRN),FM-15,7,,,,,,,,,,,,,,,,,,,,,,,,,,,3/27/2007
72219013874,2020-02-06T11:21:00,FM-16,7,,,,,,,,,,,,,,,,,,,,,,,,,,,,,,,,,,,,,,,29.51,60,64,0.08,-RA:02 BR:1 |RA |RA,,,87,,FEW:02 14 OVC:08 46,28.43,2,62,260,22,10,,,,,,,,,,,,,,,,,,,,,,,,,,,,,,,,,,,,,MET16902/06/20 11:21:02 SPECI KATL 061621Z 26009G19KT 2SM -RA BR FEW014 OVC046 18/16 A2951 RMK AO2 SFC VIS 5 LTG DSNT SE AND W AND NW CB DSNT SE AND W-NW P0008 T01780156 (JRN),FM-16,7,,,,,,,,,,,,,,,,,,,,,,,,,,,3/27/2007
72219013874,2020-02-06T11:27:00,FM-16,7,,,,,,,,,,,,,,,,,,,,,,,,,,,,,,,,,,,,,,,29.51,60,64,0.13,RA:02 BR:1 |RA |RA,,,87,,FEW:02 17 OVC:08 28,28.43,2,62,240,18,9,,,,,,,,,,,,,,,,,,,,,,,,,,,,,,,,,,,,,MET14202/06/20 11:27:02 SPECI KATL 061627Z 24008G16KT 2SM RA BR FEW017 OVC028 18/16 A2951 RMK AO2 LTG DSNT ALQDS CB DSNT ALQDS P0013 T01780156 (JRN),FM-16,7,,,,,,,,,,,,,,,,,,,,,,,,,,,3/27/2007
72219013874,2020-02-06T11:38:00,FM-16,7,,,,,,,,,,,,,,,,,,,,,,,,,,,,,,,,,,,,,,,29.49,60,64,0.15,-RA:02 BR:1 |RA |RA,,,87,,FEW:02 9 BKN:07 44 OVC:08 55,28.41,3,62,260,,10,,,,,,,,,,,,,,,,,,,,,,,,,,,,,,,,,,,,,MET15902/06/20 11:38:02 SPECI KATL 061638Z 26009KT 3SM -RA BR FEW009 BKN044 OVC055 18/16 A2949 RMK AO2 SFC VIS 6 LTG DSNT ALQDS CB DSNT SW-NW-N P0015 T01780156 (JRN),FM-16,7,,,,,,,,,,,,,,,,,,,,,,,,,,,3/27/2007
72219013874,2020-02-06T11:45:00,FM-16,7,,,,,,,,,,,,,,,,,,,,,,,,,,,,,,,,,,,,,,,29.5,60,64,0.15,VCTS:7 -RA:02 BR:1 |RA |RA,,,87,,FEW:02 15 BKN:07 44 OVC:08 55,28.42,3,62,250,,13,,,,,,,,,,,,,,,,,,,,,,,,,,,,,,,,,,,,,MET19102/06/20 11:45:02 SPECI KATL 061645Z 25011KT 3SM VCTS -RA BR FEW015 BKN044CB OVC055 18/16 A2950 RMK AO2 SFC VIS 6 LTG DSNT ALQDS OCNL LTGICCG VC SW-NW TS VC SW-NW MOV NE P0015 T01780156 (JRN),FM-16,7,,,,,,,,,,,,,,,,,,,,,,,,,,,3/27/2007
72219013874,2020-02-06T11:50:00,FM-16,6,,,,,,,,,,,,,,,,,,,,,,,,,,,,,,,,,,,,,,,29.48,61,64,,TS:7 -RA:02 BR:1 |RA TS |RA,,,88,,FEW:02 15 BKN:07 44 OVC:08 55,28.4,3,62,270,,13,,,,,,,,,,,,,,,,,,,,,,,,,,,,,,,,,,,,,MET19502/06/20 11:50:02 SPECI KATL 061650Z 27011KT 3SM -TSRA BR FEW015 BKN044CB OVC055 18/16 A2948 RMK AO2 SFC VIS 4 LTG DSNT ALQDS TSB50 TSB41 OCNL LTGICCG VC ALQDS TS VC ALQDS MOV NE P0015 FIBI (JRN),FM-16,6,,,,,,,,,,,,,,,,,,,,,,,,,,,3/27/2007
72219013874,2020-02-06T11:52:00,FM-15,7,,,,,,,,,,,,,,,,,,,,,,,,,,,,,,,,,,,,,,,29.49,60,64,0.13,TS:7 -RA:02 BR:1 |RA TS |RA,,,87,29.47,FEW:02 15 BKN:07 44 OVC:08 55,28.41,3,62,270,20,14,,,,,,,,,,,,,,,,,,,,,,,,,,,,,,,,,,,,,MET20402/06/20 11:52:02 METAR KATL 061652Z 27012G17KT 3SM -TSRA BR FEW015 BKN044CB OVC055 18/16 A2949 RMK AO2 SFC VIS 4 LTG DSNT SE-SW TSB50 SLP980 TSB41 OCNL LTGICCG SE-SW TS SE-SW MOV NE P0015 T01780156 (JRN),FM-15,7,,,,,,,,,,,,,,,,,,,,,,,,,,,3/27/2007
72219013874,2020-02-06T12:02:00,FM-16,7,,,,,,,,,,,,,,,,,,,,,,,,,,,,,,,,,,,,,,,29.49,60,64,0.03,TS:7 -RA:02 |RA TS TS |RA,,,87,,FEW:02 9 BKN:07 44 OVC:08 100,28.41,3,62,270,,13,,,,,,,,,,,,,,,,,,,,,,,,,,,,,,,,,,,,,MET18002/06/20 12:02:02 SPECI KATL 061702Z 27011KT 3SM -TSRA FEW009 BKN044CB OVC100 18/16 A2949 RMK AO2 SFC VIS 8 LTG DSNT SW AND W OCNL LTGICCG S-SW TS S-SW MOV NE P0003 T01780156 (JRN),FM-16,7,,,,,,,,,,,,,,,,,,,,,,,,,,,3/27/2007
72219013874,2020-02-06T12:44:00,FM-16,7,,,,,,,,,,,,,,,,,,,,,,,,,,,,,,,,,,,,,,,29.48,60,63,0.12,RA:02 BR:1 |RA |RA,,,90,,FEW:02 21 BKN:07 70 OVC:08 80,28.4,3,61,260,,8,,,,,,,,,,,,,,,,,,,,,,,,,,,,,,,,,,,,,MET16802/06/20 12:44:02 SPECI KATL 061744Z 26007KT 3SM RA BR FEW021 BKN070 OVC080 17/16 A2948 RMK AO2 SFC VIS 4 LTG DSNT ALQDS TSE12B18E43 CB DSNT ALQDS P0012 T01720156 (JRN),FM-16,7,,,,,,,,,,,,,,,,,,,,,,,,,,,3/27/2007
72219013874,2020-02-06T12:52:00,FM-15,7,,,,,,,,,,,,,,,,,,,,,,,,,,,,,,,,,,,,,,,29.48,60,63,0.15,RA:02 BR:1 |RA |RA,0.02,8,90,29.46,FEW:02 16 SCT:04 50 OVC:08 75,28.4,3,61,260,,10,,,,,,,,,,,,,,,,,,,,,,,,,,,,,,,,,,,,,MET18902/06/20 12:52:02 METAR KATL 061752Z 26009KT 3SM RA BR FEW016 SCT050 OVC075 17/16 A2948 RMK AO2 LTG DSNT ALQDS TSE12B18E43 SLP976 CB DSNT ALQDS P0015 60107 T01720156 10222 20172 58006 (JRN),FM-15,7,,,,,,,,,,,,,,,,,,,,,,,,,,,3/27/2007
72219013874,2020-02-06T13:00:00,FM-12,4,,,,,,,,,,,,,,,,,,,,,,,,,,,,,,,,,,,,,,,,60,63,,||RA,0.02,8,90,29.46,15,28.39,2.98,61,260,,10,,,,,,,,,,,,,,,,,,,,,,,,,,,,,,,,,,,,,SYN09872219 11448 82609 10172 20156 39614 49976 58006 60271 763// 91752 333 10222 20172 96010 555 90618=,FM-12,4,,,,,,,,,,,,,,,,,,,,,,,,,,,3/27/2007
72219013874,2020-02-06T13:52:00,FM-15,7,,,,,,,,,,,,,,,,,,,,,,,,,,,,,,,,,,,,,,,29.45,59,63,0.15,-RA:02 BR:1 |RA |RA,,,87,29.43,FEW:02 60 BKN:07 80 OVC:08 95,28.37,3,61,220,,8,,,,,,,,,,,,,,,,,,,,,,,,,,,,,,,,,,,,,MET13502/06/20 13:52:02 METAR KATL 061852Z 22007KT 3SM -RA BR FEW060 BKN080 OVC095 17/15 A2945 RMK AO2 SFC VIS 4 SLP967 P0016 T01720150 (JRN),FM-15,7,,,,,,,,,,,,,,,,,,,,,,,,,,,3/27/2007
72219013874,2020-02-06T14:52:00,FM-15,7,,,,,,,,,,,,,,,,,,,,,,,,,,,,,,,,,,,,,,,29.41,59,62,0.18,-RA:02 BR:1 |RA |RA,,,90,29.39,FEW:02 20 SCT:04 60 OVC:08 100,28.33,3,60,220,,6,,,,,,,,,,,,,,,,,,,,,,,,,,,,,,,,,,,,,MET13502/06/20 14:52:02 METAR KATL 061952Z 22005KT 3SM -RA BR FEW020 SCT060 OVC100 17/15 A2941 RMK AO2 SFC VIS 4 SLP953 P0019 T01670150 (JRN),FM-15,7,,,,,,,,,,,,,,,,,,,,,,,,,,,3/27/2007
72219013874,2020-02-06T15:23:00,FM-16,7,,,,,,,,,,,,,,,,,,,,,,,,,,,,,,,,,,,,,,,29.41,59,62,0.06,RA:02 BR:1 |RA |RA,,,90,,SCT:04 6 SCT:04 18 OVC:08 85,28.33,3,60,200,,6,,,,,,,,,,,,,,,,,,,,,,,,,,,,,,,,,,,,,MET12702/06/20 15:23:02 SPECI KATL 062023Z 20005KT 3SM RA BR SCT006 SCT018 OVC085 17/15 A2941 RMK AO2 SFC VIS 4 P0006 T01670150 (JRN),FM-16,7,,,,,,,,,,,,,,,,,,,,,,,,,,,3/27/2007
72219013874,2020-02-06T15:35:00,FM-16,7,,,,,,,,,,,,,,,,,,,,,,,,,,,,,,,,,,,,,,,29.39,58,61,0.1,RA:02 BR:1 |RA |RA,,,90,,BKN:07 6 OVC:08 39,28.31,3,59,200,,10,,,,,,,,,,,,,,,,,,,,,,,,,,,,,,,,,,,,,MET12002/06/20 15:35:02 SPECI KATL 062035Z 20009KT 3SM RA BR BKN006 OVC039 16/14 A2939 RMK AO2 SFC VIS 4 P0010 T01610144 (JRN),FM-16,7,,,,,,,,,,,,,,,,,,,,,,,,,,,3/27/2007
72219013874,2020-02-06T15:43:00,FM-16,7,,,,,,,,,,,,,,,,,,,,,,,,,,,,,,,,,,,,,,,29.39,58,61,0.12,-RA:02 BR:1 |RA |RA,,,90,,SCT:04 6 BKN:07 12 OVC:08 85,28.31,3,59,190,,10,,,,,,,,,,,,,,,,,,,,,,,,,,,,,,,,,,,,,MET12802/06/20 15:43:02 SPECI KATL 062043Z 19009KT 3SM -RA BR SCT006 BKN012 OVC085 16/14 A2939 RMK AO2 SFC VIS 4 P0012 T01610144 (JRN),FM-16,7,,,,,,,,,,,,,,,,,,,,,,,,,,,3/27/2007
72219013874,2020-02-06T15:52:00,FM-15,7,,,,,,,,,,,,,,,,,,,,,,,,,,,,,,,,,,,,,,,29.4,58,61,0.13,-RA:02 BR:1 |RA |RA,0.08,6,90,29.38,FEW:02 6 BKN:07 12 OVC:08 85,28.32,3,59,210,,8,,,,,,,,,,,,,,,,,,,,,,,,,,,,,,,,,,,,,MET14702/06/20 15:52:02 METAR KATL 062052Z 21007KT 3SM -RA BR FEW006 BKN012 OVC085 16/14 A2940 RMK AO2 SFC VIS 5 SLP949 P0013 60048 T01610144 56026 (JRN),FM-15,7,,,,,,,,,,,,,,,,,,,,,,,,,,,3/27/2007
72219013874,2020-02-06T16:20:00,FM-16,7,,,,,,,,,,,,,,,,,,,,,,,,,,,,,,,,,,,,,,,29.4,58,61,0.04,-RA:02 BR:1 |RA |RA,,,90,,BKN:07 6 OVC:08 55,28.32,3,59,180,,8,,,,,,,,,,,,,,,,,,,,,,,,,,,,,,,,,,,,,MET12102/06/20 16:20:02 SPECI KATL 062120Z 18007KT 3SM -RA BR BKN006 OVC055 16/14 A2940 RMK AO2 SFC VIS 5 P0004 T01610144 (JRN),FM-16,7,,,,,,,,,,,,,,,,,,,,,,,,,,,3/27/2007
72219013874,2020-02-06T16:36:00,FM-16,7,,,,,,,,,,,,,,,,,,,,,,,,,,,,,,,,,,,,,,,29.42,58,61,0.06,-RA:02 BR:1 |RA |RA,,,90,,SCT:04 6 BKN:07 12 OVC:08 17,28.34,3,59,230,,9,,,,,,,,,,,,,,,,,,,,,,,,,,,,,,,,,,,,,MET12802/06/20 16:36:02 SPECI KATL 062136Z 23008KT 3SM -RA BR SCT006 BKN012 OVC017 16/14 A2942 RMK AO2 SFC VIS 5 P0006 T01610144 (JRN),FM-16,7,,,,,,,,,,,,,,,,,,,,,,,,,,,3/27/2007
72219013874,2020-02-06T16:50:00,FM-16,6,,,,,,,,,,,,,,,,,,,,,,,,,,,,,,,,,,,,,,,29.43,57,61,,-RA:02 BR:1 |RA |RA,,,88,,SCT:04 7 BKN:07 17 OVC:08 34,28.35,3,59,200,,10,,,,,,,,,,,,,,,,,,,,,,,,,,,,,,,,,,,,,MET12302/06/20 16:50:02 SPECI KATL 062150Z 20009KT 3SM -RA BR SCT007 BKN017 OVC034 16/14 A2943 RMK AO2 SFC VIS 5 P0012 FIBI (JRN),FM-16,6,,,,,,,,,,,,,,,,,,,,,,,,,,,3/27/2007
72219013874,2020-02-06T16:52:00,FM-15,7,,,,,,,,,,,,,,,,,,,,,,,,,,,,,,,,,,,,,,,29.42,58,61,0.12,-RA:02 BR:1 |RA |RA,,,90,29.4,SCT:04 7 BKN:07 17 OVC:08 34,28.34,3,59,190,,9,,,,,,,,,,,,,,,,,,,,,,,,,,,,,,,,,,,,,MET13502/06/20 16:52:02 METAR KATL 062152Z 19008KT 3SM -RA BR SCT007 BKN017 OVC034 16/14 A2942 RMK AO2 SFC VIS 5 SLP956 P0012 T01610144 (JRN),FM-15,7,,,,,,,,,,,,,,,,,,,,,,,,,,,3/27/2007
72219013874,2020-02-06T17:18:00,FM-16,7,,,,,,,,,,,,,,,,,,,,,,,,,,,,,,,,,,,,,,,29.42,58,61,0.05,RA:02 BR:1 |RA |RA,,,90,,SCT:04 8 BKN:07 13 OVC:08 70,28.34,2,59,220,,6,,,,,,,,,,,,,,,,,,,,,,,,,,,,,,,,,,,,,MET11602/06/20 17:18:02 SPECI KATL 062218Z 22005KT 2SM RA BR SCT008 BKN013 OVC070 16/14 A2942 RMK AO2 P0005 T01610144 (RF),FM-16,7,,,,,,,,,,,,,,,,,,,,,,,,,,,3/27/2007
72219013874,2020-02-06T17:35:00,FM-16,7,,,,,,,,,,,,,,,,,,,,,,,,,,,,,,,,,,,,,,,29.38,58,61,0.08,-RA:02 BR:1 |RA |RA,,,90,,FEW:02 8 BKN:07 40 OVC:08 80,28.3,3,59,130,,6,,,,,,,,,,,,,,,,,,,,,,,,,,,,,,,,,,,,,MET12402/06/20 17:35:02 SPECI KATL 062235Z 13005KT 3SM -RA BR FEW008 BKN040 OVC080 16/14 A2938 RMK AO2 PRESFR P0008 T01610144 (RF),FM-16,7,,,,,,,,,,,,,,,,,,,,,,,,,,,3/27/2007
72219013874,2020-02-06T17:52:00,FM-15,7,,,,,,,,,,,,,,,,,,,,,,,,,,,,,,,,,,,,,,,29.37,58,60,0.08,|RA |RA,,,93,29.36,FEW:02 5 SCT:04 40 BKN:07 90,28.29,3,59,160,,7,,,,,,,,,,,,,,,,,,,,,,,,,,,,,,,,,,,,,MET13102/06/20 17:52:02 METAR KATL 062252Z 16006KT 3SM -RA FEW005 SCT040 BKN090 16/14 A2937 RMK AO2 SFC VIS 7 SLP941 P0009 T01560144 (RF),FM-15,7,,,,,,,,,,,,,,,,,,,,,,,,,,,3/27/2007
72219013874,2020-02-06T18:01:00,FM-16,7,,,,,,,,,,,,,,,,,,,,,,,,,,,,,,,,,,,,,,,29.38,58,61,T,,,,90,,SCT:04 3 BKN:07 8 BKN:07 90,28.3,1,59,170,,7,,,,,,,,,,,,,,,,,,,,,,,,,,,,,,,,,,,,,MET13902/06/20 18:01:02 SPECI KATL 062301Z 17006KT 1SM R09R/P6000FT SCT003 BKN008 BKN090 16/14 A2938 RMK AO2 SFC VIS 9 RAE00 P0000 T01610144 (RF),FM-16,7,,,,,,,,,,,,,,,,,,,,,,,,,,,3/27/2007
72219013874,2020-02-06T18:15:00,FM-16,7,,,,,,,,,,,,,,,,,,,,,,,,,,,,,,,,,,,,,,,29.4,58,61,T,,,,90,,FEW:02 3 BKN:07 8 BKN:07 90,28.32,10,59,240,,8,,,,,,,,,,,,,,,,,,,,,,,,,,,,,,,,,,,,,MET12402/06/20 18:15:02 SPECI KATL 062315Z 24007KT 10SM FEW003 BKN008 BKN090 16/14 A2940 RMK AO2 RAE00 PRESRR P0000 T01610144 (RF),FM-16,7,,,,,,,,,,,,,,,,,,,,,,,,,,,3/27/2007
72219013874,2020-02-06T18:52:00,FM-15,7,,,,,,,,,,,,,,,,,,,,,,,,,,,,,,,,,,,,,,,29.39,57,60,T,|RA |RA,0,8,90,29.38,BKN:07 8 BKN:07 25 BKN:07 100,28.31,9,58,230,,9,,,,,,,,,,,,,,,,,,,,,,,,,,,,,,,,,,,,,MET15402/06/20 18:52:02 METAR KATL 062352Z 23008KT 9SM -RA BKN008 BKN025 BKN100 16/14 A2939 RMK AO2 RAE00B36 SLP948 P0000 60069 T01560139 10172 20156 58001 (RF),FM-15,7,,,,,,,,,,,,,,,,,,,,,,,,,,,3/27/2007
72219013874,2020-02-06T19:00:00,FM-12,4,,,,,,,,,,,,,,,,,,,,,,,,,,,,,,,,,,,,,,,,57,60,,||RA,0,8,90,29.38,8,28.3,8.7,58,230,,9,,,,,,,,,,,,,,,,,,,,,,,,,,,,,,,,,,,,,SYN09272219 11364 82308 10156 20139 39585 49948 58001 60181 761// 92352 333 10222 20156 555 90700=,FM-12,4,,,,,,,,,,,,,,,,,,,,,,,,,,,3/27/2007
72219013874,2020-02-06T19:52:00,FM-15,7,,,,,,,,,,,,,,,,,,,,,,,,,,,,,,,,,,,,,,,29.37,56,59,0.02,|RA |RA,,,90,29.35,SCT:04 6 BKN:07 12 BKN:07 25,28.29,7,57,260,,6,,,,,,,,,,,,,,,,,,,,,,,,,,,,,,,,,,,,,MET12502/06/20 19:52:01 METAR KATL 070052Z 26005KT 7SM -RA SCT006 BKN012 BKN025 15/13 A2937 RMK AO2 RAE18B35 SLP940 P0002 T01500133,FM-15,7,,,,,,,,,,,,,,,,,,,,,,,,,,,3/27/2007
72219013874,2020-02-06T20:52:00,FM-15,7,,,,,,,,,,,,,,,,,,,,,,,,,,,,,,,,,,,,,,,29.39,55,58,T,-RA:02 |RA |RA,,,90,29.37,SCT:04 7 BKN:07 13 OVC:08 30,28.31,7,56,270,,10,,,,,,,,,,,,,,,,,,,,,,,,,,,,,,,,,,,,,MET12702/06/20 20:52:01 METAR KATL 070152Z 27009KT 7SM -RA SCT007 BKN013 OVC030 14/13 A2939 RMK AO2 RAE0056B52 SLP947 P0000 T01440128,FM-15,7,,,,,,,,,,,,,,,,,,,,,,,,,,,3/27/2007
72219013874,2020-02-06T21:28:00,FM-16,7,,,,,,,,,,,,,,,,,,,,,,,,,,,,,,,,,,,,,,,29.42,54,56,T,-RA:02 BR:1 |RA |RA,,,93,,SCT:04 4 BKN:07 8 OVC:08 30,28.34,2,55,280,23,16,,,,,,,,,,,,,,,,,,,,,,,,,,,,,,,,,,,,,MET12502/06/20 21:28:01 SPECI KATL 070228Z 28014G20KT 2SM -RA BR SCT004 BKN008 OVC030 13/12 A2942 RMK AO2 SFC VIS 3 P0000 T01330122,FM-16,7,,,,,,,,,,,,,,,,,,,,,,,,,,,3/27/2007
72219013874,2020-02-06T21:52:00,FM-15,7,,,,,,,,,,,,,,,,,,,,,,,,,,,,,,,,,,,,,,,29.41,50,53,T,-RA:02 BR:1 |RA |RA,-0.02,3,89,29.39,FEW:02 4 BKN:07 8 OVC:08 30,28.33,2,51,290,,18,,,,,,,,,,,,,,,,,,,,,,,,,,,,,,,,,,,,,MET14102/06/20 21:52:01 METAR KATL 070252Z 29016KT 2SM -RA BR FEW004 BKN008 OVC030 12/10 A2941 RMK AO2 SFC VIS 4 SLP954 P0000 60002 T01170100 53006,FM-15,7,,,,,,,,,,,,,,,,,,,,,,,,,,,3/27/2007
72219013874,2020-02-06T22:52:00,FM-15,7,,,,,,,,,,,,,,,,,,,,,,,,,,,,,,,,,,,,,,,29.39,49,52,T,,,,89,29.38,OVC:08 6,28.31,2,50,270,,13,,,,,,,,,,,,,,,,,,,,,,,,,,,,,,,,,,,,,MET12602/06/20 22:52:01 METAR KATL 070352Z 27011KT 2SM OVC006 11/09 A2939 RMK AO2 SFC VIS 9 RAE11 SLP949 CIG 004V008 P0000 T01110094,FM-15,7,,,,,,,,,,,,,,,,,,,,,,,,,,,3/27/2007
72219013874,2020-02-06T23:52:00,FM-15,7,,,,,,,,,,,,,,,,,,,,,,,,,,,,,,,,,,,,,,,29.4,47,51,0,,,,86,29.39,FEW:02 5 BKN:07 10 OVC:08 20,28.32,9,49,270,,9,,,,,,,,,,,,,,,,,,,,,,,,,,,,,,,,,,,,,MET11602/06/20 23:52:02 METAR KATL 070452Z 27008KT 9SM FEW005 BKN010 OVC020 11/08 A2940 RMK AO2 SLP952 T01060083 402220106,FM-15,7,,,,,,,,,,,,,,,,,,,,,,,,,,,3/27/2007
72219013874,2020-02-06T23:59:00,SOD  ,6,,,,,,,,,,,,,,,,,59,61,89,29.46,28.43,60,11.1,0,15.6,4,72,50,270,43,2.3,0,0,270,30,TS RA BR,,,,,,,,,,,,,,,,,,,,,,,,,,,,,,,,,,,,,,,,,,,,,,,,,,,,,,,SOD75724 HR PRECIPITATION (IN): 2.30 SNOW DEPTH (IN):0     24 HR SNOWFALL (IN):0.0  WEATHER(CODE):13  24 HR MAX TEMP (F): 7224 HR MIN TEMP (F): 50AVERAGE STATION PRESSURE:28.430 MINIMUM SEA LEVEL PRESSURE:29.33 TIME OF OCCURRENCE:2004 PEAK WIND SPEED (MPH): 43 PEAK WIND DIR (DEG):270 PEAK WIND TIME (LST):      FASTEST 2MIN SPEED (MPH): 30FASTEST 2MIN DIR (DEG):270 FASTEST 2MIN TIME (LST):     AVERAGE WIND SPEED (MPH):11.1 24 HR AVG TEMP (F): 61DEPART FROM NORMAL: 16  HEATING DEGREE DAYS:  4 COOLING DEGREE DAYS:  0 LATEST DAY MAX TEMP (0700-1900 LST):72  LATEST NIGHT MIN TEMP(1900-0800 LST):62 HOURLY INCREMENTAL PRECIPITATION VALUES (IN):.04 0.03 0.05 0.10 0.28 0.01 0.01 0.06 0.03 T    0.73 0.13 0.15 0.15 0.18 0.13 0.12 0.08 T    0.02 T    T    T    0.00,SOD  ,6,,,,,,,,,,,,,,,,,,,,,,,,,731,1814,3/27/2007
72219013874,2020-02-07T00:52:00,FM-15,7,,,,,,,,,,,,,,,,,,,,,,,,,,,,,,,,,,,,,,,29.42,45,49,T,-RA:02 |RA |RA,0,3,86,29.41,SCT:04 8 BKN:07 12 OVC:08 20,28.34,8,47,260,25,16,,,,,,,,,,,,,,,,,,,,,,,,,,,,,,,,,,,,,MET15402/07/20 00:52:02 METAR KATL 070552Z 26014G22KT 8SM -RA SCT008 BKN012 OVC020 09/07 A2942 RMK AO2 RAB35 SLP959 P0000 60002 T00940072 10156 20094 53001 (RF),FM-15,7,,,,,,,,,,,,,,,,,,,,,,,,,,,3/27/2007
72219013874,2020-02-07T01:00:00,FM-12,4,,,,,,,,,,,,,,,,,,,,,,,,,,,,,,,,,,,,,,,,45,49,,||RA,0,3,86,29.41,8,28.33,7.46,47,260,,16,,,,,,,,,,,,,,,,,,,,,,,,,,,,,,,,,,,,,SYN09872219 11362 82614 10094 20072 39595 49959 53001 69951 761// 90552 333 10200 20094 91022 555 90706=,FM-12,4,,,,,,,,,,,,,,,,,,,,,,,,,,,3/27/2007
72219013874,2020-02-07T01:50:00,FM-16,7,,,,,,,,,,,,,,,,,,,,,,,,,,,,,,,,,,,,,,,29.45,41,46,T,,,,82,,SCT:04 16 BKN:07 30 BKN:07 50,28.37,10,44,260,29,17,,,,,,,,,,,,,,,,,,,,,,,,,,,,,,,,,,,,,MET14402/07/20 01:50:02 SPECI KATL 070650Z 26015G25KT 10SM SCT016 BKN030 BKN050 08/05 A2945 RMK AO2 PK WND 27027/0635 RAE0556B28E37 PRESRR P0000 (KAF),FM-16,7,,,,,,,,,,,,,,,,,,,,,,,,,,,3/27/2007
72219013874,2020-02-07T01:52:00,FM-15,7,,,,,,,,,,,,,,,,,,,,,,,,,,,,,,,,,,,,,,,29.45,41,47,T,,,,80,29.45,SCT:04 16 BKN:07 30 BKN:07 50,28.37,10,44,260,28,17,,,,,,,,,,,,,,,,,,,,,,,,,,,,,,,,,,,,,MET16102/07/20 01:52:02 METAR KATL 070652Z 26015G24KT 10SM SCT016 BKN030 BKN050 08/05 A2945 RMK AO2 PK WND 27027/0635 RAE0556B28E37 PRESRR SLP972 P0000 T00830050 (KAF),FM-15,7,,,,,,,,,,,,,,,,,,,,,,,,,,,3/27/2007
72219013874,2020-02-07T02:52:00,FM-15,7,,,,,,,,,,,,,,,,,,,,,,,,,,,,,,,,,,,,,,,29.51,36,43,T,,,,76,29.51,SCT:04 16 BKN:07 30 BKN:07 42,28.43,10,40,260,32,20,,,,,,,,,,,,,,,,,,,,,,,,,,,,,,,,,,,,,MET14902/07/20 02:52:02 METAR KATL 070752Z 26017G28KT 10SM SCT016 BKN030 BKN042 06/02 A2951 RMK AO2 PK WND 26034/0728 RAB12E28 SLP993 P0000 T00610022 (KAF),FM-15,7,,,,,,,,,,,,,,,,,,,,,,,,,,,3/27/2007
72219013874,2020-02-07T03:52:00,FM-15,7,,,,,,,,,,,,,,,,,,,,,,,,,,,,,,,,,,,,,,,29.54,35,42,T,,-0.12,1,76,29.54,FEW:02 18 SCT:04 24 BKN:07 45,28.46,10,39,280,28,21,,,,,,,,,,,,,,,,,,,,,,,,,,,,,,,,,,,,,MET16102/07/20 03:52:02 METAR KATL 070852Z 28018G24KT 10SM FEW018 SCT024 BKN045 06/02 A2954 RMK AO2 PK WND 27030/0805 RAB38E48 SLP003 P0000 60000 T00560017 51041 (KAF),FM-15,7,,,,,,,,,,,,,,,,,,,,,,,,,,,3/27/2007
72219013874,2020-02-07T04:10:00,FM-16,7,,,,,,,,,,,,,,,,,,,,,,,,,,,,,,,,,,,,,,,29.55,35,42,,,,,76,,FEW:02 18 BKN:07 26 BKN:07 50,28.47,10,39,290,32,25,,,,,,,,,,,,,,,,,,,,,,,,,,,,,,,,,,,,,MET12702/07/20 04:10:02 SPECI KATL 070910Z 29022G28KT 10SM FEW018 BKN026 BKN050 06/02 A2955 RMK AO2 PK WND 29028/0909 T00560017 (KAF),FM-16,7,,,,,,,,,,,,,,,,,,,,,,,,,,,3/27/2007
72219013874,2020-02-07T04:50:00,FM-16,6,,,,,,,,,,,,,,,,,,,,,,,,,,,,,,,,,,,,,,,29.59,32,39,,,,,75,,FEW:02 18 SCT:04 26 SCT:04 50,28.51,10,36,270,28,17,,,,,,,,,,,,,,,,,,,,,,,,,,,,,,,,,,,,,MET12202/07/20 04:50:02 SPECI KATL 070950Z 27015G24KT 10SM FEW018 SCT026 SCT050 04/00 A2959 RMK AO2 PK WND 29028/0909 FIBI (KAF),FM-16,6,,,,,,,,,,,,,,,,,,,,,,,,,,,3/27/2007
72219013874,2020-02-07T04:52:00,FM-15,7,,,,,,,,,,,,,,,,,,,,,,,,,,,,,,,,,,,,,,,29.6,32,40,0,,,,73,29.59,FEW:02 18 SCT:04 26 SCT:04 50,28.51,10,37,270,28,20,,,,,,,,,,,,,,,,,,,,,,,,,,,,,,,,,,,,,MET13402/07/20 04:52:02 METAR KATL 070952Z 27017G24KT 10SM FEW018 SCT026 SCT050 04/00 A2960 RMK AO2 PK WND 29028/0909 SLP022 T00440000 (KAF),FM-15,7,,,,,,,,,,,,,,,,,,,,,,,,,,,3/27/2007
72219013874,2020-02-07T05:52:00,FM-15,7,,,,,,,,,,,,,,,,,,,,,,,,,,,,,,,,,,,,,,,29.62,32,39,0,,,,76,29.62,SCT:04 23 BKN:07 35 BKN:07 55,28.53,10,36,280,,14,,,,,,,,,,,,,,,,,,,,,,,,,,,,,,,,,,,,,MET14402/07/20 05:52:02 METAR KATL 071052Z 28012KT 10SM SCT023 BKN035 BKN055 04/00 A2962 RMK AO2 PK WND 26029/1014 SLP031 SHRASN NW-NE T00390000 (KAF),FM-15,7,,,,,,,,,,,,,,,,,,,,,,,,,,,3/27/2007
72219013874,2020-02-07T06:52:00,FM-15,7,,,,,,,,,,,,,,,,,,,,,,,,,,,,,,,,,,,,,,,29.67,30,38,T,,-0.13,1,73,29.67,SCT:04 18 BKN:07 30 BKN:07 50,28.58,10,35,280,26,17,,,,,,,,,,,,,,,,,,,,,,,,,,,,,,,,,,,,,MET17002/07/20 06:52:02 METAR KATL 071152Z 28015G23KT 10SM SCT018 BKN030 BKN050 03/M01 A2967 RMK AO2 RAB19E32SNB21E32 SLP049 P0000 60000 70178 T00331011 10094 20033 51044 (KAF),FM-15,7,,,,,,,,,,,,,,,,,,,,,,,,,,,3/27/2007
72219013874,2020-02-07T07:00:00,FM-12,4,,,,,,,,,,,,,,,,,,,,,,,,,,,,,,,,,,,,,,,,30,38,,,-0.13,1,73,29.67,15,28.58,9.94,35,280,,17,,,,,,,,,,,,,,,,,,,,,,,,,,,,,,,,,,,,,SYN09872219 12466 62815 10033 21011 39677 40049 51044 69901 91152 333 10222 20033 70452 91023 555 90712=,FM-12,4,,,,,,,,,,,,,,,,,,,,,,,,,,,3/27/2007
72219013874,2020-02-07T07:52:00,FM-15,7,,,,,,,,,,,,,,,,,,,,,,,,,,,,,,,,,,,,,,,29.72,27,38,T,,,,65,29.72,SCT:04 26 BKN:07 38 BKN:07 50,28.63,10,34,270,30,18,,,,,,,,,,,,,,,,,,,,,,,,,,,,,,,,,,,,,MET15302/07/20 07:52:02 METAR KATL 071252Z 27016G26KT 10SM SCT026 BKN038 BKN050 03/M03 A2972 RMK AO2 PK WND 28028/1226 PRESRR SLP066 SHSN NW-NE T00331028 (KAF),FM-15,7,,,,,,,,,,,,,,,,,,,,,,,,,,,3/27/2007
72219013874,2020-02-07T08:52:00,FM-15,7,,,,,,,,,,,,,,,,,,,,,,,,,,,,,,,,,,,,,,,29.77,27,38,T,,,,65,29.77,SCT:04 33 OVC:08 45,28.68,10,34,270,23,16,,,,,,,,,,,,,,,,,,,,,,,,,,,,,,,,,,,,,MET14002/07/20 08:52:02 METAR KATL 071352Z 27014G20KT 10SM SCT033 OVC045 03/M03 A2977 RMK AO2 SNB1257E07B40E52 SLP082 BINOVC P0000 T00331028 (KAF),FM-15,7,,,,,,,,,,,,,,,,,,,,,,,,,,,3/27/2007
72219013874,2020-02-07T09:52:00,FM-15,7,,,,,,,,,,,,,,,,,,,,,,,,,,,,,,,,,,,,,,,29.82,26,38,0,,-0.14,3,62,29.83,BKN:07 34 OVC:08 40,28.73,10,33,280,21,13,,,,,,,,,,,,,,,,,,,,,,,,,,,,,,,,,,,,,MET14702/07/20 09:52:02 METAR KATL 071452Z 28011G18KT 10SM BKN034 OVC040 03/M03 A2982 RMK AO2 PK WND 28031/1401 SLP101 BINOVC 60000 T00331033 53048 (CPS),FM-15,7,,,,,,,,,,,,,,,,,,,,,,,,,,,3/27/2007
72219013874,2020-02-07T10:52:00,FM-15,7,,,,,,,,,,,,,,,,,,,,,,,,,,,,,,,,,,,,,,,29.85,25,38,0,,,,60,29.85,BKN:07 37 OVC:08 43,28.76,10,33,280,29,15,,,,,,,,,,,,,,,,,,,,,,,,,,,,,,,,,,,,,MET13502/07/20 10:52:02 METAR KATL 071552Z 28013G25KT 10SM BKN037 OVC043 03/M04 A2985 RMK AO2 PK WND 28031/1533 SLP110 BINOVC T00331039 (CPS),FM-15,7,,,,,,,,,,,,,,,,,,,,,,,,,,,3/27/2007
72219013874,2020-02-07T11:52:00,FM-15,7,,,,,,,,,,,,,,,,,,,,,,,,,,,,,,,,,,,,,,,29.87,23,39,0,,,,53,29.88,BKN:07 38,28.78,10,33,300,29,22,,,,,,,,,,,,,,,,,,,,,,,,,,,,,,,,,,,,,MET12102/07/20 11:52:02 METAR KATL 071652Z 30019G25KT 10SM BKN038 04/M05 A2987 RMK AO2 PK WND 29028/1611 SLP118 T00391050 (CPS),FM-15,7,,,,,,,,,,,,,,,,,,,,,,,,,,,3/27/2007
72219013874,2020-02-07T12:52:00,FM-15,7,,,,,,,,,,,,,,,,,,,,,,,,,,,,,,,,,,,,,,,29.89,23,40,0,,-0.06,1,51,29.9,OVC:08 47,28.8,10,34,270,28,18,,,,,,,,,,,,,,,,,,,,,,,,,,,,,,,,,,,,,MET13402/07/20 12:52:02 METAR KATL 071752Z 27016G24KT 10SM OVC047 04/M05 A2989 RMK AO2 SLP124 BINOVC 60000 T00441050 10050 20028 51022 (CPS),FM-15,7,,,,,,,,,,,,,,,,,,,,,,,,,,,3/27/2007
72219013874,2020-02-07T13:00:00,FM-12,4,,,,,,,,,,,,,,,,,,,,,,,,,,,,,,,,,,,,,,,,23,40,,,-0.06,1,51,29.9,41,28.79,9.94,34,270,,18,,,,,,,,,,,,,,,,,,,,,,,,,,,,,,,,,,,,,SYN09272219 12666 82716 10044 21050 39749 40124 51022 69901 91752 333 10094 20028 91024 555 90718=,FM-12,4,,,,,,,,,,,,,,,,,,,,,,,,,,,3/27/2007
72219013874,2020-02-07T13:52:00,FM-15,7,,,,,,,,,,,,,,,,,,,,,,,,,,,,,,,,,,,,,,,29.9,25,41,0,,,,53,29.92,BKN:07 41,28.81,10,35,290,23,16,,,,,,,,,,,,,,,,,,,,,,,,,,,,,,,,,,,,,MET10302/07/20 13:52:02 METAR KATL 071852Z 29014G20KT 10SM BKN041 05/M04 A2990 RMK AO2 SLP131 T00501039 (CPS),FM-15,7,,,,,,,,,,,,,,,,,,,,,,,,,,,3/27/2007
72219013874,2020-02-07T14:52:00,FM-15,7,,,,,,,,,,,,,,,,,,,,,,,,,,,,,,,,,,,,,,,29.92,24,41,0,,,,51,29.93,BKN:07 43,28.82,10,34,300,21,13,,,,,,,,,,,,,,,,,,,,,,,,,,,,,,,,,,,,,MET10302/07/20 14:52:02 METAR KATL 071952Z 30011G18KT 10SM BKN043 05/M04 A2992 RMK AO2 SLP135 T00501044 (CPS),FM-15,7,,,,,,,,,,,,,,,,,,,,,,,,,,,3/27/2007
72219013874,2020-02-07T15:52:00,FM-15,7,,,,,,,,,,,,,,,,,,,,,,,,,,,,,,,,,,,,,,,29.94,24,42,0,,-0.05,3,49,29.95,BKN:07 47,28.84,10,35,290,25,14,,,,,,,,,,,,,,,,,,,,,,,,,,,,,,,,,,,,,MET10902/07/20 15:52:02 METAR KATL 072052Z 29012G22KT 10SM BKN047 06/M04 A2994 RMK AO2 SLP141 T00561044 53016 (CPS),FM-15,7,,,,,,,,,,,,,,,,,,,,,,,,,,,3/27/2007
72219013874,2020-02-07T16:52:00,FM-15,7,,,,,,,,,,,,,,,,,,,,,,,,,,,,,,,,,,,,,,,29.95,24,42,0,,,,49,29.97,SCT:04 45 SCT:04 250,28.85,10,35,290,21,14,,,,,,,,,,,,,,,,,,,,,,,,,,,,,,,,,,,,,MET11002/07/20 16:52:02 METAR KATL 072152Z 29012G18KT 10SM SCT045 SCT250 06/M04 A2995 RMK AO2 SLP148 T00561044 (CPS),FM-15,7,,,,,,,,,,,,,,,,,,,,,,,,,,,3/27/2007
72219013874,2020-02-07T17:52:00,FM-15,7,,,,,,,,,,,,,,,,,,,,,,,,,,,,,,,,,,,,,,,29.99,24,41,0,,,,51,30,FEW:02 45 FEW:02 200,28.89,10,34,310,,9,,,,,,,,,,,,,,,,,,,,,,,,,,,,,,,,,,,,,MET10602/07/20 17:52:02 METAR KATL 072252Z 31008KT 10SM FEW045 FEW200 05/M04 A2999 RMK AO2 SLP160 T00501044 (RF),FM-15,7,,,,,,,,,,,,,,,,,,,,,,,,,,,3/27/2007
72219013874,2020-02-07T18:52:00,FM-15,7,,,,,,,,,,,,,,,,,,,,,,,,,,,,,,,,,,,,,,,30.03,25,38,0,,-0.09,3,60,30.05,FEW:02 45 FEW:02 200,28.93,10,33,290,,7,,,,,,,,,,,,,,,,,,,,,,,,,,,,,,,,,,,,,MET12402/07/20 18:52:02 METAR KATL 072352Z 29006KT 10SM FEW045 FEW200 03/M04 A3003 RMK AO2 SLP175 T00331039 10061 20033 53030 (RF),FM-15,7,,,,,,,,,,,,,,,,,,,,,,,,,,,3/27/2007
72219013874,2020-02-07T19:00:00,FM-12,4,,,,,,,,,,,,,,,,,,,,,,,,,,,,,,,,,,,,,,,,25,38,,,-0.09,3,60,30.05,41,28.92,9.94,33,290,,7,,,,,,,,,,,,,,,,,,,,,,,,,,,,,,,,,,,,,SYN08072219 32666 22906 10033 21039 39795 40175 53030 92352 333 10061 20033 555 90800=,FM-12,4,,,,,,,,,,,,,,,,,,,,,,,,,,,3/27/2007
72219013874,2020-02-07T19:52:00,FM-15,7,,,,,,,,,,,,,,,,,,,,,,,,,,,,,,,,,,,,,,,30.06,25,37,0,,,,62,30.08,FEW:02 150,28.96,10,32,300,,7,,,,,,,,,,,,,,,,,,,,,,,,,,,,,,,,,,,,,MET09402/07/20 19:52:01 METAR KATL 080052Z 30006KT 10SM FEW150 03/M04 A3006 RMK AO2 SLP186 T00281039,FM-15,7,,,,,,,,,,,,,,,,,,,,,,,,,,,3/27/2007
72219013874,2020-02-07T20:52:00,FM-15,7,,,,,,,,,,,,,,,,,,,,,,,,,,,,,,,,,,,,,,,30.09,25,36,0,,,,64,30.11,FEW:02 140,28.99,10,32,280,,5,,,,,,,,,,,,,,,,,,,,,,,,,,,,,,,,,,,,,MET09402/07/20 20:52:01 METAR KATL 080152Z 28004KT 10SM FEW140 02/M04 A3009 RMK AO2 SLP197 T00221039,FM-15,7,,,,,,,,,,,,,,,,,,,,,,,,,,,3/27/2007
72219013874,2020-02-07T21:52:00,FM-15,7,,,,,,,,,,,,,,,,,,,,,,,,,,,,,,,,,,,,,,,30.11,25,36,0,,-0.08,1,64,30.14,FEW:02 130,29.01,10,32,0,,0,,,,,,,,,,,,,,,,,,,,,,,,,,,,,,,,,,,,,MET10002/07/20 21:52:01 METAR KATL 080252Z 00000KT 10SM FEW130 02/M04 A3011 RMK AO2 SLP205 T00221039 51028,FM-15,7,,,,,,,,,,,,,,,,,,,,,,,,,,,3/27/2007
72219013874,2020-02-07T22:52:00,FM-15,7,,,,,,,,,,,,,,,,,,,,,,,,,,,,,,,,,,,,,,,30.12,25,36,0,,,,64,30.14,FEW:02 130,29.02,10,32,0,,0,,,,,,,,,,,,,,,,,,,,,,,,,,,,,,,,,,,,,MET09402/07/20 22:52:01 METAR KATL 080352Z 00000KT 10SM FEW130 02/M04 A3012 RMK AO2 SLP207 T00221039,FM-15,7,,,,,,,,,,,,,,,,,,,,,,,,,,,3/27/2007
72219013874,2020-02-07T23:52:00,FM-15,7,,,,,,,,,,,,,,,,,,,,,,,,,,,,,,,,,,,,,,,30.15,26,34,0,,,,73,30.17,FEW:02 130,29.05,10,31,300,,3,,,,,,,,,,,,,,,,,,,,,,,,,,,,,,,,,,,,,MET10402/07/20 23:52:02 METAR KATL 080452Z 30003KT 10SM FEW130 01/M03 A3015 RMK AO2 SLP217 T00111033 401000011,FM-15,7,,,,,,,,,,,,,,,,,,,,,,,,,,,3/27/2007
72219013874,2020-02-07T23:59:00,SOD  ,6,,,,,,,,,,,,,,,,,28,42,63,29.84,28.66,35,13.1,0,-3.5,23,50,34,260,39,T,0,T,290,26,RA,,,,,,,,,,,,,,,,,,,,,,,,,,,,,,,,,,,,,,,,,,,,,,,,,,,,,,,SOD73924 HR PRECIPITATION (IN):    T SNOW DEPTH (IN):0     24 HR SNOWFALL (IN):T    24 HR MAX TEMP (F): 5024 HR MIN TEMP (F): 34AVERAGE STATION PRESSURE:28.660 MINIMUM SEA LEVEL PRESSURE:29.40 TIME OF OCCURRENCE:0001 PEAK WIND SPEED (MPH): 39 PEAK WIND DIR (DEG):260 PEAK WIND TIME (LST):      FASTEST 2MIN SPEED (MPH): 26FASTEST 2MIN DIR (DEG):290 FASTEST 2MIN TIME (LST):     AVERAGE WIND SPEED (MPH):13.1 24 HR AVG TEMP (F): 42DEPART FROM NORMAL: -4  HEATING DEGREE DAYS: 23 COOLING DEGREE DAYS:  0 LATEST DAY MAX TEMP (0700-1900 LST):43  LATEST NIGHT MIN TEMP(1900-0800 LST):38 HOURLY INCREMENTAL PRECIPITATION VALUES (IN):    T    T    T    0.00 0.00 T    T    T    0.00 0.00 0.00 0.00 0.00 0.00 0.00 0.00 0.00 0.00 0.00 0.00 0.00 0.00 0.00,SOD  ,6,,,,,,,,,,,,,,,,,,,,,,,,,730,1815,3/27/2007
72219013874,2020-02-08T00:52:00,FM-15,7,,,,,,,,,,,,,,,,,,,,,,,,,,,,,,,,,,,,,,,30.15,25,35,0,,-0.04,1,67,30.17,FEW:02 130,29.05,10,31,0,,0,,,,,,,,,,,,,,,,,,,,,,,,,,,,,,,,,,,,,MET11702/08/20 00:52:02 METAR KATL 080552Z 00000KT 10SM FEW130 02/M04 A3015 RMK AO2 SLP216 T00171039 10033 20011 51012 (RF),FM-15,7,,,,,,,,,,,,,,,,,,,,,,,,,,,3/27/2007
72219013874,2020-02-08T01:00:00,FM-12,4,,,,,,,,,,,,,,,,,,,,,,,,,,,,,,,,,,,,,,,,25,35,,,-0.04,1,67,30.17,,29.04,9.94,31,0,,0,,,,,,,,,,,,,,,,,,,,,,,,,,,,,,,,,,,,,SYN08072219 32966 20000 10017 21039 39834 40216 51012 90552 333 10094 20011 555 90806=,FM-12,4,,,,,,,,,,,,,,,,,,,,,,,,,,,3/27/2007
72219013874,2020-02-08T01:52:00,FM-15,7,,,,,,,,,,,,,,,,,,,,,,,,,,,,,,,,,,,,,,,30.17,25,31,0,,,,79,30.19,FEW:02 130,29.07,10,29,0,,0,,,,,,,,,,,,,,,,,,,,,,,,,,,,,,,,,,,,,MET10002/08/20 01:52:02 METAR KATL 080652Z 00000KT 10SM FEW130 M01/M04 A3017 RMK AO2 SLP223 T10061039 (DB),FM-15,7,,,,,,,,,,,,,,,,,,,,,,,,,,,3/27/2007
72219013874,2020-02-08T02:52:00,FM-15,7,,,,,,,,,,,,,,,,,,,,,,,,,,,,,,,,,,,,,,,30.18,25,32,0,,,,75,30.21,FEW:02 130,29.08,10,29,220,,3,,,,,,,,,,,,,,,,,,,,,,,,,,,,,,,,,,,,,MET09902/08/20 02:52:02 METAR KATL 080752Z 22003KT 10SM FEW130 00/M04 A3018 RMK AO2 SLP229 T00001039 (DB),FM-15,7,,,,,,,,,,,,,,,,,,,,,,,,,,,3/27/2007
72219013874,2020-02-08T03:52:00,FM-15,7,,,,,,,,,,,,,,,,,,,,,,,,,,,,,,,,,,,,,,,30.2,25,32,0,,-0.05,1,75,30.22,FEW:02 120,29.1,10,29,0,,0,,,,,,,,,,,,,,,,,,,,,,,,,,,,,,,,,,,,,MET10502/08/20 03:52:02 METAR KATL 080852Z 00000KT 10SM FEW120 00/M04 A3020 RMK AO2 SLP233 T00001039 51016 (DB),FM-15,7,,,,,,,,,,,,,,,,,,,,,,,,,,,3/27/2007
72219013874,2020-02-08T04:52:00,FM-15,7,,,,,,,,,,,,,,,,,,,,,,,,,,,,,,,,,,,,,,,30.2,25,32,0,,,,75,30.22,SCT:04 120,29.1,10,29,0,,0,,,,,,,,,,,,,,,,,,,,,,,,,,,,,,,,,,,,,MET09902/08/20 04:52:02 METAR KATL 080952Z 00000KT 10SM SCT120 00/M04 A3020 RMK AO2 SLP234 T00001039 (DB),FM-15,7,,,,,,,,,,,,,,,,,,,,,,,,,,,3/27/2007
72219013874,2020-02-08T05:52:00,FM-15,7,,,,,,,,,,,,,,,,,,,,,,,,,,,,,,,,,,,,,,,30.19,27,33,0,,,,78,30.21,FEW:02 85 BKN:07 100,29.09,10,31,120,,3,,,,,,,,,,,,,,,,,,,,,,,,,,,,,,,,,,,,,MET10602/08/20 05:52:02 METAR KATL 081052Z 12003KT 10SM FEW085 BKN100 01/M03 A3019 RMK AO2 SLP229 T00061028 (DB),FM-15,7,,,,,,,,,,,,,,,,,,,,,,,,,,,3/27/2007
72219013874,2020-02-08T06:52:00,FM-15,7,,,,,,,,,,,,,,,,,,,,,,,,,,,,,,,,,,,,,,,30.2,28,34,0,,0,3,79,30.22,BKN:07 80 BKN:07 100,29.1,10,32,160,,5,,,,,,,,,,,,,,,,,,,,,,,,,,,,,,,,,,,,,MET12402/08/20 06:52:02 METAR KATL 081152Z 16004KT 10SM BKN080 BKN100 01/M02 A3020 RMK AO2 SLP235 T00111022 10017 21006 53001 (DB),FM-15,7,,,,,,,,,,,,,,,,,,,,,,,,,,,3/27/2007
72219013874,2020-02-08T07:00:00,FM-12,4,,,,,,,,,,,,,,,,,,,,,,,,,,,,,,,,,,,,,,,,28,34,,,0,3,79,30.22,74,29.09,9.94,32,160,,5,,,,,,,,,,,,,,,,,,,,,,,,,,,,,,,,,,,,,SYN08072219 32866 61604 10011 21022 39851 40235 53001 91152 333 10100 21006 555 90812=,FM-12,4,,,,,,,,,,,,,,,,,,,,,,,,,,,3/27/2007
72219013874,2020-02-08T07:52:00,FM-15,7,,,,,,,,,,,,,,,,,,,,,,,,,,,,,,,,,,,,,,,30.21,29,34,0,,,,82,30.23,BKN:07 70 BKN:07 110,29.11,10,32,0,,0,,,,,,,,,,,,,,,,,,,,,,,,,,,,,,,,,,,,,MET11802/08/20 07:52:02 METAR KATL 081252Z 00000KT 10SM BKN070 BKN110 01/M02 A3021 RMK AO2 SLP236 VIRGA SW-NW T00111017 (DB),FM-15,7,,,,,,,,,,,,,,,,,,,,,,,,,,,3/27/2007
72219013874,2020-02-08T08:52:00,FM-15,7,,,,,,,,,,,,,,,,,,,,,,,,,,,,,,,,,,,,,,,30.22,29,36,0,,,,76,30.24,FEW:02 45 BKN:07 60 BKN:07 80,29.12,10,33,180,,7,,,,,,,,,,,,,,,,,,,,,,,,,,,,,,,,,,,,,MET12502/08/20 08:52:02 METAR KATL 081352Z 18006KT 10SM FEW045 BKN060 BKN080 02/M02 A3022 RMK AO2 SLP242 VIRGA ALQDS T00221017 (DB),FM-15,7,,,,,,,,,,,,,,,,,,,,,,,,,,,3/27/2007
72219013874,2020-02-08T09:18:00,FM-16,7,,,,,,,,,,,,,,,,,,,,,,,,,,,,,,,,,,,,,,,30.23,30,37,T,-RA:02 |RA |RA,,,76,,OVC:08 25,29.13,7,34,VRB,,5,,,,,,,,,,,,,,,,,,,,,,,,,,,,,,,,,,,,,MET11602/08/20 09:18:02 SPECI KATL 081418Z VRB04KT 7SM -RA OVC025 03/M01 A3023 RMK AO2 UPB07E10RAB10 P0000 T00281011 (JRN),FM-16,7,,,,,,,,,,,,,,,,,,,,,,,,,,,3/27/2007
72219013874,2020-02-08T09:25:00,FM-16,7,,,,,,,,,,,,,,,,,,,,,,,,,,,,,,,,,,,,,,,30.24,30,37,0.01,-RA:02 SN:03 |RA RA SN |RA,,,76,,OVC:08 20,29.14,6,34,200,,6,,,,,,,,,,,,,,,,,,,,,,,,,,,,,,,,,,,,,MET12302/08/20 09:25:02 SPECI KATL 081425Z 20005KT 6SM -RASN OVC020 03/M01 A3024 RMK AO2 UPB07E10RAB10SNB25 P0001 T00281011 (JRN),FM-16,7,,,,,,,,,,,,,,,,,,,,,,,,,,,3/27/2007
72219013874,2020-02-08T09:52:00,FM-15,7,,,,,,,,,,,,,,,,,,,,,,,,,,,,,,,,,,,,,,,30.24,32,37,0.06s,-RA:02 |RA |RA,-0.04,3,82,30.27,OVC:08 22,29.14,4,35,170,,6,,,,,,,,,,,,,,,,,,,,,,,,,,,,,,,,,,,,,MET13402/08/20 09:52:02 METAR KATL 081452Z 17005KT 4SM -RA OVC022 03/00 A3024 RMK AO2 RAB07SNB25E50 SLP249 P0004 60004 T00280000 53014 (JRN),FM-15,7,,,,,,,,,,,,,,,,,,,,,,,,,,,3/27/2007
72219013874,2020-02-08T10:16:00,FM-16,7,,,,,,,,,,,,,,,,,,,,,,,,,,,,,,,,,,,,,,,30.26,33,37,0.04,-RA:02 BR:1 |RA |RA,,,86,,BKN:07 20 OVC:08 32,29.15,3,35,170,,7,,,,,,,,,,,,,,,,,,,,,,,,,,,,,,,,,,,,,MET12102/08/20 10:16:02 SPECI KATL 081516Z 17006KT 3SM -RA BR BKN020 OVC032 03/01 A3026 RMK AO2 SFC VIS 4 P0004 T00280006 (JRN),FM-16,7,,,,,,,,,,,,,,,,,,,,,,,,,,,3/27/2007
72219013874,2020-02-08T10:26:00,FM-16,7,,,,,,,,,,,,,,,,,,,,,,,,,,,,,,,,,,,,,,,30.26,33,37,0.05,-RA:02 SN:03 BR:1 |RA RA |RA,,,86,,BKN:07 24 OVC:08 32,29.15,3,35,160,,5,,,,,,,,,,,,,,,,,,,,,,,,,,,,,,,,,,,,,MET12902/08/20 10:26:02 SPECI KATL 081526Z 16004KT 3SM -RASN BR BKN024 OVC032 03/01 A3026 RMK AO2 SFC VIS 5 SNB25 P0005 T00280006 (JRN),FM-16,7,,,,,,,,,,,,,,,,,,,,,,,,,,,3/27/2007
72219013874,2020-02-08T10:52:00,FM-15,7,,,,,,,,,,,,,,,,,,,,,,,,,,,,,,,,,,,,,,,30.26,33,37,0.05,-RA:02 |RA |RA,,,86,30.28,BKN:07 28 OVC:08 33,29.15,3,35,90,,3,,,,,,,,,,,,,,,,,,,,,,,,,,,,,,,,,,,,,MET13602/08/20 10:52:02 METAR KATL 081552Z 09003KT 3SM -RA BKN028 OVC033 03/01 A3026 RMK AO2 SFC VIS 7 SNB25E42 SLP253 P0006 T00280006 $ (JRN),FM-15,7,,,,,,,,,,,,,,,,,,,,,,,,,,,3/27/2007
72219013874,2020-02-08T11:22:00,FM-16,7,,,,,,,,,,,,,,,,,,,,,,,,,,,,,,,,,,,,,,,30.25,34,38,0.02,-RA:02 BR:1 |RA |RA,,,86,,OVC:08 30,29.15,3,36,90,,6,,,,,,,,,,,,,,,,,,,,,,,,,,,,,,,,,,,,,MET11602/08/20 11:22:02 SPECI KATL 081622Z 09005KT 3SM -RA BR OVC030 03/01 A3025 RMK AO2 SFC VIS 6 P0002 T00330011 $ (JRN),FM-16,7,,,,,,,,,,,,,,,,,,,,,,,,,,,3/27/2007
72219013874,2020-02-08T11:50:00,FM-16,6,,,,,,,,,,,,,,,,,,,,,,,,,,,,,,,,,,,,,,,30.26,34,37,,-RA:02 BR:1 |RA |RA,,,87,,OVC:08 29,29.15,3,36,130,,5,,,,,,,,,,,,,,,,,,,,,,,,,,,,,,,,,,,,,MET11102/08/20 11:50:02 SPECI KATL 081650Z 13004KT 3SM -RA BR OVC029 03/01 A3026 RMK AO2 SFC VIS 5 P0002 $ FIBI (JRN),FM-16,6,,,,,,,,,,,,,,,,,,,,,,,,,,,3/27/2007
72219013874,2020-02-08T11:52:00,FM-15,7,,,,,,,,,,,,,,,,,,,,,,,,,,,,,,,,,,,,,,,30.26,34,38,0.01,-RA:02 BR:1 |RA |RA,,,86,30.28,OVC:08 29,29.15,3,36,110,,6,,,,,,,,,,,,,,,,,,,,,,,,,,,,,,,,,,,,,MET12302/08/20 11:52:02 METAR KATL 081652Z 11005KT 3SM -RA BR OVC029 03/01 A3026 RMK AO2 SFC VIS 6 SLP255 P0002 T00330011 $ (JRN),FM-15,7,,,,,,,,,,,,,,,,,,,,,,,,,,,3/27/2007
72219013874,2020-02-08T12:30:00,FM-16,7,,,,,,,,,,,,,,,,,,,,,,,,,,,,,,,,,,,,,,,30.25,34,38,T,BR:1 ||,,,86,,FEW:02 6 OVC:08 20,29.15,3,36,110,,7,,,,,,,,,,,,,,,,,,,,,,,,,,,,,,,,,,,,,MET12702/08/20 12:30:02 SPECI KATL 081730Z 11006KT 3SM BR FEW006 OVC020 03/01 A3025 RMK AO2 SFC VIS 6 RAE1657 P0000 T00330011 $ (JRN),FM-16,7,,,,,,,,,,,,,,,,,,,,,,,,,,,3/27/2007
72219013874,2020-02-08T12:52:00,FM-15,7,,,,,,,,,,,,,,,,,,,,,,,,,,,,,,,,,,,,,,,30.25,35,38,0,BR:1 ||,0,0,89,30.27,FEW:02 8 OVC:08 19,29.15,3,37,130,,5,,,,,,,,,,,,,,,,,,,,,,,,,,,,,,,,,,,,,MET15802/08/20 12:52:02 METAR KATL 081752Z 13004KT 3SM BR FEW008 OVC019 03/02 A3025 RMK AO2 SFC VIS 6 RAE1657 SLP251 P0000 60012 T00330017 10033 20006 50001 $ (JRN),FM-15,7,,,,,,,,,,,,,,,,,,,,,,,,,,,3/27/2007
72219013874,2020-02-08T13:00:00,FM-12,4,,,,,,,,,,,,,,,,,,,,,,,,,,,,,,,,,,,,,,,,35,38,,,0,9,89,30.27,8,29.14,2.98,37,130,,5,,,,,,,,,,,,,,,,,,,,,,,,,,,,,,,,,,,,,SYN09272219 11348 81304 10033 20017 39867 40251 50001 60031 710// 91752 333 10033 20006 555 90818=,FM-12,4,,,,,,,,,,,,,,,,,,,,,,,,,,,3/27/2007
72219013874,2020-02-08T13:52:00,FM-15,7,,,,,,,,,,,,,,,,,,,,,,,,,,,,,,,,,,,,,,,30.23,36,39,0,BR:1 ||,,,89,30.26,SCT:04 8 OVC:08 20,29.13,3,38,0,,0,,,,,,,,,,,,,,,,,,,,,,,,,,,,,,,,,,,,,MET12002/08/20 13:52:02 METAR KATL 081852Z 00000KT 3SM BR SCT008 OVC020 04/02 A3023 RMK AO2 SFC VIS 6 SLP247 T00390022 $ (JRN),FM-15,7,,,,,,,,,,,,,,,,,,,,,,,,,,,3/27/2007
72219013874,2020-02-08T14:02:00,FM-16,7,,,,,,,,,,,,,,,,,,,,,,,,,,,,,,,,,,,,,,,30.24,36,40,,BR:1 ||,,,86,,SCT:04 8 OVC:08 12,29.14,3,38,0,,0,,,,,,,,,,,,,,,,,,,,,,,,,,,,,,,,,,,,,MET11302/08/20 14:02:02 SPECI KATL 081902Z 00000KT 3SM BR SCT008 OVC012 04/02 A3024 RMK AO2 SFC VIS 6 T00440022 $ (JRN),FM-16,7,,,,,,,,,,,,,,,,,,,,,,,,,,,3/27/2007
72219013874,2020-02-08T14:16:00,FM-16,7,,,,,,,,,,,,,,,,,,,,,,,,,,,,,,,,,,,,,,,30.24,36,40,,BR:1 ||,,,86,,OVC:08 8,29.14,3,38,210,,3,,,,,,,,,,,,,,,,,,,,,,,,,,,,,,,,,,,,,MET10602/08/20 14:16:02 SPECI KATL 081916Z 21003KT 3SM BR OVC008 04/02 A3024 RMK AO2 SFC VIS 6 T00440022 $ (JRN),FM-16,7,,,,,,,,,,,,,,,,,,,,,,,,,,,3/27/2007
72219013874,2020-02-08T14:52:00,FM-15,7,,,,,,,,,,,,,,,,,,,,,,,,,,,,,,,,,,,,,,,30.25,37,42,0,HZ:7 |FU |HZ,,,82,30.27,BKN:07 9 OVC:08 17,29.15,3,40,240,,7,,,,,,,,,,,,,,,,,,,,,,,,,,,,,,,,,,,,,MET12002/08/20 14:52:02 METAR KATL 081952Z 24006KT 3SM HZ BKN009 OVC017 06/03 A3025 RMK AO2 SFC VIS 6 SLP250 T00560028 $ (JRN),FM-15,7,,,,,,,,,,,,,,,,,,,,,,,,,,,3/27/2007
72219013874,2020-02-08T15:10:00,FM-16,7,,,,,,,,,,,,,,,,,,,,,,,,,,,,,,,,,,,,,,,30.25,38,42,,BR:1 ||,,,85,,SCT:04 9 OVC:08 16,29.15,3,40,230,,6,,,,,,,,,,,,,,,,,,,,,,,,,,,,,,,,,,,,,MET11302/08/20 15:10:02 SPECI KATL 082010Z 23005KT 3SM BR SCT009 OVC016 06/03 A3025 RMK AO2 SFC VIS 6 T00560033 $ (JRN),FM-16,7,,,,,,,,,,,,,,,,,,,,,,,,,,,3/27/2007
72219013874,2020-02-08T15:19:00,FM-16,7,,,,,,,,,,,,,,,,,,,,,,,,,,,,,,,,,,,,,,,30.26,38,43,,,,,82,,SCT:04 9 OVC:08 16,29.15,7,41,260,,8,,,,,,,,,,,,,,,,,,,,,,,,,,,,,,,,,,,,,MET10002/08/20 15:19:02 SPECI KATL 082019Z 26007KT 7SM SCT009 OVC016 06/03 A3026 RMK AO2 T00610033 $ (JRN),FM-16,7,,,,,,,,,,,,,,,,,,,,,,,,,,,3/27/2007
72219013874,2020-02-08T15:32:00,FM-16,7,,,,,,,,,,,,,,,,,,,,,,,,,,,,,,,,,,,,,,,30.26,38,42,,,,,85,,FEW:02 8 BKN:07 12 OVC:08 16,29.15,7,40,260,,7,,,,,,,,,,,,,,,,,,,,,,,,,,,,,,,,,,,,,MET10702/08/20 15:32:02 SPECI KATL 082032Z 26006KT 7SM FEW008 BKN012 OVC016 06/03 A3026 RMK AO2 T00560033 $ (JRN),FM-16,7,,,,,,,,,,,,,,,,,,,,,,,,,,,3/27/2007
72219013874,2020-02-08T15:52:00,FM-15,7,,,,,,,,,,,,,,,,,,,,,,,,,,,,,,,,,,,,,,,30.27,38,43,0,,-0.02,3,82,30.29,FEW:02 8 OVC:08 14,29.16,8,41,280,,8,,,,,,,,,,,,,,,,,,,,,,,,,,,,,,,,,,,,,MET11302/08/20 15:52:02 METAR KATL 082052Z 28007KT 8SM FEW008 OVC014 06/03 A3027 RMK AO2 SLP257 T00610033 53007 $ (JRN),FM-15,7,,,,,,,,,,,,,,,,,,,,,,,,,,,3/27/2007
72219013874,2020-02-08T16:04:00,FM-16,7,,,,,,,,,,,,,,,,,,,,,,,,,,,,,,,,,,,,,,,30.27,38,43,,,,,82,,FEW:02 9 OVC:08 16,29.16,10,41,290,,7,,,,,,,,,,,,,,,,,,,,,,,,,,,,,,,,,,,,,MET10102/08/20 16:04:02 SPECI KATL 082104Z 29006KT 10SM FEW009 OVC016 06/03 A3027 RMK AO2 T00610033 $ (JRN),FM-16,7,,,,,,,,,,,,,,,,,,,,,,,,,,,3/27/2007
72219013874,2020-02-08T16:27:00,FM-16,7,,,,,,,,,,,,,,,,,,,,,,,,,,,,,,,,,,,,,,,30.27,38,45,,,,,77,,SCT:04 25 BKN:07 250,29.16,10,42,250,,5,,,,,,,,,,,,,,,,,,,,,,,,,,,,,,,,,,,,,MET10102/08/20 16:27:02 SPECI KATL 082127Z 25004KT 10SM SCT025 BKN250 07/03 A3027 RMK AO2 T00720033 $ (JRN),FM-16,7,,,,,,,,,,,,,,,,,,,,,,,,,,,3/27/2007
72219013874,2020-02-08T16:37:00,FM-16,7,,,,,,,,,,,,,,,,,,,,,,,,,,,,,,,,,,,,,,,30.27,37,44,,,,,76,,BKN:07 17,29.16,10,41,280,,8,,,,,,,,,,,,,,,,,,,,,,,,,,,,,,,,,,,,,MET09402/08/20 16:37:02 SPECI KATL 082137Z 28007KT 10SM BKN017 07/03 A3027 RMK AO2 T00670028 $ (JRN),FM-16,7,,,,,,,,,,,,,,,,,,,,,,,,,,,3/27/2007
72219013874,2020-02-08T16:52:00,FM-15,7,,,,,,,,,,,,,,,,,,,,,,,,,,,,,,,,,,,,,,,30.27,37,44,0,,,,76,30.29,BKN:07 17,29.16,10,41,300,,6,,,,,,,,,,,,,,,,,,,,,,,,,,,,,,,,,,,,,MET10102/08/20 16:52:02 METAR KATL 082152Z 30005KT 10SM BKN017 07/03 A3027 RMK AO2 SLP256 T00670028 $ (JRN),FM-15,7,,,,,,,,,,,,,,,,,,,,,,,,,,,3/27/2007
72219013874,2020-02-08T17:06:00,FM-16,7,,,,,,,,,,,,,,,,,,,,,,,,,,,,,,,,,,,,,,,30.27,37,44,,,,,76,,SCT:04 18,29.16,10,41,300,,6,,,,,,,,,,,,,,,,,,,,,,,,,,,,,,,,,,,,,MET09402/08/20 17:06:02 SPECI KATL 082206Z 30005KT 10SM SCT018 07/03 A3027 RMK AO2 T00670028 $ (KAF),FM-16,7,,,,,,,,,,,,,,,,,,,,,,,,,,,3/27/2007
72219013874,2020-02-08T17:52:00,FM-15,7,,,,,,,,,,,,,,,,,,,,,,,,,,,,,,,,,,,,,,,30.29,36,45,0,,,,71,30.31,FEW:02 18 FEW:02 250,29.18,10,41,0,,0,,,,,,,,,,,,,,,,,,,,,,,,,,,,,,,,,,,,,MET10802/08/20 17:52:02 METAR KATL 082252Z 00000KT 10SM FEW018 FEW250 07/02 A3029 RMK AO2 SLP264 T00720022 $ (KAF),FM-15,7,,,,,,,,,,,,,,,,,,,,,,,,,,,3/27/2007
72219013874,2020-02-08T18:52:00,FM-15,7,,,,,,,,,,,,,,,,,,,,,,,,,,,,,,,,,,,,,,,30.31,36,42,0,,-0.04,3,79,30.33,FEW:02 18 FEW:02 250,29.21,10,39,170,,3,,,,,,,,,,,,,,,,,,,,,,,,,,,,,,,,,,,,,MET12602/08/20 18:52:02 METAR KATL 082352Z 17003KT 10SM FEW018 FEW250 06/02 A3031 RMK AO2 SLP271 T00560022 10072 20033 53013 $ (KAF),FM-15,7,,,,,,,,,,,,,,,,,,,,,,,,,,,3/27/2007
72219013874,2020-02-08T19:00:00,FM-12,4,,,,,,,,,,,,,,,,,,,,,,,,,,,,,,,,,,,,,,,,36,42,,,-0.04,3,79,30.33,15,29.2,9.94,39,170,,3,,,,,,,,,,,,,,,,,,,,,,,,,,,,,,,,,,,,,SYN08072219 32466 21703 10056 20022 39887 40271 53013 92352 333 10072 21005 555 90900=,FM-12,4,,,,,,,,,,,,,,,,,,,,,,,,,,,3/27/2007
72219013874,2020-02-08T19:52:00,FM-15,7,,,,,,,,,,,,,,,,,,,,,,,,,,,,,,,,,,,,,,,30.33,35,41,0,,,,79,30.35,FEW:02 12 FEW:02 250,29.22,7,38,100,,3,,,,,,,,,,,,,,,,,,,,,,,,,,,,,,,,,,,,,MET10102/08/20 19:52:01 METAR KATL 090052Z 10003KT 7SM FEW012 FEW250 05/02 A3033 RMK AO2 SLP278 T00500017 $,FM-15,7,,,,,,,,,,,,,,,,,,,,,,,,,,,3/27/2007
72219013874,2020-02-08T20:29:00,FM-16,7,,,,,,,,,,,,,,,,,,,,,,,,,,,,,,,,,,,,,,,30.34,35,38,,BR:1 ||,,,89,,SCT:04 3 BKN:07 10 BKN:07 250,29.23,3,37,80,,8,,,,,,,,,,,,,,,,,,,,,,,,,,,,,,,,,,,,,MET12002/08/20 20:29:01 SPECI KATL 090129Z 08007KT 3SM BR SCT003 BKN010 BKN250 03/02 A3034 RMK AO2 VIS NW-NE-E 3/4 T00330017 $,FM-16,7,,,,,,,,,,,,,,,,,,,,,,,,,,,3/27/2007
72219013874,2020-02-08T20:35:00,FM-16,7,,,,,,,,,,,,,,,,,,,,,,,,,,,,,,,,,,,,,,,30.34,34,38,,BR:1 ||,,,86,,BKN:07 1 BKN:07 8 BKN:07 250,29.23,1,36,90,,6,,,,,,,,,,,,,,,,,,,,,,,,,,,,,,,,,,,,,MET13302/08/20 20:35:01 SPECI KATL 090135Z 09005KT 1SM R09R/P6000FT BR BKN001 BKN008 BKN250 03/01 A3034 RMK AO2 VIS NW-NE-E 1/2 T00330011 $,FM-16,7,,,,,,,,,,,,,,,,,,,,,,,,,,,3/27/2007
72219013874,2020-02-08T20:42:00,FM-16,7,,,,,,,,,,,,,,,,,,,,,,,,,,,,,,,,,,,,,,,30.34,35,38,,FG:2 |FG |,,,89,,BKN:07 1 OVC:08 8,29.23,0.25,37,80,,8,,,,,,,,,,,,,,,,,,,,,,,,,,,,,,,,,,,,,MET13102/08/20 20:42:01 SPECI KATL 090142Z 08007KT 1/4SM R09R/P6000FT FG BKN001 OVC008 03/02 A3034 RMK AO2 SFC VIS 1/2 BINOVC T00330017 $,FM-16,7,,,,,,,,,,,,,,,,,,,,,,,,,,,3/27/2007
72219013874,2020-02-08T20:52:00,FM-15,7,,,,,,,,,,,,,,,,,,,,,,,,,,,,,,,,,,,,,,,30.34,36,37,0,FG:2 |FG |,,,96,30.37,VV:09 1,29.23,0.25,37,90,,6,,,,,,,,,,,,,,,,,,,,,,,,,,,,,,,,,,,,,MET11502/08/20 20:52:01 METAR KATL 090152Z 09005KT 1/4SM R09R/1400V4000FT FG VV001 03/02 A3034 RMK AO2 SLP283 T00280022 $,FM-15,7,,,,,,,,,,,,,,,,,,,,,,,,,,,3/27/2007
72219013874,2020-02-08T20:56:00,FM-16,7,,,,,,,,,,,,,,,,,,,,,,,,,,,,,,,,,,,,,,,30.34,36,37,,FG:2 |FG |,,,96,,VV:09 1,29.23,0.25,37,70,,6,,,,,,,,,,,,,,,,,,,,,,,,,,,,,,,,,,,,,MET12002/08/20 20:56:01 SPECI KATL 090156Z 07005KT 1/4SM R09R/1200V1800FT FG VV001 03/02 A3034 RMK AO2 TWR VIS 1/4 T00280022 $,FM-16,7,,,,,,,,,,,,,,,,,,,,,,,,,,,3/27/2007
72219013874,2020-02-08T21:52:00,FM-15,7,,,,,,,,,,,,,,,,,,,,,,,,,,,,,,,,,,,,,,,30.35,35,36,0,FG:2 |FG |,-0.04,1,97,30.38,VV:09 1,29.24,0.25,36,120,,6,,,,,,,,,,,,,,,,,,,,,,,,,,,,,,,,,,,,,MET12102/08/20 21:52:01 METAR KATL 090252Z 12005KT 1/4SM R09R/1200V1400FT FG VV001 02/02 A3035 RMK AO2 SLP287 T00220017 51015 $,FM-15,7,,,,,,,,,,,,,,,,,,,,,,,,,,,3/27/2007
72219013874,2020-02-08T22:52:00,FM-15,7,,,,,,,,,,,,,,,,,,,,,,,,,,,,,,,,,,,,,,,30.37,35,37,0,FG:2 |FG |,,,93,30.39,VV:09 1,29.26,0.25,36,130,,7,,,,,,,,,,,,,,,,,,,,,,,,,,,,,,,,,,,,,MET11002/08/20 22:52:01 METAR KATL 090352Z 13006KT 1/4SM R09R/1600FT FG VV001 03/02 A3037 RMK AO2 SLP291 T00280017 $,FM-15,7,,,,,,,,,,,,,,,,,,,,,,,,,,,3/27/2007
72219013874,2020-02-08T23:39:00,FM-16,7,,,,,,,,,,,,,,,,,,,,,,,,,,,,,,,,,,,,,,,30.38,36,37,,FG:2 |FG |,,,96,,VV:09 2,29.27,0.25,37,120,,3,,,,,,,,,,,,,,,,,,,,,,,,,,,,,,,,,,,,,MET10302/08/20 23:39:02 SPECI KATL 090439Z 12003KT 1/4SM R09R/1600FT FG VV002 03/02 A3038 RMK AO2 T00280022 $,FM-16,7,,,,,,,,,,,,,,,,,,,,,,,,,,,3/27/2007
72219013874,2020-02-08T23:52:00,FM-15,7,,,,,,,,,,,,,,,,,,,,,,,,,,,,,,,,,,,,,,,30.38,35,37,0,FG:2 |FG |,,,93,30.4,VV:09 2,29.27,0.25,36,110,,3,,,,,,,,,,,,,,,,,,,,,,,,,,,,,,,,,,,,,MET12502/08/20 23:52:02 METAR KATL 090452Z 11003KT 1/4SM R09R/1600V2000FT FG VV002 03/02 A3038 RMK AO2 SLP295 T00280017 400721006 $,FM-15,7,,,,,,,,,,,,,,,,,,,,,,,,,,,3/27/2007
72219013874,2020-02-08T23:59:00,SOD  ,6,,,,,,,,,,,,,,,,,32,38,83,30.28,29.12,35,3.6,0,-7.7,27,45,31,270,13,0.12,0,T,300,9,RA SN FG BR HZ,,,,,,,,,,,,,,,,,,,,,,,,,,,,,,,,,,,,,,,,,,,,,,,,,,,,,,,SOD75824 HR PRECIPITATION (IN): 0.12 SNOW DEPTH (IN):0     24 HR SNOWFALL (IN):T    WEATHER(CODE):128  24 HR MAX TEMP (F): 4524 HR MIN TEMP (F): 31AVERAGE STATION PRESSURE:29.120 MINIMUM SEA LEVEL PRESSURE:30.17 TIME OF OCCURRENCE:0108 PEAK WIND SPEED (MPH): 13 PEAK WIND DIR (DEG):270 PEAK WIND TIME (LST):      FASTEST 2MIN SPEED (MPH):  9FASTEST 2MIN DIR (DEG):300 FASTEST 2MIN TIME (LST):     AVERAGE WIND SPEED (MPH): 3.6 24 HR AVG TEMP (F): 38DEPART FROM NORMAL: -8  HEATING DEGREE DAYS: 27 COOLING DEGREE DAYS:  0 LATEST DAY MAX TEMP (0700-1900 LST):45  LATEST NIGHT MIN TEMP(1900-0800 LST):31 HOURLY INCREMENTAL PRECIPITATION VALUES (IN):.00 0.00 0.00 0.00 0.00 0.00 0.00 0.00 0.00 0.06 0.05 0.01 0.00 0.00 0.00 0.00 0.00 0.00 0.00 0.00 0.00 0.00 0.00 0.00,SOD  ,6,,,,,,,,,,,,,,,,,,,,,,,,,729,1816,3/27/2007
72219013874,2020-02-09T00:52:00,FM-15,7,,,,,,,,,,,,,,,,,,,,,,,,,,,,,,,,,,,,,,,30.39,35,37,0,FG:2 |FG |,-0.03,1,93,30.41,VV:09 2,29.28,0.25,36,130,,3,,,,,,,,,,,,,,,,,,,,,,,,,,,,,,,,,,,,,MET13902/09/20 00:52:02 METAR KATL 090552Z 13003KT 1/4SM R09R/2000V2200FT FG VV002 03/02 A3039 RMK AO2 SLP297 T00280017 10056 20022 51011 $ (KAF),FM-15,7,,,,,,,,,,,,,,,,,,,,,,,,,,,3/27/2007
72219013874,2020-02-09T00:58:00,FM-16,7,,,,,,,,,,,,,,,,,,,,,,,,,,,,,,,,,,,,,,,30.39,35,37,,FG:2 |FG |,,,93,,VV:09 2,29.28,0.25,36,110,,6,,,,,,,,,,,,,,,,,,,,,,,,,,,,,,,,,,,,,MET11402/09/20 00:58:02 SPECI KATL 090558Z 11005KT 1/4SM R09R/2000V3500FT FG VV002 03/02 A3039 RMK AO2 T00280017 $ (KAF),FM-16,7,,,,,,,,,,,,,,,,,,,,,,,,,,,3/27/2007
72219013874,2020-02-09T01:00:00,FM-12,4,,,,,,,,,,,,,,,,,,,,,,,,,,,,,,,,,,,,,,,,35,37,,||FG,-0.03,1,93,30.41,2,29.27,0.25,36,130,,3,,,,,,,,,,,,,,,,,,,,,,,,,,,,,,,,,,,,,SYN08672219 31104 91303 10028 20017 39913 40297 51011 741// 90552 333 10056 21005 555 90906=,FM-12,4,,,,,,,,,,,,,,,,,,,,,,,,,,,3/27/2007
72219013874,2020-02-09T01:19:00,FM-16,7,,,,,,,,,,,,,,,,,,,,,,,,,,,,,,,,,,,,,,,30.39,35,37,,FG:2 |FG |,,,93,,VV:09 2,29.28,0.25,36,70,,3,,,,,,,,,,,,,,,,,,,,,,,,,,,,,,,,,,,,,MET11302/09/20 01:19:02 SPECI KATL 090619Z 07003KT 1/4SM R09R/1600V2200FT FG VV002 03/02 A3039 RMK AO2 T00280017 $ (DB),FM-16,7,,,,,,,,,,,,,,,,,,,,,,,,,,,3/27/2007
72219013874,2020-02-09T01:49:00,FM-16,7,,,,,,,,,,,,,,,,,,,,,,,,,,,,,,,,,,,,,,,30.38,34,37,,FG:2 |FG |,,,87,,VV:09 2,29.27,0.25,36,100,,6,,,,,,,,,,,,,,,,,,,,,,,,,,,,,,,,,,,,,MET10302/09/20 01:49:02 SPECI KATL 090649Z 10005KT 1/4SM R09R/1800V2800FT FG VV002 03/01 A3038 RMK AO2 $ (DB),FM-16,7,,,,,,,,,,,,,,,,,,,,,,,,,,,3/27/2007
72219013874,2020-02-09T01:52:00,FM-15,7,,,,,,,,,,,,,,,,,,,,,,,,,,,,,,,,,,,,,,,30.38,34,36,0,FG:2 |FG |,,,93,30.41,VV:09 2,29.27,0.25,35,110,,3,,,,,,,,,,,,,,,,,,,,,,,,,,,,,,,,,,,,,MET12002/09/20 01:52:02 METAR KATL 090652Z 11003KT 1/4SM R09R/1800V3000FT FG VV002 02/01 A3038 RMK AO2 SLP297 T00220011 $ (DB),FM-15,7,,,,,,,,,,,,,,,,,,,,,,,,,,,3/27/2007
72219013874,2020-02-09T02:07:00,FM-16,7,,,,,,,,,,,,,,,,,,,,,,,,,,,,,,,,,,,,,,,30.38,35,37,,FG:2 |FG |,,,93,,VV:09 2,29.27,0.25,36,90,,3,,,,,,,,,,,,,,,,,,,,,,,,,,,,,,,,,,,,,MET11302/09/20 02:07:02 SPECI KATL 090707Z 09003KT 1/4SM R09R/1600V2000FT FG VV002 03/02 A3038 RMK AO2 T00280017 $ (DB),FM-16,7,,,,,,,,,,,,,,,,,,,,,,,,,,,3/27/2007
72219013874,2020-02-09T02:44:00,FM-16,7,,,,,,,,,,,,,,,,,,,,,,,,,,,,,,,,,,,,,,,30.38,35,36,,FG:2 |FG |,,,97,,VV:09 2,29.27,0.25,36,110,,3,,,,,,,,,,,,,,,,,,,,,,,,,,,,,,,,,,,,,MET11302/09/20 02:44:02 SPECI KATL 090744Z 11003KT 1/4SM R09R/1400V2400FT FG VV002 02/02 A3038 RMK AO2 T00220017 $ (DB),FM-16,7,,,,,,,,,,,,,,,,,,,,,,,,,,,3/27/2007
72219013874,2020-02-09T02:52:00,FM-15,7,,,,,,,,,,,,,,,,,,,,,,,,,,,,,,,,,,,,,,,30.38,34,36,0,FG:2 |FG |,,,93,30.4,VV:09 2,29.27,0.25,35,90,,5,,,,,,,,,,,,,,,,,,,,,,,,,,,,,,,,,,,,,MET13202/09/20 02:52:02 METAR KATL 090752Z 09004KT 1/4SM R09R/1400V2400FT FG VV002 02/01 A3038 RMK AO2 TWR VIS 1/4 SLP295 T00220011 $ (DB),FM-15,7,,,,,,,,,,,,,,,,,,,,,,,,,,,3/27/2007
72219013874,2020-02-09T02:54:00,FM-16,7,,,,,,,,,,,,,,,,,,,,,,,,,,,,,,,,,,,,,,,30.38,34,36,,FG:2 |FG |,,,93,,VV:09 2,29.27,0.25,35,100,,6,,,,,,,,,,,,,,,,,,,,,,,,,,,,,,,,,,,,,MET11302/09/20 02:54:02 SPECI KATL 090754Z 10005KT 1/4SM R09R/1400V2200FT FG VV002 02/01 A3038 RMK AO2 T00220011 $ (DB),FM-16,7,,,,,,,,,,,,,,,,,,,,,,,,,,,3/27/2007
72219013874,2020-02-09T03:52:00,FM-15,7,,,,,,,,,,,,,,,,,,,,,,,,,,,,,,,,,,,,,,,30.38,34,36,0,FG:2 |FG |,0.01,8,93,30.39,VV:09 2,29.27,0.25,35,120,,6,,,,,,,,,,,,,,,,,,,,,,,,,,,,,,,,,,,,,MET13802/09/20 03:52:02 METAR KATL 090852Z 12005KT 1/4SM R09R/1200V1600FT FG VV002 02/01 A3038 RMK AO2 TWR VIS 1/4 SLP292 T00220011 58003 $ (DB),FM-15,7,,,,,,,,,,,,,,,,,,,,,,,,,,,3/27/2007
72219013874,2020-02-09T04:52:00,FM-15,7,,,,,,,,,,,,,,,,,,,,,,,,,,,,,,,,,,,,,,,30.39,33,35,0,FG:2 |FG |,,,93,30.41,VV:09 2,29.28,0.25,34,80,,6,,,,,,,,,,,,,,,,,,,,,,,,,,,,,,,,,,,,,MET13202/09/20 04:52:02 METAR KATL 090952Z 08005KT 1/4SM R09R/1400V1600FT FG VV002 02/01 A3039 RMK AO2 TWR VIS 1/4 SLP298 T00170006 $ (DB),FM-15,7,,,,,,,,,,,,,,,,,,,,,,,,,,,3/27/2007
72219013874,2020-02-09T05:52:00,FM-15,7,,,,,,,,,,,,,,,,,,,,,,,,,,,,,,,,,,,,,,,30.41,33,35,0,FG:2 |FG |,,,93,30.43,VV:09 2,29.3,0.25,34,110,,3,,,,,,,,,,,,,,,,,,,,,,,,,,,,,,,,,,,,,MET11502/09/20 05:52:02 METAR KATL 091052Z 11003KT 1/4SM R09R/1600FT FG VV002 02/01 A3041 RMK AO2 SLP304 T00170006 $ (DB),FM-15,7,,,,,,,,,,,,,,,,,,,,,,,,,,,3/27/2007
72219013874,2020-02-09T06:27:00,FM-16,7,,,,,,,,,,,,,,,,,,,,,,,,,,,,,,,,,,,,,,,30.42,33,35,,FG:2 |FG |,,,93,,VV:09 2,29.31,0.25,34,70,,7,,,,,,,,,,,,,,,,,,,,,,,,,,,,,,,,,,,,,MET11302/09/20 06:27:02 SPECI KATL 091127Z 07006KT 1/4SM R09R/1600V2600FT FG VV002 02/01 A3042 RMK AO2 T00170006 $ (DB),FM-16,7,,,,,,,,,,,,,,,,,,,,,,,,,,,3/27/2007
72219013874,2020-02-09T06:52:00,FM-15,7,,,,,,,,,,,,,,,,,,,,,,,,,,,,,,,,,,,,,,,30.43,33,34,0,FG:2 |FG |,-0.06,3,97,30.45,VV:09 2,29.32,0.25,34,110,,3,,,,,,,,,,,,,,,,,,,,,,,,,,,,,,,,,,,,,MET15602/09/20 06:52:02 METAR KATL 091152Z 11003KT 1/4SM R09R/2400V2800FT FG VV002 01/01 A3043 RMK AO2 SFC VIS 1/2 SLP313 70012 T00110006 10028 20011 53019 $ (DB),FM-15,7,,,,,,,,,,,,,,,,,,,,,,,,,,,3/27/2007
72219013874,2020-02-09T07:00:00,FM-12,4,,,,,,,,,,,,,,,,,,,,,,,,,,,,,,,,,,,,,,,,33,34,,||FG,-0.06,3,97,30.45,2,29.31,0.25,34,110,,3,,,,,,,,,,,,,,,,,,,,,,,,,,,,,,,,,,,,,SYN09272219 31104 91103 10011 20006 39926 40313 53019 741// 91152 333 10072 20011 70030 555 90912=,FM-12,4,,,,,,,,,,,,,,,,,,,,,,,,,,,3/27/2007
72219013874,2020-02-09T07:40:00,FM-16,7,,,,,,,,,,,,,,,,,,,,,,,,,,,,,,,,,,,,,,,30.45,33,35,,FG:2 |FG |,,,93,,VV:09 2,29.34,0.25,34,70,,5,,,,,,,,,,,,,,,,,,,,,,,,,,,,,,,,,,,,,MET11302/09/20 07:40:02 SPECI KATL 091240Z 07004KT 1/4SM R09R/1800V2000FT FG VV002 02/01 A3045 RMK AO2 T00170006 $ (DB),FM-16,7,,,,,,,,,,,,,,,,,,,,,,,,,,,3/27/2007
72219013874,2020-02-09T07:52:00,FM-15,7,,,,,,,,,,,,,,,,,,,,,,,,,,,,,,,,,,,,,,,30.46,32,34,0,FG:2 |FG |,,,92,30.48,VV:09 2,29.35,0.25,33,60,,6,,,,,,,,,,,,,,,,,,,,,,,,,,,,,,,,,,,,,MET12002/09/20 07:52:02 METAR KATL 091252Z 06005KT 1/4SM R09R/1600V2200FT FG VV002 01/00 A3046 RMK AO2 SLP321 T00110000 $ (DB),FM-15,7,,,,,,,,,,,,,,,,,,,,,,,,,,,3/27/2007
72219013874,2020-02-09T07:58:00,FM-16,7,,,,,,,,,,,,,,,,,,,,,,,,,,,,,,,,,,,,,,,30.46,32,34,,FG:2 |FG |,,,92,,VV:09 2,29.35,0.25,33,90,,5,,,,,,,,,,,,,,,,,,,,,,,,,,,,,,,,,,,,,MET12502/09/20 07:58:02 SPECI KATL 091258Z 09004KT 1/4SM R09R/1600V2600FT FG VV002 01/00 A3046 RMK AO2 TWR VIS 1/4 T00110000 $ (DB),FM-16,7,,,,,,,,,,,,,,,,,,,,,,,,,,,3/27/2007
72219013874,2020-02-09T08:18:00,FM-16,6,,,,,,,,,,,,,,,,,,,,,,,,,,,,,,,,,,,,,,,30.47,33,34,,FG:2 |FG |,,,97,,VV:09 2,29.36,0.25,34,80,,6,,,,,,,,,,,,,,,,,,,,,,,,,,,,,,,,,,,,,MET12502/09/20 08:18:02 SPECI KATL 091318Z 08005KT 1/4SM R09R/1600V2000FT FG VV002 01/01 A3047 RMK AO2 TWR VIS 1/4 T00110006 $ (DB),FM-16,6,,,,,,,,,,,,,,,,,,,,,,,,,,,3/27/2007
72219013874,2020-02-09T08:52:00,FM-15,7,,,,,,,,,,,,,,,,,,,,,,,,,,,,,,,,,,,,,,,30.48,33,34,0,FG:2 |FG |,,,97,30.5,VV:09 2,29.37,0.25,34,140,,3,,,,,,,,,,,,,,,,,,,,,,,,,,,,,,,,,,,,,MET13202/09/20 08:52:02 METAR KATL 091352Z 14003KT 1/4SM R09R/1400V2000FT FG VV002 01/01 A3048 RMK AO2 TWR VIS 1/4 SLP329 T00110006 $ (DB),FM-15,7,,,,,,,,,,,,,,,,,,,,,,,,,,,3/27/2007
72219013874,2020-02-09T09:01:00,FM-16,7,,,,,,,,,,,,,,,,,,,,,,,,,,,,,,,,,,,,,,,30.48,33,34,,FG:2 |FG |,,,97,,VV:09 2,29.37,0.25,34,120,,6,,,,,,,,,,,,,,,,,,,,,,,,,,,,,,,,,,,,,MET12702/09/20 09:01:02 SPECI KATL 091401Z 12005KT 1/4SM R09R/1400VP6000FT FG VV002 01/01 A3048 RMK AO2 SFC VIS 1/2 T00110006 $ (JRN),FM-16,7,,,,,,,,,,,,,,,,,,,,,,,,,,,3/27/2007
72219013874,2020-02-09T09:52:00,FM-15,7,,,,,,,,,,,,,,,,,,,,,,,,,,,,,,,,,,,,,,,30.48,34,36,0,BR:1 |s |,-0.04,1,93,30.5,OVC:08 3,29.37,0.25,35,120,,7,,,,,,,,,,,,,,,,,,,,,,,,,,,,,,,,,,,,,MET14102/09/20 09:52:02 METAR KATL 091452Z 12006KT 1/4SM R09R/P6000FT BR OVC003 02/01 A3048 RMK AO2 SFC VIS 2 SLP329 TWRINC T00220011 51015 $ (JRN),FM-15,7,,,,,,,,,,,,,,,,,,,,,,,,,,,3/27/2007
72219013874,2020-02-09T10:26:00,FM-16,7,,,,,,,,,,,,,,,,,,,,,,,,,,,,,,,,,,,,,,,30.49,36,38,,BR:1 ||,,,93,,BKN:07 5,29.38,2,37,VRB,,6,,,,,,,,,,,,,,,,,,,,,,,,,,,,,,,,,,,,,MET10602/09/20 10:26:02 SPECI KATL 091526Z VRB05KT 2SM BR BKN005 03/02 A3049 RMK AO2 SFC VIS 5 T00330022 $ (JRN),FM-16,7,,,,,,,,,,,,,,,,,,,,,,,,,,,3/27/2007
72219013874,2020-02-09T10:50:00,FM-16,6,,,,,,,,,,,,,,,,,,,,,,,,,,,,,,,,,,,,,,,30.49,36,39,,,,,87,,SCT:04 7,29.38,2,38,90,,7,,,,,,,,,,,,,,,,,,,,,,,,,,,,,,,,,,,,,MET09802/09/20 10:50:02 SPECI KATL 091550Z 09006KT 2SM SCT007 04/02 A3049 RMK AO2 SFC VIS 7 $ FIBI (JRN),FM-16,6,,,,,,,,,,,,,,,,,,,,,,,,,,,3/27/2007
72219013874,2020-02-09T10:52:00,FM-15,7,,,,,,,,,,,,,,,,,,,,,,,,,,,,,,,,,,,,,,,30.49,35,39,0,,,,86,30.52,SCT:04 7,29.38,7,37,90,,8,,,,,,,,,,,,,,,,,,,,,,,,,,,,,,,,,,,,,MET10002/09/20 10:52:02 METAR KATL 091552Z 09007KT 7SM SCT007 04/02 A3049 RMK AO2 SLP334 T00390017 $ (JRN),FM-15,7,,,,,,,,,,,,,,,,,,,,,,,,,,,3/27/2007
72219013874,2020-02-09T11:52:00,FM-15,7,,,,,,,,,,,,,,,,,,,,,,,,,,,,,,,,,,,,,,,30.49,36,45,0,,,,71,30.5,FEW:02 14 SCT:04 250,29.38,10,41,130,,7,,,,,,,,,,,,,,,,,,,,,,,,,,,,,,,,,,,,,MET10802/09/20 11:52:02 METAR KATL 091652Z 13006KT 10SM FEW014 SCT250 07/02 A3049 RMK AO2 SLP330 T00720022 $ (JRN),FM-15,7,,,,,,,,,,,,,,,,,,,,,,,,,,,3/27/2007
72219013874,2020-02-09T12:52:00,FM-15,7,,,,,,,,,,,,,,,,,,,,,,,,,,,,,,,,,,,,,,,30.46,37,50,0,,0.01,8,61,30.48,BKN:07 250,29.35,10,44,120,,10,,,,,,,,,,,,,,,,,,,,,,,,,,,,,,,,,,,,,MET11902/09/20 12:52:02 METAR KATL 091752Z 12009KT 10SM BKN250 10/03 A3046 RMK AO2 SLP321 T01000028 10100 20011 58005 $ (JRN),FM-15,7,,,,,,,,,,,,,,,,,,,,,,,,,,,3/27/2007
72219013874,2020-02-09T13:00:00,FM-12,4,,,,,,,,,,,,,,,,,,,,,,,,,,,,,,,,,,,,,,,,37,50,,,0.01,8,61,30.48,,29.34,9.94,44,120,,10,,,,,,,,,,,,,,,,,,,,,,,,,,,,,,,,,,,,,SYN08072219 32966 61209 10100 20028 39936 40321 58005 91752 333 10100 20011 555 90918=,FM-12,4,,,,,,,,,,,,,,,,,,,,,,,,,,,3/27/2007
72219013874,2020-02-09T13:52:00,FM-15,7,,,,,,,,,,,,,,,,,,,,,,,,,,,,,,,,,,,,,,,30.41,36,53,0,,,,52,30.42,BKN:07 250,29.3,10,45,150,,10,,,,,,,,,,,,,,,,,,,,,,,,,,,,,,,,,,,,,MET10102/09/20 13:52:02 METAR KATL 091852Z 15009KT 10SM BKN250 12/02 A3041 RMK AO2 SLP303 T01170022 $ (JRN),FM-15,7,,,,,,,,,,,,,,,,,,,,,,,,,,,3/27/2007
72219013874,2020-02-09T14:52:00,FM-15,7,,,,,,,,,,,,,,,,,,,,,,,,,,,,,,,,,,,,,,,30.39,36,54,0,,,,51,30.4,BKN:07 250,29.28,10,46,130,,11,,,,,,,,,,,,,,,,,,,,,,,,,,,,,,,,,,,,,MET10102/09/20 14:52:02 METAR KATL 091952Z 13010KT 10SM BKN250 12/02 A3039 RMK AO2 SLP295 T01220022 $ (JRN),FM-15,7,,,,,,,,,,,,,,,,,,,,,,,,,,,3/27/2007
72219013874,2020-02-09T15:52:00,FM-15,7,,,,,,,,,,,,,,,,,,,,,,,,,,,,,,,,,,,,,,,30.38,36,56,0,,0.08,6,47,30.39,BKN:07 250,29.27,10,47,150,,11,,,,,,,,,,,,,,,,,,,,,,,,,,,,,,,,,,,,,MET10702/09/20 15:52:02 METAR KATL 092052Z 15010KT 10SM BKN250 13/02 A3038 RMK AO2 SLP292 T01330022 56027 $ (JRN),FM-15,7,,,,,,,,,,,,,,,,,,,,,,,,,,,3/27/2007
72219013874,2020-02-09T16:52:00,FM-15,7,,,,,,,,,,,,,,,,,,,,,,,,,,,,,,,,,,,,,,,30.37,34,55,0,,,,45,30.38,BKN:07 250,29.26,10,45,140,,9,,,,,,,,,,,,,,,,,,,,,,,,,,,,,,,,,,,,,MET10102/09/20 16:52:02 METAR KATL 092152Z 14008KT 10SM BKN250 13/01 A3037 RMK AO2 SLP289 T01280011 $ (JRN),FM-15,7,,,,,,,,,,,,,,,,,,,,,,,,,,,3/27/2007
72219013874,2020-02-09T17:52:00,FM-15,7,,,,,,,,,,,,,,,,,,,,,,,,,,,,,,,,,,,,,,,30.38,35,53,0,,,,51,30.39,SCT:04 200 BKN:07 250,29.27,10,45,120,,5,,,,,,,,,,,,,,,,,,,,,,,,,,,,,,,,,,,,,MET10802/09/20 17:52:02 METAR KATL 092252Z 12004KT 10SM SCT200 BKN250 12/02 A3038 RMK AO2 SLP292 T01170017 $ (KAF),FM-15,7,,,,,,,,,,,,,,,,,,,,,,,,,,,3/27/2007
72219013874,2020-02-09T18:52:00,FM-15,7,,,,,,,,,,,,,,,,,,,,,,,,,,,,,,,,,,,,,,,30.39,36,51,0,,-0.01,3,56,30.4,BKN:07 200 BKN:07 250,29.28,10,44,110,,7,,,,,,,,,,,,,,,,,,,,,,,,,,,,,,,,,,,,,MET12602/09/20 18:52:02 METAR KATL 092352Z 11006KT 10SM BKN200 BKN250 11/02 A3039 RMK AO2 SLP296 T01060022 10133 20100 53002 $ (KAF),FM-15,7,,,,,,,,,,,,,,,,,,,,,,,,,,,3/27/2007
72219013874,2020-02-09T19:00:00,FM-12,4,,,,,,,,,,,,,,,,,,,,,,,,,,,,,,,,,,,,,,,,36,51,,,-0.01,3,56,30.4,,29.27,9.94,44,110,,7,,,,,,,,,,,,,,,,,,,,,,,,,,,,,,,,,,,,,SYN08072219 32966 61106 10106 20022 39913 40296 53002 92352 333 10133 20011 555 91000=,FM-12,4,,,,,,,,,,,,,,,,,,,,,,,,,,,3/27/2007
72219013874,2020-02-09T19:52:00,FM-15,7,,,,,,,,,,,,,,,,,,,,,,,,,,,,,,,,,,,,,,,30.39,36,50,0,,,,59,30.41,BKN:07 200 BKN:07 250,29.28,10,44,100,,8,,,,,,,,,,,,,,,,,,,,,,,,,,,,,,,,,,,,,MET10202/09/20 19:52:01 METAR KATL 100052Z 10007KT 10SM BKN200 BKN250 10/02 A3039 RMK AO2 SLP297 T01000022 $,FM-15,7,,,,,,,,,,,,,,,,,,,,,,,,,,,3/27/2007
72219013874,2020-02-09T20:52:00,FM-15,7,,,,,,,,,,,,,,,,,,,,,,,,,,,,,,,,,,,,,,,30.39,36,48,0,,,,63,30.41,BKN:07 200 BKN:07 250,29.28,10,43,100,,10,,,,,,,,,,,,,,,,,,,,,,,,,,,,,,,,,,,,,MET10202/09/20 20:52:01 METAR KATL 100152Z 10009KT 10SM BKN200 BKN250 09/02 A3039 RMK AO2 SLP299 T00890022 $,FM-15,7,,,,,,,,,,,,,,,,,,,,,,,,,,,3/27/2007
72219013874,2020-02-09T21:52:00,FM-15,7,,,,,,,,,,,,,,,,,,,,,,,,,,,,,,,,,,,,,,,30.39,37,45,0,,0,0,74,30.41,BKN:07 200 BKN:07 250,29.28,10,41,100,,7,,,,,,,,,,,,,,,,,,,,,,,,,,,,,,,,,,,,,MET10802/09/20 21:52:01 METAR KATL 100252Z 10006KT 10SM BKN200 BKN250 07/03 A3039 RMK AO2 SLP298 T00720028 50001 $,FM-15,7,,,,,,,,,,,,,,,,,,,,,,,,,,,3/27/2007
72219013874,2020-02-09T22:52:00,FM-15,7,,,,,,,,,,,,,,,,,,,,,,,,,,,,,,,,,,,,,,,30.37,37,43,0,,,,80,30.39,BKN:07 200 BKN:07 250,29.26,10,40,100,,11,,,,,,,,,,,,,,,,,,,,,,,,,,,,,,,,,,,,,MET10202/09/20 22:52:01 METAR KATL 100352Z 10010KT 10SM BKN200 BKN250 06/03 A3037 RMK AO2 SLP291 T00610028 $,FM-15,7,,,,,,,,,,,,,,,,,,,,,,,,,,,3/27/2007
72219013874,2020-02-09T23:52:00,FM-15,7,,,,,,,,,,,,,,,,,,,,,,,,,,,,,,,,,,,,,,,30.37,36,42,0,,,,79,30.38,BKN:07 200 OVC:08 250,29.26,10,39,100,,7,,,,,,,,,,,,,,,,,,,,,,,,,,,,,,,,,,,,,MET11202/09/20 23:52:02 METAR KATL 100452Z 10006KT 10SM BKN200 OVC250 06/02 A3037 RMK AO2 SLP289 T00560022 401330011 $,FM-15,7,,,,,,,,,,,,,,,,,,,,,,,,,,,3/27/2007
72219013874,2020-02-09T23:59:00,SOD  ,6,,,,,,,,,,,,,,,,,35,45,75,30.43,29.31,39,7,0,-0.9,20,56,34,130,21,0,0,0,140,15,FG BR,,,,,,,,,,,,,,,,,,,,,,,,,,,,,,,,,,,,,,,,,,,,,,,,,,,,,,,SOD75724 HR PRECIPITATION (IN): 0.00 SNOW DEPTH (IN):0     24 HR SNOWFALL (IN):0.0  WEATHER(CODE):12  24 HR MAX TEMP (F): 5624 HR MIN TEMP (F): 34AVERAGE STATION PRESSURE:29.305 MINIMUM SEA LEVEL PRESSURE:30.38 TIME OF OCCURRENCE:2359 PEAK WIND SPEED (MPH): 21 PEAK WIND DIR (DEG):130 PEAK WIND TIME (LST):      FASTEST 2MIN SPEED (MPH): 15FASTEST 2MIN DIR (DEG):140 FASTEST 2MIN TIME (LST):     AVERAGE WIND SPEED (MPH): 7.0 24 HR AVG TEMP (F): 45DEPART FROM NORMAL: -1  HEATING DEGREE DAYS: 20 COOLING DEGREE DAYS:  0 LATEST DAY MAX TEMP (0700-1900 LST):56  LATEST NIGHT MIN TEMP(1900-0800 LST):34 HOURLY INCREMENTAL PRECIPITATION VALUES (IN):.00 0.00 0.00 0.00 0.00 0.00 0.00 0.00 0.00 0.00 0.00 0.00 0.00 0.00 0.00 0.00 0.00 0.00 0.00 0.00 0.00 0.00 0.00 0.00,SOD  ,6,,,,,,,,,,,,,,,,,,,,,,,,,728,1817,3/27/2007
72219013874,2020-02-10T00:52:00,FM-15,7,,,,,,,,,,,,,,,,,,,,,,,,,,,,,,,,,,,,,,,30.35,36,40,0,,0.04,6,86,30.37,BKN:07 200 OVC:08 250,29.24,7,38,90,,8,,,,,,,,,,,,,,,,,,,,,,,,,,,,,,,,,,,,,MET12502/10/20 00:52:02 METAR KATL 100552Z 09007KT 7SM BKN200 OVC250 04/02 A3035 RMK AO2 SLP283 T00440022 10106 20044 56013 $ (KAF),FM-15,7,,,,,,,,,,,,,,,,,,,,,,,,,,,3/27/2007
72219013874,2020-02-10T01:00:00,FM-12,4,,,,,,,,,,,,,,,,,,,,,,,,,,,,,,,,,,,,,,,,36,40,,,0.04,6,86,30.37,,29.23,6.84,38,90,,8,,,,,,,,,,,,,,,,,,,,,,,,,,,,,,,,,,,,,SYN08072219 32961 80907 10044 20022 39900 40283 56013 90552 333 10106 20011 555 91006=,FM-12,4,,,,,,,,,,,,,,,,,,,,,,,,,,,3/27/2007
72219013874,2020-02-10T01:52:00,FM-15,7,,,,,,,,,,,,,,,,,,,,,,,,,,,,,,,,,,,,,,,30.34,35,40,0,,,,83,30.35,SCT:04 110 SCT:04 150 BKN:07 200,29.23,9,38,100,,8,,,,,,,,,,,,,,,,,,,,,,,,,,,,,,,,,,,,,MET11302/10/20 01:52:02 METAR KATL 100652Z 10007KT 9SM SCT110 SCT150 BKN200 04/02 A3034 RMK AO2 SLP277 T00440017 $ (DB),FM-15,7,,,,,,,,,,,,,,,,,,,,,,,,,,,3/27/2007
72219013874,2020-02-10T02:52:00,FM-15,7,,,,,,,,,,,,,,,,,,,,,,,,,,,,,,,,,,,,,,,30.3,35,39,0,,,,86,30.31,FEW:02 110 SCT:04 200 SCT:04 250,29.19,9,37,90,,9,,,,,,,,,,,,,,,,,,,,,,,,,,,,,,,,,,,,,MET11302/10/20 02:52:02 METAR KATL 100752Z 09008KT 9SM FEW110 SCT200 SCT250 04/02 A3030 RMK AO2 SLP265 T00390017 $ (DB),FM-15,7,,,,,,,,,,,,,,,,,,,,,,,,,,,3/27/2007
72219013874,2020-02-10T03:52:00,FM-15,7,,,,,,,,,,,,,,,,,,,,,,,,,,,,,,,,,,,,,,,30.29,35,39,0,,0.06,6,86,30.3,FEW:02 120 BKN:07 200 BKN:07 250,29.18,9,37,110,,6,,,,,,,,,,,,,,,,,,,,,,,,,,,,,,,,,,,,,MET11902/10/20 03:52:02 METAR KATL 100852Z 11005KT 9SM FEW120 BKN200 BKN250 04/02 A3029 RMK AO2 SLP261 T00390017 56019 $ (DB),FM-15,7,,,,,,,,,,,,,,,,,,,,,,,,,,,3/27/2007
72219013874,2020-02-10T04:52:00,FM-15,7,,,,,,,,,,,,,,,,,,,,,,,,,,,,,,,,,,,,,,,30.27,35,39,0,,,,86,30.27,SCT:04 10 BKN:07 100 BKN:07 150,29.16,8,37,90,,9,,,,,,,,,,,,,,,,,,,,,,,,,,,,,,,,,,,,,MET11302/10/20 04:52:02 METAR KATL 100952Z 09008KT 8SM SCT010 BKN100 BKN150 04/02 A3027 RMK AO2 SLP252 T00390017 $ (DB),FM-15,7,,,,,,,,,,,,,,,,,,,,,,,,,,,3/27/2007
72219013874,2020-02-10T05:09:00,FM-16,7,,,,,,,,,,,,,,,,,,,,,,,,,,,,,,,,,,,,,,,30.27,35,39,,,,,86,,BKN:07 10 BKN:07 100 BKN:07 150,29.16,8,37,80,,8,,,,,,,,,,,,,,,,,,,,,,,,,,,,,,,,,,,,,MET11902/10/20 05:09:02 SPECI KATL 101009Z 08007KT 8SM BKN010 BKN100 BKN150 04/02 A3027 RMK AO2 BKN010 V SCT T00390017 $ (DB),FM-16,7,,,,,,,,,,,,,,,,,,,,,,,,,,,3/27/2007
72219013874,2020-02-10T05:52:00,FM-15,7,,,,,,,,,,,,,,,,,,,,,,,,,,,,,,,,,,,,,,,30.3,36,41,0,,,,82,30.31,BKN:07 13 OVC:08 90,29.19,8,39,10,,10,,,,,,,,,,,,,,,,,,,,,,,,,,,,,,,,,,,,,MET10402/10/20 05:52:02 METAR KATL 101052Z 01009KT 8SM BKN013 OVC090 05/02 A3030 RMK AO2 SLP264 T00500022 (DB),FM-15,7,,,,,,,,,,,,,,,,,,,,,,,,,,,3/27/2007
72219013874,2020-02-10T06:42:00,FM-16,7,,,,,,,,,,,,,,,,,,,,,,,,,,,,,,,,,,,,,,,30.28,36,42,,,,,79,,SCT:04 13 SCT:04 44 SCT:04 130,29.18,10,39,60,,13,,,,,,,,,,,,,,,,,,,,,,,,,,,,,,,,,,,,,MET10502/10/20 06:42:02 SPECI KATL 101142Z 06011KT 10SM SCT013 SCT044 SCT130 06/02 A3028 RMK AO2 T00560022 (DB),FM-16,7,,,,,,,,,,,,,,,,,,,,,,,,,,,3/27/2007
72219013874,2020-02-10T06:52:00,FM-15,7,,,,,,,,,,,,,,,,,,,,,,,,,,,,,,,,,,,,,,,30.28,36,41,0,,0.01,6,82,30.29,FEW:02 13 SCT:04 44 SCT:04 95,29.18,10,39,50,,7,,,,,,,,,,,,,,,,,,,,,,,,,,,,,,,,,,,,,MET13002/10/20 06:52:02 METAR KATL 101152Z 05006KT 10SM FEW013 SCT044 SCT095 05/02 A3028 RMK AO2 SLP259 T00500022 10061 20039 56003 (DB),FM-15,7,,,,,,,,,,,,,,,,,,,,,,,,,,,3/27/2007
72219013874,2020-02-10T07:00:00,FM-12,4,,,,,,,,,,,,,,,,,,,,,,,,,,,,,,,,,,,,,,,,36,41,,,0.01,6,82,30.29,15,29.17,9.94,39,50,,7,,,,,,,,,,,,,,,,,,,,,,,,,,,,,,,,,,,,,SYN08072219 32466 60506 10050 20022 39877 40259 56003 91152 333 10133 20039 555 91012=,FM-12,4,,,,,,,,,,,,,,,,,,,,,,,,,,,3/27/2007
72219013874,2020-02-10T07:52:00,FM-15,7,,,,,,,,,,,,,,,,,,,,,,,,,,,,,,,,,,,,,,,30.28,36,42,0,,,,79,30.29,FEW:02 13 BKN:07 43 OVC:08 100,29.18,10,39,90,,9,,,,,,,,,,,,,,,,,,,,,,,,,,,,,,,,,,,,,MET11202/10/20 07:52:02 METAR KATL 101252Z 09008KT 10SM FEW013 BKN043 OVC100 06/02 A3028 RMK AO2 SLP259 T00560022 (DB),FM-15,7,,,,,,,,,,,,,,,,,,,,,,,,,,,3/27/2007
72219013874,2020-02-10T08:52:00,FM-15,7,,,,,,,,,,,,,,,,,,,,,,,,,,,,,,,,,,,,,,,30.28,37,44,0,,,,76,30.29,FEW:02 13 SCT:04 40 BKN:07 100,29.18,8,41,110,,9,,,,,,,,,,,,,,,,,,,,,,,,,,,,,,,,,,,,,MET11102/10/20 08:52:02 METAR KATL 101352Z 11008KT 8SM FEW013 SCT040 BKN100 07/03 A3028 RMK AO2 SLP257 T00670028 (DB),FM-15,7,,,,,,,,,,,,,,,,,,,,,,,,,,,3/27/2007
72219013874,2020-02-10T09:52:00,FM-15,7,,,,,,,,,,,,,,,,,,,,,,,,,,,,,,,,,,,,,,,30.26,40,46,0,,0.02,8,79,30.27,FEW:02 15 SCT:04 40 BKN:07 120,29.15,10,43,120,,6,,,,,,,,,,,,,,,,,,,,,,,,,,,,,,,,,,,,,MET11902/10/20 09:52:02 METAR KATL 101452Z 12005KT 10SM FEW015 SCT040 BKN120 08/04 A3026 RMK AO2 SLP251 T00780044 58008 (CPS),FM-15,7,,,,,,,,,,,,,,,,,,,,,,,,,,,3/27/2007
72219013874,2020-02-10T10:52:00,FM-15,7,,,,,,,,,,,,,,,,,,,,,,,,,,,,,,,,,,,,,,,30.27,41,47,0,,,,80,30.28,FEW:02 15 BKN:07 35 OVC:08 110,29.16,10,44,130,,5,,,,,,,,,,,,,,,,,,,,,,,,,,,,,,,,,,,,,MET11302/10/20 10:52:02 METAR KATL 101552Z 13004KT 10SM FEW015 BKN035 OVC110 08/05 A3027 RMK AO2 SLP253 T00830050 (CPS),FM-15,7,,,,,,,,,,,,,,,,,,,,,,,,,,,3/27/2007
72219013874,2020-02-10T11:52:00,FM-15,7,,,,,,,,,,,,,,,,,,,,,,,,,,,,,,,,,,,,,,,30.27,43,49,0.02,-RA:02 |RA |RA,,,80,30.28,FEW:02 15 BKN:07 27 OVC:08 40,29.16,7,46,80,,5,,,,,,,,,,,,,,,,,,,,,,,,,,,,,,,,,,,,,MET12802/10/20 11:52:02 METAR KATL 101652Z 08004KT 7SM -RA FEW015 BKN027 OVC040 09/06 A3027 RMK AO2 RAB32 SLP253 P0000 T00940061 (CPS),FM-15,7,,,,,,,,,,,,,,,,,,,,,,,,,,,3/27/2007
72219013874,2020-02-10T12:52:00,FM-15,7,,,,,,,,,,,,,,,,,,,,,,,,,,,,,,,,,,,,,,,30.23,44,48,0.03,-RA:02 |RA |RA,0.03,8,86,30.24,FEW:02 10 SCT:04 24 OVC:08 65,29.13,7,46,80,,8,,,,,,,,,,,,,,,,,,,,,,,,,,,,,,,,,,,,,MET15302/10/20 12:52:02 METAR KATL 101752Z 08007KT 7SM -RA FEW010 SCT024 OVC065 09/07 A3023 RMK AO2 SLP242 SCT024 V BKN P0005 60005 T00890067 10094 20050 58010,FM-15,7,,,,,,,,,,,,,,,,,,,,,,,,,,,3/27/2007
72219013874,2020-02-10T13:00:00,FM-12,4,,,,,,,,,,,,,,,,,,,,,,,,,,,,,,,,,,,,,,,,44,48,,||RA,0.03,8,86,30.24,15,29.12,6.84,46,80,,8,,,,,,,,,,,,,,,,,,,,,,,,,,,,,,,,,,,,,SYN09272219 11461 80807 10089 20067 39861 40242 58010 60011 761// 91752 333 10094 20050 555 91018=,FM-12,4,,,,,,,,,,,,,,,,,,,,,,,,,,,3/27/2007
72219013874,2020-02-10T13:52:00,FM-15,7,,,,,,,,,,,,,,,,,,,,,,,,,,,,,,,,,,,,,,,30.19,46,49,0.01,-RA:02 |RA |RA,,,90,30.2,SCT:04 6 BKN:07 32 OVC:08 90,29.09,7,48,100,,5,,,,,,,,,,,,,,,,,,,,,,,,,,,,,,,,,,,,,MET12702/10/20 13:52:02 METAR KATL 101852Z 10004KT 7SM -RA SCT006 BKN032 OVC090 09/08 A3019 RMK AO2 RAE1756B30 SLP228 P0001 T00940078,FM-15,7,,,,,,,,,,,,,,,,,,,,,,,,,,,3/27/2007
72219013874,2020-02-10T14:52:00,FM-15,7,,,,,,,,,,,,,,,,,,,,,,,,,,,,,,,,,,,,,,,30.15,46,50,T,-RA:02 |RA |RA,,,86,30.16,SCT:04 6 BKN:07 35 OVC:08 95,29.05,7,48,110,,7,,,,,,,,,,,,,,,,,,,,,,,,,,,,,,,,,,,,,MET12502/10/20 14:52:02 METAR KATL 101952Z 11006KT 7SM -RA SCT006 BKN035 OVC095 10/08 A3015 RMK AO2 RAE12B39 SLP213 P0000 T01000078,FM-15,7,,,,,,,,,,,,,,,,,,,,,,,,,,,3/27/2007
72219013874,2020-02-10T15:17:00,FM-16,7,,,,,,,,,,,,,,,,,,,,,,,,,,,,,,,,,,,,,,,30.15,47,50,T,-RA:02 |RA |RA,,,89,,SCT:04 5 BKN:07 29 OVC:08 90,29.05,8,48,110,,7,,,,,,,,,,,,,,,,,,,,,,,,,,,,,,,,,,,,,MET10902/10/20 15:17:02 SPECI KATL 102017Z 11006KT 8SM -RA SCT005 BKN029 OVC090 10/08 A3015 RMK AO2 P0000 T01000083,FM-16,7,,,,,,,,,,,,,,,,,,,,,,,,,,,3/27/2007
72219013874,2020-02-10T15:41:00,FM-16,7,,,,,,,,,,,,,,,,,,,,,,,,,,,,,,,,,,,,,,,30.14,47,50,0.01,-RA:02 BR:1 |RA |RA,,,89,,SCT:04 5 BKN:07 27 OVC:08 70,29.04,3,48,100,,6,,,,,,,,,,,,,,,,,,,,,,,,,,,,,,,,,,,,,MET13502/10/20 15:41:02 SPECI KATL 102041Z 10005KT 3SM -RA BR SCT005 BKN027 OVC070 10/08 A3014 RMK AO2 SFC VIS 5 SCT005 V BKN P0001 T01000083,FM-16,7,,,,,,,,,,,,,,,,,,,,,,,,,,,3/27/2007
72219013874,2020-02-10T15:52:00,FM-15,7,,,,,,,,,,,,,,,,,,,,,,,,,,,,,,,,,,,,,,,30.14,47,50,0.06s,RA:02 BR:1 |RA |RA,0.09,6,89,30.15,SCT:04 4 BKN:07 24 OVC:08 65,29.04,3,48,110,,6,,,,,,,,,,,,,,,,,,,,,,,,,,,,,,,,,,,,,MET14302/10/20 15:52:02 METAR KATL 102052Z 11005KT 3SM RA BR SCT004 BKN024 OVC065 10/08 A3014 RMK AO2 SLP210 SCT004 V BKN P0004 60005 T01000083 56030,FM-15,7,,,,,,,,,,,,,,,,,,,,,,,,,,,3/27/2007
72219013874,2020-02-10T16:06:00,FM-16,7,,,,,,,,,,,,,,,,,,,,,,,,,,,,,,,,,,,,,,,30.14,47,50,0.04,-RA:02 BR:1 |RA |RA,,,89,,SCT:04 5 OVC:08 24,29.04,2,48,110,,3,,,,,,,,,,,,,,,,,,,,,,,,,,,,,,,,,,,,,MET15002/10/20 16:06:02 SPECI KATL 102106Z 11003KT 2SM R09R/5000VP6000FT -RA BR SCT005 OVC024 10/08 A3014 RMK AO2 SFC VIS 2 1/2 SCT005 V BKN P0004 T01000083,FM-16,7,,,,,,,,,,,,,,,,,,,,,,,,,,,3/27/2007
72219013874,2020-02-10T16:52:00,FM-15,7,,,,,,,,,,,,,,,,,,,,,,,,,,,,,,,,,,,,,,,30.11,47,50,0.28,RA:02 BR:1 |RA |RA,,,89,30.12,SCT:04 5 BKN:07 28 OVC:08 75,29.01,2,48,100,,8,,,,,,,,,,,,,,,,,,,,,,,,,,,,,,,,,,,,,MET14102/10/20 16:52:02 METAR KATL 102152Z 10007KT 2SM RA BR SCT005 BKN028 OVC075 10/08 A3011 RMK AO2 SFC VIS 3 SLP201 SCT005 V BKN P0028 T01000083,FM-15,7,,,,,,,,,,,,,,,,,,,,,,,,,,,3/27/2007
72219013874,2020-02-10T17:32:00,FM-16,7,,,,,,,,,,,,,,,,,,,,,,,,,,,,,,,,,,,,,,,30.12,48,50,0.14,RA:02 BR:1 |RA |RA,,,93,,SCT:04 5 BKN:07 28 OVC:08 70,29.02,2,49,130,,7,,,,,,,,,,,,,,,,,,,,,,,,,,,,,,,,,,,,,MET12102/10/20 17:32:02 SPECI KATL 102232Z 13006KT 2SM RA BR SCT005 BKN028 OVC070 10/09 A3012 RMK AO2 SFC VIS 3 P0014 T01000089,FM-16,7,,,,,,,,,,,,,,,,,,,,,,,,,,,3/27/2007
72219013874,2020-02-10T17:50:00,FM-16,6,,,,,,,,,,,,,,,,,,,,,,,,,,,,,,,,,,,,,,,30.11,48,50,,RA:02 BR:1 |RA |RA,,,94,,FEW:02 4 BKN:07 45 OVC:08 70,29.01,2,49,120,,9,,,,,,,,,,,,,,,,,,,,,,,,,,,,,,,,,,,,,MET11102/10/20 17:50:02 SPECI KATL 102250Z 12008KT 2SM RA BR FEW004 BKN045 OVC070 10/09 A3011 RMK AO2 P0023 FIBI (RF),FM-16,6,,,,,,,,,,,,,,,,,,,,,,,,,,,3/27/2007
72219013874,2020-02-10T17:52:00,FM-15,7,,,,,,,,,,,,,,,,,,,,,,,,,,,,,,,,,,,,,,,30.11,48,51,0.25,RA:02 BR:1 |RA |RA,,,89,30.12,FEW:02 4 BKN:07 45 OVC:08 70,29.01,2,49,110,,9,,,,,,,,,,,,,,,,,,,,,,,,,,,,,,,,,,,,,MET11802/10/20 17:52:02 METAR KATL 102252Z 11008KT 2SM RA BR FEW004 BKN045 OVC070 11/09 A3011 RMK AO2 SLP199 P0024 T01060089,FM-15,7,,,,,,,,,,,,,,,,,,,,,,,,,,,3/27/2007
72219013874,2020-02-10T18:52:00,FM-15,7,,,,,,,,,,,,,,,,,,,,,,,,,,,,,,,,,,,,,,,30.1,49,52,0.28,RA:02 BR:1 |RA |RA,0.04,6,89,30.11,FEW:02 4 BKN:07 24 OVC:08 40,29,2,50,110,,8,,,,,,,,,,,,,,,,,,,,,,,,,,,,,,,,,,,,,MET14202/10/20 18:52:02 METAR KATL 102352Z 11007KT 2SM RA BR FEW004 BKN024 OVC040 11/09 A3010 RMK AO2 SLP196 P0026 60083 T01110094 10111 20089 56012,FM-15,7,,,,,,,,,,,,,,,,,,,,,,,,,,,3/27/2007
72219013874,2020-02-10T19:00:00,FM-12,4,,,,,,,,,,,,,,,,,,,,,,,,,,,,,,,,,,,,,,,,49,52,,||RA,0.04,6,89,30.11,5,28.99,1.99,50,110,,8,,,,,,,,,,,,,,,,,,,,,,,,,,,,,,,,,,,,,SYN09872219 11232 81107 10111 20094 39818 40196 56012 60211 763// 92352 333 10111 20039 96010 555 91100=,FM-12,4,,,,,,,,,,,,,,,,,,,,,,,,,,,3/27/2007
72219013874,2020-02-10T19:49:00,FM-16,7,,,,,,,,,,,,,,,,,,,,,,,,,,,,,,,,,,,,,,,30.14,52,54,0.46,-RA:02 BR:1 |RA |RA,,,94,,FEW:02 4 BKN:07 20 OVC:08 40,29.04,6,53,30,,8,,,,,,,,,,,,,,,,,,,,,,,,,,,,,,,,,,,,,MET10202/10/20 19:49:01 SPECI KATL 110049Z 03007KT 6SM -RA BR FEW004 BKN020 OVC040 12/11 A3014 RMK AO2 P0046,FM-16,7,,,,,,,,,,,,,,,,,,,,,,,,,,,3/27/2007
72219013874,2020-02-10T19:52:00,FM-15,7,,,,,,,,,,,,,,,,,,,,,,,,,,,,,,,,,,,,,,,30.14,51,54,0.41,-RA:02 |RA |RA,,,90,30.15,FEW:02 4 BKN:07 20 OVC:08 40,29.04,7,52,60,,7,,,,,,,,,,,,,,,,,,,,,,,,,,,,,,,,,,,,,MET11602/10/20 19:52:01 METAR KATL 110052Z 06006KT 7SM -RA FEW004 BKN020 OVC040 12/11 A3014 RMK AO2 SLP209 P0046 T01220106,FM-15,7,,,,,,,,,,,,,,,,,,,,,,,,,,,3/27/2007
72219013874,2020-02-10T20:33:00,FM-16,7,,,,,,,,,,,,,,,,,,,,,,,,,,,,,,,,,,,,,,,30.14,51,54,0.05,-RA:02 |RA |RA,,,90,,FEW:02 4 SCT:04 20 OVC:08 90,29.04,7,52,80,,7,,,,,,,,,,,,,,,,,,,,,,,,,,,,,,,,,,,,,MET10902/10/20 20:33:01 SPECI KATL 110133Z 08006KT 7SM -RA FEW004 SCT020 OVC090 12/11 A3014 RMK AO2 P0005 T01220106,FM-16,7,,,,,,,,,,,,,,,,,,,,,,,,,,,3/27/2007
72219013874,2020-02-10T20:52:00,FM-15,7,,,,,,,,,,,,,,,,,,,,,,,,,,,,,,,,,,,,,,,30.14,51,54,0.06,|RA |RA,,,90,30.14,FEW:02 4 SCT:04 50 BKN:07 90,29.04,8,52,90,,7,,,,,,,,,,,,,,,,,,,,,,,,,,,,,,,,,,,,,MET11602/10/20 20:52:01 METAR KATL 110152Z 09006KT 8SM -RA FEW004 SCT050 BKN090 12/11 A3014 RMK AO2 SLP208 P0006 T01220106,FM-15,7,,,,,,,,,,,,,,,,,,,,,,,,,,,3/27/2007
72219013874,2020-02-10T21:52:00,FM-15,7,,,,,,,,,,,,,,,,,,,,,,,,,,,,,,,,,,,,,,,30.11,51,54,0.02,-RA:02 |RA |RA,-0.01,0,90,30.12,FEW:02 4 BKN:07 90 OVC:08 150,29.01,8,52,100,,7,,,,,,,,,,,,,,,,,,,,,,,,,,,,,,,,,,,,,MET12802/10/20 21:52:01 METAR KATL 110252Z 10006KT 8SM -RA FEW004 BKN090 OVC150 12/11 A3011 RMK AO2 SLP199 P0002 60054 T01220106 50003,FM-15,7,,,,,,,,,,,,,,,,,,,,,,,,,,,3/27/2007
72219013874,2020-02-10T22:52:00,FM-15,7,,,,,,,,,,,,,,,,,,,,,,,,,,,,,,,,,,,,,,,30.11,52,54,0.03,-RA:02 BR:1 |RA |RA,,,93,30.11,BKN:07 4 BKN:07 75 OVC:08 120,29.01,1.5,53,110,,7,,,,,,,,,,,,,,,,,,,,,,,,,,,,,,,,,,,,,MET13302/10/20 22:52:01 METAR KATL 110352Z 11006KT 1 1/2SM -RA BR BKN004 BKN075 OVC120 12/11 A3011 RMK AO2 SFC VIS 4 SLP198 P0003 T01220111,FM-15,7,,,,,,,,,,,,,,,,,,,,,,,,,,,3/27/2007
72219013874,2020-02-10T23:21:00,FM-16,7,,,,,,,,,,,,,,,,,,,,,,,,,,,,,,,,,,,,,,,30.11,52,54,0.01,-RA:02 BR:1 |s RA s |RA s,,,93,,BKN:07 3 BKN:07 30 OVC:08 110,29.01,0.5,53,130,,3,,,,,,,,,,,,,,,,,,,,,,,,,,,,,,,,,,,,,MET14402/10/20 23:21:01 SPECI KATL 110421Z 13003KT 1/2SM R09R/P6000FT -RA BR BKN003 BKN030 OVC110 12/11 A3011 RMK AO2 SFC VIS 5 TWRINC P0001 T01220111,FM-16,7,,,,,,,,,,,,,,,,,,,,,,,,,,,3/27/2007
72219013874,2020-02-10T23:52:00,FM-15,7,,,,,,,,,,,,,,,,,,,,,,,,,,,,,,,,,,,,,,,30.09,52,54,0.03,-RA:02 BR:1 |s RA s |RA s,,,93,30.09,BKN:07 3 OVC:08 30,28.99,0.5,53,120,,5,,,,,,,,,,,,,,,,,,,,,,,,,,,,,,,,,,,,,MET15402/10/20 23:52:01 METAR KATL 110452Z 12004KT 1/2SM R09R/P6000FT -RA BR BKN003 OVC030 12/11 A3009 RMK AO2 SFC VIS 4 SLP191 TWRINC P0003 T01220111 401280039,FM-15,7,,,,,,,,,,,,,,,,,,,,,,,,,,,3/27/2007
72219013874,2020-02-10T23:59:00,SOD  ,6,,,,,,,,,,,,,,,,,43,47,86,30.22,29.1,45,7.2,0,0.9,18,55,39,300,26,1.48,0,0,300,23,RA BR,,,,,,,,,,,,,,,,,,,,,,,,,,,,,,,,,,,,,,,,,,,,,,,,,,,,,,,SOD78824 HR PRECIPITATION (IN): 1.48 SNOW DEPTH (IN):0     24 HR SNOWFALL (IN):0.0  WEATHER(CODE):13  24 HR MAX TEMP (F): 5524 HR MIN TEMP (F): 39AVERAGE STATION PRESSURE(D):29.095 MINIMUM SEA LEVEL PRESSURE:30.09 TIME OF OCCURRENCE:2351 PEAK WIND SPEED (MPH): 26 PEAK WIND DIR (DEG):300 PEAK WIND TIME (LST):      FASTEST 2MIN SPEED (MPH): 23FASTEST 2MIN DIR (DEG):300 FASTEST 2MIN TIME (LST):     AVERAGE WIND SPEED (MPH): 7.2 24 HR AVG TEMP (F): 47DEPART FROM NORMAL:  1  SKY COVER SR-SS (TENTHS): 1HEATING DEGREE DAYS: 18 COOLING DEGREE DAYS:  0 LATEST DAY MAX TEMP (0700-1900 LST): 52 LATEST NIGHT MIN TEMP(1900-0800 LST):39 HOURLY INCREMENTAL PRECIPITATION VALUES (IN):0.00 0.00 0.00 0.00 0.00 0.00 0.00 0.00 0.00 0.00 0.00 0.02 0.03 0.01T     0.06 0.28 0.25 0.28 0.41 0.06 0.02 0.03 0.03,SOD  ,6,,,,,,,,,,,,,,,,,,,,,,,,,727,1817,3/27/2007
72219013874,2020-02-11T00:52:00,FM-15,7,,,,,,,,,,,,,,,,,,,,,,,,,,,,,,,,,,,,,,,30.07,52,54,0.05,-RA:02 BR:1 |s RA s |RA s,0.04,8,93,30.07,BKN:07 3 OVC:08 16,28.97,0.5,53,120,,6,,,,,,,,,,,,,,,,,,,,,,,,,,,,,,,,,,,,,MET18502/11/20 00:52:02 METAR KATL 110552Z 12005KT 1/2SM R09R/P6000FT -RA BR BKN003 OVC016 12/11 A3007 RMK AO2 SFC VIS 2 SLP183 CIG 002V004 TWRINC P0004 60064 T01220111 10128 20111 58014 (DB),FM-15,7,,,,,,,,,,,,,,,,,,,,,,,,,,,3/27/2007
72219013874,2020-02-11T01:00:00,FM-12,4,,,,,,,,,,,,,,,,,,,,,,,,,,,,,,,,,,,,,,,,52,54,,||RA,0.04,8,93,30.07,2,28.96,0.5,53,120,,6,,,,,,,,,,,,,,,,,,,,,,,,,,,,,,,,,,,,,SYN09872219 11108 81205 10122 20111 39808 40183 58014 60161 761// 90552 333 10128 20039 96010 555 91106=,FM-12,4,,,,,,,,,,,,,,,,,,,,,,,,,,,3/27/2007
72219013874,2020-02-11T01:37:00,FM-16,7,,,,,,,,,,,,,,,,,,,,,,,,,,,,,,,,,,,,,,,30.07,52,54,0.01,FG:2 |FG |,,,93,,VV:09 2,28.97,0.5,53,130,,5,,,,,,,,,,,,,,,,,,,,,,,,,,,,,,,,,,,,,MET12302/11/20 01:37:02 SPECI KATL 110637Z 13004KT 1/2SM R09R/2800V4000FT FG VV002 12/11 A3007 RMK AO2 RAE31 P0001 T01220111 (DB),FM-16,7,,,,,,,,,,,,,,,,,,,,,,,,,,,3/27/2007
72219013874,2020-02-11T01:52:00,FM-15,7,,,,,,,,,,,,,,,,,,,,,,,,,,,,,,,,,,,,,,,30.05,52,54,0.01,-RA:02 FG:2 |FG RA |RA,,,93,30.05,VV:09 2,28.95,0.5,53,110,,6,,,,,,,,,,,,,,,,,,,,,,,,,,,,,,,,,,,,,MET13702/11/20 01:52:02 METAR KATL 110652Z 11005KT 1/2SM R09R/2200V2400FT -RA FG VV002 12/11 A3005 RMK AO2 RAE31B45 SLP176 P0001 T01220111 (DB),FM-15,7,,,,,,,,,,,,,,,,,,,,,,,,,,,3/27/2007
72219013874,2020-02-11T02:52:00,FM-15,7,,,,,,,,,,,,,,,,,,,,,,,,,,,,,,,,,,,,,,,30.03,52,54,0.01,-RA:02 FG:2 |FG RA |RA,,,93,30.03,VV:09 3,28.93,0.5,53,110,,3,,,,,,,,,,,,,,,,,,,,,,,,,,,,,,,,,,,,,MET13702/11/20 02:52:02 METAR KATL 110752Z 11003KT 1/2SM R09R/2400V2600FT -RA FG VV003 12/11 A3003 RMK AO2 RAE29B49 SLP169 P0002 T01220111 (DB),FM-15,7,,,,,,,,,,,,,,,,,,,,,,,,,,,3/27/2007
72219013874,2020-02-11T03:52:00,FM-15,7,,,,,,,,,,,,,,,,,,,,,,,,,,,,,,,,,,,,,,,30,53,54,0.02,-RA:02 FG:2 |FG RA |RA,0.07,8,97,30,VV:09 2,28.9,0.5,53,150,,3,,,,,,,,,,,,,,,,,,,,,,,,,,,,,,,,,,,,,MET14902/11/20 03:52:02 METAR KATL 110852Z 15003KT 1/2SM R09R/2600V3500FT -RA FG VV002 12/12 A3000 RMK AO2 RAE05B27 SLP159 P0002 60005 T01220117 58023 (DB),FM-15,7,,,,,,,,,,,,,,,,,,,,,,,,,,,3/27/2007
72219013874,2020-02-11T04:36:00,FM-16,7,,,,,,,,,,,,,,,,,,,,,,,,,,,,,,,,,,,,,,,30,58,60,T,-RA:02 BR:1 |s RA s |RA s,,,93,,OVC:08 2,28.9,0.5,59,200,,13,,,,,,,,,,,,,,,,,,,,,,,,,,,,,,,,,,,,,MET14602/11/20 04:36:02 SPECI KATL 110936Z 20011KT 1/2SM R09R/5500VP6000FT -RA BR OVC002 16/14 A3000 RMK AO2 SFC VIS 1 1/4 RAE02B26 P0000 T01560144 (DB),FM-16,7,,,,,,,,,,,,,,,,,,,,,,,,,,,3/27/2007
72219013874,2020-02-11T04:49:00,FM-16,7,,,,,,,,,,,,,,,,,,,,,,,,,,,,,,,,,,,,,,,30,59,61,0.01,BR:1 |s |,,,94,,OVC:08 3,28.9,0.5,60,200,22,15,,,,,,,,,,,,,,,,,,,,,,,,,,,,,,,,,,,,,MET13602/11/20 04:49:02 SPECI KATL 110949Z 20013G19KT 1/2SM R09R/P6000FT BR OVC003 16/15 A3000 RMK AO2 SFC VIS 5 RAE02B26E42 TWRINC P0001 (DB),FM-16,7,,,,,,,,,,,,,,,,,,,,,,,,,,,3/27/2007
72219013874,2020-02-11T04:52:00,FM-15,7,,,,,,,,,,,,,,,,,,,,,,,,,,,,,,,,,,,,,,,30,59,61,0.01,BR:1 |s |,,,93,29.99,OVC:08 3,28.9,0.5,60,210,21,13,,,,,,,,,,,,,,,,,,,,,,,,,,,,,,,,,,,,,MET15302/11/20 04:52:02 METAR KATL 110952Z 21011G18KT 1/2SM R09R/P6000FT BR OVC003 16/15 A3000 RMK AO2 SFC VIS 5 RAE02B26E42 SLP157 TWRINC P0001 T01610150 (DB),FM-15,7,,,,,,,,,,,,,,,,,,,,,,,,,,,3/27/2007
72219013874,2020-02-11T05:23:00,FM-16,7,,,,,,,,,,,,,,,,,,,,,,,,,,,,,,,,,,,,,,,30,61,63,T,-RA:02 |RA |RA,,,93,,OVC:08 5,28.9,3,62,200,,15,,,,,,,,,,,,,,,,,,,,,,,,,,,,,,,,,,,,,MET13502/11/20 05:23:02 SPECI KATL 111023Z 20013KT 3SM -RA OVC005 17/16 A3000 RMK AO2 SFC VIS 8 RAB16 CIG 004V008 TWRINC P0000 T01720161 (DB),FM-16,7,,,,,,,,,,,,,,,,,,,,,,,,,,,3/27/2007
72219013874,2020-02-11T05:52:00,FM-15,7,,,,,,,,,,,,,,,,,,,,,,,,,,,,,,,,,,,,,,,30.01,62,64,0.01,-RA:02 BR:1 |RA |RA,,,93,30,BKN:07 8 OVC:08 14,28.91,6,63,210,,11,,,,,,,,,,,,,,,,,,,,,,,,,,,,,,,,,,,,,MET13502/11/20 05:52:02 METAR KATL 111052Z 21010KT 6SM -RA BR BKN008 OVC014 18/17 A3001 RMK AO2 RAB16 SLP160 CIG 006V010 P0001 T01780167 (DB),FM-15,7,,,,,,,,,,,,,,,,,,,,,,,,,,,3/27/2007
72219013874,2020-02-11T06:21:00,FM-16,7,,,,,,,,,,,,,,,,,,,,,,,,,,,,,,,,,,,,,,,30.01,62,65,T,,,,90,,SCT:04 8 BKN:07 12 OVC:08 23,28.91,8,63,210,23,16,,,,,,,,,,,,,,,,,,,,,,,,,,,,,,,,,,,,,MET11902/11/20 06:21:02 SPECI KATL 111121Z 21014G20KT 8SM SCT008 BKN012 OVC023 18/17 A3001 RMK AO2 RAE21 P0000 T01830167 (DB),FM-16,7,,,,,,,,,,,,,,,,,,,,,,,,,,,3/27/2007
72219013874,2020-02-11T06:52:00,FM-15,7,,,,,,,,,,,,,,,,,,,,,,,,,,,,,,,,,,,,,,,30.01,62,66,0.01,,-0.01,0,87,30,BKN:07 12 BKN:07 23,28.91,8,64,210,26,14,,,,,,,,,,,,,,,,,,,,,,,,,,,,,,,,,,,,,MET14902/11/20 06:52:02 METAR KATL 111152Z 21012G23KT 8SM BKN012 BKN023 19/17 A3001 RMK AO2 RAE21 SLP159 P0001 60008 70160 T01890167 10189 20122 50003 (DB),FM-15,7,,,,,,,,,,,,,,,,,,,,,,,,,,,3/27/2007
72219013874,2020-02-11T07:00:00,FM-12,4,,,,,,,,,,,,,,,,,,,,,,,,,,,,,,,,,,,,,,,,62,66,,,0.01,9,87,30,15,28.9,7.46,64,210,,14,,,,,,,,,,,,,,,,,,,,,,,,,,,,,,,,,,,,,SYN09872219 12462 62112 10189 20167 39788 40159 50003 60021 91152 333 10128 20111 70406 91023 555 91112=,FM-12,4,,,,,,,,,,,,,,,,,,,,,,,,,,,3/27/2007
72219013874,2020-02-11T07:52:00,FM-15,7,,,,,,,,,,,,,,,,,,,,,,,,,,,,,,,,,,,,,,,30.02,62,67,0,,,,84,30.01,BKN:07 12 BKN:07 20 OVC:08 120,28.92,8,64,210,21,14,,,,,,,,,,,,,,,,,,,,,,,,,,,,,,,,,,,,,MET11402/11/20 07:52:02 METAR KATL 111252Z 21012G18KT 8SM BKN012 BKN020 OVC120 19/17 A3002 RMK AO2 SLP162 T01940167 (DB),FM-15,7,,,,,,,,,,,,,,,,,,,,,,,,,,,3/27/2007
72219013874,2020-02-11T08:52:00,FM-15,7,,,,,,,,,,,,,,,,,,,,,,,,,,,,,,,,,,,,,,,30.03,63,67,0,,,,87,30.02,BKN:07 12 OVC:08 34,28.93,10,65,210,25,15,,,,,,,,,,,,,,,,,,,,,,,,,,,,,,,,,,,,,MET10802/11/20 08:52:02 METAR KATL 111352Z 21013G22KT 10SM BKN012 OVC034 19/17 A3003 RMK AO2 SLP166 T01940172 (DB),FM-15,7,,,,,,,,,,,,,,,,,,,,,,,,,,,3/27/2007
72219013874,2020-02-11T09:05:00,FM-16,7,,,,,,,,,,,,,,,,,,,,,,,,,,,,,,,,,,,,,,,30.03,63,67,,,,,87,,BKN:07 16 BKN:07 20 OVC:08 30,28.93,10,65,220,23,17,,,,,,,,,,,,,,,,,,,,,,,,,,,,,,,,,,,,,MET10902/11/20 09:05:02 SPECI KATL 111405Z 22015G20KT 10SM BKN016 BKN020 OVC030 19/17 A3003 RMK AO2 T01940172 (JRN),FM-16,7,,,,,,,,,,,,,,,,,,,,,,,,,,,3/27/2007
72219013874,2020-02-11T09:34:00,FM-16,7,,,,,,,,,,,,,,,,,,,,,,,,,,,,,,,,,,,,,,,30.01,63,67,0.02,-RA:02 BR:1 |RA |RA,,,87,,BKN:07 14 BKN:07 26 OVC:08 100,28.91,5,65,210,31,22,,,,,,,,,,,,,,,,,,,,,,,,,,,,,,,,,,,,,MET14502/11/20 09:34:02 SPECI KATL 111434Z 21019G27KT 5SM -RA BR BKN014 BKN026 OVC100 19/17 A3001 RMK AO2 PK WND 21027/1429 RAB07 P0002 T01940172 (JRN),FM-16,7,,,,,,,,,,,,,,,,,,,,,,,,,,,3/27/2007
72219013874,2020-02-11T09:46:00,FM-16,7,,,,,,,,,,,,,,,,,,,,,,,,,,,,,,,,,,,,,,,30.01,63,66,0.02,-RA:02 BR:1 |RA |RA,,,88,,FEW:02 14 SCT:04 23 OVC:08 100,28.91,6,64,220,33,21,,,,,,,,,,,,,,,,,,,,,,,,,,,,,,,,,,,,,MET13502/11/20 09:46:02 SPECI KATL 111446Z 22018G29KT 6SM -RA BR FEW014 SCT023 OVC100 19/17 A3001 RMK AO2 PK WND 20029/1438 RAB07 P0002 (JRN),FM-16,7,,,,,,,,,,,,,,,,,,,,,,,,,,,3/27/2007
72219013874,2020-02-11T09:52:00,FM-15,7,,,,,,,,,,,,,,,,,,,,,,,,,,,,,,,,,,,,,,,30.01,63,68,0.03,,0.01,8,84,30,FEW:02 14 OVC:08 100,28.91,7,65,210,32,21,,,,,,,,,,,,,,,,,,,,,,,,,,,,,,,,,,,,,MET15302/11/20 09:52:02 METAR KATL 111452Z 21018G28KT 7SM FEW014 OVC100 20/17 A3001 RMK AO2 PK WND 20029/1438 RAB07E51 SLP159 P0003 60003 T02000172 58002 (JRN),FM-15,7,,,,,,,,,,,,,,,,,,,,,,,,,,,3/27/2007
72219013874,2020-02-11T10:50:00,FM-16,6,,,,,,,,,,,,,,,,,,,,,,,,,,,,,,,,,,,,,,,30.03,64,70,,,,,83,,OVC:08 14,28.93,10,66,220,31,16,,,,,,,,,,,,,,,,,,,,,,,,,,,,,,,,,,,,,MET12302/11/20 10:50:02 SPECI KATL 111550Z 22014G27KT 10SM OVC014 21/18 A3003 RMK AO2 PK WND 21030/1507 RAB19E27 P0000 FIBI (JRN),FM-16,6,,,,,,,,,,,,,,,,,,,,,,,,,,,3/27/2007
72219013874,2020-02-11T10:52:00,FM-15,7,,,,,,,,,,,,,,,,,,,,,,,,,,,,,,,,,,,,,,,30.03,64,69,T,,,,84,30.02,OVC:08 14,28.93,10,66,230,31,16,,,,,,,,,,,,,,,,,,,,,,,,,,,,,,,,,,,,,MET13502/11/20 10:52:02 METAR KATL 111552Z 23014G27KT 10SM OVC014 21/18 A3003 RMK AO2 PK WND 21030/1507 RAB19E27 SLP167 P0000 T02060178 (JRN),FM-15,7,,,,,,,,,,,,,,,,,,,,,,,,,,,3/27/2007
72219013874,2020-02-11T11:33:00,FM-16,7,,,,,,,,,,,,,,,,,,,,,,,,,,,,,,,,,,,,,,,30.05,63,69,0.01,,,,81,,SCT:04 14 BKN:07 21 OVC:08 110,28.95,10,65,220,23,10,,,,,,,,,,,,,,,,,,,,,,,,,,,,,,,,,,,,,MET13302/11/20 11:33:02 SPECI KATL 111633Z 22009G20KT 10SM SCT014 BKN021 OVC110 21/17 A3005 RMK AO2 PK WND 18028/1601 P0001 T02060172 (JRN),FM-16,7,,,,,,,,,,,,,,,,,,,,,,,,,,,3/27/2007
72219013874,2020-02-11T11:52:00,FM-15,7,,,,,,,,,,,,,,,,,,,,,,,,,,,,,,,,,,,,,,,30.05,63,69,0.01,,,,81,30.04,FEW:02 14 BKN:07 21 OVC:08 50,28.95,10,65,200,,11,,,,,,,,,,,,,,,,,,,,,,,,,,,,,,,,,,,,,MET13902/11/20 11:52:02 METAR KATL 111652Z 20010KT 10SM FEW014 BKN021 OVC050 21/17 A3005 RMK AO2 PK WND 18028/1601 SLP172 P0001 T02060172 $ (JRN),FM-15,7,,,,,,,,,,,,,,,,,,,,,,,,,,,3/27/2007
72219013874,2020-02-11T12:52:00,FM-15,7,,,,,,,,,,,,,,,,,,,,,,,,,,,,,,,,,,,,,,,30.03,63,70,0,,-0.01,0,79,30.02,BKN:07 19 OVC:08 40,28.93,10,66,230,25,15,,,,,,,,,,,,,,,,,,,,,,,,,,,,,,,,,,,,,MET13302/11/20 12:52:02 METAR KATL 111752Z 23013G22KT 10SM BKN019 OVC040 21/17 A3003 RMK AO2 SLP165 60004 T02110172 10211 20189 50005 (JRN),FM-15,7,,,,,,,,,,,,,,,,,,,,,,,,,,,3/27/2007
72219013874,2020-02-11T13:00:00,FM-12,4,,,,,,,,,,,,,,,,,,,,,,,,,,,,,,,,,,,,,,,,63,70,,,0.01,9,79,30.02,15,28.92,9.94,66,230,,15,,,,,,,,,,,,,,,,,,,,,,,,,,,,,,,,,,,,,SYN09272219 12466 82313 10211 20172 39795 40165 50005 60011 91752 333 10211 20089 91022 555 91118=,FM-12,4,,,,,,,,,,,,,,,,,,,,,,,,,,,3/27/2007
72219013874,2020-02-11T13:35:00,FM-16,7,,,,,,,,,,,,,,,,,,,,,,,,,,,,,,,,,,,,,,,30.02,63,69,T,-RA:02 |RA |RA,,,81,,BKN:07 13 OVC:08 20,28.92,10,65,250,20,9,,,,,,,,,,,,,,,,,,,,,,,,,,,,,,,,,,,,,MET11802/11/20 13:35:02 SPECI KATL 111835Z 25008G17KT 10SM -RA BKN013 OVC020 21/17 A3002 RMK AO2 RAB33 P0000 T02060172 (JRN),FM-16,7,,,,,,,,,,,,,,,,,,,,,,,,,,,3/27/2007
72219013874,2020-02-11T13:52:00,FM-15,7,,,,,,,,,,,,,,,,,,,,,,,,,,,,,,,,,,,,,,,30.01,64,69,T,-RA:02 |RA |RA,,,84,30,OVC:08 12,28.91,7,66,220,,13,,,,,,,,,,,,,,,,,,,,,,,,,,,,,,,,,,,,,MET11402/11/20 13:52:02 METAR KATL 111852Z 22011KT 7SM -RA OVC012 21/18 A3001 RMK AO2 RAB33 SLP159 P0000 T02060178 (JRN),FM-15,7,,,,,,,,,,,,,,,,,,,,,,,,,,,3/27/2007
72219013874,2020-02-11T14:52:00,FM-15,7,,,,,,,,,,,,,,,,,,,,,,,,,,,,,,,,,,,,,,,29.99,64,69,T,,,,84,29.98,BKN:07 12 BKN:07 30 OVC:08 45,28.89,10,66,230,,10,,,,,,,,,,,,,,,,,,,,,,,,,,,,,,,,,,,,,MET12502/11/20 14:52:02 METAR KATL 111952Z 23009KT 10SM BKN012 BKN030 OVC045 21/18 A2999 RMK AO2 RAE10 SLP152 P0000 T02060178 (JRN),FM-15,7,,,,,,,,,,,,,,,,,,,,,,,,,,,3/27/2007
72219013874,2020-02-11T15:03:00,FM-16,7,,,,,,,,,,,,,,,,,,,,,,,,,,,,,,,,,,,,,,,30,64,69,,,,,84,,FEW:02 12 BKN:07 16 OVC:08 70,28.9,10,66,240,,10,,,,,,,,,,,,,,,,,,,,,,,,,,,,,,,,,,,,,MET10602/11/20 15:03:02 SPECI KATL 112003Z 24009KT 10SM FEW012 BKN016 OVC070 21/18 A3000 RMK AO2 T02060178 (JRN),FM-16,7,,,,,,,,,,,,,,,,,,,,,,,,,,,3/27/2007
72219013874,2020-02-11T15:21:00,FM-16,7,,,,,,,,,,,,,,,,,,,,,,,,,,,,,,,,,,,,,,,30,64,69,,,,,84,,FEW:02 12 BKN:07 44 OVC:08 65,28.9,10,66,240,,9,,,,,,,,,,,,,,,,,,,,,,,,,,,,,,,,,,,,,MET10602/11/20 15:21:02 SPECI KATL 112021Z 24008KT 10SM FEW012 BKN044 OVC065 21/18 A3000 RMK AO2 T02060178 (JRN),FM-16,7,,,,,,,,,,,,,,,,,,,,,,,,,,,3/27/2007
72219013874,2020-02-11T15:52:00,FM-15,7,,,,,,,,,,,,,,,,,,,,,,,,,,,,,,,,,,,,,,,29.99,64,69,0,,0.04,5,84,29.98,FEW:02 15 SCT:04 38 OVC:08 49,28.89,10,66,240,,10,,,,,,,,,,,,,,,,,,,,,,,,,,,,,,,,,,,,,MET12502/11/20 15:52:02 METAR KATL 112052Z 24009KT 10SM FEW015 SCT038 OVC049 21/18 A2999 RMK AO2 SLP153 60000 T02060178 55012 (JRN),FM-15,7,,,,,,,,,,,,,,,,,,,,,,,,,,,3/27/2007
72219013874,2020-02-11T16:52:00,FM-15,7,,,,,,,,,,,,,,,,,,,,,,,,,,,,,,,,,,,,,,,29.99,63,68,0,,,,84,29.98,FEW:02 12 SCT:04 70 BKN:07 120,28.89,10,65,220,,10,,,,,,,,,,,,,,,,,,,,,,,,,,,,,,,,,,,,,MET11302/11/20 16:52:02 METAR KATL 112152Z 22009KT 10SM FEW012 SCT070 BKN120 20/17 A2999 RMK AO2 SLP151 T02000172 (JRN),FM-15,7,,,,,,,,,,,,,,,,,,,,,,,,,,,3/27/2007
72219013874,2020-02-11T17:52:00,FM-15,7,,,,,,,,,,,,,,,,,,,,,,,,,,,,,,,,,,,,,,,30.04,63,66,0.05,|RA |RA,,,90,30.02,SCT:04 9 BKN:07 30,28.94,3,64,300,,11,,,,,,,,,,,,,,,,,,,,,,,,,,,,,,,,,,,,,MET14402/11/20 17:52:02 METAR KATL 112252Z 30010KT 3SM RA BR SCT009CB BKN030 BKN0 19/17 A3004 RMK AO2 RAB27 SLP167 CB NW-NE MOV E P0002 T01890172 (RF),FM-15,7,,,,,,,,,,,,,,,,,,,,,,,,,,,3/27/2007
72219013874,2020-02-11T17:54:00,FM-16,7,,,,,,,,,,,,,,,,,,,,,,,,,,,,,,,,,,,,,,,30.04,63,66,0.01,|RA |RA,,,90,,SCT:04 9 BKN:07 30,28.94,2,64,320,,13,,,,,,,,,,,,,,,,,,,,,,,,,,,,,,,,,,,,,MET14002/11/20 17:54:02 SPECI KATL 112254Z 32011KT 2SM RA BR SCT009CB BKN030 BKN0 19/17 A3004 RMK AO2 SFC VIS 3 CB N-NE MOV E P0001 T01890172 (RF),FM-16,7,,,,,,,,,,,,,,,,,,,,,,,,,,,3/27/2007
72219013874,2020-02-11T18:09:00,FM-16,7,,,,,,,,,,,,,,,,,,,,,,,,,,,,,,,,,,,,,,,30.06,61,65,0.05,-RA:02 BR:1 |RA |RA,,,87,,FEW:02 7 BKN:07 14 BKN:07 30,28.96,2,63,320,,14,,,,,,,,,,,,,,,,,,,,,,,,,,,,,,,,,,,,,MET15802/11/20 18:09:02 SPECI KATL 112309Z 32012KT 2SM RA BR FEW007 BKN014CB BKN0 18/16 A3006 RMK AO2 WSHFT 2252 SFC VIS 4 PRESRR CB SW-W MOV E P0005 T01830161 (RF),FM-16,7,,,,,,,,,,,,,,,,,,,,,,,,,,,3/27/2007
72219013874,2020-02-11T18:36:00,FM-16,7,,,,,,,,,,,,,,,,,,,,,,,,,,,,,,,,,,,,,,,30.07,60,64,0.14,-RA:02 BR:1 |RA |RA,,,87,,SCT:04 6 BKN:07 14 OVC:08 80,28.97,5,62,310,,14,,,,,,,,,,,,,,,,,,,,,,,,,,,,,,,,,,,,,MET14602/11/20 18:36:02 SPECI KATL 112336Z 31012KT 5SM -RA BR SCT006 BKN014CB OVC080 18/16 A3007 RMK AO2 WSHFT 2252 CB SE-SW MOV SE P0014 T01780156 (RF),FM-16,7,,,,,,,,,,,,,,,,,,,,,,,,,,,3/27/2007
72219013874,2020-02-11T18:52:00,FM-15,7,,,,,,,,,,,,,,,,,,,,,,,,,,,,,,,,,,,,,,,30.07,59,62,0.11,-RA:02 |RA |RA,-0.08,3,90,30.06,SCT:04 6 BKN:07 12 OVC:08 80,28.97,8,60,310,,11,,,,,,,,,,,,,,,,,,,,,,,,,,,,,,,,,,,,,MET15602/11/20 18:52:02 METAR KATL 112352Z 31010KT 8SM -RA SCT006 BKN012 OVC080 17/15 A3007 RMK AO2 WSHFT 2252 SLP180 P0014 60016 T01670150 10211 20167 53027 (RF),FM-15,7,,,,,,,,,,,,,,,,,,,,,,,,,,,3/27/2007
72219013874,2020-02-11T19:00:00,FM-12,4,,,,,,,,,,,,,,,,,,,,,,,,,,,,,,,,,,,,,,,,59,62,,||RA,-0.08,3,90,30.06,5,28.96,7.46,60,310,,11,,,,,,,,,,,,,,,,,,,,,,,,,,,,,,,,,,,,,SYN09272219 11262 83110 10167 20150 39808 40180 53027 60041 761// 92352 333 10211 20122 555 91200=,FM-12,4,,,,,,,,,,,,,,,,,,,,,,,,,,,3/27/2007
72219013874,2020-02-11T19:05:00,FM-16,7,,,,,,,,,,,,,,,,,,,,,,,,,,,,,,,,,,,,,,,30.08,59,63,T,,,,87,,FEW:02 6 SCT:04 12 BKN:07 80,28.98,10,61,310,,8,,,,,,,,,,,,,,,,,,,,,,,,,,,,,,,,,,,,,MET11202/11/20 19:05:01 SPECI KATL 120005Z 31007KT 10SM FEW006 SCT012 BKN080 17/15 A3008 RMK AO2 RAE03 P0000 T01720150,FM-16,7,,,,,,,,,,,,,,,,,,,,,,,,,,,3/27/2007
72219013874,2020-02-11T19:52:00,FM-15,7,,,,,,,,,,,,,,,,,,,,,,,,,,,,,,,,,,,,,,,30.1,58,62,0.02,|RA |RA,,,86,30.09,FEW:02 5 SCT:04 14 BKN:07 80,29,9,60,300,,13,,,,,,,,,,,,,,,,,,,,,,,,,,,,,,,,,,,,,MET13802/11/20 19:52:01 METAR KATL 120052Z 30011KT 9SM -RA FEW005 SCT014 BKN080 17/14 A3010 RMK AO2 RAE03B16 SLP189 SCT014 V BKN P0002 T01670144,FM-15,7,,,,,,,,,,,,,,,,,,,,,,,,,,,3/27/2007
72219013874,2020-02-11T20:52:00,FM-15,7,,,,,,,,,,,,,,,,,,,,,,,,,,,,,,,,,,,,,,,30.11,56,60,T,,,,86,30.1,FEW:02 5 OVC:08 90,29.01,10,58,290,,9,,,,,,,,,,,,,,,,,,,,,,,,,,,,,,,,,,,,,MET11202/11/20 20:52:01 METAR KATL 120152Z 29008KT 10SM FEW005 OVC090 16/13 A3011 RMK AO2 RAE34 SLP192 P0000 T01560133,FM-15,7,,,,,,,,,,,,,,,,,,,,,,,,,,,3/27/2007
72219013874,2020-02-11T21:52:00,FM-15,7,,,,,,,,,,,,,,,,,,,,,,,,,,,,,,,,,,,,,,,30.11,55,59,0,,-0.03,0,87,30.09,OVC:08 80,29.01,10,57,290,,8,,,,,,,,,,,,,,,,,,,,,,,,,,,,,,,,,,,,,MET10502/11/20 21:52:01 METAR KATL 120252Z 29007KT 10SM OVC080 15/13 A3011 RMK AO2 SLP191 60002 T01500128 50010,FM-15,7,,,,,,,,,,,,,,,,,,,,,,,,,,,3/27/2007
72219013874,2020-02-11T22:52:00,FM-15,7,,,,,,,,,,,,,,,,,,,,,,,,,,,,,,,,,,,,,,,30.09,55,58,0,,,,90,30.08,SCT:04 6 BKN:07 70 OVC:08 200,28.99,10,56,300,,7,,,,,,,,,,,,,,,,,,,,,,,,,,,,,,,,,,,,,MET10702/11/20 22:52:01 METAR KATL 120352Z 30006KT 10SM SCT006 BKN070 OVC200 14/13 A3009 RMK AO2 SLP186 T01440128,FM-15,7,,,,,,,,,,,,,,,,,,,,,,,,,,,3/27/2007
72219013874,2020-02-11T23:12:00,FM-16,7,,,,,,,,,,,,,,,,,,,,,,,,,,,,,,,,,,,,,,,30.09,55,58,,,,,90,,BKN:07 6 BKN:07 70 OVC:08 200,28.99,10,56,290,,6,,,,,,,,,,,,,,,,,,,,,,,,,,,,,,,,,,,,,MET10002/11/20 23:12:01 SPECI KATL 120412Z 29005KT 10SM BKN006 BKN070 OVC200 14/13 A3009 RMK AO2 T01440128,FM-16,7,,,,,,,,,,,,,,,,,,,,,,,,,,,3/27/2007
72219013874,2020-02-11T23:52:00,FM-15,7,,,,,,,,,,,,,,,,,,,,,,,,,,,,,,,,,,,,,,,30.09,54,57,0,,,,90,30.08,SCT:04 6 BKN:07 12 BKN:07 70,28.99,10,55,270,,5,,,,,,,,,,,,,,,,,,,,,,,,,,,,,,,,,,,,,MET11702/11/20 23:52:01 METAR KATL 120452Z 27004KT 10SM SCT006 BKN012 BKN070 14/12 A3009 RMK AO2 SLP186 T01390122 402110122,FM-15,7,,,,,,,,,,,,,,,,,,,,,,,,,,,3/27/2007
72219013874,2020-02-11T23:59:00,SOD  ,6,,,,,,,,,,,,,,,,,59,62,87,30.03,28.95,61,10.7,0,15.7,3,70,54,210,34,0.34,0,0,210,24,RA FG BR,,,,,,,,,,,,,,,,,,,,,,,,,,,,,,,,,,,,,,,,,,,,,,,,,,,,,,,SOD78324 HR PRECIPITATION (IN): 0.34 SNOW DEPTH (IN):0     24 HR SNOWFALL (IN):0.0  WEATHER(CODE):1  24 HR MAX TEMP (F): 7024 HR MIN TEMP (F): 54AVERAGE STATION PRESSURE:28.945 MINIMUM SEA LEVEL PRESSURE:29.97 TIME OF OCCURRENCE:1650 PEAK WIND SPEED (MPH): 34 PEAK WIND DIR (DEG):210 PEAK WIND TIME (LST):      FASTEST 2MIN SPEED (MPH): 24FASTEST 2MIN DIR (DEG):210 FASTEST 2MIN TIME (LST):     AVERAGE WIND SPEED (MPH):10.7 24 HR AVG TEMP (F): 62DEPART FROM NORMAL: 16  SKY COVER SR-SS (TENTHS): 1HEATING DEGREE DAYS:  3 COOLING DEGREE DAYS:  0 LATEST DAY MAX TEMP (0700-1900 LST):70  LATEST NIGHT MIN TEMP(1900-0800 LST):52 HOURLY INCREMENTAL PRECIPITATION VALUES (IN):.05 0.01 0.01 0.02 0.01 0.01 0.01 0.00 0.00 0.03 T    0.01 0.00 T    T    0.00 0.00 0.05 0.11 0.02 T    0.00 0.00 0.00,SOD  ,6,,,,,,,,,,,,,,,,,,,,,,,,,726,1818,3/27/2007
72219013874,2020-02-12T00:52:00,FM-15,7,,,,,,,,,,,,,,,,,,,,,,,,,,,,,,,,,,,,,,,30.07,54,57,0,,0.04,8,90,30.06,SCT:04 5 BKN:07 10 BKN:07 80,28.97,10,55,310,,6,,,,,,,,,,,,,,,,,,,,,,,,,,,,,,,,,,,,,MET13602/12/20 00:52:02 METAR KATL 120552Z 31005KT 10SM SCT005 BKN010 BKN080 14/12 A3007 RMK AO2 SLP178 60002 T01390122 10172 20139 58012 (RF),FM-15,7,,,,,,,,,,,,,,,,,,,,,,,,,,,3/27/2007
72219013874,2020-02-12T01:00:00,FM-12,4,,,,,,,,,,,,,,,,,,,,,,,,,,,,,,,,,,,,,,,,54,57,,,0.04,8,90,30.06,5,28.96,9.94,55,310,,6,,,,,,,,,,,,,,,,,,,,,,,,,,,,,,,,,,,,,SYN08672219 12266 83105 10139 20122 39808 40178 58012 69951 90552 333 10189 20122 555 91206=,FM-12,4,,,,,,,,,,,,,,,,,,,,,,,,,,,3/27/2007
72219013874,2020-02-12T01:22:00,FM-16,7,,,,,,,,,,,,,,,,,,,,,,,,,,,,,,,,,,,,,,,30.07,53,57,,,,,87,,BKN:07 5 OVC:08 10,28.97,3,55,310,,6,,,,,,,,,,,,,,,,,,,,,,,,,,,,,,,,,,,,,MET12602/12/20 01:22:02 SPECI KATL 120622Z 31005KT 3SM BKN005 OVC010 14/12 A3007 RMK AO2 SFC VIS 8 CIG 004V006 TWRINC T01390117 (DB),FM-16,7,,,,,,,,,,,,,,,,,,,,,,,,,,,3/27/2007
72219013874,2020-02-12T01:52:00,FM-15,7,,,,,,,,,,,,,,,,,,,,,,,,,,,,,,,,,,,,,,,30.09,53,56,0,,,,90,30.07,OVC:08 5,28.99,3,54,340,,9,,,,,,,,,,,,,,,,,,,,,,,,,,,,,,,,,,,,,MET12602/12/20 01:52:02 METAR KATL 120652Z 34008KT 3SM OVC005 13/12 A3009 RMK AO2 SFC VIS 8 SLP184 CIG 004V006 TWRINC T01330117 (DB),FM-15,7,,,,,,,,,,,,,,,,,,,,,,,,,,,3/27/2007
72219013874,2020-02-12T02:21:00,FM-16,7,,,,,,,,,,,,,,,,,,,,,,,,,,,,,,,,,,,,,,,30.08,53,55,,,,,93,,OVC:08 4,28.98,3,54,330,,7,,,,,,,,,,,,,,,,,,,,,,,,,,,,,,,,,,,,,MET10702/12/20 02:21:02 SPECI KATL 120721Z 33006KT 3SM OVC004 13/12 A3008 RMK AO2 SFC VIS 8 TWRINC T01280117 (DB),FM-16,7,,,,,,,,,,,,,,,,,,,,,,,,,,,3/27/2007
72219013874,2020-02-12T02:52:00,FM-15,7,,,,,,,,,,,,,,,,,,,,,,,,,,,,,,,,,,,,,,,30.08,53,55,0,BR:1 |s |,,,93,30.07,OVC:08 3,28.98,0.5,54,310,,9,,,,,,,,,,,,,,,,,,,,,,,,,,,,,,,,,,,,,MET13202/12/20 02:52:02 METAR KATL 120752Z 31008KT 1/2SM R09R/P6000FT BR OVC003 13/12 A3008 RMK AO2 SFC VIS 5 SLP182 TWRINC T01280117 (DB),FM-15,7,,,,,,,,,,,,,,,,,,,,,,,,,,,3/27/2007
72219013874,2020-02-12T03:52:00,FM-15,7,,,,,,,,,,,,,,,,,,,,,,,,,,,,,,,,,,,,,,,30.08,52,54,0,BR:1 |s |,-0.01,1,93,30.07,OVC:08 3,28.98,0.5,53,330,,8,,,,,,,,,,,,,,,,,,,,,,,,,,,,,,,,,,,,,MET15402/12/20 03:52:02 METAR KATL 120852Z 33007KT 1/2SM R09R/P6000FT BR OVC003 12/11 A3008 RMK AO2 SFC VIS 1 1/2 SLP183 CIG 002V004 TWRINC T01220111 51003 (DB),FM-15,7,,,,,,,,,,,,,,,,,,,,,,,,,,,3/27/2007
72219013874,2020-02-12T04:52:00,FM-15,7,,,,,,,,,,,,,,,,,,,,,,,,,,,,,,,,,,,,,,,30.06,50,52,0,BR:1 ||,,,93,30.05,BKN:07 3 BKN:07 65,28.96,2,51,0,,0,,,,,,,,,,,,,,,,,,,,,,,,,,,,,,,,,,,,,MET13602/12/20 04:52:02 METAR KATL 120952Z 00000KT 2SM BR BKN003 BKN065 11/10 A3006 RMK AO2 SFC VIS 4 SLP177 CIG 002V005 TWRINC T01110100 (DB),FM-15,7,,,,,,,,,,,,,,,,,,,,,,,,,,,3/27/2007
72219013874,2020-02-12T05:05:00,FM-16,7,,,,,,,,,,,,,,,,,,,,,,,,,,,,,,,,,,,,,,,30.06,50,52,,BR:1 ||,,,93,,SCT:04 3 BKN:07 65,28.96,2,51,0,,0,,,,,,,,,,,,,,,,,,,,,,,,,,,,,,,,,,,,,MET11702/12/20 05:05:02 SPECI KATL 121005Z 00000KT 2SM BR SCT003 BKN065 11/10 A3006 RMK AO2 SFC VIS 6 TWRINC T01110100 (DB),FM-16,7,,,,,,,,,,,,,,,,,,,,,,,,,,,3/27/2007
72219013874,2020-02-12T05:52:00,FM-15,7,,,,,,,,,,,,,,,,,,,,,,,,,,,,,,,,,,,,,,,30.06,50,53,0,,,,89,30.05,FEW:02 3 BKN:07 75 OVC:08 250,28.96,7,51,0,,0,,,,,,,,,,,,,,,,,,,,,,,,,,,,,,,,,,,,,MET11102/12/20 05:52:02 METAR KATL 121052Z 00000KT 7SM FEW003 BKN075 OVC250 12/10 A3006 RMK AO2 SLP177 T01170100 (DB),FM-15,7,,,,,,,,,,,,,,,,,,,,,,,,,,,3/27/2007
72219013874,2020-02-12T06:52:00,FM-15,7,,,,,,,,,,,,,,,,,,,,,,,,,,,,,,,,,,,,,,,30.06,50,53,0,,0.02,6,89,30.05,FEW:02 5 BKN:07 55,28.96,7,51,240,,3,,,,,,,,,,,,,,,,,,,,,,,,,,,,,,,,,,,,,MET14202/12/20 06:52:02 METAR KATL 121152Z 24003KT 7SM FEW005 BKN055 12/10 A3006 RMK AO2 SLP177 FOG BANK W-NW 70022 T01170100 10139 20111 56006 (DB),FM-15,7,,,,,,,,,,,,,,,,,,,,,,,,,,,3/27/2007
72219013874,2020-02-12T07:00:00,FM-12,4,,,,,,,,,,,,,,,,,,,,,,,,,,,,,,,,,,,,,,,,50,53,,,0.02,6,89,30.05,5,28.95,6.84,51,240,,3,,,,,,,,,,,,,,,,,,,,,,,,,,,,,,,,,,,,,SYN08672219 32261 62403 10117 20100 39805 40177 56006 91152 333 10211 20111 70056 555 91212=,FM-12,4,,,,,,,,,,,,,,,,,,,,,,,,,,,3/27/2007
72219013874,2020-02-12T07:52:00,FM-15,7,,,,,,,,,,,,,,,,,,,,,,,,,,,,,,,,,,,,,,,30.05,50,53,0,,,,89,30.04,SCT:04 55 BKN:07 95 BKN:07 250,28.95,7,51,130,,3,,,,,,,,,,,,,,,,,,,,,,,,,,,,,,,,,,,,,MET11102/12/20 07:52:02 METAR KATL 121252Z 13003KT 7SM SCT055 BKN095 BKN250 12/10 A3005 RMK AO2 SLP174 T01170100 (DB),FM-15,7,,,,,,,,,,,,,,,,,,,,,,,,,,,3/27/2007
72219013874,2020-02-12T07:58:00,FM-16,7,,,,,,,,,,,,,,,,,,,,,,,,,,,,,,,,,,,,,,,30.05,51,53,,,,,93,,FEW:02 3 FEW:02 55 BKN:07 100,28.95,7,52,140,,7,,,,,,,,,,,,,,,,,,,,,,,,,,,,,,,,,,,,,MET10402/12/20 07:58:02 SPECI KATL 121258Z 14006KT 7SM FEW003 FEW055 BKN100 12/11 A3005 RMK AO2 T01170106 (DB),FM-16,7,,,,,,,,,,,,,,,,,,,,,,,,,,,3/27/2007
72219013874,2020-02-12T08:21:00,FM-16,7,,,,,,,,,,,,,,,,,,,,,,,,,,,,,,,,,,,,,,,30.06,52,54,,,,,93,,BKN:07 3 BKN:07 55 BKN:07 100,28.96,0.50V,53,170,,3,,,,,,,,,,,,,,,,,,,,,,,,,,,,,,,,,,,,,MET16702/12/20 08:21:02 SPECI KATL 121321Z 17003KT 1/2SM R09R/3500VP6000FT BR BKN003 BKN055 BKN100 12/11 A3006 RMK AO2 SFC VIS 4 VIS S-W 1 BKN003 V SCT TWRINC T01220111 (DB),FM-16,7,,,,,,,,,,,,,,,,,,,,,,,,,,,3/27/2007
72219013874,2020-02-12T08:52:00,FM-15,7,,,,,,,,,,,,,,,,,,,,,,,,,,,,,,,,,,,,,,,30.07,52,55,0,BR:1 |s |,,,90,30.06,BKN:07 3 BKN:07 34 OVC:08 250,28.97,0.5,53,0,,0,,,,,,,,,,,,,,,,,,,,,,,,,,,,,,,,,,,,,MET17702/12/20 08:52:02 METAR KATL 121352Z 00000KT 1/2SM R09R/P6000FT BR BKN003 BKN034 OVC250 13/11 A3007 RMK AO2 SFC VIS 4 SLP179 VIS E-SE 2 SE-SW 1 CIG 002V006 TWRINC T01280111 (DB),FM-15,7,,,,,,,,,,,,,,,,,,,,,,,,,,,3/27/2007
72219013874,2020-02-12T09:00:00,FM-16,7,,,,,,,,,,,,,,,,,,,,,,,,,,,,,,,,,,,,,,,30.07,52,55,,BR:1 ||,,,90,,SCT:04 3 OVC:08 32,28.97,1.5,53,0,,0,,,,,,,,,,,,,,,,,,,,,,,,,,,,,,,,,,,,,MET11502/12/20 09:00:02 SPECI KATL 121400Z 00000KT 1 1/2SM BR SCT003 OVC032 13/11 A3007 RMK AO2 SFC VIS 4 T01280111 (JRN),FM-16,7,,,,,,,,,,,,,,,,,,,,,,,,,,,3/27/2007
72219013874,2020-02-12T09:13:00,FM-16,7,,,,,,,,,,,,,,,,,,,,,,,,,,,,,,,,,,,,,,,30.07,52,56,,BR:1 ||,,,87,,SCT:04 3 OVC:08 32,28.97,6,54,0,,0,,,,,,,,,,,,,,,,,,,,,,,,,,,,,,,,,,,,,MET10102/12/20 09:13:02 SPECI KATL 121413Z 00000KT 6SM BR SCT003 OVC032 13/11 A3007 RMK AO2 T01330111 (JRN),FM-16,7,,,,,,,,,,,,,,,,,,,,,,,,,,,3/27/2007
72219013874,2020-02-12T09:47:00,FM-16,7,,,,,,,,,,,,,,,,,,,,,,,,,,,,,,,,,,,,,,,30.07,54,57,,,,,88,,BKN:07 11 OVC:08 31,28.97,7,55,90,,5,,,,,,,,,,,,,,,,,,,,,,,,,,,,,,,,,,,,,MET08802/12/20 09:47:02 SPECI KATL 121447Z 09004KT 7SM BKN011 OVC031 14/12 A3007 RMK AO2 (JRN),FM-16,7,,,,,,,,,,,,,,,,,,,,,,,,,,,3/27/2007
72219013874,2020-02-12T09:52:00,FM-15,7,,,,,,,,,,,,,,,,,,,,,,,,,,,,,,,,,,,,,,,30.07,54,57,0,,-0.02,1,90,30.06,BKN:07 11 OVC:08 31,28.97,7,55,90,,3,,,,,,,,,,,,,,,,,,,,,,,,,,,,,,,,,,,,,MET11102/12/20 09:52:02 METAR KATL 121452Z 09003KT 7SM BKN011 OVC031 14/12 A3007 RMK AO2 SLP181 T01390122 51006 (JRN),FM-15,7,,,,,,,,,,,,,,,,,,,,,,,,,,,3/27/2007
72219013874,2020-02-12T10:43:00,FM-16,7,,,,,,,,,,,,,,,,,,,,,,,,,,,,,,,,,,,,,,,30.07,55,60,,,,,84,,OVC:08 8,28.97,10,57,130,,7,,,,,,,,,,,,,,,,,,,,,,,,,,,,,,,,,,,,,MET09202/12/20 10:43:02 SPECI KATL 121543Z 13006KT 10SM OVC008 16/13 A3007 RMK AO2 T01560128 (JRN),FM-16,7,,,,,,,,,,,,,,,,,,,,,,,,,,,3/27/2007
72219013874,2020-02-12T10:52:00,FM-15,7,,,,,,,,,,,,,,,,,,,,,,,,,,,,,,,,,,,,,,,30.07,55,60,0,,,,84,30.06,OVC:08 8,28.97,10,57,130,,7,,,,,,,,,,,,,,,,,,,,,,,,,,,,,,,,,,,,,MET09902/12/20 10:52:02 METAR KATL 121552Z 13006KT 10SM OVC008 16/13 A3007 RMK AO2 SLP181 T01560128 (JRN),FM-15,7,,,,,,,,,,,,,,,,,,,,,,,,,,,3/27/2007
72219013874,2020-02-12T11:52:00,FM-15,7,,,,,,,,,,,,,,,,,,,,,,,,,,,,,,,,,,,,,,,30.06,58,63,0,,,,84,30.05,OVC:08 9,28.96,10,60,160,,10,,,,,,,,,,,,,,,,,,,,,,,,,,,,,,,,,,,,,MET09902/12/20 11:52:02 METAR KATL 121652Z 16009KT 10SM OVC009 17/14 A3006 RMK AO2 SLP177 T01720144 (JRN),FM-15,7,,,,,,,,,,,,,,,,,,,,,,,,,,,3/27/2007
72219013874,2020-02-12T12:41:00,FM-16,7,,,,,,,,,,,,,,,,,,,,,,,,,,,,,,,,,,,,,,,30.04,60,66,,,,,81,,OVC:08 10,28.94,10,62,180,,14,,,,,,,,,,,,,,,,,,,,,,,,,,,,,,,,,,,,,MET09202/12/20 12:41:02 SPECI KATL 121741Z 18012KT 10SM OVC010 19/16 A3004 RMK AO2 T01890156 (JRN),FM-16,7,,,,,,,,,,,,,,,,,,,,,,,,,,,3/27/2007
72219013874,2020-02-12T12:52:00,FM-15,7,,,,,,,,,,,,,,,,,,,,,,,,,,,,,,,,,,,,,,,30.04,60,66,0,,0.03,8,81,30.03,OVC:08 10,28.94,10,62,180,,8,,,,,,,,,,,,,,,,,,,,,,,,,,,,,,,,,,,,,MET11702/12/20 12:52:02 METAR KATL 121752Z 18007KT 10SM OVC010 19/16 A3004 RMK AO2 SLP169 T01890156 10189 20117 58010 (JRN),FM-15,7,,,,,,,,,,,,,,,,,,,,,,,,,,,3/27/2007
72219013874,2020-02-12T13:00:00,FM-12,4,,,,,,,,,,,,,,,,,,,,,,,,,,,,,,,,,,,,,,,,60,66,,,0.03,8,81,30.03,15,28.93,9.94,62,180,,8,,,,,,,,,,,,,,,,,,,,,,,,,,,,,,,,,,,,,SYN08072219 32466 81807 10189 20156 39798 40169 58010 91752 333 10189 20117 555 91218=,FM-12,4,,,,,,,,,,,,,,,,,,,,,,,,,,,3/27/2007
72219013874,2020-02-12T13:49:00,FM-16,7,,,,,,,,,,,,,,,,,,,,,,,,,,,,,,,,,,,,,,,30,61,70,,,,,73,,BKN:07 17 BKN:07 24,28.9,10,64,200,,8,,,,,,,,,,,,,,,,,,,,,,,,,,,,,,,,,,,,,MET08902/12/20 13:49:02 SPECI KATL 121849Z 20007KT 10SM BKN017 BKN024 21/16 A3000 RMK AO2 (JRN),FM-16,7,,,,,,,,,,,,,,,,,,,,,,,,,,,3/27/2007
72219013874,2020-02-12T13:52:00,FM-15,7,,,,,,,,,,,,,,,,,,,,,,,,,,,,,,,,,,,,,,,30,62,70,0,,,,76,29.99,BKN:07 17 BKN:07 24,28.9,10,65,190,,8,,,,,,,,,,,,,,,,,,,,,,,,,,,,,,,,,,,,,MET10602/12/20 13:52:02 METAR KATL 121852Z 19007KT 10SM BKN017 BKN024 21/17 A3000 RMK AO2 SLP155 T02110167 (JRN),FM-15,7,,,,,,,,,,,,,,,,,,,,,,,,,,,3/27/2007
72219013874,2020-02-12T14:36:00,FM-16,7,,,,,,,,,,,,,,,,,,,,,,,,,,,,,,,,,,,,,,,29.98,62,72,,,,,71,,SCT:04 21 BKN:07 33 BKN:07 55,28.88,10,66,190,,10,,,,,,,,,,,,,,,,,,,,,,,,,,,,,,,,,,,,,MET10602/12/20 14:36:02 SPECI KATL 121936Z 19009KT 10SM SCT021 BKN033 BKN055 22/17 A2998 RMK AO2 T02220167 (JRN),FM-16,7,,,,,,,,,,,,,,,,,,,,,,,,,,,3/27/2007
72219013874,2020-02-12T14:52:00,FM-15,7,,,,,,,,,,,,,,,,,,,,,,,,,,,,,,,,,,,,,,,29.97,62,72,0,,,,71,29.96,SCT:04 23 BKN:07 35 BKN:07 42,28.87,10,66,180,,10,,,,,,,,,,,,,,,,,,,,,,,,,,,,,,,,,,,,,MET11302/12/20 14:52:02 METAR KATL 121952Z 18009KT 10SM SCT023 BKN035 BKN042 22/17 A2997 RMK AO2 SLP145 T02220167 (JRN),FM-15,7,,,,,,,,,,,,,,,,,,,,,,,,,,,3/27/2007
72219013874,2020-02-12T15:52:00,FM-15,7,,,,,,,,,,,,,,,,,,,,,,,,,,,,,,,,,,,,,,,29.95,61,72,0,,0.05,8,68,29.94,FEW:02 22 SCT:04 30 BKN:07 50,28.85,10,65,200,26,15,,,,,,,,,,,,,,,,,,,,,,,,,,,,,,,,,,,,,MET12202/12/20 15:52:02 METAR KATL 122052Z 20013G23KT 10SM FEW022 SCT030 BKN050 22/16 A2995 RMK AO2 SLP138 T02220161 58016 (JRN),FM-15,7,,,,,,,,,,,,,,,,,,,,,,,,,,,3/27/2007
72219013874,2020-02-12T16:52:00,FM-15,7,,,,,,,,,,,,,,,,,,,,,,,,,,,,,,,,,,,,,,,29.93,62,72,0,,,,71,29.92,SCT:04 30 BKN:07 60 BKN:07 250,28.84,10,66,180,,11,,,,,,,,,,,,,,,,,,,,,,,,,,,,,,,,,,,,,MET11302/12/20 16:52:02 METAR KATL 122152Z 18010KT 10SM SCT030 BKN060 BKN250 22/17 A2993 RMK AO2 SLP131 T02220167 (JRN),FM-15,7,,,,,,,,,,,,,,,,,,,,,,,,,,,3/27/2007
72219013874,2020-02-12T17:52:00,FM-15,7,,,,,,,,,,,,,,,,,,,,,,,,,,,,,,,,,,,,,,,29.93,61,71,0,,,,71,29.92,SCT:04 30 BKN:07 250,28.84,10,65,160,,8,,,,,,,,,,,,,,,,,,,,,,,,,,,,,,,,,,,,,MET10502/12/20 17:52:02 METAR KATL 122252Z 16007KT 10SM SCT030 BKN250 22/16 A2993 RMK AO2 SLP131 T02170161 (RF),FM-15,7,,,,,,,,,,,,,,,,,,,,,,,,,,,3/27/2007
72219013874,2020-02-12T18:52:00,FM-15,7,,,,,,,,,,,,,,,,,,,,,,,,,,,,,,,,,,,,,,,29.92,62,72,0,,0.03,6,71,29.91,SCT:04 35 BKN:07 60 BKN:07 250,28.82,10,66,150,,8,,,,,,,,,,,,,,,,,,,,,,,,,,,,,,,,,,,,,MET13002/12/20 18:52:02 METAR KATL 122352Z 15007KT 10SM SCT035 BKN060 BKN250 22/17 A2992 RMK AO2 SLP128 T02220167 10228 20189 56010 (RF),FM-15,7,,,,,,,,,,,,,,,,,,,,,,,,,,,3/27/2007
72219013874,2020-02-12T19:00:00,FM-12,4,,,,,,,,,,,,,,,,,,,,,,,,,,,,,,,,,,,,,,,,62,72,,,0.03,6,71,29.91,41,28.82,9.94,66,150,,8,,,,,,,,,,,,,,,,,,,,,,,,,,,,,,,,,,,,,SYN08072219 32666 61507 10222 20167 39759 40128 56010 92352 333 10228 20111 555 91300=,FM-12,4,,,,,,,,,,,,,,,,,,,,,,,,,,,3/27/2007
72219013874,2020-02-12T19:52:00,FM-15,7,,,,,,,,,,,,,,,,,,,,,,,,,,,,,,,,,,,,,,,29.92,62,69,0,,,,78,29.91,FEW:02 35 BKN:07 250,28.82,10,65,160,,10,,,,,,,,,,,,,,,,,,,,,,,,,,,,,,,,,,,,,MET10002/12/20 19:52:01 METAR KATL 130052Z 16009KT 10SM FEW035 BKN250 21/17 A2992 RMK AO2 SLP129 T02060167,FM-15,7,,,,,,,,,,,,,,,,,,,,,,,,,,,3/27/2007
72219013874,2020-02-12T20:52:00,FM-15,7,,,,,,,,,,,,,,,,,,,,,,,,,,,,,,,,,,,,,,,29.91,62,68,0,,,,81,29.9,BKN:07 250,28.82,10,64,170,,9,,,,,,,,,,,,,,,,,,,,,,,,,,,,,,,,,,,,,MET09302/12/20 20:52:01 METAR KATL 130152Z 17008KT 10SM BKN250 20/17 A2991 RMK AO2 SLP124 T02000167,FM-15,7,,,,,,,,,,,,,,,,,,,,,,,,,,,3/27/2007
72219013874,2020-02-12T21:52:00,FM-15,7,,,,,,,,,,,,,,,,,,,,,,,,,,,,,,,,,,,,,,,29.9,61,68,0,,0.02,8,78,29.88,SCT:04 20 BKN:07 200 OVC:08 250,28.81,10,64,180,23,15,,,,,,,,,,,,,,,,,,,,,,,,,,,,,,,,,,,,,MET11602/12/20 21:52:01 METAR KATL 130252Z 18013G20KT 10SM SCT020 BKN200 OVC250 20/16 A2990 RMK AO2 SLP119 T02000161 58008,FM-15,7,,,,,,,,,,,,,,,,,,,,,,,,,,,3/27/2007
72219013874,2020-02-12T22:27:00,FM-16,6,,,,,,,,,,,,,,,,,,,,,,,,,,,,,,,,,,,,,,,29.89,62,68,,,,,81,,BKN:07 18 BKN:07 200 OVC:08 250,28.8,10,64,190,17,14,,,,,,,,,,,,,,,,,,,,,,,,,,,,,,,,,,,,,MET10802/12/20 22:27:03 SPECI KATL 130327Z 19012G15KT 10SM BKN018 BKN200 OVC250 20/17 A2989 RMK AO2 T02000167 (RF),FM-16,6,,,,,,,,,,,,,,,,,,,,,,,,,,,3/27/2007
72219013874,2020-02-12T22:52:00,FM-15,7,,,,,,,,,,,,,,,,,,,,,,,,,,,,,,,,,,,,,,,29.89,62,68,0,,,,81,29.87,BKN:07 18 BKN:07 200 OVC:08 250,28.8,10,64,190,26,13,,,,,,,,,,,,,,,,,,,,,,,,,,,,,,,,,,,,,MET11002/12/20 22:52:01 METAR KATL 130352Z 19011G23KT 10SM BKN018 BKN200 OVC250 20/17 A2989 RMK AO2 SLP116 T02000167,FM-15,7,,,,,,,,,,,,,,,,,,,,,,,,,,,3/27/2007
72219013874,2020-02-12T23:52:00,FM-15,7,,,,,,,,,,,,,,,,,,,,,,,,,,,,,,,,,,,,,,,29.87,62,68,0,,,,81,29.86,BKN:07 17 BKN:07 30 OVC:08 200,28.78,10,64,190,21,15,,,,,,,,,,,,,,,,,,,,,,,,,,,,,,,,,,,,,MET12002/12/20 23:52:01 METAR KATL 130452Z 19013G18KT 10SM BKN017 BKN030 OVC200 20/17 A2987 RMK AO2 SLP111 T02000167 402280111,FM-15,7,,,,,,,,,,,,,,,,,,,,,,,,,,,3/27/2007
72219013874,2020-02-12T23:59:00,SOD  ,6,,,,,,,,,,,,,,,,,57,63,82,29.99,28.92,59,8,0,16.5,2,73,52,170,29,0,0,0,200,17,BR,,,,,,,,,,,,,,,,,,,,,,,,,,,,,,,,,,,,,,,,,,,,,,,,,,,,,,,SOD75624 HR PRECIPITATION (IN): 0.00 SNOW DEPTH (IN):0     24 HR SNOWFALL (IN):0.0  WEATHER(CODE):1  24 HR MAX TEMP (F): 7324 HR MIN TEMP (F): 52AVERAGE STATION PRESSURE:28.925 MINIMUM SEA LEVEL PRESSURE:29.85 TIME OF OCCURRENCE:2359 PEAK WIND SPEED (MPH): 29 PEAK WIND DIR (DEG):170 PEAK WIND TIME (LST):      FASTEST 2MIN SPEED (MPH): 17FASTEST 2MIN DIR (DEG):200 FASTEST 2MIN TIME (LST):     AVERAGE WIND SPEED (MPH): 8.0 24 HR AVG TEMP (F): 63DEPART FROM NORMAL: 17  HEATING DEGREE DAYS:  2 COOLING DEGREE DAYS:  0 LATEST DAY MAX TEMP (0700-1900 LST):73  LATEST NIGHT MIN TEMP(1900-0800 LST):52 HOURLY INCREMENTAL PRECIPITATION VALUES (IN):.00 0.00 0.00 0.00 0.00 0.00 0.00 0.00 0.00 0.00 0.00 0.00 0.00 0.00 0.00 0.00 0.00 0.00 0.00 0.00 0.00 0.00 0.00 0.00,SOD  ,6,,,,,,,,,,,,,,,,,,,,,,,,,725,1819,3/27/2007
72219013874,2020-02-13T00:52:00,FM-15,7,,,,,,,,,,,,,,,,,,,,,,,,,,,,,,,,,,,,,,,29.86,62,68,T,-RA:02 |RA |RA,0.04,8,81,29.84,BKN:07 15 OVC:08 30,28.77,8,64,190,21,13,,,,,,,,,,,,,,,,,,,,,,,,,,,,,,,,,,,,,MET14702/13/20 00:52:02 METAR KATL 130552Z 19011G18KT 8SM -RA BKN015 OVC030 20/17 A2986 RMK AO2 RAB40 SLP104 P0000 60000 T02000167 10222 20200 58013 (RF),FM-15,7,,,,,,,,,,,,,,,,,,,,,,,,,,,3/27/2007
72219013874,2020-02-13T01:00:00,FM-12,4,,,,,,,,,,,,,,,,,,,,,,,,,,,,,,,,,,,,,,,,62,68,,||RA,0.04,8,81,29.84,15,28.76,7.46,64,190,,13,,,,,,,,,,,,,,,,,,,,,,,,,,,,,,,,,,,,,SYN09872219 11462 81911 10200 20167 39739 40104 58013 69901 761// 90552 333 10222 20111 91018 555 91306=,FM-12,4,,,,,,,,,,,,,,,,,,,,,,,,,,,3/27/2007
72219013874,2020-02-13T01:52:00,FM-15,7,,,,,,,,,,,,,,,,,,,,,,,,,,,,,,,,,,,,,,,29.84,63,68,T,-DZ:01 |DZ |DZ,,,84,29.82,BKN:07 17 BKN:07 24 OVC:08 36,28.75,8,65,200,,13,,,,,,,,,,,,,,,,,,,,,,,,,,,,,,,,,,,,,MET15302/13/20 01:52:02 METAR KATL 130652Z 20011KT 8SM -DZ BKN017 BKN024 OVC036 20/17 A2984 RMK AO2 RAE0557B13E29DZB48 SLP099 CIG 015V019 P0000 T02000172 (KAF),FM-15,7,,,,,,,,,,,,,,,,,,,,,,,,,,,3/27/2007
72219013874,2020-02-13T02:52:00,FM-15,7,,,,,,,,,,,,,,,,,,,,,,,,,,,,,,,,,,,,,,,29.83,63,69,T,,,,81,29.8,BKN:07 16 OVC:08 26,28.74,10,65,200,23,16,,,,,,,,,,,,,,,,,,,,,,,,,,,,,,,,,,,,,MET14102/13/20 02:52:02 METAR KATL 130752Z 20014G20KT 10SM BKN016 OVC026 21/17 A2983 RMK AO2 DZE02RAB02E27 SLP093 CIG 014V018 P0000 T02060172 (KAF),FM-15,7,,,,,,,,,,,,,,,,,,,,,,,,,,,3/27/2007
72219013874,2020-02-13T03:52:00,FM-15,7,,,,,,,,,,,,,,,,,,,,,,,,,,,,,,,,,,,,,,,29.8,64,70,0,,0.05,8,82,29.78,BKN:07 16 BKN:07 24 OVC:08 34,28.71,10,66,220,26,16,,,,,,,,,,,,,,,,,,,,,,,,,,,,,,,,,,,,,MET14002/13/20 03:52:02 METAR KATL 130852Z 22014G23KT 10SM BKN016 BKN024 OVC034 21/18 A2980 RMK AO2 SLP084 CIG 014V018 60000 T02110178 58018 (KAF),FM-15,7,,,,,,,,,,,,,,,,,,,,,,,,,,,3/27/2007
72219013874,2020-02-13T04:52:00,FM-15,7,,,,,,,,,,,,,,,,,,,,,,,,,,,,,,,,,,,,,,,29.78,64,70,0,,,,82,29.75,BKN:07 15 BKN:07 22 OVC:08 34,28.69,9,66,210,,14,,,,,,,,,,,,,,,,,,,,,,,,,,,,,,,,,,,,,MET12402/13/20 04:52:02 METAR KATL 130952Z 21012KT 9SM BKN015 BKN022 OVC034 21/18 A2978 RMK AO2 SLP076 CIG 013V017 T02110178 (KAF),FM-15,7,,,,,,,,,,,,,,,,,,,,,,,,,,,3/27/2007
72219013874,2020-02-13T05:50:00,FM-16,6,,,,,,,,,,,,,,,,,,,,,,,,,,,,,,,,,,,,,,,29.78,64,70,,,,,83,,BKN:07 14 OVC:08 22,28.69,9,66,210,,14,,,,,,,,,,,,,,,,,,,,,,,,,,,,,,,,,,,,,MET10502/13/20 05:50:02 SPECI KATL 131050Z 21012KT 9SM BKN014 OVC022 21/18 A2978 RMK AO2 CIG 012V016 FIBI (KAF),FM-16,6,,,,,,,,,,,,,,,,,,,,,,,,,,,3/27/2007
72219013874,2020-02-13T05:52:00,FM-15,7,,,,,,,,,,,,,,,,,,,,,,,,,,,,,,,,,,,,,,,29.78,64,70,T,-RA:02 |RA |RA,,,82,29.75,BKN:07 14 OVC:08 22,28.69,9,66,200,,14,,,,,,,,,,,,,,,,,,,,,,,,,,,,,,,,,,,,,MET13302/13/20 05:52:02 METAR KATL 131052Z 20012KT 9SM -RA BKN014 OVC022 21/18 A2978 RMK AO2 RAB51 SLP076 CIG 012V016 P0000 T02110178 (KAF),FM-15,7,,,,,,,,,,,,,,,,,,,,,,,,,,,3/27/2007
72219013874,2020-02-13T06:28:00,FM-16,7,,,,,,,,,,,,,,,,,,,,,,,,,,,,,,,,,,,,,,,29.78,65,69,0.01,+RA:02 BR:1 |RA |RA,,,87,,OVC:08 14,28.69,3,66,200,22,14,,,,,,,,,,,,,,,,,,,,,,,,,,,,,,,,,,,,,MET14402/13/20 06:28:02 SPECI KATL 131128Z 20012G19KT 3SM +RA BR OVC014 21/18 A2978 RMK AO2 SFC VIS 4 LTG DSNT W CB DSNT SW-NW-N P0001 T02060183 (KAF),FM-16,7,,,,,,,,,,,,,,,,,,,,,,,,,,,3/27/2007
72219013874,2020-02-13T06:37:00,FM-16,7,,,,,,,,,,,,,,,,,,,,,,,,,,,,,,,,,,,,,,,29.78,65,69,0.03,TS:7 -RA:02 BR:1 |RA TS |RA,,,87,,BKN:07 14 OVC:08 24,28.69,3,66,210,21,11,,,,,,,,,,,,,,,,,,,,,,,,,,,,,,,,,,,,,MET17502/13/20 06:37:02 SPECI KATL 131137Z 21010G18KT 3SM -TSRA BR BKN014 OVC024CB 21/18 A2978 RMK AO2 SFC VIS 5 TSB36 OCNL LTGICCGCA SW-NW-N TS SW-NW-N MOV NE P0003 T02060183 (KAF),FM-16,7,,,,,,,,,,,,,,,,,,,,,,,,,,,3/27/2007
72219013874,2020-02-13T06:52:00,FM-15,7,,,,,,,,,,,,,,,,,,,,,,,,,,,,,,,,,,,,,,,29.8,64,70,0.19s,TS:7 +RA:02 BR:1 |RA TS |RA,-0.02,3,83,29.77,BKN:07 12 OVC:08 20,28.71,3,66,280,41,24,,,,,,,,,,,,,,,,,,,,,,,,,,,,,,,,,,,,,MET22802/13/20 06:52:02 METAR KATL 131152Z 28021G36KT 3SM +TSRA BR BKN012 OVC020CB 21/18 A2980 RMK AO2 PK WND 29036/1152 SFC VIS 4 TSB36 SLP082 OCNL LTGICCGCA NE-OHD-SW TS NE-OHD-SW MOV NE P0008 60008 70008 T02060183 10211 20194 53006,FM-15,7,,,,,,,,,,,,,,,,,,,,,,,,,,,3/27/2007
72219013874,2020-02-13T06:55:00,FM-16,7,,,,,,,,,,,,,,,,,,,,,,,,,,,,,,,,,,,,,,,29.83,63,66,0.01,TS:7 +RA:02 BR:1 |SQ RA |RA,,,90,,BKN:07 12 OVC:08 18,28.74,0.75,64,300,43,29,,,,,,,,,,,,,,,,,,,,,,,,,,,,,,,,,,,,,MET22302/13/20 06:55:02 SPECI KATL 131155Z 30025G37KT 3/4SM R09R/2200VP6000FT +TSRA BR SQ BKN012 OVC018CB 19/17 A2983 RMK AO2 PK WND 30037/1153 TWR VIS 3 PRESRR OCNL LTGICCGCA NE-OHD-SW TS NE-OHD-SW MOV NE P0001 T01890172 $ (KAF),FM-16,7,,,,,,,,,,,,,,,,,,,,,,,,,,,3/27/2007
72219013874,2020-02-13T06:57:00,FM-16,7,,,,,,,,,,,,,,,,,,,,,,,,,,,,,,,,,,,,,,,29.82,60,64,0.02,TS:7 +RA:02 BR:1 |SQ RA |RA,,,87,,BKN:07 12 OVC:08 18,28.73,0.75,62,310,43,25,,,,,,,,,,,,,,,,,,,,,,,,,,,,,,,,,,,,,MET21302/13/20 06:57:02 SPECI KATL 131157Z 31022G37KT 3/4SM R09R/2200VP6000FT +TSRA BR SQ BKN012 OVC018CB 18/16 A2982 RMK AO2 PK WND 30037/1153 PRESRR OCNL LTGICCGCA NE-OHD-SW TS NE-OHD-SW MOV NE P0002 T01780156 $ (KAF),FM-16,7,,,,,,,,,,,,,,,,,,,,,,,,,,,3/27/2007
72219013874,2020-02-13T07:00:00,FM-12,4,,,,,,,,,,,,,,,,,,,,,,,,,,,,,,,,,,,,,,,,65,69,,,-0.02,3,87,29.77,15,28.7,2.98,66,280,,24,,,,,,,,,,,,,,,,,,,,,,,,,,,,,,,,,,,,,SYN11072219 11448 82821 10206 20183 39720 40082 53006 60021 710// 91152 333 10228 20194 70020 91036 96010 555 91312=,FM-12,4,,,,,,,,,,,,,,,,,,,,,,,,,,,3/27/2007
72219013874,2020-02-13T07:03:00,FM-16,7,,,,,,,,,,,,,,,,,,,,,,,,,,,,,,,,,,,,,,,29.81,59,63,0.37,TS:7 RA:02 BR:1 |RA TS |RA,,,87,,SCT:04 8 BKN:07 14 OVC:08 30,28.72,3,61,300,37,17,,,,,,,,,,,,,,,,,,,,,,,,,,,,,,,,,,,,,MET20502/13/20 07:03:02 SPECI KATL 131203Z 30015G32KT 3SM R09R/2200VP6000FT TSRA BR SCT008 BKN014 OVC030CB 17/15 A2981 RMK AO2 PK WND 30037/1153 OCNL LTGICCGCA NE-SE-SW TS NE-SE-SW MOV NE P0037 T01720150 $ (KAF),FM-16,7,,,,,,,,,,,,,,,,,,,,,,,,,,,3/27/2007
72219013874,2020-02-13T07:09:00,FM-16,7,,,,,,,,,,,,,,,,,,,,,,,,,,,,,,,,,,,,,,,29.83,59,63,0.39,TS:7 RA:02 BR:1 |RA TS |RA,,,87,,SCT:04 8 BKN:07 14 OVC:08 30,28.74,3,61,290,,13,,,,,,,,,,,,,,,,,,,,,,,,,,,,,,,,,,,,,MET20102/13/20 07:09:02 SPECI KATL 131209Z 29011KT 3SM TSRA BR SCT008 BKN014 OVC030CB 17/15 A2983 RMK AO2 PK WND 30037/1153 WSHFT 1151 FROPA OCNL LTGICCGCA NE-SE-SW TS NE-SE-SW MOV NE P0039 T01720150 $ (KAF),FM-16,7,,,,,,,,,,,,,,,,,,,,,,,,,,,3/27/2007
72219013874,2020-02-13T07:26:00,FM-16,7,,,,,,,,,,,,,,,,,,,,,,,,,,,,,,,,,,,,,,,29.84,59,62,0.45,RA:02 BR:1 |RA |RA,,,90,,SCT:04 7 BKN:07 14 OVC:08 34,28.75,3,60,310,24,16,,,,,,,,,,,,,,,,,,,,,,,,,,,,,,,,,,,,,MET17802/13/20 07:26:02 SPECI KATL 131226Z 31014G21KT 3SM RA BR SCT007 BKN014 OVC034 17/15 A2984 RMK AO2 PK WND 30037/1153 WSHFT 1151 SFC VIS 4 TSE25 TS MOVD NE P0045 T01670150 $ (KAF),FM-16,7,,,,,,,,,,,,,,,,,,,,,,,,,,,3/27/2007
72219013874,2020-02-13T07:41:00,FM-16,7,,,,,,,,,,,,,,,,,,,,,,,,,,,,,,,,,,,,,,,29.86,57,61,0.48,RA:02 BR:1 |RA |RA,,,87,,BKN:07 16 BKN:07 34 OVC:08 60,28.77,3,59,310,23,15,,,,,,,,,,,,,,,,,,,,,,,,,,,,,,,,,,,,,MET19002/13/20 07:41:02 SPECI KATL 131241Z 31013G20KT 3SM RA BR BKN016 BKN034 OVC060 16/14 A2986 RMK AO2 PK WND 30037/1153 WSHFT 1151 SFC VIS 4 TSE25 TS MOVD NE CIG 014V018 P0048 T01610139 $ (KAF),FM-16,7,,,,,,,,,,,,,,,,,,,,,,,,,,,3/27/2007
72219013874,2020-02-13T07:50:00,FM-16,6,,,,,,,,,,,,,,,,,,,,,,,,,,,,,,,,,,,,,,,29.86,57,61,,+RA:02 BR:1 |RA |RA,,,88,,FEW:02 8 BKN:07 15 OVC:08 28,28.77,2.5,59,320,,14,,,,,,,,,,,,,,,,,,,,,,,,,,,,,,,,,,,,,MET17502/13/20 07:50:02 SPECI KATL 131250Z 32012KT 2 1/2SM +RA BR FEW008 BKN015 OVC028 16/14 A2986 RMK AO2 PK WND 30037/1153 WSHFT 1151 TSE25 TS MOVD NE CIG 013V017 P0052 FIBI (KAF),FM-16,6,,,,,,,,,,,,,,,,,,,,,,,,,,,3/27/2007
72219013874,2020-02-13T07:52:00,FM-15,7,,,,,,,,,,,,,,,,,,,,,,,,,,,,,,,,,,,,,,,29.86,57,60,0.43,RA:02 BR:1 |RA |RA,,,90,29.84,FEW:02 8 BKN:07 15 OVC:08 28,28.77,2.5,58,320,,14,,,,,,,,,,,,,,,,,,,,,,,,,,,,,,,,,,,,,MET18602/13/20 07:52:02 METAR KATL 131252Z 32012KT 2 1/2SM RA BR FEW008 BKN015 OVC028 16/14 A2986 RMK AO2 PK WND 30037/1153 WSHFT 1151 TSE25 SLP104 TS MOVD NE CIG 013V017 P0053 T01560139 (KAF),FM-15,7,,,,,,,,,,,,,,,,,,,,,,,,,,,3/27/2007
72219013874,2020-02-13T08:20:00,FM-16,7,,,,,,,,,,,,,,,,,,,,,,,,,,,,,,,,,,,,,,,29.85,56,59,0.1,RA:02 BR:1 |RA |RA,,,90,,FEW:02 7 BKN:07 32 OVC:08 70,28.76,2.5,57,320,,9,,,,,,,,,,,,,,,,,,,,,,,,,,,,,,,,,,,,,MET13102/13/20 08:20:02 SPECI KATL 131320Z 32008KT 2 1/2SM RA BR FEW007 BKN032 OVC070 15/13 A2985 RMK AO2 SFC VIS 4 P0010 T01500133 (KAF),FM-16,7,,,,,,,,,,,,,,,,,,,,,,,,,,,3/27/2007
72219013874,2020-02-13T08:52:00,FM-15,7,,,,,,,,,,,,,,,,,,,,,,,,,,,,,,,,,,,,,,,29.89,56,59,0.23,RA:02 BR:1 |RA |RA,,,90,29.88,SCT:04 7 BKN:07 12 OVC:08 40,28.8,2.5,57,270,,5,,,,,,,,,,,,,,,,,,,,,,,,,,,,,,,,,,,,,MET12802/13/20 08:52:02 METAR KATL 131352Z 27004KT 2 1/2SM RA BR SCT007 BKN012 OVC040 15/13 A2989 RMK AO2 SLP117 P0022 T01500133 (KAF),FM-15,7,,,,,,,,,,,,,,,,,,,,,,,,,,,3/27/2007
72219013874,2020-02-13T09:13:00,FM-16,7,,,,,,,,,,,,,,,,,,,,,,,,,,,,,,,,,,,,,,,29.89,57,59,0.03,-RA:02 |RA |RA,,,93,,SCT:04 7 BKN:07 28 OVC:08 50,28.8,8,58,260,,6,,,,,,,,,,,,,,,,,,,,,,,,,,,,,,,,,,,,,MET11502/13/20 09:13:02 SPECI KATL 131413Z 26005KT 8SM -RA SCT007 BKN028 OVC050 15/14 A2989 RMK AO2 P0003 T01500139 (CPS),FM-16,7,,,,,,,,,,,,,,,,,,,,,,,,,,,3/27/2007
72219013874,2020-02-13T09:30:00,FM-16,7,,,,,,,,,,,,,,,,,,,,,,,,,,,,,,,,,,,,,,,29.88,56,59,0.04,-RA:02 |RA |RA,,,90,,SCT:04 9 SCT:04 28 OVC:08 95,28.79,9,57,270,,7,,,,,,,,,,,,,,,,,,,,,,,,,,,,,,,,,,,,,MET11502/13/20 09:30:02 SPECI KATL 131430Z 27006KT 9SM -RA SCT009 SCT028 OVC095 15/13 A2988 RMK AO2 P0004 T01500133 (CPS),FM-16,7,,,,,,,,,,,,,,,,,,,,,,,,,,,3/27/2007
72219013874,2020-02-13T09:52:00,FM-15,7,,,,,,,,,,,,,,,,,,,,,,,,,,,,,,,,,,,,,,,29.88,56,59,0.05,-RA:02 BR:1 |RA |RA,-0.08,0,90,29.86,FEW:02 9 SCT:04 40 OVC:08 100,28.79,5,57,240,,6,,,,,,,,,,,,,,,,,,,,,,,,,,,,,,,,,,,,,MET13702/13/20 09:52:02 METAR KATL 131452Z 24005KT 5SM -RA BR FEW009 SCT040 OVC100 15/13 A2988 RMK AO2 SLP113 P0006 60081 T01500133 50027 (CPS),FM-15,7,,,,,,,,,,,,,,,,,,,,,,,,,,,3/27/2007
72219013874,2020-02-13T10:52:00,FM-15,7,,,,,,,,,,,,,,,,,,,,,,,,,,,,,,,,,,,,,,,29.93,55,60,0.01,,,,84,29.91,SCT:04 12 BKN:07 65 BKN:07 100,28.84,10,57,260,,9,,,,,,,,,,,,,,,,,,,,,,,,,,,,,,,,,,,,,MET12502/13/20 10:52:02 METAR KATL 131552Z 26008KT 10SM SCT012 BKN065 BKN100 16/13 A2993 RMK AO2 RAE22 SLP129 P0002 T01560128 (CPS),FM-15,7,,,,,,,,,,,,,,,,,,,,,,,,,,,3/27/2007
72219013874,2020-02-13T11:52:00,FM-15,7,,,,,,,,,,,,,,,,,,,,,,,,,,,,,,,,,,,,,,,29.91,56,61,0,,,,84,29.89,SCT:04 12 BKN:07 65 BKN:07 110,28.82,10,58,270,,13,,,,,,,,,,,,,,,,,,,,,,,,,,,,,,,,,,,,,MET11302/13/20 11:52:02 METAR KATL 131652Z 27011KT 10SM SCT012 BKN065 BKN110 16/13 A2991 RMK AO2 SLP122 T01610133 (CPS),FM-15,7,,,,,,,,,,,,,,,,,,,,,,,,,,,3/27/2007
72219013874,2020-02-13T12:08:00,FM-16,7,,,,,,,,,,,,,,,,,,,,,,,,,,,,,,,,,,,,,,,29.91,56,62,,,,,80,,BKN:07 14 BKN:07 110,28.82,10,59,280,,10,,,,,,,,,,,,,,,,,,,,,,,,,,,,,,,,,,,,,MET09902/13/20 12:08:02 SPECI KATL 131708Z 28009KT 10SM BKN014 BKN110 17/13 A2991 RMK AO2 T01670133 (CPS),FM-16,7,,,,,,,,,,,,,,,,,,,,,,,,,,,3/27/2007
72219013874,2020-02-13T12:52:00,FM-15,7,,,,,,,,,,,,,,,,,,,,,,,,,,,,,,,,,,,,,,,29.91,54,62,0,,-0.03,0,75,29.89,BKN:07 14 BKN:07 65 BKN:07 110,28.82,10,57,290,,14,,,,,,,,,,,,,,,,,,,,,,,,,,,,,,,,,,,,,MET15502/13/20 12:52:02 METAR KATL 131752Z 29012KT 10SM BKN014 BKN065 BKN110 17/12 A2991 RMK AO2 PK WND 32026/1741 SLP122 60083 T01670122 10200 20150 50009 (CPS),FM-15,7,,,,,,,,,,,,,,,,,,,,,,,,,,,3/27/2007
72219013874,2020-02-13T13:00:00,FM-12,4,,,,,,,,,,,,,,,,,,,,,,,,,,,,,,,,,,,,,,,,54,62,,,0.03,9,75,29.89,15,28.81,9.94,57,290,,14,,,,,,,,,,,,,,,,,,,,,,,,,,,,,,,,,,,,,SYN08672219 12466 62912 10167 20122 39756 40122 50009 60211 91752 333 10211 20150 555 91318=,FM-12,4,,,,,,,,,,,,,,,,,,,,,,,,,,,3/27/2007
72219013874,2020-02-13T13:06:00,FM-16,7,,,,,,,,,,,,,,,,,,,,,,,,,,,,,,,,,,,,,,,29.92,53,61,,,,,75,,SCT:04 14 BKN:07 24 BKN:07 110,28.82,10,57,310,24,17,,,,,,,,,,,,,,,,,,,,,,,,,,,,,,,,,,,,,MET10902/13/20 13:06:02 SPECI KATL 131806Z 31015G21KT 10SM SCT014 BKN024 BKN110 16/12 A2992 RMK AO2 T01610117 (CPS),FM-16,7,,,,,,,,,,,,,,,,,,,,,,,,,,,3/27/2007
72219013874,2020-02-13T13:52:00,FM-15,7,,,,,,,,,,,,,,,,,,,,,,,,,,,,,,,,,,,,,,,29.92,49,60,0,,,,67,29.91,BKN:07 24 BKN:07 110 BKN:07 250,28.82,10,54,320,,18,,,,,,,,,,,,,,,,,,,,,,,,,,,,,,,,,,,,,MET11302/13/20 13:52:02 METAR KATL 131852Z 32016KT 10SM BKN024 BKN110 BKN250 16/09 A2992 RMK AO2 SLP127 T01560094 (CPS),FM-15,7,,,,,,,,,,,,,,,,,,,,,,,,,,,3/27/2007
72219013874,2020-02-13T14:52:00,FM-15,7,,,,,,,,,,,,,,,,,,,,,,,,,,,,,,,,,,,,,,,29.94,48,59,0,,,,67,29.93,BKN:07 25 BKN:07 250,28.84,10,53,300,29,23,,,,,,,,,,,,,,,,,,,,,,,,,,,,,,,,,,,,,MET10902/13/20 14:52:02 METAR KATL 131952Z 30020G25KT 10SM BKN025 BKN250 15/09 A2994 RMK AO2 SLP135 T01500089 (CPS),FM-15,7,,,,,,,,,,,,,,,,,,,,,,,,,,,3/27/2007
72219013874,2020-02-13T15:52:00,FM-15,7,,,,,,,,,,,,,,,,,,,,,,,,,,,,,,,,,,,,,,,29.97,46,56,0,,-0.06,3,70,29.96,OVC:08 23,28.87,10,51,320,26,21,,,,,,,,,,,,,,,,,,,,,,,,,,,,,,,,,,,,,MET11502/13/20 15:52:02 METAR KATL 132052Z 32018G23KT 10SM OVC023 13/08 A2997 RMK AO2 SLP144 BINOVC T01330078 53020 (CPS),FM-15,7,,,,,,,,,,,,,,,,,,,,,,,,,,,3/27/2007
72219013874,2020-02-13T16:52:00,FM-15,7,,,,,,,,,,,,,,,,,,,,,,,,,,,,,,,,,,,,,,,30,44,53,0,,,,72,29.99,FEW:02 17 BKN:07 25 BKN:07 200,28.9,10,48,310,,16,,,,,,,,,,,,,,,,,,,,,,,,,,,,,,,,,,,,,MET13102/13/20 16:52:02 METAR KATL 132152Z 31014KT 10SM FEW017 BKN025 BKN200 12/07 A3000 RMK AO2 PK WND 31027/2123 SLP156 T01170067 (CPS),FM-15,7,,,,,,,,,,,,,,,,,,,,,,,,,,,3/27/2007
72219013874,2020-02-13T17:52:00,FM-15,7,,,,,,,,,,,,,,,,,,,,,,,,,,,,,,,,,,,,,,,30.04,41,52,0,,,,66,30.03,FEW:02 22 BKN:07 30 BKN:07 200,28.94,10,47,320,,16,,,,,,,,,,,,,,,,,,,,,,,,,,,,,,,,,,,,,MET11202/13/20 17:52:02 METAR KATL 132252Z 32014KT 10SM FEW022 BKN030 BKN200 11/05 A3004 RMK AO2 SLP169 T01110050 (RF),FM-15,7,,,,,,,,,,,,,,,,,,,,,,,,,,,3/27/2007
72219013874,2020-02-13T18:52:00,FM-15,7,,,,,,,,,,,,,,,,,,,,,,,,,,,,,,,,,,,,,,,30.07,38,50,0,,-0.1,1,63,30.06,FEW:02 24 SCT:04 32 BKN:07 150,28.97,10,44,330,28,17,,,,,,,,,,,,,,,,,,,,,,,,,,,,,,,,,,,,,MET13302/13/20 18:52:02 METAR KATL 132352Z 33015G24KT 10SM FEW024 SCT032 BKN150 10/03 A3007 RMK AO2 SLP181 T01000033 10178 20100 51034 (RF),FM-15,7,,,,,,,,,,,,,,,,,,,,,,,,,,,3/27/2007
72219013874,2020-02-13T19:00:00,FM-12,4,,,,,,,,,,,,,,,,,,,,,,,,,,,,,,,,,,,,,,,,38,50,,,-0.1,1,63,30.06,26,28.96,9.94,44,330,,17,,,,,,,,,,,,,,,,,,,,,,,,,,,,,,,,,,,,,SYN08672219 32566 63315 10100 20033 39808 40181 51034 92352 333 10200 20100 91024 555 91400=,FM-12,4,,,,,,,,,,,,,,,,,,,,,,,,,,,3/27/2007
72219013874,2020-02-13T19:52:00,FM-15,7,,,,,,,,,,,,,,,,,,,,,,,,,,,,,,,,,,,,,,,30.11,36,48,0,,,,63,30.11,SCT:04 25 BKN:07 150 BKN:07 200,29.01,10,43,320,25,18,,,,,,,,,,,,,,,,,,,,,,,,,,,,,,,,,,,,,MET11002/13/20 19:52:01 METAR KATL 140052Z 32016G22KT 10SM SCT025 BKN150 BKN200 09/02 A3011 RMK AO2 SLP196 T00890022,FM-15,7,,,,,,,,,,,,,,,,,,,,,,,,,,,3/27/2007
72219013874,2020-02-13T20:52:00,FM-15,7,,,,,,,,,,,,,,,,,,,,,,,,,,,,,,,,,,,,,,,30.14,33,45,0,,,,63,30.14,FEW:02 25 BKN:07 150 BKN:07 200,29.04,10,40,330,29,16,,,,,,,,,,,,,,,,,,,,,,,,,,,,,,,,,,,,,MET11002/13/20 20:52:01 METAR KATL 140152Z 33014G25KT 10SM FEW025 BKN150 BKN200 07/01 A3014 RMK AO2 SLP208 T00720006,FM-15,7,,,,,,,,,,,,,,,,,,,,,,,,,,,3/27/2007
72219013874,2020-02-13T21:52:00,FM-15,7,,,,,,,,,,,,,,,,,,,,,,,,,,,,,,,,,,,,,,,30.15,32,44,0,,-0.08,1,63,30.15,FEW:02 25 BKN:07 150 BKN:07 200,29.05,10,39,340,25,18,,,,,,,,,,,,,,,,,,,,,,,,,,,,,,,,,,,,,MET11602/13/20 21:52:01 METAR KATL 140252Z 34016G22KT 10SM FEW025 BKN150 BKN200 07/00 A3015 RMK AO2 SLP211 T00670000 51026,FM-15,7,,,,,,,,,,,,,,,,,,,,,,,,,,,3/27/2007
72219013874,2020-02-13T22:52:00,FM-15,7,,,,,,,,,,,,,,,,,,,,,,,,,,,,,,,,,,,,,,,30.18,32,43,0,,,,65,30.18,FEW:02 25 BKN:07 150 OVC:08 200,29.08,10,38,330,23,15,,,,,,,,,,,,,,,,,,,,,,,,,,,,,,,,,,,,,MET11002/13/20 22:52:01 METAR KATL 140352Z 33013G20KT 10SM FEW025 BKN150 OVC200 06/00 A3018 RMK AO2 SLP221 T00610000,FM-15,7,,,,,,,,,,,,,,,,,,,,,,,,,,,3/27/2007
72219013874,2020-02-13T23:52:00,FM-15,7,,,,,,,,,,,,,,,,,,,,,,,,,,,,,,,,,,,,,,,30.19,31,42,0,,,,65,30.19,OVC:08 200,29.09,10,37,330,,10,,,,,,,,,,,,,,,,,,,,,,,,,,,,,,,,,,,,,MET10402/13/20 23:52:02 METAR KATL 140452Z 33009KT 10SM OVC200 06/M01 A3019 RMK AO2 SLP224 T00561006 402110056,FM-15,7,,,,,,,,,,,,,,,,,,,,,,,,,,,3/27/2007
72219013874,2020-02-13T23:59:00,SOD  ,6,,,,,,,,,,,,,,,,,50,56,75,29.93,28.81,54,15,0,9.3,9,70,41,300,43,0.91,0,0,300,35,TS RA DZ BR,,,,,,,,,,,,,,,,,,,,,,,,,,,,,,,,,,,,,,,,,,,,,,,,,,,,,,,SOD75724 HR PRECIPITATION (IN): 0.91 SNOW DEPTH (IN):0     24 HR SNOWFALL (IN):0.0  WEATHER(CODE):13  24 HR MAX TEMP (F): 7024 HR MIN TEMP (F): 41AVERAGE STATION PRESSURE:28.810 MINIMUM SEA LEVEL PRESSURE:29.75 TIME OF OCCURRENCE:0645 PEAK WIND SPEED (MPH): 43 PEAK WIND DIR (DEG):300 PEAK WIND TIME (LST):      FASTEST 2MIN SPEED (MPH): 35FASTEST 2MIN DIR (DEG):300 FASTEST 2MIN TIME (LST):     AVERAGE WIND SPEED (MPH):15.0 24 HR AVG TEMP (F): 56DEPART FROM NORMAL:  9  HEATING DEGREE DAYS:  9 COOLING DEGREE DAYS:  0 LATEST DAY MAX TEMP (0700-1900 LST):64  LATEST NIGHT MIN TEMP(1900-0800 LST):60 HOURLY INCREMENTAL PRECIPITATION VALUES (IN):    T    T    0.00 0.00 T    0.19 0.43 0.23 0.05 0.01 0.00 0.00 0.00 0.00 0.00 0.00 0.00 0.00 0.00 0.00 0.00 0.00 0.00,SOD  ,6,,,,,,,,,,,,,,,,,,,,,,,,,724,1820,3/27/2007
72219013874,2020-02-14T00:52:00,FM-15,7,,,,,,,,,,,,,,,,,,,,,,,,,,,,,,,,,,,,,,,30.19,30,40,0,,-0.04,0,68,30.19,SCT:04 200 BKN:07 250,29.09,10,36,330,23,17,,,,,,,,,,,,,,,,,,,,,,,,,,,,,,,,,,,,,MET12702/14/20 00:52:02 METAR KATL 140552Z 33015G20KT 10SM SCT200 BKN250 04/M01 A3019 RMK AO2 SLP223 T00441011 10100 20044 50012 (RF),FM-15,7,,,,,,,,,,,,,,,,,,,,,,,,,,,3/27/2007
72219013874,2020-02-14T01:00:00,FM-12,4,,,,,,,,,,,,,,,,,,,,,,,,,,,,,,,,,,,,,,,,30,40,,,0.04,9,68,30.19,,29.08,9.94,36,330,,17,,,,,,,,,,,,,,,,,,,,,,,,,,,,,,,,,,,,,SYN08672219 32966 63315 10044 21011 39848 40223 50012 90552 333 10211 20044 91020 555 91406=,FM-12,4,,,,,,,,,,,,,,,,,,,,,,,,,,,3/27/2007
72219013874,2020-02-14T01:52:00,FM-15,7,,,,,,,,,,,,,,,,,,,,,,,,,,,,,,,,,,,,,,,30.2,29,40,0,,,,65,30.21,SCT:04 200 BKN:07 250,29.1,10,36,330,24,14,,,,,,,,,,,,,,,,,,,,,,,,,,,,,,,,,,,,,MET11002/14/20 01:52:02 METAR KATL 140652Z 33012G21KT 10SM SCT200 BKN250 04/M02 A3020 RMK AO2 SLP229 T00441017 (KAF),FM-15,7,,,,,,,,,,,,,,,,,,,,,,,,,,,3/27/2007
72219013874,2020-02-14T02:52:00,FM-15,7,,,,,,,,,,,,,,,,,,,,,,,,,,,,,,,,,,,,,,,30.21,28,39,0,,,,65,30.22,FEW:02 150 BKN:07 200 BKN:07 250,29.11,10,35,340,22,14,,,,,,,,,,,,,,,,,,,,,,,,,,,,,,,,,,,,,MET11702/14/20 02:52:02 METAR KATL 140752Z 34012G19KT 10SM FEW150 BKN200 BKN250 04/M02 A3021 RMK AO2 SLP233 T00391022 (KAF),FM-15,7,,,,,,,,,,,,,,,,,,,,,,,,,,,3/27/2007
72219013874,2020-02-14T03:52:00,FM-15,7,,,,,,,,,,,,,,,,,,,,,,,,,,,,,,,,,,,,,,,30.22,28,38,0,,-0.04,1,68,30.23,SCT:04 150 BKN:07 200 BKN:07 250,29.12,10,34,330,,10,,,,,,,,,,,,,,,,,,,,,,,,,,,,,,,,,,,,,MET12002/14/20 03:52:02 METAR KATL 140852Z 33009KT 10SM SCT150 BKN200 BKN250 03/M02 A3022 RMK AO2 SLP237 T00331022 51012 (KAF),FM-15,7,,,,,,,,,,,,,,,,,,,,,,,,,,,3/27/2007
72219013874,2020-02-14T04:52:00,FM-15,7,,,,,,,,,,,,,,,,,,,,,,,,,,,,,,,,,,,,,,,30.22,28,37,0,,,,70,30.24,FEW:02 150 BKN:07 200 BKN:07 250,29.12,10,33,330,,14,,,,,,,,,,,,,,,,,,,,,,,,,,,,,,,,,,,,,MET11402/14/20 04:52:02 METAR KATL 140952Z 33012KT 10SM FEW150 BKN200 BKN250 03/M02 A3022 RMK AO2 SLP239 T00281022 (KAF),FM-15,7,,,,,,,,,,,,,,,,,,,,,,,,,,,3/27/2007
72219013874,2020-02-14T05:52:00,FM-15,7,,,,,,,,,,,,,,,,,,,,,,,,,,,,,,,,,,,,,,,30.25,27,37,0,,,,67,30.26,FEW:02 150 SCT:04 200 BKN:07 250,29.15,10,33,330,,11,,,,,,,,,,,,,,,,,,,,,,,,,,,,,,,,,,,,,MET11402/14/20 05:52:02 METAR KATL 141052Z 33010KT 10SM FEW150 SCT200 BKN250 03/M03 A3025 RMK AO2 SLP246 T00281028 (KAF),FM-15,7,,,,,,,,,,,,,,,,,,,,,,,,,,,3/27/2007
72219013874,2020-02-14T06:52:00,FM-15,7,,,,,,,,,,,,,,,,,,,,,,,,,,,,,,,,,,,,,,,30.26,27,35,0,,-0.04,3,72,30.28,SCT:04 200 SCT:04 250,29.15,10,32,330,,13,,,,,,,,,,,,,,,,,,,,,,,,,,,,,,,,,,,,,MET13102/14/20 06:52:02 METAR KATL 141152Z 33011KT 10SM SCT200 SCT250 02/M03 A3026 RMK AO2 SLP254 70083 T00171028 10044 20017 53014 (KAF),FM-15,7,,,,,,,,,,,,,,,,,,,,,,,,,,,3/27/2007
72219013874,2020-02-14T07:00:00,FM-12,4,,,,,,,,,,,,,,,,,,,,,,,,,,,,,,,,,,,,,,,,27,35,,,-0.04,3,72,30.28,,29.15,9.94,32,330,,13,,,,,,,,,,,,,,,,,,,,,,,,,,,,,,,,,,,,,SYN08672219 32966 43311 10017 21028 39871 40254 53014 91152 333 10211 20017 70211 555 91412=,FM-12,4,,,,,,,,,,,,,,,,,,,,,,,,,,,3/27/2007
72219013874,2020-02-14T07:52:00,FM-15,7,,,,,,,,,,,,,,,,,,,,,,,,,,,,,,,,,,,,,,,30.28,27,35,0,,,,72,30.3,FEW:02 200,29.18,10,32,330,,14,,,,,,,,,,,,,,,,,,,,,,,,,,,,,,,,,,,,,MET10002/14/20 07:52:02 METAR KATL 141252Z 33012KT 10SM FEW200 02/M03 A3028 RMK AO2 SLP260 T00171028 (KAF),FM-15,7,,,,,,,,,,,,,,,,,,,,,,,,,,,3/27/2007
72219013874,2020-02-14T08:52:00,FM-15,7,,,,,,,,,,,,,,,,,,,,,,,,,,,,,,,,,,,,,,,30.31,28,37,0,,,,70,30.33,FEW:02 200,29.21,10,33,330,,13,,,,,,,,,,,,,,,,,,,,,,,,,,,,,,,,,,,,,MET10002/14/20 08:52:02 METAR KATL 141352Z 33011KT 10SM FEW200 03/M02 A3031 RMK AO2 SLP271 T00281022 (KAF),FM-15,7,,,,,,,,,,,,,,,,,,,,,,,,,,,3/27/2007
72219013874,2020-02-14T09:52:00,FM-15,7,,,,,,,,,,,,,,,,,,,,,,,,,,,,,,,,,,,,,,,30.34,28,40,0,,-0.07,3,63,30.35,FEW:02 200,29.23,10,35,320,,11,,,,,,,,,,,,,,,,,,,,,,,,,,,,,,,,,,,,,MET10602/14/20 09:52:02 METAR KATL 141452Z 32010KT 10SM FEW200 04/M02 A3034 RMK AO2 SLP279 T00441022 53025 (CPS),FM-15,7,,,,,,,,,,,,,,,,,,,,,,,,,,,3/27/2007
72219013874,2020-02-14T10:52:00,FM-15,7,,,,,,,,,,,,,,,,,,,,,,,,,,,,,,,,,,,,,,,30.36,26,44,0,,,,49,30.37,FEW:02 200,29.25,10,37,330,,8,,,,,,,,,,,,,,,,,,,,,,,,,,,,,,,,,,,,,MET10002/14/20 10:52:02 METAR KATL 141552Z 33007KT 10SM FEW200 07/M03 A3036 RMK AO2 SLP285 T00671033 (CPS),FM-15,7,,,,,,,,,,,,,,,,,,,,,,,,,,,3/27/2007
72219013874,2020-02-14T11:52:00,FM-15,7,,,,,,,,,,,,,,,,,,,,,,,,,,,,,,,,,,,,,,,30.36,24,48,0,,,,39,30.37,FEW:02 200,29.25,10,38,330,,11,,,,,,,,,,,,,,,,,,,,,,,,,,,,,,,,,,,,,MET10002/14/20 11:52:02 METAR KATL 141652Z 33010KT 10SM FEW200 09/M04 A3036 RMK AO2 SLP286 T00891044 (CPS),FM-15,7,,,,,,,,,,,,,,,,,,,,,,,,,,,3/27/2007
72219013874,2020-02-14T12:52:00,FM-15,7,,,,,,,,,,,,,,,,,,,,,,,,,,,,,,,,,,,,,,,30.35,22,50,0,,-0.01,0,33,30.36,FEW:02 200,29.24,10,39,340,,9,,,,,,,,,,,,,,,,,,,,,,,,,,,,,,,,,,,,,MET11802/14/20 12:52:02 METAR KATL 141752Z 34008KT 10SM FEW200 10/M06 A3035 RMK AO2 SLP281 T01001056 10100 20011 50003 (CPS),FM-15,7,,,,,,,,,,,,,,,,,,,,,,,,,,,3/27/2007
72219013874,2020-02-14T13:00:00,FM-12,4,,,,,,,,,,,,,,,,,,,,,,,,,,,,,,,,,,,,,,,,22,50,,,0.01,9,33,30.36,,29.23,9.94,39,340,,9,,,,,,,,,,,,,,,,,,,,,,,,,,,,,,,,,,,,,SYN08072219 32966 23408 10100 21056 39900 40281 50003 91752 333 10100 20011 555 91418=,FM-12,4,,,,,,,,,,,,,,,,,,,,,,,,,,,3/27/2007
72219013874,2020-02-14T13:52:00,FM-15,7,,,,,,,,,,,,,,,,,,,,,,,,,,,,,,,,,,,,,,,30.33,22,52,0,,,,31,30.34,CLR:00,29.22,10,40,320,,13,,,,,,,,,,,,,,,,,,,,,,,,,,,,,,,,,,,,,MET09702/14/20 13:52:02 METAR KATL 141852Z 32011KT 10SM CLR 11/M06 A3033 RMK AO2 SLP273 T01111056 (CPS),FM-15,7,,,,,,,,,,,,,,,,,,,,,,,,,,,3/27/2007
72219013874,2020-02-14T14:52:00,FM-15,7,,,,,,,,,,,,,,,,,,,,,,,,,,,,,,,,,,,,,,,30.32,21,52,0,,,,30,30.33,CLR:00,29.21,10,40,340,22,15,,,,,,,,,,,,,,,,,,,,,,,,,,,,,,,,,,,,,MET10002/14/20 14:52:02 METAR KATL 141952Z 34013G19KT 10SM CLR 11/M06 A3032 RMK AO2 SLP271 T01111061 (CPS),FM-15,7,,,,,,,,,,,,,,,,,,,,,,,,,,,3/27/2007
72219013874,2020-02-14T15:52:00,FM-15,7,,,,,,,,,,,,,,,,,,,,,,,,,,,,,,,,,,,,,,,30.32,19,51,0,,0.03,5,28,30.33,CLR:00,29.21,10,39,340,,14,,,,,,,,,,,,,,,,,,,,,,,,,,,,,,,,,,,,,MET10302/14/20 15:52:02 METAR KATL 142052Z 34012KT 10SM CLR 11/M07 A3032 RMK AO2 SLP271 T01061072 55009 (CPS),FM-15,7,,,,,,,,,,,,,,,,,,,,,,,,,,,3/27/2007
72219013874,2020-02-14T16:52:00,FM-15,7,,,,,,,,,,,,,,,,,,,,,,,,,,,,,,,,,,,,,,,30.33,21,51,0,,,,31,30.34,CLR:00,29.22,10,39,320,,15,,,,,,,,,,,,,,,,,,,,,,,,,,,,,,,,,,,,,MET09702/14/20 16:52:02 METAR KATL 142152Z 32013KT 10SM CLR 11/M06 A3033 RMK AO2 SLP275 T01061061 (CPS),FM-15,7,,,,,,,,,,,,,,,,,,,,,,,,,,,3/27/2007
72219013874,2020-02-14T17:52:00,FM-15,7,,,,,,,,,,,,,,,,,,,,,,,,,,,,,,,,,,,,,,,30.34,19,48,0,,,,32,30.36,CLR:00,29.23,10,37,330,,13,,,,,,,,,,,,,,,,,,,,,,,,,,,,,,,,,,,,,MET09602/14/20 17:52:02 METAR KATL 142252Z 33011KT 10SM CLR 09/M07 A3034 RMK AO2 SLP280 T00891072 (RF),FM-15,7,,,,,,,,,,,,,,,,,,,,,,,,,,,3/27/2007
72219013874,2020-02-14T18:52:00,FM-15,7,,,,,,,,,,,,,,,,,,,,,,,,,,,,,,,,,,,,,,,30.36,20,45,0,,-0.04,3,37,30.38,CLR:00,29.25,10,36,330,,14,,,,,,,,,,,,,,,,,,,,,,,,,,,,,,,,,,,,,MET11402/14/20 18:52:02 METAR KATL 142352Z 33012KT 10SM CLR 07/M07 A3036 RMK AO2 SLP289 T00721067 10111 20072 53015 (RF),FM-15,7,,,,,,,,,,,,,,,,,,,,,,,,,,,3/27/2007
72219013874,2020-02-14T19:00:00,FM-12,4,,,,,,,,,,,,,,,,,,,,,,,,,,,,,,,,,,,,,,,,20,45,,,-0.04,3,37,30.38,,29.24,9.94,36,330,,14,,,,,,,,,,,,,,,,,,,,,,,,,,,,,,,,,,,,,SYN08072219 32966 03312 10072 21067 39903 40289 53015 92352 333 10111 20017 555 91500=,FM-12,4,,,,,,,,,,,,,,,,,,,,,,,,,,,3/27/2007
72219013874,2020-02-14T19:52:00,FM-15,7,,,,,,,,,,,,,,,,,,,,,,,,,,,,,,,,,,,,,,,30.38,21,43,0,,,,42,30.4,CLR:00,29.27,10,35,340,,9,,,,,,,,,,,,,,,,,,,,,,,,,,,,,,,,,,,,,MET09102/14/20 19:52:01 METAR KATL 150052Z 34008KT 10SM CLR 06/M06 A3038 RMK AO2 SLP293 T00611061,FM-15,7,,,,,,,,,,,,,,,,,,,,,,,,,,,3/27/2007
72219013874,2020-02-14T20:52:00,FM-15,7,,,,,,,,,,,,,,,,,,,,,,,,,,,,,,,,,,,,,,,30.39,21,41,0,,,,45,30.41,CLR:00,29.28,10,34,330,,13,,,,,,,,,,,,,,,,,,,,,,,,,,,,,,,,,,,,,MET09102/14/20 20:52:01 METAR KATL 150152Z 33011KT 10SM CLR 05/M06 A3039 RMK AO2 SLP299 T00501061,FM-15,7,,,,,,,,,,,,,,,,,,,,,,,,,,,3/27/2007
72219013874,2020-02-14T21:52:00,FM-15,7,,,,,,,,,,,,,,,,,,,,,,,,,,,,,,,,,,,,,,,30.41,21,39,0,,-0.04,3,48,30.42,CLR:00,29.3,10,32,330,,9,,,,,,,,,,,,,,,,,,,,,,,,,,,,,,,,,,,,,MET09702/14/20 21:52:01 METAR KATL 150252Z 33008KT 10SM CLR 04/M06 A3041 RMK AO2 SLP303 T00391061 53014,FM-15,7,,,,,,,,,,,,,,,,,,,,,,,,,,,3/27/2007
72219013874,2020-02-14T22:52:00,FM-15,7,,,,,,,,,,,,,,,,,,,,,,,,,,,,,,,,,,,,,,,30.41,20,38,0,,,,48,30.43,CLR:00,29.3,10,32,330,,8,,,,,,,,,,,,,,,,,,,,,,,,,,,,,,,,,,,,,MET09102/14/20 22:52:01 METAR KATL 150352Z 33007KT 10SM CLR 03/M07 A3041 RMK AO2 SLP304 T00331067,FM-15,7,,,,,,,,,,,,,,,,,,,,,,,,,,,3/27/2007
72219013874,2020-02-14T23:52:00,FM-15,7,,,,,,,,,,,,,,,,,,,,,,,,,,,,,,,,,,,,,,,30.41,19,36,0,,,,50,30.42,CLR:00,29.3,10,30,330,,7,,,,,,,,,,,,,,,,,,,,,,,,,,,,,,,,,,,,,MET10102/14/20 23:52:02 METAR KATL 150452Z 33006KT 10SM CLR 02/M07 A3041 RMK AO2 SLP303 T00221072 401110011,FM-15,7,,,,,,,,,,,,,,,,,,,,,,,,,,,3/27/2007
72219013874,2020-02-14T23:59:00,SOD  ,6,,,,,,,,,,,,,,,,,24,43,50,30.33,29.18,35,12,0,-3.9,22,52,34,340,26,0,0,0,310,21,,,,,,,,,,,,,,,,,,,,,,,,,,,,,,,,,,,,,,,,,,,,,,,,,,,,,,,,SOD73924 HR PRECIPITATION (IN): 0.00 SNOW DEPTH (IN):0     24 HR SNOWFALL (IN):0.0  24 HR MAX TEMP (F): 5224 HR MIN TEMP (F): 34AVERAGE STATION PRESSURE:29.180 MINIMUM SEA LEVEL PRESSURE:30.18 TIME OF OCCURRENCE:0055 PEAK WIND SPEED (MPH): 26 PEAK WIND DIR (DEG):340 PEAK WIND TIME (LST):      FASTEST 2MIN SPEED (MPH): 21FASTEST 2MIN DIR (DEG):310 FASTEST 2MIN TIME (LST):     AVERAGE WIND SPEED (MPH):12.0 24 HR AVG TEMP (F): 43DEPART FROM NORMAL: -4  HEATING DEGREE DAYS: 22 COOLING DEGREE DAYS:  0 LATEST DAY MAX TEMP (0700-1900 LST):52  LATEST NIGHT MIN TEMP(1900-0800 LST):34 HOURLY INCREMENTAL PRECIPITATION VALUES (IN):.00 0.00 0.00 0.00 0.00 0.00 0.00 0.00 0.00 0.00 0.00 0.00 0.00 0.00 0.00 0.00 0.00 0.00 0.00 0.00 0.00 0.00 0.00 0.00,SOD  ,6,,,,,,,,,,,,,,,,,,,,,,,,,723,1821,3/27/2007
72219013874,2020-02-15T00:52:00,FM-15,7,,,,,,,,,,,,,,,,,,,,,,,,,,,,,,,,,,,,,,,30.39,19,35,0,,0.02,8,52,30.4,CLR:00,29.28,10,29,330,,6,,,,,,,,,,,,,,,,,,,,,,,,,,,,,,,,,,,,,MET11402/15/20 00:52:02 METAR KATL 150552Z 33005KT 10SM CLR 02/M07 A3039 RMK AO2 SLP296 T00171072 10072 20017 58006 (RF),FM-15,7,,,,,,,,,,,,,,,,,,,,,,,,,,,3/27/2007
72219013874,2020-02-15T01:00:00,FM-12,4,,,,,,,,,,,,,,,,,,,,,,,,,,,,,,,,,,,,,,,,19,35,,,0.02,8,52,30.4,,29.27,9.94,29,330,,6,,,,,,,,,,,,,,,,,,,,,,,,,,,,,,,,,,,,,SYN08072219 32966 03305 10017 21072 39913 40296 58006 90552 333 10072 20017 555 91506=,FM-12,4,,,,,,,,,,,,,,,,,,,,,,,,,,,3/27/2007
72219013874,2020-02-15T01:52:00,FM-15,7,,,,,,,,,,,,,,,,,,,,,,,,,,,,,,,,,,,,,,,30.39,19,33,0,,,,56,30.41,CLR:00,29.28,10,28,310,,7,,,,,,,,,,,,,,,,,,,,,,,,,,,,,,,,,,,,,MET09602/15/20 01:52:02 METAR KATL 150652Z 31006KT 10SM CLR 01/M07 A3039 RMK AO2 SLP298 T00061072 (DB),FM-15,7,,,,,,,,,,,,,,,,,,,,,,,,,,,3/27/2007
72219013874,2020-02-15T02:52:00,FM-15,7,,,,,,,,,,,,,,,,,,,,,,,,,,,,,,,,,,,,,,,30.4,18,34,0,,,,52,30.41,CLR:00,29.29,10,29,30,,7,,,,,,,,,,,,,,,,,,,,,,,,,,,,,,,,,,,,,MET09602/15/20 02:52:02 METAR KATL 150752Z 03006KT 10SM CLR 01/M08 A3040 RMK AO2 SLP299 T00111078 (DB),FM-15,7,,,,,,,,,,,,,,,,,,,,,,,,,,,3/27/2007
72219013874,2020-02-15T03:52:00,FM-15,7,,,,,,,,,,,,,,,,,,,,,,,,,,,,,,,,,,,,,,,30.4,19,33,0,,-0.01,0,56,30.41,CLR:00,29.29,10,28,10,,6,,,,,,,,,,,,,,,,,,,,,,,,,,,,,,,,,,,,,MET10202/15/20 03:52:02 METAR KATL 150852Z 01005KT 10SM CLR 01/M07 A3040 RMK AO2 SLP298 T00061072 50002 (DB),FM-15,7,,,,,,,,,,,,,,,,,,,,,,,,,,,3/27/2007
72219013874,2020-02-15T04:52:00,FM-15,7,,,,,,,,,,,,,,,,,,,,,,,,,,,,,,,,,,,,,,,30.4,19,33,0,,,,56,30.42,CLR:00,29.29,10,28,30,,6,,,,,,,,,,,,,,,,,,,,,,,,,,,,,,,,,,,,,MET09602/15/20 04:52:02 METAR KATL 150952Z 03005KT 10SM CLR 01/M07 A3040 RMK AO2 SLP301 T00061072 (DB),FM-15,7,,,,,,,,,,,,,,,,,,,,,,,,,,,3/27/2007
72219013874,2020-02-15T05:52:00,FM-15,7,,,,,,,,,,,,,,,,,,,,,,,,,,,,,,,,,,,,,,,30.42,19,34,0,,,,54,30.44,CLR:00,29.31,10,29,40,,9,,,,,,,,,,,,,,,,,,,,,,,,,,,,,,,,,,,,,MET09602/15/20 05:52:02 METAR KATL 151052Z 04008KT 10SM CLR 01/M07 A3042 RMK AO2 SLP307 T00111072 (DB),FM-15,7,,,,,,,,,,,,,,,,,,,,,,,,,,,3/27/2007
72219013874,2020-02-15T06:52:00,FM-15,7,,,,,,,,,,,,,,,,,,,,,,,,,,,,,,,,,,,,,,,30.42,20,34,0,,-0.03,1,56,30.44,CLR:00,29.31,10,29,80,,13,,,,,,,,,,,,,,,,,,,,,,,,,,,,,,,,,,,,,MET11402/15/20 06:52:02 METAR KATL 151152Z 08011KT 10SM CLR 01/M07 A3042 RMK AO2 SLP308 T00111067 10017 20000 51009 (DB),FM-15,7,,,,,,,,,,,,,,,,,,,,,,,,,,,3/27/2007
72219013874,2020-02-15T07:00:00,FM-12,4,,,,,,,,,,,,,,,,,,,,,,,,,,,,,,,,,,,,,,,,20,34,,,-0.03,1,56,30.44,,29.3,9.94,29,80,,13,,,,,,,,,,,,,,,,,,,,,,,,,,,,,,,,,,,,,SYN08072219 32966 00811 10011 21067 39923 40308 51009 91152 333 10111 20000 555 91512=,FM-12,4,,,,,,,,,,,,,,,,,,,,,,,,,,,3/27/2007
72219013874,2020-02-15T07:52:00,FM-15,7,,,,,,,,,,,,,,,,,,,,,,,,,,,,,,,,,,,,,,,30.43,20,34,0,,,,56,30.45,FEW:02 200,29.32,10,29,70,,14,,,,,,,,,,,,,,,,,,,,,,,,,,,,,,,,,,,,,MET09902/15/20 07:52:02 METAR KATL 151252Z 07012KT 10SM FEW200 01/M07 A3043 RMK AO2 SLP313 T00111067 (DB),FM-15,7,,,,,,,,,,,,,,,,,,,,,,,,,,,3/27/2007
72219013874,2020-02-15T08:52:00,FM-15,7,,,,,,,,,,,,,,,,,,,,,,,,,,,,,,,,,,,,,,,30.46,20,37,0,,,,50,30.48,SCT:04 200,29.35,10,31,80,,16,,,,,,,,,,,,,,,,,,,,,,,,,,,,,,,,,,,,,MET09902/15/20 08:52:02 METAR KATL 151352Z 08014KT 10SM SCT200 03/M07 A3046 RMK AO2 SLP321 T00281067 (DB),FM-15,7,,,,,,,,,,,,,,,,,,,,,,,,,,,3/27/2007
72219013874,2020-02-15T09:52:00,FM-15,7,,,,,,,,,,,,,,,,,,,,,,,,,,,,,,,,,,,,,,,30.48,21,41,0,,-0.06,3,45,30.5,SCT:04 250,29.37,10,34,100,,9,,,,,,,,,,,,,,,,,,,,,,,,,,,,,,,,,,,,,MET10602/15/20 09:52:02 METAR KATL 151452Z 10008KT 10SM SCT250 05/M06 A3048 RMK AO2 SLP328 T00501061 53019 (CPS),FM-15,7,,,,,,,,,,,,,,,,,,,,,,,,,,,3/27/2007
72219013874,2020-02-15T10:52:00,FM-15,7,,,,,,,,,,,,,,,,,,,,,,,,,,,,,,,,,,,,,,,30.47,23,43,0,,,,45,30.49,SCT:04 250,29.36,10,35,80,,14,,,,,,,,,,,,,,,,,,,,,,,,,,,,,,,,,,,,,MET10002/15/20 10:52:02 METAR KATL 151552Z 08012KT 10SM SCT250 06/M05 A3047 RMK AO2 SLP324 T00611050 (CPS),FM-15,7,,,,,,,,,,,,,,,,,,,,,,,,,,,3/27/2007
72219013874,2020-02-15T11:52:00,FM-15,7,,,,,,,,,,,,,,,,,,,,,,,,,,,,,,,,,,,,,,,30.46,25,47,0,,,,42,30.47,FEW:02 250,29.35,10,38,80,,7,,,,,,,,,,,,,,,,,,,,,,,,,,,,,,,,,,,,,MET10002/15/20 11:52:02 METAR KATL 151652Z 08006KT 10SM FEW250 08/M04 A3046 RMK AO2 SLP320 T00831039 (CPS),FM-15,7,,,,,,,,,,,,,,,,,,,,,,,,,,,3/27/2007
72219013874,2020-02-15T12:52:00,FM-15,7,,,,,,,,,,,,,,,,,,,,,,,,,,,,,,,,,,,,,,,30.42,26,50,0,,0.06,8,39,30.43,FEW:02 250 SCT:04 300,29.31,10,40,VRB,,5,,,,,,,,,,,,,,,,,,,,,,,,,,,,,,,,,,,,,MET12502/15/20 12:52:02 METAR KATL 151752Z VRB04KT 10SM FEW250 SCT300 10/M03 A3042 RMK AO2 SLP306 T01001033 10100 20006 58021 (CPS),FM-15,7,,,,,,,,,,,,,,,,,,,,,,,,,,,3/27/2007
72219013874,2020-02-15T13:00:00,FM-12,4,,,,,,,,,,,,,,,,,,,,,,,,,,,,,,,,,,,,,,,,26,50,,,0.06,8,39,30.43,,29.3,9.94,40,,,5,,,,,,,,,,,,,,,,,,,,,,,,,,,,,,,,,,,,,SYN08072219 32966 4//04 10100 21033 39923 40306 58021 91752 333 10100 20006 555 91518=,FM-12,4,,,,,,,,,,,,,,,,,,,,,,,,,,,3/27/2007
72219013874,2020-02-15T13:52:00,FM-15,7,,,,,,,,,,,,,,,,,,,,,,,,,,,,,,,,,,,,,,,30.38,27,52,0,,,,38,30.39,SCT:04 250 BKN:07 300,29.27,10,41,130,,9,,,,,,,,,,,,,,,,,,,,,,,,,,,,,,,,,,,,,MET10702/15/20 13:52:02 METAR KATL 151852Z 13008KT 10SM SCT250 BKN300 11/M03 A3038 RMK AO2 SLP292 T01111028 (CPS),FM-15,7,,,,,,,,,,,,,,,,,,,,,,,,,,,3/27/2007
72219013874,2020-02-15T14:52:00,FM-15,7,,,,,,,,,,,,,,,,,,,,,,,,,,,,,,,,,,,,,,,30.36,28,53,0,,,,38,30.37,SCT:04 250 BKN:07 300,29.25,10,42,120,,10,,,,,,,,,,,,,,,,,,,,,,,,,,,,,,,,,,,,,MET10702/15/20 14:52:02 METAR KATL 151952Z 12009KT 10SM SCT250 BKN300 12/M02 A3036 RMK AO2 SLP285 T01171022 (CPS),FM-15,7,,,,,,,,,,,,,,,,,,,,,,,,,,,3/27/2007
72219013874,2020-02-15T15:52:00,FM-15,7,,,,,,,,,,,,,,,,,,,,,,,,,,,,,,,,,,,,,,,30.34,29,55,0,,0.07,6,37,30.36,SCT:04 250 BKN:07 300,29.23,10,44,180,,6,,,,,,,,,,,,,,,,,,,,,,,,,,,,,,,,,,,,,MET11302/15/20 15:52:02 METAR KATL 152052Z 18005KT 10SM SCT250 BKN300 13/M02 A3034 RMK AO2 SLP280 T01281017 56025 (CPS),FM-15,7,,,,,,,,,,,,,,,,,,,,,,,,,,,3/27/2007
72219013874,2020-02-15T16:52:00,FM-15,7,,,,,,,,,,,,,,,,,,,,,,,,,,,,,,,,,,,,,,,30.32,30,55,0,,,,38,30.34,SCT:04 250 BKN:07 300,29.21,10,44,140,,7,,,,,,,,,,,,,,,,,,,,,,,,,,,,,,,,,,,,,MET10702/15/20 16:52:02 METAR KATL 152152Z 14006KT 10SM SCT250 BKN300 13/M01 A3032 RMK AO2 SLP274 T01281011 (CPS),FM-15,7,,,,,,,,,,,,,,,,,,,,,,,,,,,3/27/2007
72219013874,2020-02-15T17:52:00,FM-15,7,,,,,,,,,,,,,,,,,,,,,,,,,,,,,,,,,,,,,,,30.31,30,54,0,,,,40,30.33,SCT:04 200 BKN:07 250,29.21,10,43,130,,6,,,,,,,,,,,,,,,,,,,,,,,,,,,,,,,,,,,,,MET10702/15/20 17:52:02 METAR KATL 152252Z 13005KT 10SM SCT200 BKN250 12/M01 A3031 RMK AO2 SLP271 T01221011 (KAF),FM-15,7,,,,,,,,,,,,,,,,,,,,,,,,,,,3/27/2007
72219013874,2020-02-15T18:52:00,FM-15,7,,,,,,,,,,,,,,,,,,,,,,,,,,,,,,,,,,,,,,,30.3,30,52,0,,0.04,6,43,30.32,SCT:04 200 BKN:07 250,29.19,10,42,120,,6,,,,,,,,,,,,,,,,,,,,,,,,,,,,,,,,,,,,,MET12502/15/20 18:52:02 METAR KATL 152352Z 12005KT 10SM SCT200 BKN250 11/M01 A3030 RMK AO2 SLP267 T01111011 10133 20100 56013 (KAF),FM-15,7,,,,,,,,,,,,,,,,,,,,,,,,,,,3/27/2007
72219013874,2020-02-15T19:00:00,FM-12,4,,,,,,,,,,,,,,,,,,,,,,,,,,,,,,,,,,,,,,,,30,52,,,0.04,6,43,30.32,,29.19,9.94,42,120,,6,,,,,,,,,,,,,,,,,,,,,,,,,,,,,,,,,,,,,SYN08072219 32966 61205 10111 21011 39884 40267 56013 92352 333 10133 20000 555 91600=,FM-12,4,,,,,,,,,,,,,,,,,,,,,,,,,,,3/27/2007
72219013874,2020-02-15T19:52:00,FM-15,7,,,,,,,,,,,,,,,,,,,,,,,,,,,,,,,,,,,,,,,30.31,31,49,0,,,,50,30.32,SCT:04 200 BKN:07 250,29.21,10,41,100,,6,,,,,,,,,,,,,,,,,,,,,,,,,,,,,,,,,,,,,MET10102/15/20 19:52:01 METAR KATL 160052Z 10005KT 10SM SCT200 BKN250 09/M01 A3031 RMK AO2 SLP268 T00941006,FM-15,7,,,,,,,,,,,,,,,,,,,,,,,,,,,3/27/2007
72219013874,2020-02-15T20:52:00,FM-15,7,,,,,,,,,,,,,,,,,,,,,,,,,,,,,,,,,,,,,,,30.31,31,49,0,,,,50,30.32,FEW:02 200 SCT:04 250,29.21,10,41,120,,6,,,,,,,,,,,,,,,,,,,,,,,,,,,,,,,,,,,,,MET10102/15/20 20:52:01 METAR KATL 160152Z 12005KT 10SM FEW200 SCT250 09/M01 A3031 RMK AO2 SLP267 T00941006,FM-15,7,,,,,,,,,,,,,,,,,,,,,,,,,,,3/27/2007
72219013874,2020-02-15T21:52:00,FM-15,7,,,,,,,,,,,,,,,,,,,,,,,,,,,,,,,,,,,,,,,30.32,31,47,0,,-0.01,3,54,30.33,FEW:02 200 SCT:04 250,29.21,10,40,110,,5,,,,,,,,,,,,,,,,,,,,,,,,,,,,,,,,,,,,,MET10702/15/20 21:52:01 METAR KATL 160252Z 11004KT 10SM FEW200 SCT250 08/M01 A3032 RMK AO2 SLP271 T00831006 53004,FM-15,7,,,,,,,,,,,,,,,,,,,,,,,,,,,3/27/2007
72219013874,2020-02-15T22:52:00,FM-15,7,,,,,,,,,,,,,,,,,,,,,,,,,,,,,,,,,,,,,,,30.32,32,45,0,,,,61,30.33,SCT:04 250,29.21,10,39,90,,7,,,,,,,,,,,,,,,,,,,,,,,,,,,,,,,,,,,,,MET09302/15/20 22:52:01 METAR KATL 160352Z 09006KT 10SM SCT250 07/00 A3032 RMK AO2 SLP272 T00720000,FM-15,7,,,,,,,,,,,,,,,,,,,,,,,,,,,3/27/2007
72219013874,2020-02-15T23:28:00,FM-16,7,,,,,,,,,,,,,,,,,,,,,,,,,,,,,,,,,,,,,,,30.28,32,44,,,,,63,,SCT:04 90 BKN:07 250,29.18,10,39,90,,8,,,,,,,,,,,,,,,,,,,,,,,,,,,,,,,,,,,,,MET09302/15/20 23:28:02 SPECI KATL 160428Z 09007KT 10SM SCT090 BKN250 07/00 A3028 RMK AO2 T00670000,FM-16,7,,,,,,,,,,,,,,,,,,,,,,,,,,,3/27/2007
72219013874,2020-02-15T23:52:00,FM-15,7,,,,,,,,,,,,,,,,,,,,,,,,,,,,,,,,,,,,,,,30.28,32,44,0,,,,63,30.29,FEW:02 90 BKN:07 250,29.18,10,39,100,,7,,,,,,,,,,,,,,,,,,,,,,,,,,,,,,,,,,,,,MET11002/15/20 23:52:02 METAR KATL 160452Z 10006KT 10SM FEW090 BKN250 07/00 A3028 RMK AO2 SLP256 T00670000 401330000,FM-15,7,,,,,,,,,,,,,,,,,,,,,,,,,,,3/27/2007
72219013874,2020-02-15T23:59:00,SOD  ,6,,,,,,,,,,,,,,,,,25,44,49,30.39,29.27,36,8,0,-3.1,21,56,32,90,25,0,0,0,90,21,,,,,,,,,,,,,,,,,,,,,,,,,,,,,,,,,,,,,,,,,,,,,,,,,,,,,,,,SOD73924 HR PRECIPITATION (IN): 0.00 SNOW DEPTH (IN):0     24 HR SNOWFALL (IN):0.0  24 HR MAX TEMP (F): 5624 HR MIN TEMP (F): 32AVERAGE STATION PRESSURE:29.270 MINIMUM SEA LEVEL PRESSURE:30.28 TIME OF OCCURRENCE:2347 PEAK WIND SPEED (MPH): 25 PEAK WIND DIR (DEG): 90 PEAK WIND TIME (LST):      FASTEST 2MIN SPEED (MPH): 21FASTEST 2MIN DIR (DEG): 90 FASTEST 2MIN TIME (LST):     AVERAGE WIND SPEED (MPH): 8.0 24 HR AVG TEMP (F): 44DEPART FROM NORMAL: -3  HEATING DEGREE DAYS: 21 COOLING DEGREE DAYS:  0 LATEST DAY MAX TEMP (0700-1900 LST):56  LATEST NIGHT MIN TEMP(1900-0800 LST):32 HOURLY INCREMENTAL PRECIPITATION VALUES (IN):.00 0.00 0.00 0.00 0.00 0.00 0.00 0.00 0.00 0.00 0.00 0.00 0.00 0.00 0.00 0.00 0.00 0.00 0.00 0.00 0.00 0.00 0.00 0.00,SOD  ,6,,,,,,,,,,,,,,,,,,,,,,,,,722,1822,3/27/2007
72219013874,2020-02-16T00:52:00,FM-15,7,,,,,,,,,,,,,,,,,,,,,,,,,,,,,,,,,,,,,,,30.28,32,42,0,,0.03,5,68,30.29,FEW:02 90 BKN:07 250,29.18,10,38,80,,7,,,,,,,,,,,,,,,,,,,,,,,,,,,,,,,,,,,,,MET12402/16/20 00:52:02 METAR KATL 160552Z 08006KT 10SM FEW090 BKN250 06/00 A3028 RMK AO2 SLP259 T00560000 10111 20056 55010 (KAF),FM-15,7,,,,,,,,,,,,,,,,,,,,,,,,,,,3/27/2007
72219013874,2020-02-16T01:00:00,FM-12,4,,,,,,,,,,,,,,,,,,,,,,,,,,,,,,,,,,,,,,,,32,42,,,0.03,5,68,30.29,,29.17,9.94,38,80,,7,,,,,,,,,,,,,,,,,,,,,,,,,,,,,,,,,,,,,SYN08072219 32966 60806 10056 20000 39877 40259 55010 90552 333 10111 20000 555 91606=,FM-12,4,,,,,,,,,,,,,,,,,,,,,,,,,,,3/27/2007
72219013874,2020-02-16T01:52:00,FM-15,7,,,,,,,,,,,,,,,,,,,,,,,,,,,,,,,,,,,,,,,30.28,32,42,0,,,,68,30.29,SCT:04 110 BKN:07 250,29.18,10,38,70,,6,,,,,,,,,,,,,,,,,,,,,,,,,,,,,,,,,,,,,MET10502/16/20 01:52:02 METAR KATL 160652Z 07005KT 10SM SCT110 BKN250 06/00 A3028 RMK AO2 SLP256 T00560000 (DB),FM-15,7,,,,,,,,,,,,,,,,,,,,,,,,,,,3/27/2007
72219013874,2020-02-16T02:52:00,FM-15,7,,,,,,,,,,,,,,,,,,,,,,,,,,,,,,,,,,,,,,,30.27,32,44,0,,,,63,30.27,BKN:07 90 BKN:07 250,29.16,10,39,70,,9,,,,,,,,,,,,,,,,,,,,,,,,,,,,,,,,,,,,,MET10502/16/20 02:52:02 METAR KATL 160752Z 07008KT 10SM BKN090 BKN250 07/00 A3027 RMK AO2 SLP252 T00670000 (DB),FM-15,7,,,,,,,,,,,,,,,,,,,,,,,,,,,3/27/2007
72219013874,2020-02-16T03:52:00,FM-15,7,,,,,,,,,,,,,,,,,,,,,,,,,,,,,,,,,,,,,,,30.24,33,43,0,,0.04,8,68,30.24,BKN:07 85 OVC:08 250,29.14,10,39,80,,10,,,,,,,,,,,,,,,,,,,,,,,,,,,,,,,,,,,,,MET11102/16/20 03:52:02 METAR KATL 160852Z 08009KT 10SM BKN085 OVC250 06/01 A3024 RMK AO2 SLP242 T00610006 58014 (DB),FM-15,7,,,,,,,,,,,,,,,,,,,,,,,,,,,3/27/2007
72219013874,2020-02-16T04:52:00,FM-15,7,,,,,,,,,,,,,,,,,,,,,,,,,,,,,,,,,,,,,,,30.22,33,43,0,,,,68,30.22,BKN:07 85 OVC:08 110,29.12,10,39,80,,7,,,,,,,,,,,,,,,,,,,,,,,,,,,,,,,,,,,,,MET10502/16/20 04:52:02 METAR KATL 160952Z 08006KT 10SM BKN085 OVC110 06/01 A3022 RMK AO2 SLP235 T00610006 (DB),FM-15,7,,,,,,,,,,,,,,,,,,,,,,,,,,,3/27/2007
72219013874,2020-02-16T05:52:00,FM-15,7,,,,,,,,,,,,,,,,,,,,,,,,,,,,,,,,,,,,,,,30.21,34,43,0,,,,71,30.22,BKN:07 85 BKN:07 110 OVC:08 250,29.11,10,39,80,,6,,,,,,,,,,,,,,,,,,,,,,,,,,,,,,,,,,,,,MET11202/16/20 05:52:02 METAR KATL 161052Z 08005KT 10SM BKN085 BKN110 OVC250 06/01 A3021 RMK AO2 SLP233 T00610011 (DB),FM-15,7,,,,,,,,,,,,,,,,,,,,,,,,,,,3/27/2007
72219013874,2020-02-16T06:52:00,FM-15,7,,,,,,,,,,,,,,,,,,,,,,,,,,,,,,,,,,,,,,,30.22,34,43,0,,0.02,5,71,30.23,FEW:02 17 BKN:07 80 BKN:07 110,29.12,10,39,80,,8,,,,,,,,,,,,,,,,,,,,,,,,,,,,,,,,,,,,,MET13002/16/20 06:52:02 METAR KATL 161152Z 08007KT 10SM FEW017 BKN080 BKN110 06/01 A3022 RMK AO2 SLP236 T00610011 10067 20056 55007 (DB),FM-15,7,,,,,,,,,,,,,,,,,,,,,,,,,,,3/27/2007
72219013874,2020-02-16T07:00:00,FM-12,4,,,,,,,,,,,,,,,,,,,,,,,,,,,,,,,,,,,,,,,,34,43,,,0.02,5,71,30.23,15,29.11,9.94,39,80,,8,,,,,,,,,,,,,,,,,,,,,,,,,,,,,,,,,,,,,SYN08072219 32466 80807 10061 20011 39857 40236 55007 91152 333 10133 20056 555 91612=,FM-12,4,,,,,,,,,,,,,,,,,,,,,,,,,,,3/27/2007
72219013874,2020-02-16T07:03:00,FM-16,7,,,,,,,,,,,,,,,,,,,,,,,,,,,,,,,,,,,,,,,30.22,34,43,T,-RA:02 |RA |RA,,,71,,BKN:07 17 OVC:08 85,29.12,10,39,60,,8,,,,,,,,,,,,,,,,,,,,,,,,,,,,,,,,,,,,,MET12702/16/20 07:03:02 SPECI KATL 161203Z 06007KT 10SM -RA BKN017 OVC085 06/01 A3022 RMK AO2 RAB03 PCPN VRY LGT P0000 T00610011 (DB),FM-16,7,,,,,,,,,,,,,,,,,,,,,,,,,,,3/27/2007
72219013874,2020-02-16T07:24:00,FM-16,7,,,,,,,,,,,,,,,,,,,,,,,,,,,,,,,,,,,,,,,30.26,35,43,T,-RA:02 |RA |RA,,,74,,BKN:07 17 OVC:08 80,29.15,8,40,10,,5,,,,,,,,,,,,,,,,,,,,,,,,,,,,,,,,,,,,,MET12002/16/20 07:24:02 SPECI KATL 161224Z 01004KT 8SM -RA BKN017 OVC080 06/02 A3026 RMK AO2 RAB03 PRESRR P0000 T00610017 (DB),FM-16,7,,,,,,,,,,,,,,,,,,,,,,,,,,,3/27/2007
72219013874,2020-02-16T07:52:00,FM-15,7,,,,,,,,,,,,,,,,,,,,,,,,,,,,,,,,,,,,,,,30.27,36,43,0.03,-RA:02 |RA |RA,,,76,30.29,BKN:07 15 BKN:07 29 OVC:08 41,29.16,4,40,0,,0,,,,,,,,,,,,,,,,,,,,,,,,,,,,,,,,,,,,,MET12702/16/20 07:52:02 METAR KATL 161252Z 00000KT 4SM -RA BKN015 BKN029 OVC041 06/02 A3027 RMK AO2 RAB03 SLP256 P0003 T00610022 (DB),FM-15,7,,,,,,,,,,,,,,,,,,,,,,,,,,,3/27/2007
72219013874,2020-02-16T08:07:00,FM-16,7,,,,,,,,,,,,,,,,,,,,,,,,,,,,,,,,,,,,,,,30.27,38,42,0.01,-RA:02 |RA |RA,,,85,,SCT:04 15 SCT:04 46 OVC:08 85,29.16,7,40,110,,3,,,,,,,,,,,,,,,,,,,,,,,,,,,,,,,,,,,,,MET11402/16/20 08:07:02 SPECI KATL 161307Z 11003KT 7SM -RA SCT015 SCT046 OVC085 06/03 A3027 RMK AO2 P0001 T00560033 (DB),FM-16,7,,,,,,,,,,,,,,,,,,,,,,,,,,,3/27/2007
72219013874,2020-02-16T08:52:00,FM-15,7,,,,,,,,,,,,,,,,,,,,,,,,,,,,,,,,,,,,,,,30.28,38,42,0.11,RA:02 BR:1 |RA |RA,,,85,30.29,BKN:07 60 OVC:08 75,29.18,5,40,100,,6,,,,,,,,,,,,,,,,,,,,,,,,,,,,,,,,,,,,,MET11802/16/20 08:52:02 METAR KATL 161352Z 10005KT 5SM RA BR BKN060 OVC075 06/03 A3028 RMK AO2 SLP259 P0010 T00560033 $ (DB),FM-15,7,,,,,,,,,,,,,,,,,,,,,,,,,,,3/27/2007
72219013874,2020-02-16T09:52:00,FM-15,7,,,,,,,,,,,,,,,,,,,,,,,,,,,,,,,,,,,,,,,30.25,39,42,0.09,-RA:02 BR:1 |RA |RA,-0.03,0,89,30.26,BKN:07 70 OVC:08 85,29.15,5,41,100,,6,,,,,,,,,,,,,,,,,,,,,,,,,,,,,,,,,,,,,MET13202/16/20 09:52:02 METAR KATL 161452Z 10005KT 5SM -RA BR BKN070 OVC085 06/04 A3025 RMK AO2 SLP248 P0009 60022 T00560039 50010 $ (CPS),FM-15,7,,,,,,,,,,,,,,,,,,,,,,,,,,,3/27/2007
72219013874,2020-02-16T10:52:00,FM-15,7,,,,,,,,,,,,,,,,,,,,,,,,,,,,,,,,,,,,,,,30.23,40,44,0.06,-RA:02 |RA |RA,,,85,30.24,SCT:04 17 BKN:07 27 OVC:08 70,29.13,7,42,40,,7,,,,,,,,,,,,,,,,,,,,,,,,,,,,,,,,,,,,,MET12402/16/20 10:52:02 METAR KATL 161552Z 04006KT 7SM -RA SCT017 BKN027 OVC070 07/04 A3023 RMK AO2 SLP242 P0006 T00670044 $ (CPS),FM-15,7,,,,,,,,,,,,,,,,,,,,,,,,,,,3/27/2007
72219013874,2020-02-16T11:31:00,FM-16,7,,,,,,,,,,,,,,,,,,,,,,,,,,,,,,,,,,,,,,,30.22,41,45,0.01,-RA:02 |RA |RA,,,86,,SCT:04 19 BKN:07 30 OVC:08 75,29.12,7,43,130,,6,,,,,,,,,,,,,,,,,,,,,,,,,,,,,,,,,,,,,MET11702/16/20 11:31:02 SPECI KATL 161631Z 13005KT 7SM -RA SCT019 BKN030 OVC075 07/05 A3022 RMK AO2 P0001 T00720050 $ (CPS),FM-16,7,,,,,,,,,,,,,,,,,,,,,,,,,,,3/27/2007
72219013874,2020-02-16T11:45:00,FM-16,7,,,,,,,,,,,,,,,,,,,,,,,,,,,,,,,,,,,,,,,30.23,40,44,0.01,BR:1 ||,,,85,,SCT:04 5 BKN:07 20 OVC:08 55,29.13,5,42,0,,0,,,,,,,,,,,,,,,,,,,,,,,,,,,,,,,,,,,,,MET12202/16/20 11:45:02 SPECI KATL 161645Z 00000KT 5SM BR SCT005 BKN020 OVC055 07/04 A3023 RMK AO2 RAE35 P0001 T00670044 $ (CPS),FM-16,7,,,,,,,,,,,,,,,,,,,,,,,,,,,3/27/2007
72219013874,2020-02-16T11:50:00,FM-16,6,,,,,,,,,,,,,,,,,,,,,,,,,,,,,,,,,,,,,,,30.22,41,45,,BR:1 ||,,,87,,SCT:04 5 BKN:07 12 OVC:08 55,29.12,5,43,0,,0,,,,,,,,,,,,,,,,,,,,,,,,,,,,,,,,,,,,,MET11702/16/20 11:50:02 SPECI KATL 161650Z 00000KT 5SM BR SCT005 BKN012 OVC055 07/05 A3022 RMK AO2 RAE35 P0001 $ FIBI (CPS),FM-16,6,,,,,,,,,,,,,,,,,,,,,,,,,,,3/27/2007
72219013874,2020-02-16T11:52:00,FM-15,7,,,,,,,,,,,,,,,,,,,,,,,,,,,,,,,,,,,,,,,30.22,41,45,T,BR:1 ||,,,86,30.23,SCT:04 5 BKN:07 12 OVC:08 85,29.12,6,43,0,,0,,,,,,,,,,,,,,,,,,,,,,,,,,,,,,,,,,,,,MET12902/16/20 11:52:02 METAR KATL 161652Z 00000KT 6SM BR SCT005 BKN012 OVC085 07/05 A3022 RMK AO2 RAE35 SLP237 P0001 T00720050 $ (CPS),FM-15,7,,,,,,,,,,,,,,,,,,,,,,,,,,,3/27/2007
72219013874,2020-02-16T12:52:00,FM-15,7,,,,,,,,,,,,,,,,,,,,,,,,,,,,,,,,,,,,,,,30.18,42,46,0,BR:1 ||,0.07,8,86,30.19,FEW:02 6 BKN:07 12 OVC:08 85,29.08,6,44,90,,7,,,,,,,,,,,,,,,,,,,,,,,,,,,,,,,,,,,,,MET16102/16/20 12:52:02 METAR KATL 161752Z 09006KT 6SM BR FEW006 BKN012 OVC085 08/06 A3018 RMK AO2 PRESFR SLP223 BKN012 V SCT 60029 T00780056 10083 20056 58025 $ (CPS),FM-15,7,,,,,,,,,,,,,,,,,,,,,,,,,,,3/27/2007
72219013874,2020-02-16T13:00:00,FM-12,4,,,,,,,,,,,,,,,,,,,,,,,,,,,,,,,,,,,,,,,,42,46,,,0.07,8,86,30.19,5,29.07,5.59,44,90,,7,,,,,,,,,,,,,,,,,,,,,,,,,,,,,,,,,,,,,SYN09272219 11259 80906 10078 20056 39844 40223 58025 60071 710// 91752 333 10083 20056 555 91618=,FM-12,4,,,,,,,,,,,,,,,,,,,,,,,,,,,3/27/2007
72219013874,2020-02-16T13:23:00,FM-16,7,,,,,,,,,,,,,,,,,,,,,,,,,,,,,,,,,,,,,,,30.16,42,46,,BR:1 ||,,,86,,BKN:07 5 OVC:08 12,29.06,4,44,130,,3,,,,,,,,,,,,,,,,,,,,,,,,,,,,,,,,,,,,,MET10302/16/20 13:23:02 SPECI KATL 161823Z 13003KT 4SM BR BKN005 OVC012 08/06 A3016 RMK AO2 T00780056 $ (CPS),FM-16,7,,,,,,,,,,,,,,,,,,,,,,,,,,,3/27/2007
72219013874,2020-02-16T13:24:00,FM-16,7,,,,,,,,,,,,,,,,,,,,,,,,,,,,,,,,,,,,,,,30.16,42,46,,BR:1 ||,,,86,,BKN:07 5 OVC:08 12,29.06,2,44,110,,3,,,,,,,,,,,,,,,,,,,,,,,,,,,,,,,,,,,,,MET11302/16/20 13:24:02 SPECI KATL 161824Z 11003KT 2SM BR BKN005 OVC012 08/06 A3016 RMK AO2 SFC VIS 4 T00780056 $ (CPS),FM-16,7,,,,,,,,,,,,,,,,,,,,,,,,,,,3/27/2007
72219013874,2020-02-16T13:50:00,FM-16,6,,,,,,,,,,,,,,,,,,,,,,,,,,,,,,,,,,,,,,,30.15,43,46,,BR:1 ||,,,87,,BKN:07 5 OVC:08 12,29.05,3,45,90,,3,,,,,,,,,,,,,,,,,,,,,,,,,,,,,,,,,,,,,MET10802/16/20 13:50:02 SPECI KATL 161850Z 09003KT 3SM BR BKN005 OVC012 08/06 A3015 RMK AO2 SFC VIS 4 $ FIBI (CPS),FM-16,6,,,,,,,,,,,,,,,,,,,,,,,,,,,3/27/2007
72219013874,2020-02-16T13:52:00,FM-15,7,,,,,,,,,,,,,,,,,,,,,,,,,,,,,,,,,,,,,,,30.15,43,46,0,BR:1 ||,,,89,30.16,BKN:07 5 OVC:08 12,29.05,3,45,VRB,,3,,,,,,,,,,,,,,,,,,,,,,,,,,,,,,,,,,,,,MET12002/16/20 13:52:02 METAR KATL 161852Z VRB03KT 3SM BR BKN005 OVC012 08/06 A3015 RMK AO2 SFC VIS 4 SLP213 T00780061 $ (CPS),FM-15,7,,,,,,,,,,,,,,,,,,,,,,,,,,,3/27/2007
72219013874,2020-02-16T14:52:00,FM-15,7,,,,,,,,,,,,,,,,,,,,,,,,,,,,,,,,,,,,,,,30.12,43,46,0,BR:1 ||,,,89,30.13,BKN:07 5 OVC:08 12,29.02,2,45,100,,6,,,,,,,,,,,,,,,,,,,,,,,,,,,,,,,,,,,,,MET12002/16/20 14:52:02 METAR KATL 161952Z 10005KT 2SM BR BKN005 OVC012 08/06 A3012 RMK AO2 SFC VIS 4 SLP203 T00780061 $ (CPS),FM-15,7,,,,,,,,,,,,,,,,,,,,,,,,,,,3/27/2007
72219013874,2020-02-16T15:24:00,FM-16,7,,,,,,,,,,,,,,,,,,,,,,,,,,,,,,,,,,,,,,,30.11,43,47,,BR:1 ||,,,86,,BKN:07 4 OVC:08 10,29.01,1,45,110,,5,,,,,,,,,,,,,,,,,,,,,,,,,,,,,,,,,,,,,MET13302/16/20 15:24:02 SPECI KATL 162024Z 11004KT 1SM R09R/P6000FT BR BKN004 OVC010 08/06 A3011 RMK AO2 SFC VIS 3 TWRINC T00830061 $ (CPS),FM-16,7,,,,,,,,,,,,,,,,,,,,,,,,,,,3/27/2007
72219013874,2020-02-16T15:52:00,FM-15,7,,,,,,,,,,,,,,,,,,,,,,,,,,,,,,,,,,,,,,,30.12,43,47,0,BR:1 ||,0.06,6,86,30.13,OVC:08 4,29.02,1,45,110,,5,,,,,,,,,,,,,,,,,,,,,,,,,,,,,,,,,,,,,MET13902/16/20 15:52:02 METAR KATL 162052Z 11004KT 1SM R09R/P6000FT BR OVC004 08/06 A3012 RMK AO2 SFC VIS 3 SLP202 TWRINC T00830061 56019 $ (CPS),FM-15,7,,,,,,,,,,,,,,,,,,,,,,,,,,,3/27/2007
72219013874,2020-02-16T15:55:00,FM-16,7,,,,,,,,,,,,,,,,,,,,,,,,,,,,,,,,,,,,,,,30.11,44,47,,BR:1 ||,,,90,,OVC:08 4,29.01,2,46,90,,5,,,,,,,,,,,,,,,,,,,,,,,,,,,,,,,,,,,,,MET10602/16/20 15:55:02 SPECI KATL 162055Z 09004KT 2SM BR OVC004 08/07 A3011 RMK AO2 SFC VIS 4 T00830067 $ (CPS),FM-16,7,,,,,,,,,,,,,,,,,,,,,,,,,,,3/27/2007
72219013874,2020-02-16T16:43:00,FM-16,7,,,,,,,,,,,,,,,,,,,,,,,,,,,,,,,,,,,,,,,30.11,43,47,,BR:1 ||,,,86,,BKN:07 5 OVC:08 10,29.01,2,45,90,,6,,,,,,,,,,,,,,,,,,,,,,,,,,,,,,,,,,,,,MET11302/16/20 16:43:02 SPECI KATL 162143Z 09005KT 2SM BR BKN005 OVC010 08/06 A3011 RMK AO2 SFC VIS 5 T00830061 $ (CPS),FM-16,7,,,,,,,,,,,,,,,,,,,,,,,,,,,3/27/2007
72219013874,2020-02-16T16:52:00,FM-15,7,,,,,,,,,,,,,,,,,,,,,,,,,,,,,,,,,,,,,,,30.11,44,47,0,BR:1 ||,,,90,30.12,BKN:07 5 OVC:08 10,29.01,2,46,70,,6,,,,,,,,,,,,,,,,,,,,,,,,,,,,,,,,,,,,,MET12002/16/20 16:52:02 METAR KATL 162152Z 07005KT 2SM BR BKN005 OVC010 08/07 A3011 RMK AO2 SFC VIS 5 SLP199 T00830067 $ (CPS),FM-15,7,,,,,,,,,,,,,,,,,,,,,,,,,,,3/27/2007
72219013874,2020-02-16T17:52:00,FM-15,7,,,,,,,,,,,,,,,,,,,,,,,,,,,,,,,,,,,,,,,30.11,43,47,T,-DZ:01 BR:1 |DZ |DZ,,,86,30.12,OVC:08 5,29.01,2,45,100,,5,,,,,,,,,,,,,,,,,,,,,,,,,,,,,,,,,,,,,MET12902/16/20 17:52:02 METAR KATL 162252Z 10004KT 2SM -DZ BR OVC005 08/06 A3011 RMK AO2 SFC VIS 5 DZB50 SLP199 P0000 T00830061 $ (CPS),FM-15,7,,,,,,,,,,,,,,,,,,,,,,,,,,,3/27/2007
72219013874,2020-02-16T18:52:00,FM-15,7,,,,,,,,,,,,,,,,,,,,,,,,,,,,,,,,,,,,,,,30.12,44,47,T,-DZ:01 BR:1 |DZ |DZ,-0.01,3,90,30.14,BKN:07 4 BKN:07 12 OVC:08 22,29.02,2,46,130,,3,,,,,,,,,,,,,,,,,,,,,,,,,,,,,,,,,,,,,MET17702/16/20 18:52:02 METAR KATL 162352Z 13003KT 2SM -DZ BR BKN004 BKN012 OVC022 08/07 A3012 RMK AO2 SFC VIS 2 1/2 SLP205 CIG 003V006 P0000 60000 T00830067 10083 20072 53003 $ (KAF),FM-15,7,,,,,,,,,,,,,,,,,,,,,,,,,,,3/27/2007
72219013874,2020-02-16T19:00:00,FM-12,4,,,,,,,,,,,,,,,,,,,,,,,,,,,,,,,,,,,,,,,,44,47,,||DZ,-0.01,3,90,30.14,5,29.01,1.99,46,130,,3,,,,,,,,,,,,,,,,,,,,,,,,,,,,,,,,,,,,,SYN09872219 11232 81303 10083 20067 39825 40205 53003 69901 751// 92352 333 10083 20056 96010 555 91700=,FM-12,4,,,,,,,,,,,,,,,,,,,,,,,,,,,3/27/2007
72219013874,2020-02-16T19:04:00,FM-16,7,,,,,,,,,,,,,,,,,,,,,,,,,,,,,,,,,,,,,,,30.12,44,47,T,-DZ:01 BR:1 |DZ |DZ,,,90,,BKN:07 4 BKN:07 12 OVC:08 22,29.02,1,46,120,,5,,,,,,,,,,,,,,,,,,,,,,,,,,,,,,,,,,,,,MET14902/16/20 19:04:01 SPECI KATL 170004Z 12004KT 1SM R09R/P6000FT -DZ BR BKN004 BKN012 OVC022 08/07 A3012 RMK AO2 SFC VIS 2 CIG 003V006 P0000 T00830067 $,FM-16,7,,,,,,,,,,,,,,,,,,,,,,,,,,,3/27/2007
72219013874,2020-02-16T19:52:00,FM-15,7,,,,,,,,,,,,,,,,,,,,,,,,,,,,,,,,,,,,,,,30.11,44,47,T,BR:1 ||,,,90,30.11,BKN:07 3 BKN:07 16 OVC:08 36,29.01,1,46,150,,6,,,,,,,,,,,,,,,,,,,,,,,,,,,,,,,,,,,,,MET16502/16/20 19:52:01 METAR KATL 170052Z 15005KT 1SM R09R/P6000FT BR BKN003 BKN016 OVC036 08/07 A3011 RMK AO2 SFC VIS 2 DZE45 SLP198 CIG 002V005 BINOVC P0000 T00830067 $,FM-15,7,,,,,,,,,,,,,,,,,,,,,,,,,,,3/27/2007
72219013874,2020-02-16T20:52:00,FM-15,7,,,,,,,,,,,,,,,,,,,,,,,,,,,,,,,,,,,,,,,30.09,44,47,0,BR:1 ||,,,90,30.1,OVC:08 3,28.99,1,46,150,,5,,,,,,,,,,,,,,,,,,,,,,,,,,,,,,,,,,,,,MET13902/16/20 20:52:01 METAR KATL 170152Z 15004KT 1SM R09R/P6000FT BR OVC003 08/07 A3009 RMK AO2 SFC VIS 3 SLP194 CIG 002V004 TWRINC T00830067 $,FM-15,7,,,,,,,,,,,,,,,,,,,,,,,,,,,3/27/2007
72219013874,2020-02-16T21:52:00,FM-15,7,,,,,,,,,,,,,,,,,,,,,,,,,,,,,,,,,,,,,,,30.1,44,47,0,BR:1 ||,0.02,5,90,30.11,OVC:08 3,29,1,46,110,,5,,,,,,,,,,,,,,,,,,,,,,,,,,,,,,,,,,,,,MET15102/16/20 21:52:01 METAR KATL 170252Z 11004KT 1SM R09R/P6000FT BR OVC003 08/07 A3010 RMK AO2 SFC VIS 3 SLP197 CIG 002V004 TWRINC 60000 T00830067 55008 $,FM-15,7,,,,,,,,,,,,,,,,,,,,,,,,,,,3/27/2007
72219013874,2020-02-16T22:52:00,FM-15,7,,,,,,,,,,,,,,,,,,,,,,,,,,,,,,,,,,,,,,,30.11,44,47,0,BR:1 ||,,,90,30.12,OVC:08 4,29.01,1,46,90,,5,,,,,,,,,,,,,,,,,,,,,,,,,,,,,,,,,,,,,MET13902/16/20 22:52:01 METAR KATL 170352Z 09004KT 1SM R09R/P6000FT BR OVC004 08/07 A3011 RMK AO2 SFC VIS 5 SLP200 CIG 003V005 TWRINC T00830067 $,FM-15,7,,,,,,,,,,,,,,,,,,,,,,,,,,,3/27/2007
72219013874,2020-02-16T23:24:00,FM-16,7,,,,,,,,,,,,,,,,,,,,,,,,,,,,,,,,,,,,,,,30.11,44,47,,BR:1 |s |,,,90,,OVC:08 3,29.01,0.5,46,100,,5,,,,,,,,,,,,,,,,,,,,,,,,,,,,,,,,,,,,,MET13402/16/20 23:24:01 SPECI KATL 170424Z 10004KT 1/2SM R09R/P6000FT BR OVC003 08/07 A3011 RMK AO2 SFC VIS 3 CIG 002V004 TWRINC T00830067 $,FM-16,7,,,,,,,,,,,,,,,,,,,,,,,,,,,3/27/2007
72219013874,2020-02-16T23:52:00,FM-15,7,,,,,,,,,,,,,,,,,,,,,,,,,,,,,,,,,,,,,,,30.11,44,47,0,BR:1 |s |,,,90,30.12,OVC:08 3,29.01,0.5,46,VRB,,3,,,,,,,,,,,,,,,,,,,,,,,,,,,,,,,,,,,,,MET15502/16/20 23:52:02 METAR KATL 170452Z VRB03KT 1/2SM R09R/P6000FT BR OVC003 08/07 A3011 RMK AO2 SFC VIS 1 1/2 SLP201 CIG 002V004 TWRINC T00830067 400830056 $,FM-15,7,,,,,,,,,,,,,,,,,,,,,,,,,,,3/27/2007
72219013874,2020-02-16T23:59:00,SOD  ,6,,,,,,,,,,,,,,,,,39,45,82,30.19,29.1,43,5.4,0,-2.3,20,47,42,30,13,0.29,0,0,80,12,RA DZ BR,,,,,,,,,,,,,,,,,,,,,,,,,,,,,,,,,,,,,,,,,,,,,,,,,,,,,,,SOD78324 HR PRECIPITATION (IN): 0.29 SNOW DEPTH (IN):0     24 HR SNOWFALL (IN):0.0  WEATHER(CODE):1  24 HR MAX TEMP (F): 4724 HR MIN TEMP (F): 42AVERAGE STATION PRESSURE:29.095 MINIMUM SEA LEVEL PRESSURE:30.09 TIME OF OCCURRENCE:2128 PEAK WIND SPEED (MPH): 13 PEAK WIND DIR (DEG): 30 PEAK WIND TIME (LST):      FASTEST 2MIN SPEED (MPH): 12FASTEST 2MIN DIR (DEG): 80 FASTEST 2MIN TIME (LST):     AVERAGE WIND SPEED (MPH): 5.4 24 HR AVG TEMP (F): 45DEPART FROM NORMAL: -2  SKY COVER SR-SS (TENTHS): 1HEATING DEGREE DAYS: 20 COOLING DEGREE DAYS:  0 LATEST DAY MAX TEMP (0700-1900 LST):47  LATEST NIGHT MIN TEMP(1900-0800 LST):42 HOURLY INCREMENTAL PRECIPITATION VALUES (IN):.00 0.00 0.00 0.00 0.00 0.00 0.00 0.03 0.11 0.09 0.06 T    0.00 0.00 0.00 0.00 0.00 T    T    T    0.00 0.00 0.00 0.00,SOD  ,6,,,,,,,,,,,,,,,,,,,,,,,,,721,1823,3/27/2007
72219013874,2020-02-17T00:52:00,FM-15,7,,,,,,,,,,,,,,,,,,,,,,,,,,,,,,,,,,,,,,,30.1,44,47,0,BR:1 |s |,0,8,90,30.11,BKN:07 3 OVC:08 22,29,0.5,46,90,,5,,,,,,,,,,,,,,,,,,,,,,,,,,,,,,,,,,,,,MET17802/17/20 00:52:02 METAR KATL 170552Z 09004KT 1/2SM R09R/P6000FT BR BKN003 OVC022 08/07 A3010 RMK AO2 SFC VIS 2 SLP195 CIG 002V004 TWRINC 60000 T00830067 10083 20083 58001 $ (KAF),FM-15,7,,,,,,,,,,,,,,,,,,,,,,,,,,,3/27/2007
72219013874,2020-02-17T01:00:00,FM-12,4,,,,,,,,,,,,,,,,,,,,,,,,,,,,,,,,,,,,,,,,44,47,,,0,8,90,30.11,2,28.99,0.5,46,90,,5,,,,,,,,,,,,,,,,,,,,,,,,,,,,,,,,,,,,,SYN09272219 11108 80904 10083 20067 39818 40195 58001 69901 710// 90552 333 10083 20056 555 91706=,FM-12,4,,,,,,,,,,,,,,,,,,,,,,,,,,,3/27/2007
72219013874,2020-02-17T01:52:00,FM-15,7,,,,,,,,,,,,,,,,,,,,,,,,,,,,,,,,,,,,,,,30.09,44,47,0,BR:1 |s |,,,90,30.1,BKN:07 3 OVC:08 20,28.99,0.5,46,0,,0,,,,,,,,,,,,,,,,,,,,,,,,,,,,,,,,,,,,,MET17102/17/20 01:52:02 METAR KATL 170652Z 00000KT 1/2SM R09R/P6000FT BR BKN003 OVC020 08/07 A3009 RMK AO2 SFC VIS 2 1/2 SLP192 CIG 002V004 BKN003 V SCT TWRINC T00830067 $ (KAF),FM-15,7,,,,,,,,,,,,,,,,,,,,,,,,,,,3/27/2007
72219013874,2020-02-17T02:08:00,FM-16,7,,,,,,,,,,,,,,,,,,,,,,,,,,,,,,,,,,,,,,,30.09,44,47,,BR:1 ||,,,90,,FEW:02 3 OVC:08 20,28.99,5,46,0,,0,,,,,,,,,,,,,,,,,,,,,,,,,,,,,,,,,,,,,MET10302/17/20 02:08:02 SPECI KATL 170708Z 00000KT 5SM BR FEW003 OVC020 08/07 A3009 RMK AO2 T00830067 $ (KAF),FM-16,7,,,,,,,,,,,,,,,,,,,,,,,,,,,3/27/2007
72219013874,2020-02-17T02:44:00,FM-16,7,,,,,,,,,,,,,,,,,,,,,,,,,,,,,,,,,,,,,,,30.09,43,46,,BR:1 ||,,,89,,BKN:07 3 BKN:07 20,28.99,2.5,45,0,,0,,,,,,,,,,,,,,,,,,,,,,,,,,,,,,,,,,,,,MET11402/17/20 02:44:02 SPECI KATL 170744Z 00000KT 2 1/2SM BR BKN003 BKN020 08/06 A3009 RMK AO2 BKN003 V SCT T00780061 $,FM-16,7,,,,,,,,,,,,,,,,,,,,,,,,,,,3/27/2007
72219013874,2020-02-17T02:52:00,FM-15,7,,,,,,,,,,,,,,,,,,,,,,,,,,,,,,,,,,,,,,,30.08,43,46,0,BR:1 |s |,,,89,30.09,BKN:07 3 BKN:07 20,28.98,0.25,45,0,,0,,,,,,,,,,,,,,,,,,,,,,,,,,,,,,,,,,,,,MET15002/17/20 02:52:02 METAR KATL 170752Z 00000KT 1/4SM R09R/P6000FT BR BKN003 BKN020 08/06 A3008 RMK AO2 SFC VIS 3/4 SLP191 CIG 002V004 TWRINC T00780061 $,FM-15,7,,,,,,,,,,,,,,,,,,,,,,,,,,,3/27/2007
72219013874,2020-02-17T03:21:00,FM-16,7,,,,,,,,,,,,,,,,,,,,,,,,,,,,,,,,,,,,,,,30.08,44,46,,FG:2 |FG |,,,93,,VV:09 2,28.98,0.25,45,10,,5,,,,,,,,,,,,,,,,,,,,,,,,,,,,,,,,,,,,,MET10802/17/20 03:21:02 SPECI KATL 170821Z 01004KT 1/4SM R09R/1200V2000FT FG VV002 08/07 A3008 RMK AO2 T00780067 $,FM-16,7,,,,,,,,,,,,,,,,,,,,,,,,,,,3/27/2007
72219013874,2020-02-17T03:52:00,FM-15,7,,,,,,,,,,,,,,,,,,,,,,,,,,,,,,,,,,,,,,,30.08,44,46,0,FG:2 |FG |,0.02,6,93,30.09,VV:09 2,28.98,0.25,45,30,,6,,,,,,,,,,,,,,,,,,,,,,,,,,,,,,,,,,,,,MET13302/17/20 03:52:02 METAR KATL 170852Z 03005KT 1/4SM R09R/1000V1200FT FG VV002 08/07 A3008 RMK AO2 TWR VIS 1/4 SLP189 T00780067 56006 $,FM-15,7,,,,,,,,,,,,,,,,,,,,,,,,,,,3/27/2007
72219013874,2020-02-17T04:52:00,FM-15,7,,,,,,,,,,,,,,,,,,,,,,,,,,,,,,,,,,,,,,,30.06,43,45,0,FG:2 |FG |,,,93,30.07,VV:09 2,28.96,0.25,44,50,,7,,,,,,,,,,,,,,,,,,,,,,,,,,,,,,,,,,,,,MET12702/17/20 04:52:02 METAR KATL 170952Z 05006KT 1/4SM R09R/1000V1200FT FG VV002 07/06 A3006 RMK AO2 TWR VIS 1/4 SLP183 T00720061 $,FM-15,7,,,,,,,,,,,,,,,,,,,,,,,,,,,3/27/2007
72219013874,2020-02-17T05:05:00,FM-16,7,,,,,,,,,,,,,,,,,,,,,,,,,,,,,,,,,,,,,,,30.06,43,45,,FG:2 |FG |,,,93,,VV:09 1,28.96,0.12,44,40,,7,,,,,,,,,,,,,,,,,,,,,,,,,,,,,,,,,,,,,MET12002/17/20 05:05:02 SPECI KATL 171005Z 04006KT 1/8SM R09R/1000V1400FT FG VV001 07/06 A3006 RMK AO2 TWR VIS 1/4 T00720061 $,FM-16,7,,,,,,,,,,,,,,,,,,,,,,,,,,,3/27/2007
72219013874,2020-02-17T05:37:00,FM-16,7,,,,,,,,,,,,,,,,,,,,,,,,,,,,,,,,,,,,,,,30.08,44,45,,FG:2 |FG |,,,97,,VV:09 2,28.98,0.25,45,0,,0,,,,,,,,,,,,,,,,,,,,,,,,,,,,,,,,,,,,,MET10802/17/20 05:37:02 SPECI KATL 171037Z 00000KT 1/4SM R09R/1400V4000FT FG VV002 07/07 A3008 RMK AO2 T00720067 $,FM-16,7,,,,,,,,,,,,,,,,,,,,,,,,,,,3/27/2007
72219013874,2020-02-17T05:46:00,FM-16,7,,,,,,,,,,,,,,,,,,,,,,,,,,,,,,,,,,,,,,,30.08,43,45,,FG:2 |FG |,,,93,,VV:09 2,28.98,0.25,44,50,,3,,,,,,,,,,,,,,,,,,,,,,,,,,,,,,,,,,,,,MET09802/17/20 05:46:02 SPECI KATL 171046Z 05003KT 1/4SM R09R/1400V1800FT FG VV002 07/06 A3008 RMK AO2 $,FM-16,7,,,,,,,,,,,,,,,,,,,,,,,,,,,3/27/2007
72219013874,2020-02-17T05:52:00,FM-15,7,,,,,,,,,,,,,,,,,,,,,,,,,,,,,,,,,,,,,,,30.09,42,45,0,FG:2 |FG |,,,90,30.1,VV:09 2,28.99,0.25,44,50,,3,,,,,,,,,,,,,,,,,,,,,,,,,,,,,,,,,,,,,MET11502/17/20 05:52:02 METAR KATL 171052Z 05003KT 1/4SM R09R/1400V1800FT FG VV002 07/06 A3009 RMK AO2 SLP192 T00720056 $,FM-15,7,,,,,,,,,,,,,,,,,,,,,,,,,,,3/27/2007
72219013874,2020-02-17T06:46:00,FM-16,6,,,,,,,,,,,,,,,,,,,,,,,,,,,,,,,,,,,,,,,30.09,43,45,,FG:2 |FG |,,,93,,VV:09 2,28.99,0.25,44,90,,3,,,,,,,,,,,,,,,,,,,,,,,,,,,,,,,,,,,,,MET10302/17/20 06:46:02 SPECI KATL 171146Z 09003KT 1/4SM R09R/1400V2400FT FG VV002 07/06 A3009 RMK AO2 $ (DB),FM-16,6,,,,,,,,,,,,,,,,,,,,,,,,,,,3/27/2007
72219013874,2020-02-17T06:52:00,FM-15,7,,,,,,,,,,,,,,,,,,,,,,,,,,,,,,,,,,,,,,,30.09,43,45,0,FG:2 |FG |,-0.03,1,93,30.1,VV:09 2,28.99,0.25,44,100,,3,,,,,,,,,,,,,,,,,,,,,,,,,,,,,,,,,,,,,MET15102/17/20 06:52:02 METAR KATL 171152Z 10003KT 1/4SM R09R/1400V2400FT FG VV002 07/06 A3009 RMK AO2 TWR VIS 1/4 SLP194 70029 T00720061 10083 20072 51010 $,FM-15,7,,,,,,,,,,,,,,,,,,,,,,,,,,,3/27/2007
72219013874,2020-02-17T06:56:00,FM-16,7,,,,,,,,,,,,,,,,,,,,,,,,,,,,,,,,,,,,,,,30.1,43,45,,FG:2 |FG |,,,93,,VV:09 2,29,0.25,44,100,,5,,,,,,,,,,,,,,,,,,,,,,,,,,,,,,,,,,,,,MET12002/17/20 06:56:02 SPECI KATL 171156Z 10004KT 1/4SM R09R/1400V2000FT FG VV002 07/06 A3010 RMK AO2 TWR VIS 1/4 T00720061 $,FM-16,7,,,,,,,,,,,,,,,,,,,,,,,,,,,3/27/2007
72219013874,2020-02-17T07:00:00,FM-12,4,,,,,,,,,,,,,,,,,,,,,,,,,,,,,,,,,,,,,,,,43,45,,||FG,-0.03,1,93,30.1,2,28.98,0.25,44,100,,3,,,,,,,,,,,,,,,,,,,,,,,,,,,,,,,,,,,,,SYN09272219 31104 91003 10072 20061 39815 40194 51010 741// 91152 333 10083 20072 70074 555 91712=,FM-12,4,,,,,,,,,,,,,,,,,,,,,,,,,,,3/27/2007
72219013874,2020-02-17T07:43:00,FM-16,7,,,,,,,,,,,,,,,,,,,,,,,,,,,,,,,,,,,,,,,30.1,43,45,,FG:2 |FG |,,,93,,VV:09 2,29,0.12,44,140,,6,,,,,,,,,,,,,,,,,,,,,,,,,,,,,,,,,,,,,MET12002/17/20 07:43:02 SPECI KATL 171243Z 14005KT 1/8SM R09R/1200V1400FT FG VV002 07/06 A3010 RMK AO2 TWR VIS 1/4 T00720061 $,FM-16,7,,,,,,,,,,,,,,,,,,,,,,,,,,,3/27/2007
72219013874,2020-02-17T07:52:00,FM-15,7,,,,,,,,,,,,,,,,,,,,,,,,,,,,,,,,,,,,,,,30.1,43,44,0,FG:2 |FG |,,,96,30.11,VV:09 2,29,0.25,44,140,,5,,,,,,,,,,,,,,,,,,,,,,,,,,,,,,,,,,,,,MET11502/17/20 07:52:02 METAR KATL 171252Z 14004KT 1/4SM R09R/1200V1600FT FG VV002 07/06 A3010 RMK AO2 SLP197 T00670061 $,FM-15,7,,,,,,,,,,,,,,,,,,,,,,,,,,,3/27/2007
72219013874,2020-02-17T07:57:00,FM-16,7,,,,,,,,,,,,,,,,,,,,,,,,,,,,,,,,,,,,,,,30.1,43,45,,FG:2 |FG |,,,93,,VV:09 2,29,0.25,44,140,,6,,,,,,,,,,,,,,,,,,,,,,,,,,,,,,,,,,,,,MET10802/17/20 07:57:02 SPECI KATL 171257Z 14005KT 1/4SM R09R/1200V2400FT FG VV002 07/06 A3010 RMK AO2 T00720061 $,FM-16,7,,,,,,,,,,,,,,,,,,,,,,,,,,,3/27/2007
72219013874,2020-02-17T08:09:00,FM-16,7,,,,,,,,,,,,,,,,,,,,,,,,,,,,,,,,,,,,,,,30.1,43,45,,FG:2 |FG |,,,93,,VV:09 2,29,0.25,44,140,,6,,,,,,,,,,,,,,,,,,,,,,,,,,,,,,,,,,,,,MET10802/17/20 08:09:02 SPECI KATL 171309Z 14005KT 1/4SM R09R/1400V1800FT FG VV002 07/06 A3010 RMK AO2 T00720061 $,FM-16,7,,,,,,,,,,,,,,,,,,,,,,,,,,,3/27/2007
72219013874,2020-02-17T08:22:00,FM-16,7,,,,,,,,,,,,,,,,,,,,,,,,,,,,,,,,,,,,,,,30.11,43,45,,FG:2 |FG |,,,93,,VV:09 2,29.01,0.25,44,130,,7,,,,,,,,,,,,,,,,,,,,,,,,,,,,,,,,,,,,,MET10802/17/20 08:22:02 SPECI KATL 171322Z 13006KT 1/4SM R09R/1400V4000FT FG VV002 07/06 A3011 RMK AO2 T00720061 $,FM-16,7,,,,,,,,,,,,,,,,,,,,,,,,,,,3/27/2007
72219013874,2020-02-17T08:28:00,FM-16,7,,,,,,,,,,,,,,,,,,,,,,,,,,,,,,,,,,,,,,,30.11,43,45,,FG:2 |FG |,,,93,,VV:09 2,29.01,0.25,44,140,,5,,,,,,,,,,,,,,,,,,,,,,,,,,,,,,,,,,,,,MET10802/17/20 08:28:02 SPECI KATL 171328Z 14004KT 1/4SM R09R/1400V2200FT FG VV002 07/06 A3011 RMK AO2 T00720061 $,FM-16,7,,,,,,,,,,,,,,,,,,,,,,,,,,,3/27/2007
72219013874,2020-02-17T08:52:00,FM-15,7,,,,,,,,,,,,,,,,,,,,,,,,,,,,,,,,,,,,,,,30.13,43,45,0,FG:2 |FG |,,,93,30.14,VV:09 2,29.03,0.25,44,130,,7,,,,,,,,,,,,,,,,,,,,,,,,,,,,,,,,,,,,,MET12702/17/20 08:52:02 METAR KATL 171352Z 13006KT 1/4SM R09R/1400V1800FT FG VV002 07/06 A3013 RMK AO2 SFC VIS 1/2 SLP205 T00720061 $,FM-15,7,,,,,,,,,,,,,,,,,,,,,,,,,,,3/27/2007
72219013874,2020-02-17T09:08:00,FM-16,7,,,,,,,,,,,,,,,,,,,,,,,,,,,,,,,,,,,,,,,30.13,44,45,,FG:2 |FG |,,,97,,VV:09 2,29.03,0.25,45,100,,7,,,,,,,,,,,,,,,,,,,,,,,,,,,,,,,,,,,,,MET10802/17/20 09:08:02 SPECI KATL 171408Z 10006KT 1/4SM R09R/1800V5500FT FG VV002 07/07 A3013 RMK AO2 T00720067 $,FM-16,7,,,,,,,,,,,,,,,,,,,,,,,,,,,3/27/2007
72219013874,2020-02-17T09:52:00,FM-15,7,,,,,,,,,,,,,,,,,,,,,,,,,,,,,,,,,,,,,,,30.14,44,46,0,BR:1 |s |,-0.05,3,93,30.15,OVC:08 2,29.04,0.25,45,110,,7,,,,,,,,,,,,,,,,,,,,,,,,,,,,,,,,,,,,,MET13502/17/20 09:52:02 METAR KATL 171452Z 11006KT 1/4SM R09R/2400VP6000FT BR OVC002 08/07 A3014 RMK AO2 SFC VIS 3/4 SLP211 T00780067 53017 $,FM-15,7,,,,,,,,,,,,,,,,,,,,,,,,,,,3/27/2007
72219013874,2020-02-17T10:52:00,FM-15,7,,,,,,,,,,,,,,,,,,,,,,,,,,,,,,,,,,,,,,,30.15,44,46,0,BR:1 |s |,,,93,30.16,OVC:08 2,29.05,0.25,45,100,,9,,,,,,,,,,,,,,,,,,,,,,,,,,,,,,,,,,,,,MET12902/17/20 10:52:02 METAR KATL 171552Z 10008KT 1/4SM R09R/P6000FT BR OVC002 08/07 A3015 RMK AO2 SFC VIS 2 SLP214 TWRINC T00780067 $,FM-15,7,,,,,,,,,,,,,,,,,,,,,,,,,,,3/27/2007
72219013874,2020-02-17T11:52:00,FM-15,7,,,,,,,,,,,,,,,,,,,,,,,,,,,,,,,,,,,,,,,30.16,45,47,0,BR:1 |s |,,,93,30.16,OVC:08 3,29.06,0.25,46,90,,8,,,,,,,,,,,,,,,,,,,,,,,,,,,,,,,,,,,,,MET12902/17/20 11:52:02 METAR KATL 171652Z 09007KT 1/4SM R09R/P6000FT BR OVC003 08/07 A3016 RMK AO2 SFC VIS 6 SLP215 TWRINC T00830072 $,FM-15,7,,,,,,,,,,,,,,,,,,,,,,,,,,,3/27/2007
72219013874,2020-02-17T12:41:00,FM-16,7,,,,,,,,,,,,,,,,,,,,,,,,,,,,,,,,,,,,,,,30.14,45,49,,BR:1 ||,,,86,,OVC:08 5,29.04,1,47,110,,8,,,,,,,,,,,,,,,,,,,,,,,,,,,,,,,,,,,,,MET11302/17/20 12:41:02 SPECI KATL 171741Z 11007KT 1SM R09R/P6000FT BR OVC005 09/07 A3014 RMK AO2 SFC VIS 6 T00940072 $,FM-16,7,,,,,,,,,,,,,,,,,,,,,,,,,,,3/27/2007
72219013874,2020-02-17T12:52:00,FM-15,7,,,,,,,,,,,,,,,,,,,,,,,,,,,,,,,,,,,,,,,30.13,45,49,0,BR:1 ||,0.01,8,86,30.14,OVC:08 5,29.03,1.5,47,80,,9,,,,,,,,,,,,,,,,,,,,,,,,,,,,,,,,,,,,,MET12902/17/20 12:52:02 METAR KATL 171752Z 08008KT 1 1/2SM BR OVC005 09/07 A3013 RMK AO2 SFC VIS 6 SLP207 T00940072 10100 20067 58003 $,FM-15,7,,,,,,,,,,,,,,,,,,,,,,,,,,,3/27/2007
72219013874,2020-02-17T13:00:00,FM-12,4,,,,,,,,,,,,,,,,,,,,,,,,,,,,,,,,,,,,,,,,45,49,,,0.01,8,86,30.14,5,29.02,1.49,47,80,,9,,,,,,,,,,,,,,,,,,,,,,,,,,,,,,,,,,,,,SYN08672219 31224 80808 10094 20072 39828 40207 58003 710// 91752 333 10100 20067 555 91718=,FM-12,4,,,,,,,,,,,,,,,,,,,,,,,,,,,3/27/2007
72219013874,2020-02-17T13:18:00,FM-16,7,,,,,,,,,,,,,,,,,,,,,,,,,,,,,,,,,,,,,,,30.12,46,50,,,,,86,,OVC:08 5,29.02,8,48,90,,8,,,,,,,,,,,,,,,,,,,,,,,,,,,,,,,,,,,,,MET08702/17/20 13:18:02 SPECI KATL 171818Z 09007KT 8SM OVC005 10/08 A3012 RMK AO2 T01000078 $,FM-16,7,,,,,,,,,,,,,,,,,,,,,,,,,,,3/27/2007
72219013874,2020-02-17T13:52:00,FM-15,7,,,,,,,,,,,,,,,,,,,,,,,,,,,,,,,,,,,,,,,30.11,46,51,0,,,,83,30.11,BKN:07 7 OVC:08 25,29.01,10,48,130,,8,,,,,,,,,,,,,,,,,,,,,,,,,,,,,,,,,,,,,MET10202/17/20 13:52:02 METAR KATL 171852Z 13007KT 10SM BKN007 OVC025 11/08 A3011 RMK AO2 SLP198 T01060078 $,FM-15,7,,,,,,,,,,,,,,,,,,,,,,,,,,,3/27/2007
72219013874,2020-02-17T14:32:00,FM-16,7,,,,,,,,,,,,,,,,,,,,,,,,,,,,,,,,,,,,,,,30.11,46,53,,,,,77,,OVC:08 11,29.01,10,49,130,,7,,,,,,,,,,,,,,,,,,,,,,,,,,,,,,,,,,,,,MET08802/17/20 14:32:02 SPECI KATL 171932Z 13006KT 10SM OVC011 12/08 A3011 RMK AO2 T01170078 $,FM-16,7,,,,,,,,,,,,,,,,,,,,,,,,,,,3/27/2007
72219013874,2020-02-17T14:52:00,FM-15,7,,,,,,,,,,,,,,,,,,,,,,,,,,,,,,,,,,,,,,,30.11,46,52,0,,,,80,30.11,BKN:07 10 OVC:08 15,29.01,10,49,100,,8,,,,,,,,,,,,,,,,,,,,,,,,,,,,,,,,,,,,,MET10202/17/20 14:52:02 METAR KATL 171952Z 10007KT 10SM BKN010 OVC015 11/08 A3011 RMK AO2 SLP198 T01110078 $,FM-15,7,,,,,,,,,,,,,,,,,,,,,,,,,,,3/27/2007
72219013874,2020-02-17T15:52:00,FM-15,7,,,,,,,,,,,,,,,,,,,,,,,,,,,,,,,,,,,,,,,30.12,46,53,0,,0.01,5,77,30.12,OVC:08 11,29.02,10,49,90,,8,,,,,,,,,,,,,,,,,,,,,,,,,,,,,,,,,,,,,MET10102/17/20 15:52:02 METAR KATL 172052Z 09007KT 10SM OVC011 12/08 A3012 RMK AO2 SLP200 T01170078 55005 $,FM-15,7,,,,,,,,,,,,,,,,,,,,,,,,,,,3/27/2007
72219013874,2020-02-17T16:45:00,FM-16,7,,,,,,,,,,,,,,,,,,,,,,,,,,,,,,,,,,,,,,,30.12,47,52,,,,,83,,OVC:08 9,29.02,10,49,90,,8,,,,,,,,,,,,,,,,,,,,,,,,,,,,,,,,,,,,,MET08802/17/20 16:45:02 SPECI KATL 172145Z 09007KT 10SM OVC009 11/08 A3012 RMK AO2 T01110083 $,FM-16,7,,,,,,,,,,,,,,,,,,,,,,,,,,,3/27/2007
72219013874,2020-02-17T16:52:00,FM-15,7,,,,,,,,,,,,,,,,,,,,,,,,,,,,,,,,,,,,,,,30.12,47,52,0,,,,83,30.12,OVC:08 9,29.02,10,49,90,,9,,,,,,,,,,,,,,,,,,,,,,,,,,,,,,,,,,,,,MET09502/17/20 16:52:02 METAR KATL 172152Z 09008KT 10SM OVC009 11/08 A3012 RMK AO2 SLP201 T01110083 $,FM-15,7,,,,,,,,,,,,,,,,,,,,,,,,,,,3/27/2007
72219013874,2020-02-17T17:52:00,FM-15,7,,,,,,,,,,,,,,,,,,,,,,,,,,,,,,,,,,,,,,,30.12,48,51,T,-DZ:01 BR:1 |DZ |DZ,,,89,30.13,OVC:08 7,29.02,6,49,130,,8,,,,,,,,,,,,,,,,,,,,,,,,,,,,,,,,,,,,,MET11302/17/20 17:52:02 METAR KATL 172252Z 13007KT 6SM -DZ BR OVC007 11/09 A3012 RMK AO2 DZB47 SLP203 P0000 T01060089 $,FM-15,7,,,,,,,,,,,,,,,,,,,,,,,,,,,3/27/2007
72219013874,2020-02-17T18:52:00,FM-15,7,,,,,,,,,,,,,,,,,,,,,,,,,,,,,,,,,,,,,,,30.13,47,51,T,-DZ:01 BR:1 |DZ |DZ,-0.01,3,86,30.14,OVC:08 5,29.03,3,49,110,,9,,,,,,,,,,,,,,,,,,,,,,,,,,,,,,,,,,,,,MET14102/17/20 18:52:02 METAR KATL 172352Z 11008KT 3SM -DZ BR OVC005 11/08 A3013 RMK AO2 SFC VIS 5 SLP205 P0000 60000 T01060083 10117 20094 53004 $,FM-15,7,,,,,,,,,,,,,,,,,,,,,,,,,,,3/27/2007
72219013874,2020-02-17T19:00:00,FM-12,4,,,,,,,,,,,,,,,,,,,,,,,,,,,,,,,,,,,,,,,,47,51,,||DZ,-0.01,3,86,30.14,5,29.02,2.98,49,110,,9,,,,,,,,,,,,,,,,,,,,,,,,,,,,,,,,,,,,,SYN09872219 11248 81108 10106 20083 39828 40205 53004 69901 751// 92352 333 10117 20072 96010 555 91800=,FM-12,4,,,,,,,,,,,,,,,,,,,,,,,,,,,3/27/2007
72219013874,2020-02-17T19:52:00,FM-15,7,,,,,,,,,,,,,,,,,,,,,,,,,,,,,,,,,,,,,,,30.14,47,51,T,-DZ:01 BR:1 |DZ |DZ,,,86,30.15,OVC:08 5,29.04,3,49,100,,8,,,,,,,,,,,,,,,,,,,,,,,,,,,,,,,,,,,,,MET11702/17/20 19:52:01 METAR KATL 180052Z 10007KT 3SM -DZ BR OVC005 11/08 A3014 RMK AO2 SFC VIS 5 SLP210 P0000 T01060083 $,FM-15,7,,,,,,,,,,,,,,,,,,,,,,,,,,,3/27/2007
72219013874,2020-02-17T20:38:00,FM-16,7,,,,,,,,,,,,,,,,,,,,,,,,,,,,,,,,,,,,,,,30.16,48,50,T,-DZ:01 BR:1 |s DZ s |DZ s,,,93,,OVC:08 4,29.06,0.5,49,120,,6,,,,,,,,,,,,,,,,,,,,,,,,,,,,,,,,,,,,,MET13202/17/20 20:38:01 SPECI KATL 180138Z 12005KT 1/2SM R09R/P6000FT -DZ BR OVC004 10/09 A3016 RMK AO2 SFC VIS 2 TWRINC P0000 T01000089 $,FM-16,7,,,,,,,,,,,,,,,,,,,,,,,,,,,3/27/2007
72219013874,2020-02-17T20:52:00,FM-15,7,,,,,,,,,,,,,,,,,,,,,,,,,,,,,,,,,,,,,,,30.16,48,50,T,-DZ:01 BR:1 |s DZ s |DZ s,,,93,30.17,OVC:08 4,29.06,0.5,49,110,,7,,,,,,,,,,,,,,,,,,,,,,,,,,,,,,,,,,,,,MET15102/17/20 20:52:01 METAR KATL 180152Z 11006KT 1/2SM R09R/P6000FT -DZ BR OVC004 10/09 A3016 RMK AO2 SFC VIS 2 SLP216 CIG 002V005 TWRINC P0000 T01000089 $,FM-15,7,,,,,,,,,,,,,,,,,,,,,,,,,,,3/27/2007
72219013874,2020-02-17T21:52:00,FM-15,7,,,,,,,,,,,,,,,,,,,,,,,,,,,,,,,,,,,,,,,30.16,48,50,T,-DZ:01 BR:1 |s DZ s |DZ s,-0.04,1,93,30.17,OVC:08 3,29.06,0.5,49,120,,7,,,,,,,,,,,,,,,,,,,,,,,,,,,,,,,,,,,,,MET15502/17/20 21:52:01 METAR KATL 180252Z 12006KT 1/2SM R09R/P6000FT -DZ BR OVC003 10/09 A3016 RMK AO2 SFC VIS 1 1/2 SLP217 TWRINC P0000 60000 T01000089 51012 $,FM-15,7,,,,,,,,,,,,,,,,,,,,,,,,,,,3/27/2007
72219013874,2020-02-17T22:52:00,FM-15,7,,,,,,,,,,,,,,,,,,,,,,,,,,,,,,,,,,,,,,,30.16,49,51,T,-DZ:01 BR:1 |s DZ s |DZ s,,,92,30.16,OVC:08 2,29.06,0.5,50,120,,8,,,,,,,,,,,,,,,,,,,,,,,,,,,,,,,,,,,,,MET13702/17/20 22:52:02 METAR KATL 180352Z 12007KT 1/2SM R09R/6000VP6000FT -DZ BR OVC002 11/09 A3016 RMK AO2 SFC VIS 1 SLP215 P0000 T01060094 $,FM-15,7,,,,,,,,,,,,,,,,,,,,,,,,,,,3/27/2007
72219013874,2020-02-17T23:52:00,FM-15,7,,,,,,,,,,,,,,,,,,,,,,,,,,,,,,,,,,,,,,,30.16,49,51,T,-DZ:01 BR:1 |s DZ s |DZ s,,,92,30.16,OVC:08 2,29.06,0.5,50,120,,7,,,,,,,,,,,,,,,,,,,,,,,,,,,,,,,,,,,,,MET14602/17/20 23:52:02 METAR KATL 180452Z 12006KT 1/2SM R09R/P6000FT -DZ BR OVC002 11/09 A3016 RMK AO2 SFC VIS 1 1/4 SLP214 P0000 T01060094 401170067 $,FM-15,7,,,,,,,,,,,,,,,,,,,,,,,,,,,3/27/2007
72219013874,2020-02-17T23:59:00,SOD  ,6,,,,,,,,,,,,,,,,,45,49,89,30.13,29.01,47,6.5,0,1.4,16,53,44,90,15,T,0,0,110,12,DZ FG BR,,,,,,,,,,,,,,,,,,,,,,,,,,,,,,,,,,,,,,,,,,,,,,,,,,,,,,,SOD78524 HR PRECIPITATION (IN):    T SNOW DEPTH (IN):0     24 HR SNOWFALL (IN):0.0  WEATHER(CODE):128  24 HR MAX TEMP (F): 5324 HR MIN TEMP (F): 44AVERAGE STATION PRESSURE(D):29.013 MINIMUM SEA LEVEL PRESSURE:30.07 TIME OF OCCURRENCE:0520 PEAK WIND SPEED (MPH): 15 PEAK WIND DIR (DEG): 90 PEAK WIND TIME (LST):      FASTEST 2MIN SPEED (MPH): 12FASTEST 2MIN DIR (DEG):110 FASTEST 2MIN TIME (LST):     AVERAGE WIND SPEED (MPH): 6.5 24 HR AVG TEMP (F): 49DEPART FROM NORMAL:  1  SKY COVER SR-SS (TENTHS): 1HEATING DEGREE DAYS: 16 COOLING DEGREE DAYS:  0 LATEST DAY MAX TEMP (0700-1900 LST): 53 LATEST NIGHT MIN TEMP(1900-0800 LST):44 HOURLY INCREMENTAL PRECIPITATION VALUES (IN):0.00 0.00 0.00 0.00 0.00 0.00 0.00 0.00 0.00 0.00 0.00 0.00 0.00 0.00 0.00 0.00 0.00T    T    T    T    T    T    T,SOD  ,6,,,,,,,,,,,,,,,,,,,,,,,,,720,1824,3/27/2007
72219013874,2020-02-18T00:52:00,FM-15,7,,,,,,,,,,,,,,,,,,,,,,,,,,,,,,,,,,,,,,,30.16,49,51,T,-DZ:01 FG:2 |FG DZ |DZ,0.01,5,92,30.16,VV:09 2,29.06,0.5,50,120,,7,,,,,,,,,,,,,,,,,,,,,,,,,,,,,,,,,,,,,MET15402/18/20 00:52:02 METAR KATL 180552Z 12006KT 1/2SM R09R/3500V5500FT -DZ FG VV002 11/09 A3016 RMK AO2 SLP214 P0000 60000 T01060094 10106 20100 55002 $ (RF),FM-15,7,,,,,,,,,,,,,,,,,,,,,,,,,,,3/27/2007
72219013874,2020-02-18T01:00:00,FM-12,4,,,,,,,,,,,,,,,,,,,,,,,,,,,,,,,,,,,,,,,,49,51,,||DZ,0.01,5,92,30.16,,29.05,0.5,50,120,,7,,,,,,,,,,,,,,,,,,,,,,,,,,,,,,,,,,,,,SYN09872219 11108 /1206 10106 20094 39838 40214 55002 69901 751// 90552 333 10106 20072 96041 555 91806=,FM-12,4,,,,,,,,,,,,,,,,,,,,,,,,,,,3/27/2007
72219013874,2020-02-18T01:50:00,FM-16,6,,,,,,,,,,,,,,,,,,,,,,,,,,,,,,,,,,,,,,,30.15,50,52,,FG:2 |FG |,,,94,,VV:09 2,29.05,0.5,51,120,,6,,,,,,,,,,,,,,,,,,,,,,,,,,,,,,,,,,,,,MET12002/18/20 01:50:02 SPECI KATL 180650Z 12005KT 1/2SM R09R/2000V2200FT FG VV002 11/10 A3015 RMK AO2 DZE32 P0000 $ FIBI (DB),FM-16,6,,,,,,,,,,,,,,,,,,,,,,,,,,,3/27/2007
72219013874,2020-02-18T01:52:00,FM-15,7,,,,,,,,,,,,,,,,,,,,,,,,,,,,,,,,,,,,,,,30.15,50,52,T,-DZ:01 FG:2 |FG DZ |DZ,,,93,30.15,VV:09 2,29.05,0.25,51,120,,6,,,,,,,,,,,,,,,,,,,,,,,,,,,,,,,,,,,,,MET15102/18/20 01:52:02 METAR KATL 180652Z 12005KT 1/4SM R09R/2000V2200FT -DZ FG VV002 11/10 A3015 RMK AO2 TWR VIS 1/2 DZE32B51 SLP211 P0000 T01110100 $ (DB),FM-15,7,,,,,,,,,,,,,,,,,,,,,,,,,,,3/27/2007
72219013874,2020-02-18T02:29:00,FM-16,7,,,,,,,,,,,,,,,,,,,,,,,,,,,,,,,,,,,,,,,30.14,50,52,T,-DZ:01 FG:2 |FG DZ |DZ,,,93,,VV:09 2,29.04,0.5,51,100,,5,,,,,,,,,,,,,,,,,,,,,,,,,,,,,,,,,,,,,MET12302/18/20 02:29:02 SPECI KATL 180729Z 10004KT 1/2SM R09R/2000V2600FT -DZ FG VV002 11/10 A3014 RMK AO2 P0000 T01110100 $ (DB),FM-16,7,,,,,,,,,,,,,,,,,,,,,,,,,,,3/27/2007
72219013874,2020-02-18T02:52:00,FM-15,7,,,,,,,,,,,,,,,,,,,,,,,,,,,,,,,,,,,,,,,30.14,50,52,T,-DZ:01 FG:2 |FG DZ |DZ,,,93,30.14,VV:09 2,29.04,0.5,51,100,,7,,,,,,,,,,,,,,,,,,,,,,,,,,,,,,,,,,,,,MET13002/18/20 02:52:02 METAR KATL 180752Z 10006KT 1/2SM R09R/2200V2400FT -DZ FG VV002 11/10 A3014 RMK AO2 SLP207 P0000 T01110100 $ (DB),FM-15,7,,,,,,,,,,,,,,,,,,,,,,,,,,,3/27/2007
72219013874,2020-02-18T03:52:00,FM-15,7,,,,,,,,,,,,,,,,,,,,,,,,,,,,,,,,,,,,,,,30.12,51,52,T,FG:2 |FG |,0.04,8,97,30.12,VV:09 2,29.02,0.25,51,110,,6,,,,,,,,,,,,,,,,,,,,,,,,,,,,,,,,,,,,,MET18102/18/20 03:52:02 METAR KATL 180852Z 11005KT 1/4SM R09R/2200V2400FT FG VV002 11/11 A3012 RMK AO2 TWR VIS 1/2 LTG DSNT SW DZE49 SLP201 CB DSNT S-SW P0000 60000 T01110106 58013 $ (DB),FM-15,7,,,,,,,,,,,,,,,,,,,,,,,,,,,3/27/2007
72219013874,2020-02-18T04:27:00,FM-16,7,,,,,,,,,,,,,,,,,,,,,,,,,,,,,,,,,,,,,,,30.14,50,52,0.01,-RA:02 FG:2 |FG RA |RA,,,93,,VV:09 2,29.04,0.5,51,140,,3,,,,,,,,,,,,,,,,,,,,,,,,,,,,,,,,,,,,,MET15702/18/20 04:27:02 SPECI KATL 180927Z 14003KT 1/2SM R09R/2200V2400FT -RA FG VV002 11/10 A3014 RMK AO2 RAB20 OCNL LTG DSNT SW CB DSNT SW P0001 T01110100 $ (DB),FM-16,7,,,,,,,,,,,,,,,,,,,,,,,,,,,3/27/2007
72219013874,2020-02-18T04:52:00,FM-15,7,,,,,,,,,,,,,,,,,,,,,,,,,,,,,,,,,,,,,,,30.12,50,52,0.04,-RA:02 BR:1 |s RA s |RA s,,,93,30.12,OVC:08 3,29.02,0.5,51,80,,9,,,,,,,,,,,,,,,,,,,,,,,,,,,,,,,,,,,,,MET18202/18/20 04:52:02 METAR KATL 180952Z 08008KT 1/2SM R09R/2800V3500FT -RA BR OVC003 11/10 A3012 RMK AO2 SFC VIS 3/4 LTG DSNT S RAB20 SLP201 CIG 002V004 CB DSNT S P0002 T01110100 $ (DB),FM-15,7,,,,,,,,,,,,,,,,,,,,,,,,,,,3/27/2007
72219013874,2020-02-18T05:14:00,FM-16,7,,,,,,,,,,,,,,,,,,,,,,,,,,,,,,,,,,,,,,,30.13,51,53,0.05,-RA:02 BR:1 |s RA s |RA s,,,93,,OVC:08 3,29.03,0.5,52,120,,3,,,,,,,,,,,,,,,,,,,,,,,,,,,,,,,,,,,,,MET13402/18/20 05:14:02 SPECI KATL 181014Z 12003KT 1/2SM R09R/P6000FT -RA BR OVC003 12/11 A3013 RMK AO2 SFC VIS 1 1/2 P0005 T01170106 $ (DB),FM-16,7,,,,,,,,,,,,,,,,,,,,,,,,,,,3/27/2007
72219013874,2020-02-18T05:29:00,FM-16,7,,,,,,,,,,,,,,,,,,,,,,,,,,,,,,,,,,,,,,,30.14,51,53,0.07,-RA:02 BR:1 |s RA s |RA s,,,93,,BKN:07 3 OVC:08 18,29.04,0.5,52,0,,0,,,,,,,,,,,,,,,,,,,,,,,,,,,,,,,,,,,,,MET16702/18/20 05:29:02 SPECI KATL 181029Z 00000KT 1/2SM R09R/P6000FT -RA BR BKN003 OVC018 12/11 A3014 RMK AO2 SFC VIS 4 LTG DSNT SE CB DSNT SE TWRINC P0007 T01170106 $ (DB),FM-16,7,,,,,,,,,,,,,,,,,,,,,,,,,,,3/27/2007
72219013874,2020-02-18T05:45:00,FM-16,7,,,,,,,,,,,,,,,,,,,,,,,,,,,,,,,,,,,,,,,30.16,51,53,0.07,BR:1 ||,,,93,,BKN:07 4 OVC:08 18,29.06,1.5,52,150,,3,,,,,,,,,,,,,,,,,,,,,,,,,,,,,,,,,,,,,MET14702/18/20 05:45:02 SPECI KATL 181045Z 15003KT 1 1/2SM BR BKN004 OVC018 12/11 A3016 RMK AO2 SFC VIS 6 RAE33 CIG 003V006 TWRINC P0007 T01170106 $ (DB),FM-16,7,,,,,,,,,,,,,,,,,,,,,,,,,,,3/27/2007
72219013874,2020-02-18T05:52:00,FM-15,7,,,,,,,,,,,,,,,,,,,,,,,,,,,,,,,,,,,,,,,30.16,51,53,0.06,BR:1 ||,,,93,30.16,BKN:07 4 OVC:08 18,29.06,1.5,52,0,,0,,,,,,,,,,,,,,,,,,,,,,,,,,,,,,,,,,,,,MET15402/18/20 05:52:02 METAR KATL 181052Z 00000KT 1 1/2SM BR BKN004 OVC018 12/11 A3016 RMK AO2 SFC VIS 6 RAE33 SLP214 CIG 003V006 TWRINC P0007 T01170106 $ (DB),FM-15,7,,,,,,,,,,,,,,,,,,,,,,,,,,,3/27/2007
72219013874,2020-02-18T06:52:00,FM-15,7,,,,,,,,,,,,,,,,,,,,,,,,,,,,,,,,,,,,,,,30.14,51,53,0.03,-RA:02 BR:1 |RA |RA,-0.01,0,93,30.14,BKN:07 3 OVC:08 18,29.04,1.5,52,140,,6,,,,,,,,,,,,,,,,,,,,,,,,,,,,,,,,,,,,,MET17602/18/20 06:52:02 METAR KATL 181152Z 14005KT 1 1/2SM -RA BR BKN003 OVC018 12/11 A3014 RMK AO2 SFC VIS 6 RAB1053 SLP206 TWRINC P0004 60013 70013 T01170106 10117 20106 50005 (DB),FM-15,7,,,,,,,,,,,,,,,,,,,,,,,,,,,3/27/2007
72219013874,2020-02-18T07:00:00,FM-12,4,,,,,,,,,,,,,,,,,,,,,,,,,,,,,,,,,,,,,,,,51,53,,||RA,0.01,9,93,30.14,2,29.03,1.49,52,140,,6,,,,,,,,,,,,,,,,,,,,,,,,,,,,,,,,,,,,,SYN10472219 11124 81405 10117 20106 39831 40206 50005 60031 761// 91152 333 10117 20100 70033 96010 555 91812=,FM-12,4,,,,,,,,,,,,,,,,,,,,,,,,,,,3/27/2007
72219013874,2020-02-18T07:29:00,FM-16,7,,,,,,,,,,,,,,,,,,,,,,,,,,,,,,,,,,,,,,,30.13,52,53,T,BR:1 |s |,,,96,,OVC:08 3,29.03,0.5,52,130,,7,,,,,,,,,,,,,,,,,,,,,,,,,,,,,,,,,,,,,MET15102/18/20 07:29:02 SPECI KATL 181229Z 13006KT 1/2SM R09R/P6000FT BR OVC003 12/11 A3013 RMK AO2 SFC VIS 5 RAE1155 CIG 002V004 TWRINC P0000 T01170111 (DB),FM-16,7,,,,,,,,,,,,,,,,,,,,,,,,,,,3/27/2007
72219013874,2020-02-18T07:52:00,FM-15,7,,,,,,,,,,,,,,,,,,,,,,,,,,,,,,,,,,,,,,,30.14,52,54,0.01,BR:1 |s |,,,93,30.14,OVC:08 3,29.04,0.5,53,140,,7,,,,,,,,,,,,,,,,,,,,,,,,,,,,,,,,,,,,,MET16402/18/20 07:52:02 METAR KATL 181252Z 14006KT 1/2SM R09R/P6000FT BR OVC003 12/11 A3014 RMK AO2 SFC VIS 5 RAE1155B34E51 SLP207 CIG 002V004 TWRINC P0000 T01220111 (DB),FM-15,7,,,,,,,,,,,,,,,,,,,,,,,,,,,3/27/2007
72219013874,2020-02-18T08:52:00,FM-15,7,,,,,,,,,,,,,,,,,,,,,,,,,,,,,,,,,,,,,,,30.16,53,55,0.06,RA:02 BR:1 |s RA s |RA s,,,93,30.16,OVC:08 3,29.06,0.5,54,120,,5,,,,,,,,,,,,,,,,,,,,,,,,,,,,,,,,,,,,,MET16302/18/20 08:52:02 METAR KATL 181352Z 12004KT 1/2SM R09R/P6000FT RA BR OVC003 13/12 A3016 RMK AO2 SFC VIS 2 1/2 RAB03 SLP213 CIG 002V004 TWRINC P0005 T01280117 (DB),FM-15,7,,,,,,,,,,,,,,,,,,,,,,,,,,,3/27/2007
72219013874,2020-02-18T09:52:00,FM-15,7,,,,,,,,,,,,,,,,,,,,,,,,,,,,,,,,,,,,,,,30.17,53,55,0.21,+RA:02 BR:1 |s RA s |RA s,-0.03,3,93,30.17,BKN:07 4 BKN:07 16 OVC:08 30,29.07,0.5,54,110,,6,,,,,,,,,,,,,,,,,,,,,,,,,,,,,,,,,,,,,MET18102/18/20 09:52:02 METAR KATL 181452Z 11005KT 1/2SM R09R/P6000FT +RA BR BKN004 BKN016 OVC030 13/12 A3017 RMK AO2 SFC VIS 2 SLP216 CIG 003V005 TWRINC P0018 60023 T01280117 53010 (KAF),FM-15,7,,,,,,,,,,,,,,,,,,,,,,,,,,,3/27/2007
72219013874,2020-02-18T10:17:00,FM-16,7,,,,,,,,,,,,,,,,,,,,,,,,,,,,,,,,,,,,,,,30.16,54,56,0.1,-RA:02 BR:1 |RA |RA,,,93,,BKN:07 3 OVC:08 24,29.06,1.25,55,130,,6,,,,,,,,,,,,,,,,,,,,,,,,,,,,,,,,,,,,,MET13702/18/20 10:17:02 SPECI KATL 181517Z 13005KT 1 1/4SM -RA BR BKN003 OVC024 13/12 A3016 RMK AO2 SFC VIS 3 CIG 002V004 P0010 T01330122 (KAF),FM-16,7,,,,,,,,,,,,,,,,,,,,,,,,,,,3/27/2007
72219013874,2020-02-18T10:52:00,FM-15,7,,,,,,,,,,,,,,,,,,,,,,,,,,,,,,,,,,,,,,,30.16,54,56,0.08,-RA:02 |RA |RA,,,93,30.16,OVC:08 3,29.06,1.25,55,150,,3,,,,,,,,,,,,,,,,,,,,,,,,,,,,,,,,,,,,,MET13402/18/20 10:52:02 METAR KATL 181552Z 15003KT 1 1/4SM -RA OVC003 13/12 A3016 RMK AO2 SFC VIS 8 SLP214 CIG 002V004 P0012 T01330122 (KAF),FM-15,7,,,,,,,,,,,,,,,,,,,,,,,,,,,3/27/2007
72219013874,2020-02-18T11:50:00,FM-16,6,,,,,,,,,,,,,,,,,,,,,,,,,,,,,,,,,,,,,,,30.15,55,57,,RA:02 BR:1 |s RA s |RA s,,,94,,BKN:07 3 OVC:08 20,29.05,0.5,56,170,,7,,,,,,,,,,,,,,,,,,,,,,,,,,,,,,,,,,,,,MET17702/18/20 11:50:02 SPECI KATL 181650Z 17006KT 1/2SM R09R/5500VP6000FT RA BR BKN003 OVC020 14/13 A3015 RMK AO2 SFC VIS 2 LTG DSNT SE CIG 002V004 CB DSNT SE TWRINC P0011 FIBI (KAF),FM-16,6,,,,,,,,,,,,,,,,,,,,,,,,,,,3/27/2007
72219013874,2020-02-18T11:52:00,FM-15,7,,,,,,,,,,,,,,,,,,,,,,,,,,,,,,,,,,,,,,,30.15,55,57,0.14,+RA:02 BR:1 |s RA s |RA s,,,93,30.15,BKN:07 3 OVC:08 20,29.05,0.5,56,170,,5,,,,,,,,,,,,,,,,,,,,,,,,,,,,,,,,,,,,,MET19002/18/20 11:52:02 METAR KATL 181652Z 17004KT 1/2SM R09R/5500VP6000FT +RA BR BKN003 OVC020 14/13 A3015 RMK AO2 SFC VIS 2 LTG DSNT SE SLP210 CIG 002V004 CB DSNT SE TWRINC P0012 T01390128 (KAF),FM-15,7,,,,,,,,,,,,,,,,,,,,,,,,,,,3/27/2007
72219013874,2020-02-18T12:24:00,FM-16,7,,,,,,,,,,,,,,,,,,,,,,,,,,,,,,,,,,,,,,,30.14,56,58,0.13,-DZ:01 |DZ |DZ,,,93,,BKN:07 3 OVC:08 15,29.04,1.25,57,170,,5,,,,,,,,,,,,,,,,,,,,,,,,,,,,,,,,,,,,,MET14502/18/20 12:24:02 SPECI KATL 181724Z 17004KT 1 1/4SM -DZ BKN003 OVC015 14/13 A3014 RMK AO2 SFC VIS 7 RAE24DZB24 CIG 002V004 P0013 T01440133 (KAF),FM-16,7,,,,,,,,,,,,,,,,,,,,,,,,,,,3/27/2007
72219013874,2020-02-18T12:52:00,FM-15,7,,,,,,,,,,,,,,,,,,,,,,,,,,,,,,,,,,,,,,,30.12,57,60,0.11,,0.05,8,90,30.11,OVC:08 3,29.02,1.25,58,170,,8,,,,,,,,,,,,,,,,,,,,,,,,,,,,,,,,,,,,,MET16802/18/20 12:52:02 METAR KATL 181752Z 17007KT 1 1/4SM OVC003 16/14 A3012 RMK AO2 SFC VIS 8 RAE24DZB24E50 SLP197 CIG 002V004 P0014 60061 T01560139 10156 20117 58016 (KAF),FM-15,7,,,,,,,,,,,,,,,,,,,,,,,,,,,3/27/2007
72219013874,2020-02-18T13:00:00,FM-12,4,,,,,,,,,,,,,,,,,,,,,,,,,,,,,,,,,,,,,,,,57,60,,,0.05,8,90,30.11,2,29.01,1.24,58,170,,8,,,,,,,,,,,,,,,,,,,,,,,,,,,,,,,,,,,,,SYN08672219 12120 81707 10156 20139 39825 40197 58016 60151 91752 333 10156 20094 555 91818=,FM-12,4,,,,,,,,,,,,,,,,,,,,,,,,,,,3/27/2007
72219013874,2020-02-18T13:52:00,FM-15,7,,,,,,,,,,,,,,,,,,,,,,,,,,,,,,,,,,,,,,,30.09,58,61,0,,,,90,30.09,OVC:08 4,28.99,1.25,59,190,,6,,,,,,,,,,,,,,,,,,,,,,,,,,,,,,,,,,,,,MET12402/18/20 13:52:02 METAR KATL 181852Z 19005KT 1 1/4SM OVC004 16/14 A3009 RMK AO2 SFC VIS 8 SLP189 CIG 003V005 T01610144 (KAF),FM-15,7,,,,,,,,,,,,,,,,,,,,,,,,,,,3/27/2007
72219013874,2020-02-18T14:52:00,FM-15,7,,,,,,,,,,,,,,,,,,,,,,,,,,,,,,,,,,,,,,,30.07,59,62,T,-RA:02 |RA |RA,,,90,30.06,OVC:08 4,28.97,1.25,60,180,,8,,,,,,,,,,,,,,,,,,,,,,,,,,,,,,,,,,,,,MET14002/18/20 14:52:02 METAR KATL 181952Z 18007KT 1 1/4SM -RA OVC004 17/15 A3007 RMK AO2 SFC VIS 7 RAB50 SLP181 CIG 003V005 P0000 T01670150 (KAF),FM-15,7,,,,,,,,,,,,,,,,,,,,,,,,,,,3/27/2007
72219013874,2020-02-18T15:52:00,FM-15,7,,,,,,,,,,,,,,,,,,,,,,,,,,,,,,,,,,,,,,,30.05,59,62,T,BR:1 ||,0.06,6,90,30.05,OVC:08 4,28.95,1.25,60,200,,7,,,,,,,,,,,,,,,,,,,,,,,,,,,,,,,,,,,,,MET18202/18/20 15:52:02 METAR KATL 182052Z 20006KT 1 1/4SM BR OVC004 17/15 A3005 RMK AO2 SFC VIS 6 LTG DSNT SW RAE01DZB12E50 SLP176 CIG 003V005 CB DSNT SW P0000 60000 T01670150 56021 (KAF),FM-15,7,,,,,,,,,,,,,,,,,,,,,,,,,,,3/27/2007
72219013874,2020-02-18T16:29:00,FM-16,7,,,,,,,,,,,,,,,,,,,,,,,,,,,,,,,,,,,,,,,30.05,59,62,0.01,VCTS:7 -RA:02 BR:1 |RA |RA,,,90,,OVC:08 3,28.95,1.25,60,190,,6,,,,,,,,,,,,,,,,,,,,,,,,,,,,,,,,,,,,,MET18102/18/20 16:29:02 SPECI KATL 182129Z 19005KT 1 1/4SM VCTS -RA BR OVC003CB 17/15 A3005 RMK AO2 SFC VIS 6 RAB02 TSB27 OCNL LTGICCA VC NE NW-N TS VC NE NW-N MOV E P0001 T01670150 (KAF),FM-16,7,,,,,,,,,,,,,,,,,,,,,,,,,,,3/27/2007
72219013874,2020-02-18T16:43:00,FM-16,7,,,,,,,,,,,,,,,,,,,,,,,,,,,,,,,,,,,,,,,30.05,59,62,0.01,-RA:02 BR:1 |RA |RA,,,90,,OVC:08 3,28.95,1.25,60,190,,7,,,,,,,,,,,,,,,,,,,,,,,,,,,,,,,,,,,,,MET19402/18/20 16:43:02 SPECI KATL 182143Z 19006KT 1 1/4SM -RA BR OVC003 17/15 A3005 RMK AO2 SFC VIS 6 LTG DSNT E AND W AND NW RAB02 TSB27E42 TS MOVD E CIG 002V004 CB DSNT E W NW P0001 T01670150 (KAF),FM-16,7,,,,,,,,,,,,,,,,,,,,,,,,,,,3/27/2007
72219013874,2020-02-18T16:52:00,FM-15,7,,,,,,,,,,,,,,,,,,,,,,,,,,,,,,,,,,,,,,,30.05,59,62,0.02,-RA:02 BR:1 |RA |RA,,,90,30.05,OVC:08 4,28.95,1.25,60,180,,6,,,,,,,,,,,,,,,,,,,,,,,,,,,,,,,,,,,,,MET16202/18/20 16:52:02 METAR KATL 182152Z 18005KT 1 1/4SM -RA BR OVC004 17/15 A3005 RMK AO2 SFC VIS 4 SLP175 RAB02 TSB27E42 TS MOVD E CIG 003V005 P0002 T01670150 (KAF),FM-15,7,,,,,,,,,,,,,,,,,,,,,,,,,,,3/27/2007
72219013874,2020-02-18T17:15:00,FM-16,7,,,,,,,,,,,,,,,,,,,,,,,,,,,,,,,,,,,,,,,30.06,59,62,T,-RA:02 |RA |RA,,,90,,OVC:08 5,28.96,2.5,60,VRB,,5,,,,,,,,,,,,,,,,,,,,,,,,,,,,,,,,,,,,,MET12602/18/20 17:15:02 SPECI KATL 182215Z VRB04KT 2 1/2SM -RA OVC005 17/15 A3006 RMK AO2 SFC VIS 7 CIG 004V006 P0000 T01670150 (RF),FM-16,7,,,,,,,,,,,,,,,,,,,,,,,,,,,3/27/2007
72219013874,2020-02-18T17:44:00,FM-16,7,,,,,,,,,,,,,,,,,,,,,,,,,,,,,,,,,,,,,,,30.08,58,61,0.1,+RA:02 BR:1 |RA |RA,,,90,,SCT:04 3 BKN:07 7 OVC:08 15,28.98,1,59,330,20,14,,,,,,,,,,,,,,,,,,,,,,,,,,,,,,,,,,,,,MET13302/18/20 17:44:02 SPECI KATL 182244Z 33012G17KT 1SM R09R/P6000FT +RA BR SCT003 BKN007 OVC015 16/14 A3008 RMK AO2 P0010 T01610144 (RF),FM-16,7,,,,,,,,,,,,,,,,,,,,,,,,,,,3/27/2007
72219013874,2020-02-18T17:52:00,FM-15,7,,,,,,,,,,,,,,,,,,,,,,,,,,,,,,,,,,,,,,,30.07,57,61,0.16,-RA:02 BR:1 |RA |RA,,,87,30.07,FEW:02 3 BKN:07 9 OVC:08 30,28.97,2.5,59,350,,10,,,,,,,,,,,,,,,,,,,,,,,,,,,,,,,,,,,,,MET12802/18/20 17:52:02 METAR KATL 182252Z 35009KT 2 1/2SM -RA BR FEW003 BKN009 OVC030 16/14 A3007 RMK AO2 SLP183 P0015 T01610139 (RF),FM-15,7,,,,,,,,,,,,,,,,,,,,,,,,,,,3/27/2007
72219013874,2020-02-18T18:11:00,FM-16,7,,,,,,,,,,,,,,,,,,,,,,,,,,,,,,,,,,,,,,,30.08,56,60,0.04,-RA:02 BR:1 |RA |RA,,,86,,FEW:02 3 BKN:07 15 OVC:08 30,28.98,4,58,30,,13,,,,,,,,,,,,,,,,,,,,,,,,,,,,,,,,,,,,,MET11702/18/20 18:11:02 SPECI KATL 182311Z 03011KT 4SM -RA BR FEW003 BKN015 OVC030 16/13 A3008 RMK AO2 P0004 T01560133 (RF),FM-16,7,,,,,,,,,,,,,,,,,,,,,,,,,,,3/27/2007
72219013874,2020-02-18T18:35:00,FM-16,7,,,,,,,,,,,,,,,,,,,,,,,,,,,,,,,,,,,,,,,30.08,57,60,0.08,+RA:02 BR:1 |RA |RA,,,90,,FEW:02 3 BKN:07 20 OVC:08 35,28.98,1.5,58,30,,10,,,,,,,,,,,,,,,,,,,,,,,,,,,,,,,,,,,,,MET12102/18/20 18:35:02 SPECI KATL 182335Z 03009KT 1 1/2SM +RA BR FEW003 BKN020 OVC035 16/14 A3008 RMK AO2 P0008 T01560139 (RF),FM-16,7,,,,,,,,,,,,,,,,,,,,,,,,,,,3/27/2007
72219013874,2020-02-18T18:52:00,FM-15,7,,,,,,,,,,,,,,,,,,,,,,,,,,,,,,,,,,,,,,,30.08,57,59,0.49,+RA:02 BR:1 |RA |RA,-0.02,3,93,30.07,FEW:02 3 BKN:07 20 OVC:08 40,28.98,1.5,58,30,,8,,,,,,,,,,,,,,,,,,,,,,,,,,,,,,,,,,,,,MET15202/18/20 18:52:02 METAR KATL 182352Z 03007KT 1 1/2SM +RA BR FEW003 BKN020 OVC040 15/14 A3008 RMK AO2 SLP183 P0048 60065 T01500139 10167 20150 53007 (RF),FM-15,7,,,,,,,,,,,,,,,,,,,,,,,,,,,3/27/2007
72219013874,2020-02-18T18:55:00,FM-16,7,,,,,,,,,,,,,,,,,,,,,,,,,,,,,,,,,,,,,,,30.08,57,60,0.01,RA:02 BR:1 |RA |RA,,,90,,FEW:02 3 BKN:07 20 OVC:08 40,28.98,2,58,40,,9,,,,,,,,,,,,,,,,,,,,,,,,,,,,,,,,,,,,,MET11602/18/20 18:55:02 SPECI KATL 182355Z 04008KT 2SM RA BR FEW003 BKN020 OVC040 16/14 A3008 RMK AO2 P0001 T01560139 (RF),FM-16,7,,,,,,,,,,,,,,,,,,,,,,,,,,,3/27/2007
72219013874,2020-02-18T19:00:00,FM-12,4,,,,,,,,,,,,,,,,,,,,,,,,,,,,,,,,,,,,,,,,57,59,,||RA,-0.02,3,93,30.07,2,28.97,1.49,58,30,,8,,,,,,,,,,,,,,,,,,,,,,,,,,,,,,,,,,,,,SYN09872219 11124 80307 10150 20139 39811 40183 53007 60171 765// 92352 333 10167 20106 96010 555 91900=,FM-12,4,,,,,,,,,,,,,,,,,,,,,,,,,,,3/27/2007
72219013874,2020-02-18T19:52:00,FM-15,7,,,,,,,,,,,,,,,,,,,,,,,,,,,,,,,,,,,,,,,30.09,57,60,0.57,RA:02 BR:1 |RA |RA,,,90,30.08,FEW:02 3 BKN:07 24 OVC:08 40,28.99,2,58,40,,9,,,,,,,,,,,,,,,,,,,,,,,,,,,,,,,,,,,,,MET14402/18/20 19:52:01 METAR KATL 190052Z 04008KT 2SM RA BR FEW003 BKN024 OVC040 16/14 A3009 RMK AO2 SLP187 LTG DSNT SW CB DSNT SE-SW P0056 T01560139,FM-15,7,,,,,,,,,,,,,,,,,,,,,,,,,,,3/27/2007
72219013874,2020-02-18T20:12:00,FM-16,7,,,,,,,,,,,,,,,,,,,,,,,,,,,,,,,,,,,,,,,30.09,58,60,0.06,-RA:02 BR:1 |RA |RA,,,93,,SCT:04 4 BKN:07 55 OVC:08 110,28.99,2,59,90,,7,,,,,,,,,,,,,,,,,,,,,,,,,,,,,,,,,,,,,MET12202/18/20 20:12:01 SPECI KATL 190112Z 09006KT 2SM -RA BR SCT004 BKN055 OVC110 16/14 A3009 RMK AO2 SFC VIS 6 P0006 T01560144,FM-16,7,,,,,,,,,,,,,,,,,,,,,,,,,,,3/27/2007
72219013874,2020-02-18T20:52:00,FM-15,7,,,,,,,,,,,,,,,,,,,,,,,,,,,,,,,,,,,,,,,30.09,57,60,0.15,-RA:02 BR:1 |RA |RA,,,90,30.08,FEW:02 4 BKN:07 50 OVC:08 100,28.99,2,58,120,,6,,,,,,,,,,,,,,,,,,,,,,,,,,,,,,,,,,,,,MET12902/18/20 20:52:01 METAR KATL 190152Z 12005KT 2SM -RA BR FEW004 BKN050 OVC100 16/14 A3009 RMK AO2 SFC VIS 4 SLP187 P0017 T01560139,FM-15,7,,,,,,,,,,,,,,,,,,,,,,,,,,,3/27/2007
72219013874,2020-02-18T21:52:00,FM-15,7,,,,,,,,,,,,,,,,,,,,,,,,,,,,,,,,,,,,,,,30.1,58,60,0.16,-RA:02 BR:1 |RA |RA,-0.03,3,93,30.1,SCT:04 4 BKN:07 60 OVC:08 100,29,2,59,170,,5,,,,,,,,,,,,,,,,,,,,,,,,,,,,,,,,,,,,,MET15402/18/20 21:52:01 METAR KATL 190252Z 17004KT 2SM -RA BR SCT004 BKN060 OVC100 16/14 A3010 RMK AO2 SFC VIS 4 SLP192 SCT004 V BKN P0015 60088 T01560144 53009,FM-15,7,,,,,,,,,,,,,,,,,,,,,,,,,,,3/27/2007
72219013874,2020-02-18T21:57:00,FM-16,7,,,,,,,,,,,,,,,,,,,,,,,,,,,,,,,,,,,,,,,30.1,58,60,0.01,RA:02 BR:1 |RA |RA,,,93,,SCT:04 4 BKN:07 60 OVC:08 100,29,1,59,150,,5,,,,,,,,,,,,,,,,,,,,,,,,,,,,,,,,,,,,,MET14702/18/20 21:57:01 SPECI KATL 190257Z 15004KT 1SM R09R/P6000FT RA BR SCT004 BKN060 OVC100 16/14 A3010 RMK AO2 SFC VIS 4 SCT004 V BKN P0001 T01560144,FM-16,7,,,,,,,,,,,,,,,,,,,,,,,,,,,3/27/2007
72219013874,2020-02-18T22:14:00,FM-16,7,,,,,,,,,,,,,,,,,,,,,,,,,,,,,,,,,,,,,,,30.09,57,60,0.04,-RA:02 BR:1 |s RA s |RA s,,,90,,BKN:07 3 BKN:07 60 OVC:08 100,28.99,0.5,58,160,,6,,,,,,,,,,,,,,,,,,,,,,,,,,,,,,,,,,,,,MET14402/18/20 22:14:02 SPECI KATL 190314Z 16005KT 1/2SM R09R/P6000FT -RA BR BKN003 BKN060 OVC100 16/14 A3009 RMK AO2 SFC VIS 5 TWRINC P0004 T01560139,FM-16,7,,,,,,,,,,,,,,,,,,,,,,,,,,,3/27/2007
72219013874,2020-02-18T22:42:00,FM-16,7,,,,,,,,,,,,,,,,,,,,,,,,,,,,,,,,,,,,,,,30.11,58,60,0.07,-RA:02 BR:1 |RA |RA,,,93,,SCT:04 3 BKN:07 8 OVC:08 100,29.01,1.5,59,0,,0,,,,,,,,,,,,,,,,,,,,,,,,,,,,,,,,,,,,,MET12602/18/20 22:42:02 SPECI KATL 190342Z 00000KT 1 1/2SM -RA BR SCT003 BKN008 OVC100 16/14 A3011 RMK AO2 SFC VIS 4 P0007 T01560144,FM-16,7,,,,,,,,,,,,,,,,,,,,,,,,,,,3/27/2007
72219013874,2020-02-18T22:52:00,FM-15,7,,,,,,,,,,,,,,,,,,,,,,,,,,,,,,,,,,,,,,,30.12,58,60,0.08,-RA:02 BR:1 |RA |RA,,,93,30.11,SCT:04 3 BKN:07 70 OVC:08 100,29.02,4,59,230,,3,,,,,,,,,,,,,,,,,,,,,,,,,,,,,,,,,,,,,MET11902/18/20 22:52:02 METAR KATL 190352Z 23003KT 4SM -RA BR SCT003 BKN070 OVC100 16/14 A3012 RMK AO2 SLP196 P0009 T01560144,FM-15,7,,,,,,,,,,,,,,,,,,,,,,,,,,,3/27/2007
72219013874,2020-02-18T23:39:00,FM-16,7,,,,,,,,,,,,,,,,,,,,,,,,,,,,,,,,,,,,,,,30.12,57,59,0.04,-RA:02 BR:1 |RA |RA,,,93,,BKN:07 4 BKN:07 60 OVC:08 100,29.02,2,58,300,,5,,,,,,,,,,,,,,,,,,,,,,,,,,,,,,,,,,,,,MET12202/18/20 23:39:02 SPECI KATL 190439Z 30004KT 2SM -RA BR BKN004 BKN060 OVC100 15/14 A3012 RMK AO2 SFC VIS 5 P0004 T01500139,FM-16,7,,,,,,,,,,,,,,,,,,,,,,,,,,,3/27/2007
72219013874,2020-02-18T23:52:00,FM-15,7,,,,,,,,,,,,,,,,,,,,,,,,,,,,,,,,,,,,,,,30.11,57,60,0.04,-RA:02 BR:1 |RA |RA,,,90,30.1,BKN:07 4 BKN:07 60 OVC:08 100,29.01,2,58,300,,5,,,,,,,,,,,,,,,,,,,,,,,,,,,,,,,,,,,,,MET15102/18/20 23:52:02 METAR KATL 190452Z 30004KT 2SM -RA BR BKN004 BKN060 OVC100 16/14 A3011 RMK AO2 SFC VIS 5 SLP194 CIG 003V006 P0005 T01560139 401670106,FM-15,7,,,,,,,,,,,,,,,,,,,,,,,,,,,3/27/2007
72219013874,2020-02-18T23:59:00,SOD  ,6,,,,,,,,,,,,,,,,,55,57,92,30.11,29.02,56,6.1,0,9.2,8,62,51,320,20,2.41,0,0,330,16,TS RA DZ FG BR,,,,,,,,,,,,,,,,,,,,,,,,,,,,,,,,,,,,,,,,,,,,,,,,,,,,,,,SOD78524 HR PRECIPITATION (IN): 2.41 SNOW DEPTH (IN):0     24 HR SNOWFALL (IN):0.0  WEATHER(CODE):123  24 HR MAX TEMP (F): 6224 HR MIN TEMP (F): 51AVERAGE STATION PRESSURE:29.020 MINIMUM SEA LEVEL PRESSURE:30.04 TIME OF OCCURRENCE:1703 PEAK WIND SPEED (MPH): 20 PEAK WIND DIR (DEG):320 PEAK WIND TIME (LST):      FASTEST 2MIN SPEED (MPH): 16FASTEST 2MIN DIR (DEG):330 FASTEST 2MIN TIME (LST):     AVERAGE WIND SPEED (MPH): 6.1 24 HR AVG TEMP (F): 57DEPART FROM NORMAL:  9  SKY COVER SR-SS (TENTHS): 1HEATING DEGREE DAYS:  8 COOLING DEGREE DAYS:  0 LATEST DAY MAX TEMP (0700-1900 LST):62  LATEST NIGHT MIN TEMP(1900-0800 LST):50 HOURLY INCREMENTAL PRECIPITATION VALUES (IN):    T    T    T    0.04 0.06 0.03 0.01 0.06 0.21 0.08 0.14 0.11 0.00 T    T    0.02 0.16 0.49 0.57 0.15 0.16 0.08 0.04,SOD  ,6,,,,,,,,,,,,,,,,,,,,,,,,,719,1825,3/27/2007
72219013874,2020-02-19T00:52:00,FM-15,7,,,,,,,,,,,,,,,,,,,,,,,,,,,,,,,,,,,,,,,30.13,57,60,0.05,-RA:02 BR:1 |RA |RA,-0.02,3,90,30.12,BKN:07 3 BKN:07 12 OVC:08 100,29.03,2,58,260,,3,,,,,,,,,,,,,,,,,,,,,,,,,,,,,,,,,,,,,MET15802/19/20 00:52:02 METAR KATL 190552Z 26003KT 2SM -RA BR BKN003 BKN012 OVC100 16/14 A3013 RMK AO2 SFC VIS 5 SLP200 P0005 60107 T01560139 10156 20150 53008 (RF),FM-15,7,,,,,,,,,,,,,,,,,,,,,,,,,,,3/27/2007
72219013874,2020-02-19T01:00:00,FM-12,4,,,,,,,,,,,,,,,,,,,,,,,,,,,,,,,,,,,,,,,,57,60,,||RA,-0.02,3,90,30.12,2,29.02,1.99,58,260,,3,,,,,,,,,,,,,,,,,,,,,,,,,,,,,,,,,,,,,SYN09872219 11132 82603 10156 20139 39828 40200 53008 60271 761// 90552 333 10156 20106 96010 555 91906=,FM-12,4,,,,,,,,,,,,,,,,,,,,,,,,,,,3/27/2007
72219013874,2020-02-19T01:52:00,FM-15,7,,,,,,,,,,,,,,,,,,,,,,,,,,,,,,,,,,,,,,,30.12,57,59,0.01,BR:1 ||,,,93,30.11,BKN:07 3 OVC:08 10,29.02,2,58,250,,3,,,,,,,,,,,,,,,,,,,,,,,,,,,,,,,,,,,,,MET14802/19/20 01:52:02 METAR KATL 190652Z 25003KT 2SM BR BKN003 OVC010 15/14 A3012 RMK AO2 SFC VIS 6 RAE30 SLP197 CIG 002V005 TWRINC P0001 T01500139 (RF),FM-15,7,,,,,,,,,,,,,,,,,,,,,,,,,,,3/27/2007
72219013874,2020-02-19T02:52:00,FM-15,7,,,,,,,,,,,,,,,,,,,,,,,,,,,,,,,,,,,,,,,30.12,57,59,T,BR:1 ||,,,93,30.11,BKN:07 3 OVC:08 12,29.02,2,58,270,,5,,,,,,,,,,,,,,,,,,,,,,,,,,,,,,,,,,,,,MET15102/19/20 02:52:02 METAR KATL 190752Z 27004KT 2SM BR BKN003 OVC012 15/14 A3012 RMK AO2 SFC VIS 4 RAB04E18 SLP197 CIG 002V004 TWRINC P0000 T01500139 (RF),FM-15,7,,,,,,,,,,,,,,,,,,,,,,,,,,,3/27/2007
72219013874,2020-02-19T03:52:00,FM-15,7,,,,,,,,,,,,,,,,,,,,,,,,,,,,,,,,,,,,,,,30.14,55,57,0.02,-RA:02 BR:1 |RA |RA,-0.01,3,93,30.13,OVC:08 4,29.04,2,56,310,,11,,,,,,,,,,,,,,,,,,,,,,,,,,,,,,,,,,,,,MET15902/19/20 03:52:02 METAR KATL 190852Z 31010KT 2SM -RA BR OVC004 14/13 A3014 RMK AO2 SFC VIS 6 RAB0759 SLP203 CIG 003V007 TWRINC P0002 60003 T01390128 53003 (RF),FM-15,7,,,,,,,,,,,,,,,,,,,,,,,,,,,3/27/2007
72219013874,2020-02-19T04:49:00,FM-16,7,,,,,,,,,,,,,,,,,,,,,,,,,,,,,,,,,,,,,,,30.13,52,55,0.01,-RA:02 BR:1 |RA |RA,,,88,,BKN:07 5 OVC:08 10,29.03,6,53,320,,7,,,,,,,,,,,,,,,,,,,,,,,,,,,,,,,,,,,,,MET10002/19/20 04:49:02 SPECI KATL 190949Z 32006KT 6SM -RA BR BKN005 OVC010 13/11 A3013 RMK AO2 P0001 (DB),FM-16,7,,,,,,,,,,,,,,,,,,,,,,,,,,,3/27/2007
72219013874,2020-02-19T04:52:00,FM-15,7,,,,,,,,,,,,,,,,,,,,,,,,,,,,,,,,,,,,,,,30.13,52,55,0.01,-RA:02 BR:1 |RA |RA,,,90,30.12,BKN:07 5 OVC:08 10,29.03,6,53,310,,7,,,,,,,,,,,,,,,,,,,,,,,,,,,,,,,,,,,,,MET11702/19/20 04:52:02 METAR KATL 190952Z 31006KT 6SM -RA BR BKN005 OVC010 13/11 A3013 RMK AO2 SLP200 P0001 T01280111 (DB),FM-15,7,,,,,,,,,,,,,,,,,,,,,,,,,,,3/27/2007
72219013874,2020-02-19T05:09:00,FM-16,7,,,,,,,,,,,,,,,,,,,,,,,,,,,,,,,,,,,,,,,30.14,52,54,T,BR:1 ||,,,93,,BKN:07 4 BKN:07 10 OVC:08 90,29.04,6,53,280,,6,,,,,,,,,,,,,,,,,,,,,,,,,,,,,,,,,,,,,MET11902/19/20 05:09:02 SPECI KATL 191009Z 28005KT 6SM BR BKN004 BKN010 OVC090 12/11 A3014 RMK AO2 RAE04 P0000 T01220111 (DB),FM-16,7,,,,,,,,,,,,,,,,,,,,,,,,,,,3/27/2007
72219013874,2020-02-19T05:45:00,FM-16,7,,,,,,,,,,,,,,,,,,,,,,,,,,,,,,,,,,,,,,,30.17,50,53,T,-RA:02 BR:1 |RA |RA,,,89,,BKN:07 5 BKN:07 14 OVC:08 90,29.07,6,51,310,25,21,,,,,,,,,,,,,,,,,,,,,,,,,,,,,,,,,,,,,MET14802/19/20 05:45:02 SPECI KATL 191045Z 31018G22KT 6SM -RA BR BKN005 BKN014 OVC090 12/10 A3017 RMK AO2 RAE04B11 PRESRR CIG 004V008 P0000 T01170100 (DB),FM-16,7,,,,,,,,,,,,,,,,,,,,,,,,,,,3/27/2007
72219013874,2020-02-19T05:52:00,FM-15,7,,,,,,,,,,,,,,,,,,,,,,,,,,,,,,,,,,,,,,,30.15,49,52,T,-RA:02 |RA |RA,,,89,30.15,BKN:07 5 BKN:07 14 OVC:08 90,29.05,8,50,310,25,13,,,,,,,,,,,,,,,,,,,,,,,,,,,,,,,,,,,,,MET14502/19/20 05:52:02 METAR KATL 191052Z 31011G22KT 8SM -RA BKN005 BKN014 OVC090 11/09 A3015 RMK AO2 RAE04B11 SLP210 CIG 004V008 P0000 T01110094 (DB),FM-15,7,,,,,,,,,,,,,,,,,,,,,,,,,,,3/27/2007
72219013874,2020-02-19T06:02:00,FM-16,7,,,,,,,,,,,,,,,,,,,,,,,,,,,,,,,,,,,,,,,30.16,49,52,T,,,,89,,BKN:07 4 OVC:08 100,29.06,8,50,300,,9,,,,,,,,,,,,,,,,,,,,,,,,,,,,,,,,,,,,,MET12102/19/20 06:02:02 SPECI KATL 191102Z 30008KT 8SM BKN004 OVC100 11/09 A3016 RMK AO2 RAE01 CIG 003V006 P0000 T01110094 (DB),FM-16,7,,,,,,,,,,,,,,,,,,,,,,,,,,,3/27/2007
72219013874,2020-02-19T06:18:00,FM-16,7,,,,,,,,,,,,,,,,,,,,,,,,,,,,,,,,,,,,,,,30.17,49,52,T,BR:1 ||,,,89,,OVC:08 4,29.07,1,50,310,,10,,,,,,,,,,,,,,,,,,,,,,,,,,,,,,,,,,,,,MET14002/19/20 06:18:02 SPECI KATL 191118Z 31009KT 1SM R09R/P6000FT BR OVC004 11/09 A3017 RMK AO2 SFC VIS 6 RAE01 CIG 003V006 P0000 T01110094 (DB),FM-16,7,,,,,,,,,,,,,,,,,,,,,,,,,,,3/27/2007
72219013874,2020-02-19T06:26:00,FM-16,7,,,,,,,,,,,,,,,,,,,,,,,,,,,,,,,,,,,,,,,30.18,48,51,T,BR:1 ||,,,89,,OVC:08 4,29.08,2,49,320,,20,,,,,,,,,,,,,,,,,,,,,,,,,,,,,,,,,,,,,MET13402/19/20 06:26:02 SPECI KATL 191126Z 32017KT 2SM BR OVC004 11/09 A3018 RMK AO2 SFC VIS 6 RAE01 PRESRR CIG 003V006 P0000 T01060089 (DB),FM-16,7,,,,,,,,,,,,,,,,,,,,,,,,,,,3/27/2007
72219013874,2020-02-19T06:50:00,FM-16,7,,,,,,,,,,,,,,,,,,,,,,,,,,,,,,,,,,,,,,,30.18,48,52,T,BR:1 ||,,,88,,BKN:07 5 OVC:08 17,29.08,2,50,320,,8,,,,,,,,,,,,,,,,,,,,,,,,,,,,,,,,,,,,,MET13102/19/20 06:50:02 SPECI KATL 191150Z 32007KT 2SM BR BKN005 OVC017 11/09 A3018 RMK AO2 SFC VIS 6 RAE01 CIG 004V007 TWRINC P0000 (DB),FM-16,7,,,,,,,,,,,,,,,,,,,,,,,,,,,3/27/2007
72219013874,2020-02-19T06:52:00,FM-15,7,,,,,,,,,,,,,,,,,,,,,,,,,,,,,,,,,,,,,,,30.18,48,51,T,BR:1 ||,-0.05,3,89,30.18,BKN:07 5 OVC:08 17,29.08,2,49,320,,11,,,,,,,,,,,,,,,,,,,,,,,,,,,,,,,,,,,,,MET17802/19/20 06:52:02 METAR KATL 191152Z 32010KT 2SM BR BKN005 OVC017 11/09 A3018 RMK AO2 SFC VIS 6 RAE01 SLP220 CIG 004V007 TWRINC P0000 60004 70237 T01060089 10156 20106 53018 (DB),FM-15,7,,,,,,,,,,,,,,,,,,,,,,,,,,,3/27/2007
72219013874,2020-02-19T07:00:00,FM-12,4,,,,,,,,,,,,,,,,,,,,,,,,,,,,,,,,,,,,,,,,48,51,,,-0.05,3,89,30.18,5,29.07,1.99,49,320,,11,,,,,,,,,,,,,,,,,,,,,,,,,,,,,,,,,,,,,SYN09872219 11232 83210 10106 20089 39844 40220 53018 60011 710// 91152 333 10167 20106 70602 555 91912=,FM-12,4,,,,,,,,,,,,,,,,,,,,,,,,,,,3/27/2007
72219013874,2020-02-19T07:32:00,FM-16,7,,,,,,,,,,,,,,,,,,,,,,,,,,,,,,,,,,,,,,,30.21,47,50,,,,,89,,BKN:07 5 OVC:08 18,29.11,2,48,310,,15,,,,,,,,,,,,,,,,,,,,,,,,,,,,,,,,,,,,,MET12602/19/20 07:32:02 SPECI KATL 191232Z 31013KT 2SM BKN005 OVC018 10/08 A3021 RMK AO2 SFC VIS 8 CIG 004V007 TWRINC T01000083 (DB),FM-16,7,,,,,,,,,,,,,,,,,,,,,,,,,,,3/27/2007
72219013874,2020-02-19T07:46:00,FM-16,7,,,,,,,,,,,,,,,,,,,,,,,,,,,,,,,,,,,,,,,30.21,46,50,,,,,88,,BKN:07 5 OVC:08 18,29.11,1.5,48,310,,9,,,,,,,,,,,,,,,,,,,,,,,,,,,,,,,,,,,,,MET12002/19/20 07:46:02 SPECI KATL 191246Z 31008KT 1 1/2SM BKN005 OVC018 10/08 A3021 RMK AO2 SFC VIS 8 CIG 004V007 TWRINC (DB),FM-16,7,,,,,,,,,,,,,,,,,,,,,,,,,,,3/27/2007
72219013874,2020-02-19T07:52:00,FM-15,7,,,,,,,,,,,,,,,,,,,,,,,,,,,,,,,,,,,,,,,30.22,47,50,0,,,,89,30.22,BKN:07 5 OVC:08 18,29.12,1.5,48,300,,10,,,,,,,,,,,,,,,,,,,,,,,,,,,,,,,,,,,,,MET13702/19/20 07:52:02 METAR KATL 191252Z 30009KT 1 1/2SM BKN005 OVC018 10/08 A3022 RMK AO2 SFC VIS 8 SLP234 CIG 004V007 TWRINC T01000083 (DB),FM-15,7,,,,,,,,,,,,,,,,,,,,,,,,,,,3/27/2007
72219013874,2020-02-19T08:05:00,FM-16,7,,,,,,,,,,,,,,,,,,,,,,,,,,,,,,,,,,,,,,,30.23,47,50,,BR:1 ||,,,89,,OVC:08 4,29.13,1.5,48,310,,9,,,,,,,,,,,,,,,,,,,,,,,,,,,,,,,,,,,,,MET12602/19/20 08:05:02 SPECI KATL 191305Z 31008KT 1 1/2SM BR OVC004 10/08 A3023 RMK AO2 SFC VIS 5 CIG 003V005 TWRINC T01000083 (DB),FM-16,7,,,,,,,,,,,,,,,,,,,,,,,,,,,3/27/2007
72219013874,2020-02-19T08:52:00,FM-15,7,,,,,,,,,,,,,,,,,,,,,,,,,,,,,,,,,,,,,,,30.24,47,50,0,,,,89,30.24,OVC:08 4,29.14,1.5,48,300,,9,,,,,,,,,,,,,,,,,,,,,,,,,,,,,,,,,,,,,MET13002/19/20 08:52:02 METAR KATL 191352Z 30008KT 1 1/2SM OVC004 10/08 A3024 RMK AO2 SFC VIS 7 SLP239 CIG 003V005 TWRINC T01000083 (DB),FM-15,7,,,,,,,,,,,,,,,,,,,,,,,,,,,3/27/2007
72219013874,2020-02-19T09:10:00,FM-16,7,,,,,,,,,,,,,,,,,,,,,,,,,,,,,,,,,,,,,,,30.25,47,50,,,,,89,,BKN:07 5 BKN:07 33 BKN:07 120,29.15,1.5,48,310,,10,,,,,,,,,,,,,,,,,,,,,,,,,,,,,,,,,,,,,MET13102/19/20 09:10:02 SPECI KATL 191410Z 31009KT 1 1/2SM BKN005 BKN033 BKN120 10/08 A3025 RMK AO2 SFC VIS 9 CIG 004V006 T01000083 (KAF),FM-16,7,,,,,,,,,,,,,,,,,,,,,,,,,,,3/27/2007
72219013874,2020-02-19T09:52:00,FM-15,7,,,,,,,,,,,,,,,,,,,,,,,,,,,,,,,,,,,,,,,30.27,46,50,0,BR:1 ||,-0.09,1,86,30.27,BKN:07 6 BKN:07 30 OVC:08 140,29.16,6,48,310,20,15,,,,,,,,,,,,,,,,,,,,,,,,,,,,,,,,,,,,,MET13602/19/20 09:52:02 METAR KATL 191452Z 31013G17KT 6SM BR BKN006 BKN030 OVC140 10/08 A3027 RMK AO2 SLP251 CIG 005V007 T01000078 51029 (KAF),FM-15,7,,,,,,,,,,,,,,,,,,,,,,,,,,,3/27/2007
72219013874,2020-02-19T10:50:00,FM-16,6,,,,,,,,,,,,,,,,,,,,,,,,,,,,,,,,,,,,,,,30.28,46,50,,,,,88,,SCT:04 8 BKN:07 30 OVC:08 140,29.18,8,48,340,,9,,,,,,,,,,,,,,,,,,,,,,,,,,,,,,,,,,,,,MET11602/19/20 10:50:02 SPECI KATL 191550Z 34008KT 8SM SCT008 BKN030 OVC140 10/08 A3028 RMK AO2 VIRGA OHD-ALQDS FIBI (KAF),FM-16,6,,,,,,,,,,,,,,,,,,,,,,,,,,,3/27/2007
72219013874,2020-02-19T10:52:00,FM-15,7,,,,,,,,,,,,,,,,,,,,,,,,,,,,,,,,,,,,,,,30.28,45,50,0,,,,83,30.28,SCT:04 8 BKN:07 30 OVC:08 140,29.18,8,48,320,,7,,,,,,,,,,,,,,,,,,,,,,,,,,,,,,,,,,,,,MET12802/19/20 10:52:02 METAR KATL 191552Z 32006KT 8SM SCT008 BKN030 OVC140 10/07 A3028 RMK AO2 SLP253 VIRGA OHD-ALQDS T01000072 (KAF),FM-15,7,,,,,,,,,,,,,,,,,,,,,,,,,,,3/27/2007
72219013874,2020-02-19T11:50:00,FM-16,6,,,,,,,,,,,,,,,,,,,,,,,,,,,,,,,,,,,,,,,30.29,46,52,,,,,82,,BKN:07 10 BKN:07 33 OVC:08 140,29.18,10,49,310,,11,,,,,,,,,,,,,,,,,,,,,,,,,,,,,,,,,,,,,MET11602/19/20 11:50:02 SPECI KATL 191650Z 31010KT 10SM BKN010 BKN033 OVC140 11/08 A3029 RMK AO2 VIRGA NE-SE-SW FIBI (KAF),FM-16,6,,,,,,,,,,,,,,,,,,,,,,,,,,,3/27/2007
72219013874,2020-02-19T11:52:00,FM-15,7,,,,,,,,,,,,,,,,,,,,,,,,,,,,,,,,,,,,,,,30.29,46,51,0,,,,83,30.29,BKN:07 10 BKN:07 33 OVC:08 140,29.18,10,48,310,,11,,,,,,,,,,,,,,,,,,,,,,,,,,,,,,,,,,,,,MET12802/19/20 11:52:02 METAR KATL 191652Z 31010KT 10SM BKN010 BKN033 OVC140 11/08 A3029 RMK AO2 SLP258 VIRGA NE-SE-SW T01060078 (KAF),FM-15,7,,,,,,,,,,,,,,,,,,,,,,,,,,,3/27/2007
72219013874,2020-02-19T12:02:00,FM-16,7,,,,,,,,,,,,,,,,,,,,,,,,,,,,,,,,,,,,,,,30.29,45,51,,,,,80,,SCT:04 10 BKN:07 32 OVC:08 140,29.18,10,48,310,,9,,,,,,,,,,,,,,,,,,,,,,,,,,,,,,,,,,,,,MET12002/19/20 12:02:02 SPECI KATL 191702Z 31008KT 10SM SCT010 BKN032 OVC140 11/07 A3029 RMK AO2 VIRGA NE-SE-S T01060072 (KAF),FM-16,7,,,,,,,,,,,,,,,,,,,,,,,,,,,3/27/2007
72219013874,2020-02-19T12:52:00,FM-15,7,,,,,,,,,,,,,,,,,,,,,,,,,,,,,,,,,,,,,,,30.28,46,52,0,,-0.01,0,80,30.28,SCT:04 11 BKN:07 42 OVC:08 140,29.18,10,49,330,,10,,,,,,,,,,,,,,,,,,,,,,,,,,,,,,,,,,,,,MET14602/19/20 12:52:02 METAR KATL 191752Z 33009KT 10SM SCT011 BKN042 OVC140 11/08 A3028 RMK AO2 SLP254 VIRGA NW-NE-SE T01110078 10111 20100 50004 (KAF),FM-15,7,,,,,,,,,,,,,,,,,,,,,,,,,,,3/27/2007
72219013874,2020-02-19T13:00:00,FM-12,4,,,,,,,,,,,,,,,,,,,,,,,,,,,,,,,,,,,,,,,,46,52,,,0.01,9,80,30.28,15,29.17,9.94,49,330,,10,,,,,,,,,,,,,,,,,,,,,,,,,,,,,,,,,,,,,SYN08072219 32466 83309 10111 20078 39877 40254 50004 91752 333 10156 20100 555 91918=,FM-12,4,,,,,,,,,,,,,,,,,,,,,,,,,,,3/27/2007
72219013874,2020-02-19T13:52:00,FM-15,7,,,,,,,,,,,,,,,,,,,,,,,,,,,,,,,,,,,,,,,30.27,45,52,0,,,,77,30.27,SCT:04 12 BKN:07 45 BKN:07 140,29.16,10,48,360,,8,,,,,,,,,,,,,,,,,,,,,,,,,,,,,,,,,,,,,MET11302/19/20 13:52:02 METAR KATL 191852Z 36007KT 10SM SCT012 BKN045 BKN140 11/07 A3027 RMK AO2 SLP250 T01110072 (KAF),FM-15,7,,,,,,,,,,,,,,,,,,,,,,,,,,,3/27/2007
72219013874,2020-02-19T14:52:00,FM-15,7,,,,,,,,,,,,,,,,,,,,,,,,,,,,,,,,,,,,,,,30.27,45,52,0,,,,77,30.27,FEW:02 14 SCT:04 45 BKN:07 150,29.16,10,48,340,,9,,,,,,,,,,,,,,,,,,,,,,,,,,,,,,,,,,,,,MET12702/19/20 14:52:02 METAR KATL 191952Z 34008KT 10SM FEW014 SCT045 BKN150 11/07 A3027 RMK AO2 SLP249 VIRGA SE-SW-W T01110072 (KAF),FM-15,7,,,,,,,,,,,,,,,,,,,,,,,,,,,3/27/2007
72219013874,2020-02-19T15:28:00,FM-16,7,,,,,,,,,,,,,,,,,,,,,,,,,,,,,,,,,,,,,,,30.27,45,52,,,,,77,,BKN:07 14 BKN:07 48 BKN:07 80,29.16,10,48,340,,7,,,,,,,,,,,,,,,,,,,,,,,,,,,,,,,,,,,,,MET12202/19/20 15:28:02 SPECI KATL 192028Z 34006KT 10SM BKN014 BKN048 BKN080 11/07 A3027 RMK AO2 VIRGA OHD-ALQDS T01110072 (KAF),FM-16,7,,,,,,,,,,,,,,,,,,,,,,,,,,,3/27/2007
72219013874,2020-02-19T15:52:00,FM-15,7,,,,,,,,,,,,,,,,,,,,,,,,,,,,,,,,,,,,,,,30.25,45,53,0,,0.03,8,74,30.25,OVC:08 14,29.15,9,49,360,,7,,,,,,,,,,,,,,,,,,,,,,,,,,,,,,,,,,,,,MET11902/19/20 15:52:02 METAR KATL 192052Z 36006KT 9SM OVC014 12/07 A3025 RMK AO2 SLP245 VIRGA NE-SE-SW T01170072 58009 (KAF),FM-15,7,,,,,,,,,,,,,,,,,,,,,,,,,,,3/27/2007
72219013874,2020-02-19T16:52:00,FM-15,7,,,,,,,,,,,,,,,,,,,,,,,,,,,,,,,,,,,,,,,30.26,46,53,0,,,,77,30.26,OVC:08 13,29.15,9,49,30,,6,,,,,,,,,,,,,,,,,,,,,,,,,,,,,,,,,,,,,MET11002/19/20 16:52:02 METAR KATL 192152Z 03005KT 9SM OVC013 12/08 A3026 RMK AO2 SLP247 VIRGA SE-SW T01170078 (KAF),FM-15,7,,,,,,,,,,,,,,,,,,,,,,,,,,,3/27/2007
72219013874,2020-02-19T17:52:00,FM-15,7,,,,,,,,,,,,,,,,,,,,,,,,,,,,,,,,,,,,,,,30.28,47,53,0,,,,80,30.29,OVC:08 11,29.18,9,50,10,,6,,,,,,,,,,,,,,,,,,,,,,,,,,,,,,,,,,,,,MET10902/19/20 17:52:02 METAR KATL 192252Z 01005KT 9SM OVC011 12/08 A3028 RMK AO2 SLP256 CIG 008V013 T01170083 (RF),FM-15,7,,,,,,,,,,,,,,,,,,,,,,,,,,,3/27/2007
72219013874,2020-02-19T18:42:00,FM-16,7,,,,,,,,,,,,,,,,,,,,,,,,,,,,,,,,,,,,,,,30.29,47,53,T,-DZ:01 |DZ |DZ,,,80,,OVC:08 9,29.18,2.5,50,20,,8,,,,,,,,,,,,,,,,,,,,,,,,,,,,,,,,,,,,,MET11002/19/20 18:42:02 SPECI KATL 192342Z 02007KT 2 1/2SM -DZ OVC009 12/08 A3029 RMK AO2 DZB41 P0000 T01170083 (RF),FM-16,7,,,,,,,,,,,,,,,,,,,,,,,,,,,3/27/2007
72219013874,2020-02-19T18:52:00,FM-15,7,,,,,,,,,,,,,,,,,,,,,,,,,,,,,,,,,,,,,,,30.3,48,53,T,-DZ:01 |DZ |DZ,-0.04,3,83,30.3,OVC:08 9,29.19,2.5,50,20,,8,,,,,,,,,,,,,,,,,,,,,,,,,,,,,,,,,,,,,MET14102/19/20 18:52:02 METAR KATL 192352Z 02007KT 2 1/2SM -DZ OVC009 12/09 A3030 RMK AO2 DZB41 SLP261 P0000 60000 T01170089 10117 20111 53014 (RF),FM-15,7,,,,,,,,,,,,,,,,,,,,,,,,,,,3/27/2007
72219013874,2020-02-19T19:00:00,FM-12,4,,,,,,,,,,,,,,,,,,,,,,,,,,,,,,,,,,,,,,,,48,53,,||DZ,-0.04,3,83,30.3,8,29.19,2.49,50,20,,8,,,,,,,,,,,,,,,,,,,,,,,,,,,,,,,,,,,,,SYN09272219 11340 80207 10117 20089 39884 40261 53014 69901 751// 92352 333 10117 20106 555 92000=,FM-12,4,,,,,,,,,,,,,,,,,,,,,,,,,,,3/27/2007
72219013874,2020-02-19T19:25:00,FM-16,7,,,,,,,,,,,,,,,,,,,,,,,,,,,,,,,,,,,,,,,30.31,48,51,T,-DZ:01 BR:1 |DZ |DZ,,,89,,OVC:08 4,29.21,0.75,49,80,,16,,,,,,,,,,,,,,,,,,,,,,,,,,,,,,,,,,,,,MET12702/19/20 19:25:01 SPECI KATL 200025Z 08014KT 3/4SM R09R/P6000FT -DZ BR OVC004 11/09 A3031 RMK AO2 SFC VIS 1 1/2 P0000 T01060089,FM-16,7,,,,,,,,,,,,,,,,,,,,,,,,,,,3/27/2007
72219013874,2020-02-19T19:38:00,FM-16,7,,,,,,,,,,,,,,,,,,,,,,,,,,,,,,,,,,,,,,,30.31,48,51,T,-DZ:01 BR:1 |DZ |DZ,,,89,,BKN:07 6 OVC:08 15,29.21,1.5,49,80,,13,,,,,,,,,,,,,,,,,,,,,,,,,,,,,,,,,,,,,MET13102/19/20 19:38:01 SPECI KATL 200038Z 08011KT 1 1/2SM -DZ BR BKN006 OVC015 11/09 A3031 RMK AO2 SFC VIS 4 CIG 004V009 P0000 T01060089,FM-16,7,,,,,,,,,,,,,,,,,,,,,,,,,,,3/27/2007
72219013874,2020-02-19T19:52:00,FM-15,7,,,,,,,,,,,,,,,,,,,,,,,,,,,,,,,,,,,,,,,30.31,48,51,T,,,,89,30.32,SCT:04 6 BKN:07 10 OVC:08 20,29.21,8,49,80,,9,,,,,,,,,,,,,,,,,,,,,,,,,,,,,,,,,,,,,MET11802/19/20 19:52:01 METAR KATL 200052Z 08008KT 8SM SCT006 BKN010 OVC020 11/09 A3031 RMK AO2 DZE49 SLP266 P0000 T01060089,FM-15,7,,,,,,,,,,,,,,,,,,,,,,,,,,,3/27/2007
72219013874,2020-02-19T20:50:00,FM-16,6,,,,,,,,,,,,,,,,,,,,,,,,,,,,,,,,,,,,,,,30.32,46,50,,-DZ:01 |DZ |DZ,,,88,,BKN:07 7 OVC:08 15,29.21,7,48,90,,9,,,,,,,,,,,,,,,,,,,,,,,,,,,,,,,,,,,,,MET10802/19/20 20:50:03 SPECI KATL 200150Z 09008KT 7SM -DZ BKN007 OVC015 10/08 A3032 RMK AO2 DZB30 P0000 FIBI (RF),FM-16,6,,,,,,,,,,,,,,,,,,,,,,,,,,,3/27/2007
72219013874,2020-02-19T20:52:00,FM-15,7,,,,,,,,,,,,,,,,,,,,,,,,,,,,,,,,,,,,,,,30.31,47,50,T,-DZ:01 |DZ |DZ,,,89,30.32,BKN:07 7 OVC:08 15,29.21,7,48,100,,9,,,,,,,,,,,,,,,,,,,,,,,,,,,,,,,,,,,,,MET11502/19/20 20:52:01 METAR KATL 200152Z 10008KT 7SM -DZ BKN007 OVC015 10/08 A3031 RMK AO2 DZB30 SLP268 P0000 T01000083,FM-15,7,,,,,,,,,,,,,,,,,,,,,,,,,,,3/27/2007
72219013874,2020-02-19T21:39:00,FM-16,7,,,,,,,,,,,,,,,,,,,,,,,,,,,,,,,,,,,,,,,30.32,46,50,T,,,,86,,SCT:04 7 OVC:08 20,29.21,9,48,100,,10,,,,,,,,,,,,,,,,,,,,,,,,,,,,,,,,,,,,,MET10402/19/20 21:39:01 SPECI KATL 200239Z 10009KT 9SM SCT007 OVC020 10/08 A3032 RMK AO2 DZE38 P0000 T01000078,FM-16,7,,,,,,,,,,,,,,,,,,,,,,,,,,,3/27/2007
72219013874,2020-02-19T21:52:00,FM-15,7,,,,,,,,,,,,,,,,,,,,,,,,,,,,,,,,,,,,,,,30.33,45,50,T,,-0.03,1,83,30.33,FEW:02 7 OVC:08 20,29.22,9,48,80,,13,,,,,,,,,,,,,,,,,,,,,,,,,,,,,,,,,,,,,MET12302/19/20 21:52:01 METAR KATL 200252Z 08011KT 9SM FEW007 OVC020 10/07 A3033 RMK AO2 DZE38 SLP271 P0000 60000 T01000072 51009,FM-15,7,,,,,,,,,,,,,,,,,,,,,,,,,,,3/27/2007
72219013874,2020-02-19T22:50:00,FM-16,6,,,,,,,,,,,,,,,,,,,,,,,,,,,,,,,,,,,,,,,30.3,45,50,,,,,82,,BKN:07 14 OVC:08 20,29.19,10,48,110,,9,,,,,,,,,,,,,,,,,,,,,,,,,,,,,,,,,,,,,MET09302/19/20 22:50:03 SPECI KATL 200350Z 11008KT 10SM BKN014 OVC020 10/07 A3030 RMK AO2 FIBI (RF),FM-16,6,,,,,,,,,,,,,,,,,,,,,,,,,,,3/27/2007
72219013874,2020-02-19T22:52:00,FM-15,7,,,,,,,,,,,,,,,,,,,,,,,,,,,,,,,,,,,,,,,30.31,45,50,0,,,,83,30.31,BKN:07 14 OVC:08 20,29.21,10,48,110,,9,,,,,,,,,,,,,,,,,,,,,,,,,,,,,,,,,,,,,MET10002/19/20 22:52:01 METAR KATL 200352Z 11008KT 10SM BKN014 OVC020 10/07 A3031 RMK AO2 SLP265 T01000072,FM-15,7,,,,,,,,,,,,,,,,,,,,,,,,,,,3/27/2007
72219013874,2020-02-19T23:52:00,FM-15,7,,,,,,,,,,,,,,,,,,,,,,,,,,,,,,,,,,,,,,,30.31,44,50,0,,,,80,30.31,OVC:08 12,29.21,10,47,80,20,13,,,,,,,,,,,,,,,,,,,,,,,,,,,,,,,,,,,,,MET10602/19/20 23:52:02 METAR KATL 200452Z 08011G17KT 10SM OVC012 10/07 A3031 RMK AO2 SLP264 T01000067 401560100,FM-15,7,,,,,,,,,,,,,,,,,,,,,,,,,,,3/27/2007
72219013874,2020-02-19T23:59:00,SOD  ,6,,,,,,,,,,,,,,,,,48,55,85,30.24,29.11,50,8.9,0,7,10,60,50,300,25,0.09,0,0,310,21,RA DZ BR,,,,,,,,,,,,,,,,,,,,,,,,,,,,,,,,,,,,,,,,,,,,,,,,,,,,,,,SOD78324 HR PRECIPITATION (IN): 0.09 SNOW DEPTH (IN):0     24 HR SNOWFALL (IN):0.0  WEATHER(CODE):1  24 HR MAX TEMP (F): 6024 HR MIN TEMP (F): 50AVERAGE STATION PRESSURE:29.115 MINIMUM SEA LEVEL PRESSURE:30.10 TIME OF OCCURRENCE:0210 PEAK WIND SPEED (MPH): 25 PEAK WIND DIR (DEG):300 PEAK WIND TIME (LST):      FASTEST 2MIN SPEED (MPH): 21FASTEST 2MIN DIR (DEG):310 FASTEST 2MIN TIME (LST):     AVERAGE WIND SPEED (MPH): 8.9 24 HR AVG TEMP (F): 55DEPART FROM NORMAL:  7  SKY COVER SR-SS (TENTHS): 1HEATING DEGREE DAYS: 10 COOLING DEGREE DAYS:  0 LATEST DAY MAX TEMP (0700-1900 LST):53  LATEST NIGHT MIN TEMP(1900-0800 LST):50 HOURLY INCREMENTAL PRECIPITATION VALUES (IN):.05 0.01 T    0.02 0.01 T    T    0.00 0.00 0.00 0.00 0.00 0.00 0.00 0.00 0.00 0.00 0.00 T    T    T    T    0.00 0.00,SOD  ,6,,,,,,,,,,,,,,,,,,,,,,,,,718,1826,3/27/2007
72219013874,2020-02-20T00:52:00,FM-15,7,,,,,,,,,,,,,,,,,,,,,,,,,,,,,,,,,,,,,,,30.3,44,48,T,-RA:02 |RA |RA,0.03,6,86,30.3,SCT:04 8 OVC:08 13,29.19,8,46,90,,14,,,,,,,,,,,,,,,,,,,,,,,,,,,,,,,,,,,,,MET14402/20/20 00:52:02 METAR KATL 200552Z 09012KT 8SM -RA SCT008 OVC013 09/07 A3030 RMK AO2 RAB38 SLP261 P0000 60000 T00890067 10117 20089 56010 (RF),FM-15,7,,,,,,,,,,,,,,,,,,,,,,,,,,,3/27/2007
72219013874,2020-02-20T01:00:00,FM-12,4,,,,,,,,,,,,,,,,,,,,,,,,,,,,,,,,,,,,,,,,44,48,,||RA,0.03,6,86,30.3,8,29.19,7.46,46,90,,14,,,,,,,,,,,,,,,,,,,,,,,,,,,,,,,,,,,,,SYN09272219 11362 80912 10089 20067 39884 40261 56010 69901 761// 90552 333 10156 20089 555 92006=,FM-12,4,,,,,,,,,,,,,,,,,,,,,,,,,,,3/27/2007
72219013874,2020-02-20T01:12:00,FM-16,7,,,,,,,,,,,,,,,,,,,,,,,,,,,,,,,,,,,,,,,30.29,45,48,T,-RA:02 BR:1 |RA |RA,,,89,,OVC:08 9,29.18,4,47,90,,13,,,,,,,,,,,,,,,,,,,,,,,,,,,,,,,,,,,,,MET11602/20/20 01:12:02 SPECI KATL 200612Z 09011KT 4SM -RA BR OVC009 09/07 A3029 RMK AO2 CIG 007V011 P0000 T00890072 (CPS),FM-16,7,,,,,,,,,,,,,,,,,,,,,,,,,,,3/27/2007
72219013874,2020-02-20T01:52:00,FM-15,7,,,,,,,,,,,,,,,,,,,,,,,,,,,,,,,,,,,,,,,30.29,44,48,T,-DZ:01 BR:1 |DZ |DZ,,,86,30.3,OVC:08 7,29.18,4,46,80,,16,,,,,,,,,,,,,,,,,,,,,,,,,,,,,,,,,,,,,MET13602/20/20 01:52:02 METAR KATL 200652Z 08014KT 4SM -DZ BR OVC007 09/07 A3029 RMK AO2 RAE13DZB13 SLP260 CIG 005V009 P0000 T00890067 $ (CPS),FM-15,7,,,,,,,,,,,,,,,,,,,,,,,,,,,3/27/2007
72219013874,2020-02-20T02:52:00,FM-15,7,,,,,,,,,,,,,,,,,,,,,,,,,,,,,,,,,,,,,,,30.27,44,47,T,-DZ:01 BR:1 |DZ |DZ,,,90,30.27,OVC:08 8,29.16,3,46,90,,14,,,,,,,,,,,,,,,,,,,,,,,,,,,,,,,,,,,,,MET12502/20/20 02:52:02 METAR KATL 200752Z 09012KT 3SM -DZ BR OVC008 08/07 A3027 RMK AO2 SLP252 CIG 006V010 P0000 T00830067 $ (CPS),FM-15,7,,,,,,,,,,,,,,,,,,,,,,,,,,,3/27/2007
72219013874,2020-02-20T03:52:00,FM-15,7,,,,,,,,,,,,,,,,,,,,,,,,,,,,,,,,,,,,,,,30.26,42,46,T,-DZ:01 BR:1 |DZ |DZ,0.03,8,86,30.27,BKN:07 6 OVC:08 10,29.15,5,44,90,,13,,,,,,,,,,,,,,,,,,,,,,,,,,,,,,,,,,,,,MET13202/20/20 03:52:02 METAR KATL 200852Z 09011KT 5SM -DZ BR BKN006 OVC010 08/06 A3026 RMK AO2 SLP250 P0000 60000 T00780056 58011 $ (CPS),FM-15,7,,,,,,,,,,,,,,,,,,,,,,,,,,,3/27/2007
72219013874,2020-02-20T04:52:00,FM-15,7,,,,,,,,,,,,,,,,,,,,,,,,,,,,,,,,,,,,,,,30.25,42,45,0.02,-RA:02 BR:1 |RA |RA,,,90,30.25,OVC:08 7,29.15,5,44,100,,10,,,,,,,,,,,,,,,,,,,,,,,,,,,,,,,,,,,,,MET12202/20/20 04:52:02 METAR KATL 200952Z 10009KT 5SM -RA BR OVC007 07/06 A3025 RMK AO2 DZE29RAB29 SLP245 P0002 T00720056 (CPS),FM-15,7,,,,,,,,,,,,,,,,,,,,,,,,,,,3/27/2007
72219013874,2020-02-20T05:52:00,FM-15,7,,,,,,,,,,,,,,,,,,,,,,,,,,,,,,,,,,,,,,,30.25,42,45,0.04,-RA:02 |RA |RA,,,90,30.25,OVC:08 8,29.15,7,44,80,,13,,,,,,,,,,,,,,,,,,,,,,,,,,,,,,,,,,,,,MET12002/20/20 05:52:02 METAR KATL 201052Z 08011KT 7SM -RA OVC008 07/06 A3025 RMK AO2 SLP244 CIG 006V010 P0003 T00720056 (CPS),FM-15,7,,,,,,,,,,,,,,,,,,,,,,,,,,,3/27/2007
72219013874,2020-02-20T06:52:00,FM-15,7,,,,,,,,,,,,,,,,,,,,,,,,,,,,,,,,,,,,,,,30.26,41,44,0.11,RA:02 BR:1 |RA |RA,0,5,89,30.27,BKN:07 6 OVC:08 15,29.15,5,43,60,,14,,,,,,,,,,,,,,,,,,,,,,,,,,,,,,,,,,,,,MET14702/20/20 06:52:02 METAR KATL 201152Z 06012KT 5SM RA BR BKN006 OVC015 07/05 A3026 RMK AO2 SLP250 P0010 60015 70015 T00670050 10089 20067 55000 (CPS),FM-15,7,,,,,,,,,,,,,,,,,,,,,,,,,,,3/27/2007
72219013874,2020-02-20T07:00:00,FM-12,4,,,,,,,,,,,,,,,,,,,,,,,,,,,,,,,,,,,,,,,,41,44,,||RA,0,5,89,30.27,5,29.15,4.97,43,60,,14,,,,,,,,,,,,,,,,,,,,,,,,,,,,,,,,,,,,,SYN10472219 11258 80612 10067 20050 39871 40250 55000 60041 763// 91152 333 10156 20067 70038 96010 555 92012=,FM-12,4,,,,,,,,,,,,,,,,,,,,,,,,,,,3/27/2007
72219013874,2020-02-20T07:50:00,FM-16,7,,,,,,,,,,,,,,,,,,,,,,,,,,,,,,,,,,,,,,,30.26,39,45,0.1,-RA:02 |RA |RA,,,81,,SCT:04 8 BKN:07 15 OVC:08 25,29.15,7,42,70,,16,,,,,,,,,,,,,,,,,,,,,,,,,,,,,,,,,,,,,MET10502/20/20 07:50:02 SPECI KATL 201250Z 07014KT 7SM -RA SCT008 BKN015 OVC025 07/04 A3026 RMK AO2 P0010 (CPS),FM-16,7,,,,,,,,,,,,,,,,,,,,,,,,,,,3/27/2007
72219013874,2020-02-20T07:52:00,FM-15,7,,,,,,,,,,,,,,,,,,,,,,,,,,,,,,,,,,,,,,,30.26,40,44,0.09,-RA:02 |RA |RA,,,85,30.27,SCT:04 8 BKN:07 15 OVC:08 25,29.15,7,42,70,,16,,,,,,,,,,,,,,,,,,,,,,,,,,,,,,,,,,,,,MET12202/20/20 07:52:02 METAR KATL 201252Z 07014KT 7SM -RA SCT008 BKN015 OVC025 07/04 A3026 RMK AO2 SLP249 P0010 T00670044 (CPS),FM-15,7,,,,,,,,,,,,,,,,,,,,,,,,,,,3/27/2007
72219013874,2020-02-20T08:49:00,FM-16,7,,,,,,,,,,,,,,,,,,,,,,,,,,,,,,,,,,,,,,,30.23,39,43,0.05,-RA:02 |RA |RA,,,87,,BKN:07 10 BKN:07 17 OVC:08 29,29.13,7,41,70,,18,,,,,,,,,,,,,,,,,,,,,,,,,,,,,,,,,,,,,MET10502/20/20 08:49:02 SPECI KATL 201349Z 07016KT 7SM -RA BKN010 BKN017 OVC029 06/04 A3023 RMK AO2 P0005 (CPS),FM-16,7,,,,,,,,,,,,,,,,,,,,,,,,,,,3/27/2007
72219013874,2020-02-20T08:52:00,FM-15,7,,,,,,,,,,,,,,,,,,,,,,,,,,,,,,,,,,,,,,,30.23,39,43,0.04,-RA:02 |RA |RA,,,86,30.24,BKN:07 10 BKN:07 17 OVC:08 29,29.13,8,41,60,,18,,,,,,,,,,,,,,,,,,,,,,,,,,,,,,,,,,,,,MET12202/20/20 08:52:02 METAR KATL 201352Z 06016KT 8SM -RA BKN010 BKN017 OVC029 06/04 A3023 RMK AO2 SLP240 P0005 T00610039 (CPS),FM-15,7,,,,,,,,,,,,,,,,,,,,,,,,,,,3/27/2007
72219013874,2020-02-20T09:14:00,FM-16,7,,,,,,,,,,,,,,,,,,,,,,,,,,,,,,,,,,,,,,,30.24,39,43,0.01,-RA:02 |RA |RA,,,86,,BKN:07 9 OVC:08 17,29.14,7,41,60,,17,,,,,,,,,,,,,,,,,,,,,,,,,,,,,,,,,,,,,MET12002/20/20 09:14:02 SPECI KATL 201414Z 06015KT 7SM -RA BKN009 OVC017 06/04 A3024 RMK AO2 CIG 008V011 P0001 T00610039 (KAF),FM-16,7,,,,,,,,,,,,,,,,,,,,,,,,,,,3/27/2007
72219013874,2020-02-20T09:52:00,FM-15,7,,,,,,,,,,,,,,,,,,,,,,,,,,,,,,,,,,,,,,,30.26,38,42,0.09,RA:02 BR:1 |RA |RA,-0.01,3,85,30.27,BKN:07 8 OVC:08 16,29.15,3,40,50,26,16,,,,,,,,,,,,,,,,,,,,,,,,,,,,,,,,,,,,,MET14402/20/20 09:52:02 METAR KATL 201452Z 05014G23KT 3SM RA BR BKN008 OVC016 06/03 A3026 RMK AO2 SLP252 CIG 007V010 P0007 60022 T00560033 53002 (KAF),FM-15,7,,,,,,,,,,,,,,,,,,,,,,,,,,,3/27/2007
72219013874,2020-02-20T10:09:00,FM-16,7,,,,,,,,,,,,,,,,,,,,,,,,,,,,,,,,,,,,,,,30.29,37,41,0.03,-RA:02 BR:1 |RA |RA,,,86,,SCT:04 9 BKN:07 15 OVC:08 22,29.18,5,39,50,29,16,,,,,,,,,,,,,,,,,,,,,,,,,,,,,,,,,,,,,MET14602/20/20 10:09:02 SPECI KATL 201509Z 05014G25KT 5SM -RA BR SCT009 BKN015 OVC022 05/03 A3029 RMK AO2 PK WND 04027/1456 PRESRR P0003 T00500028 (KAF),FM-16,7,,,,,,,,,,,,,,,,,,,,,,,,,,,3/27/2007
72219013874,2020-02-20T10:52:00,FM-15,7,,,,,,,,,,,,,,,,,,,,,,,,,,,,,,,,,,,,,,,30.28,34,39,0.07,-RA:02 |RA |RA,,,82,30.29,FEW:02 12 BKN:07 22 OVC:08 32,29.18,7,37,50,24,20,,,,,,,,,,,,,,,,,,,,,,,,,,,,,,,,,,,,,MET14302/20/20 10:52:02 METAR KATL 201552Z 05017G21KT 7SM -RA FEW012 BKN022 OVC032 04/01 A3028 RMK AO2 PK WND 04027/1456 SLP259 P0009 T00390011 (KAF),FM-15,7,,,,,,,,,,,,,,,,,,,,,,,,,,,3/27/2007
72219013874,2020-02-20T11:52:00,FM-15,7,,,,,,,,,,,,,,,,,,,,,,,,,,,,,,,,,,,,,,,30.3,34,39,0.13,RA:02 |RA |RA,,,82,30.31,FEW:02 15 OVC:08 28,29.19,4,37,70,,16,,,,,,,,,,,,,,,,,,,,,,,,,,,,,,,,,,,,,MET11402/20/20 11:52:02 METAR KATL 201652Z 07014KT 4SM RA FEW015 OVC028 04/01 A3030 RMK AO2 SLP265 P0011 T00390011 (KAF),FM-15,7,,,,,,,,,,,,,,,,,,,,,,,,,,,3/27/2007
72219013874,2020-02-20T12:10:00,FM-16,7,,,,,,,,,,,,,,,,,,,,,,,,,,,,,,,,,,,,,,,30.29,34,39,0.03,-RA:02 |RA |RA,,,82,,SCT:04 28 BKN:07 38 OVC:08 50,29.18,7,37,70,,16,,,,,,,,,,,,,,,,,,,,,,,,,,,,,,,,,,,,,MET11502/20/20 12:10:02 SPECI KATL 201710Z 07014KT 7SM -RA SCT028 BKN038 OVC050 04/01 A3029 RMK AO2 P0003 T00390011 (KAF),FM-16,7,,,,,,,,,,,,,,,,,,,,,,,,,,,3/27/2007
72219013874,2020-02-20T12:52:00,FM-15,7,,,,,,,,,,,,,,,,,,,,,,,,,,,,,,,,,,,,,,,30.25,35,39,0.09,RA:02 BR:1 |RA |RA,0.01,8,86,30.26,SCT:04 12 BKN:07 34 OVC:08 60,29.15,5,37,70,,16,,,,,,,,,,,,,,,,,,,,,,,,,,,,,,,,,,,,,MET15502/20/20 12:52:02 METAR KATL 201752Z 07014KT 5SM RA BR SCT012 BKN034 OVC060 04/02 A3025 RMK AO2 PRESFR SLP248 P0010 60052 T00390017 10067 20039 58005 (KAF),FM-15,7,,,,,,,,,,,,,,,,,,,,,,,,,,,3/27/2007
72219013874,2020-02-20T13:00:00,FM-12,4,,,,,,,,,,,,,,,,,,,,,,,,,,,,,,,,,,,,,,,,35,39,,||RA,0.01,8,86,30.26,15,29.14,4.97,37,70,,16,,,,,,,,,,,,,,,,,,,,,,,,,,,,,,,,,,,,,SYN09872219 11458 80714 10039 20017 39867 40248 58005 60131 763// 91752 333 10089 20039 96010 555 92018=,FM-12,4,,,,,,,,,,,,,,,,,,,,,,,,,,,3/27/2007
72219013874,2020-02-20T13:14:00,FM-16,7,,,,,,,,,,,,,,,,,,,,,,,,,,,,,,,,,,,,,,,30.25,36,39,0.04,-RA:02 BR:1 |RA |RA,,,89,,FEW:02 8 BKN:07 12 OVC:08 36,29.15,5,38,40,,14,,,,,,,,,,,,,,,,,,,,,,,,,,,,,,,,,,,,,MET11802/20/20 13:14:02 SPECI KATL 201814Z 04012KT 5SM -RA BR FEW008 BKN012 OVC036 04/02 A3025 RMK AO2 P0004 T00390022 (KAF),FM-16,7,,,,,,,,,,,,,,,,,,,,,,,,,,,3/27/2007
72219013874,2020-02-20T13:52:00,FM-15,7,,,,,,,,,,,,,,,,,,,,,,,,,,,,,,,,,,,,,,,30.23,36,40,0.09,-RA:02 BR:1 |RA |RA,,,86,30.24,FEW:02 8 BKN:07 12 OVC:08 30,29.13,5,38,50,,14,,,,,,,,,,,,,,,,,,,,,,,,,,,,,,,,,,,,,MET13702/20/20 13:52:02 METAR KATL 201852Z 05012KT 5SM -RA BR FEW008 BKN012 OVC030 04/02 A3023 RMK AO2 SLP241 CIG 010V014 P0010 T00440022 (KAF),FM-15,7,,,,,,,,,,,,,,,,,,,,,,,,,,,3/27/2007
72219013874,2020-02-20T14:52:00,FM-15,7,,,,,,,,,,,,,,,,,,,,,,,,,,,,,,,,,,,,,,,30.23,37,41,0.06,-RA:02 BR:1 |RA |RA,,,86,30.24,BKN:07 10 OVC:08 20,29.13,6,39,30,,13,,,,,,,,,,,,,,,,,,,,,,,,,,,,,,,,,,,,,MET13002/20/20 14:52:02 METAR KATL 201952Z 03011KT 6SM -RA BR BKN010 OVC020 05/03 A3023 RMK AO2 SLP240 CIG 009V012 P0005 T00500028 (KAF),FM-15,7,,,,,,,,,,,,,,,,,,,,,,,,,,,3/27/2007
72219013874,2020-02-20T15:52:00,FM-15,7,,,,,,,,,,,,,,,,,,,,,,,,,,,,,,,,,,,,,,,30.21,37,42,0.07,-RA:02 |RA |RA,0.04,6,82,30.22,SCT:04 10 BKN:07 15 OVC:08 65,29.11,4,40,60,,16,,,,,,,,,,,,,,,,,,,,,,,,,,,,,,,,,,,,,MET13402/20/20 15:52:02 METAR KATL 202052Z 06014KT 4SM -RA SCT010 BKN015 OVC065 06/03 A3021 RMK AO2 SLP235 P0008 60023 T00560028 56012 (KAF),FM-15,7,,,,,,,,,,,,,,,,,,,,,,,,,,,3/27/2007
72219013874,2020-02-20T16:02:00,FM-16,7,,,,,,,,,,,,,,,,,,,,,,,,,,,,,,,,,,,,,,,30.2,37,42,0.01,-RA:02 |RA |RA,,,82,,SCT:04 11 BKN:07 38 OVC:08 70,29.1,6,40,70,,16,,,,,,,,,,,,,,,,,,,,,,,,,,,,,,,,,,,,,MET12202/20/20 16:02:02 SPECI KATL 202102Z 07014KT 6SM -RA SCT011 BKN038 OVC070 06/03 A3020 RMK AO2 PRESFR P0001 T00560028 (KAF),FM-16,7,,,,,,,,,,,,,,,,,,,,,,,,,,,3/27/2007
72219013874,2020-02-20T16:28:00,FM-16,7,,,,,,,,,,,,,,,,,,,,,,,,,,,,,,,,,,,,,,,30.2,38,42,0.02,-RA:02 BR:1 |RA |RA,,,85,,BKN:07 8 BKN:07 14 OVC:08 60,29.1,6,40,50,,13,,,,,,,,,,,,,,,,,,,,,,,,,,,,,,,,,,,,,MET13002/20/20 16:28:02 SPECI KATL 202128Z 05011KT 6SM -RA BR BKN008 BKN014 OVC060 06/03 A3020 RMK AO2 CIG 007V010 P0002 T00560033 (KAF),FM-16,7,,,,,,,,,,,,,,,,,,,,,,,,,,,3/27/2007
72219013874,2020-02-20T16:52:00,FM-15,7,,,,,,,,,,,,,,,,,,,,,,,,,,,,,,,,,,,,,,,30.21,37,42,0.03,-RA:02 |RA |RA,,,82,30.22,BKN:07 8 BKN:07 14 OVC:08 65,29.11,6,40,40,21,13,,,,,,,,,,,,,,,,,,,,,,,,,,,,,,,,,,,,,MET13702/20/20 16:52:02 METAR KATL 202152Z 04011G18KT 6SM -RA BKN008 BKN014 OVC065 06/03 A3021 RMK AO2 SLP234 CIG 007V010 P0003 T00560028 (KAF),FM-15,7,,,,,,,,,,,,,,,,,,,,,,,,,,,3/27/2007
72219013874,2020-02-20T17:52:00,FM-15,7,,,,,,,,,,,,,,,,,,,,,,,,,,,,,,,,,,,,,,,30.21,36,41,0.01,-RA:02 |RA |RA,,,82,30.23,SCT:04 8 BKN:07 13 OVC:08 20,29.11,8,39,30,,20,,,,,,,,,,,,,,,,,,,,,,,,,,,,,,,,,,,,,MET12102/20/20 17:52:02 METAR KATL 202252Z 03017KT 8SM -RA SCT008 BKN013 OVC020 05/02 A3021 RMK AO2 SLP236 P0001 T00500022 (RF),FM-15,7,,,,,,,,,,,,,,,,,,,,,,,,,,,3/27/2007
72219013874,2020-02-20T18:52:00,FM-15,7,,,,,,,,,,,,,,,,,,,,,,,,,,,,,,,,,,,,,,,30.25,36,41,T,-RA:02 |RA |RA,-0.04,3,82,30.27,BKN:07 12 BKN:07 23 OVC:08 35,29.15,10,39,30,,11,,,,,,,,,,,,,,,,,,,,,,,,,,,,,,,,,,,,,MET14602/20/20 18:52:02 METAR KATL 202352Z 03010KT 10SM -RA BKN012 BKN023 OVC035 05/02 A3025 RMK AO2 SLP249 P0000 60027 T00500022 10056 20039 53013 (RF),FM-15,7,,,,,,,,,,,,,,,,,,,,,,,,,,,3/27/2007
72219013874,2020-02-20T19:00:00,FM-12,4,,,,,,,,,,,,,,,,,,,,,,,,,,,,,,,,,,,,,,,,36,41,,||RA,-0.04,3,82,30.27,15,29.14,9.94,39,30,,11,,,,,,,,,,,,,,,,,,,,,,,,,,,,,,,,,,,,,SYN09272219 11466 80310 10050 20022 39867 40249 53013 60071 761// 92352 333 10067 20039 555 92100=,FM-12,4,,,,,,,,,,,,,,,,,,,,,,,,,,,3/27/2007
72219013874,2020-02-20T19:52:00,FM-15,7,,,,,,,,,,,,,,,,,,,,,,,,,,,,,,,,,,,,,,,30.28,35,40,T,,,,83,30.29,BKN:07 12 OVC:08 20,29.18,10,38,20,,13,,,,,,,,,,,,,,,,,,,,,,,,,,,,,,,,,,,,,MET11202/20/20 19:52:01 METAR KATL 210052Z 02011KT 10SM BKN012 OVC020 04/02 A3028 RMK AO2 RAE19 SLP259 P0000 T00440017,FM-15,7,,,,,,,,,,,,,,,,,,,,,,,,,,,3/27/2007
72219013874,2020-02-20T20:50:00,FM-16,6,,,,,,,,,,,,,,,,,,,,,,,,,,,,,,,,,,,,,,,30.3,36,39,,,,,87,,BKN:07 17 OVC:08 25,29.19,10,38,30,,11,,,,,,,,,,,,,,,,,,,,,,,,,,,,,,,,,,,,,MET09302/20/20 20:50:03 SPECI KATL 210150Z 03010KT 10SM BKN017 OVC025 04/02 A3030 RMK AO2 FIBI (RF),FM-16,6,,,,,,,,,,,,,,,,,,,,,,,,,,,3/27/2007
72219013874,2020-02-20T20:52:00,FM-15,7,,,,,,,,,,,,,,,,,,,,,,,,,,,,,,,,,,,,,,,30.3,35,40,0,,,,83,30.32,BKN:07 17 OVC:08 23,29.19,10,38,20,,13,,,,,,,,,,,,,,,,,,,,,,,,,,,,,,,,,,,,,MET10002/20/20 20:52:01 METAR KATL 210152Z 02011KT 10SM BKN017 OVC023 04/02 A3030 RMK AO2 SLP267 T00440017,FM-15,7,,,,,,,,,,,,,,,,,,,,,,,,,,,3/27/2007
72219013874,2020-02-20T21:28:00,FM-16,7,,,,,,,,,,,,,,,,,,,,,,,,,,,,,,,,,,,,,,,30.31,35,40,T,-RA:02 |RA |RA,,,83,,SCT:04 9 BKN:07 14 OVC:08 25,29.21,4,38,40,,8,,,,,,,,,,,,,,,,,,,,,,,,,,,,,,,,,,,,,MET11502/20/20 21:28:01 SPECI KATL 210228Z 04007KT 4SM -RA SCT009 BKN014 OVC025 04/02 A3031 RMK AO2 RAB27 P0000 T00440017,FM-16,7,,,,,,,,,,,,,,,,,,,,,,,,,,,3/27/2007
72219013874,2020-02-20T21:52:00,FM-15,7,,,,,,,,,,,,,,,,,,,,,,,,,,,,,,,,,,,,,,,30.32,35,40,T,-RA:02 |RA |RA,-0.06,1,83,30.33,SCT:04 6 BKN:07 14 OVC:08 25,29.21,2,38,50,,10,,,,,,,,,,,,,,,,,,,,,,,,,,,,,,,,,,,,,MET14402/20/20 21:52:01 METAR KATL 210252Z 05009KT 2SM -RA SCT006 BKN014 OVC025 04/02 A3032 RMK AO2 SFC VIS 3 RAB27 SLP272 P0000 60000 T00440017 51021,FM-15,7,,,,,,,,,,,,,,,,,,,,,,,,,,,3/27/2007
72219013874,2020-02-20T22:52:00,FM-15,7,,,,,,,,,,,,,,,,,,,,,,,,,,,,,,,,,,,,,,,30.33,35,40,T,,,,83,30.35,FEW:02 7 BKN:07 12 OVC:08 20,29.22,7,38,30,,8,,,,,,,,,,,,,,,,,,,,,,,,,,,,,,,,,,,,,MET11802/20/20 22:52:01 METAR KATL 210352Z 03007KT 7SM FEW007 BKN012 OVC020 04/02 A3033 RMK AO2 RAE14 SLP277 P0000 T00440017,FM-15,7,,,,,,,,,,,,,,,,,,,,,,,,,,,3/27/2007
72219013874,2020-02-20T23:26:00,FM-16,7,,,,,,,,,,,,,,,,,,,,,,,,,,,,,,,,,,,,,,,30.34,35,39,,,,,86,,BKN:07 8 OVC:08 15,29.23,8,37,340,,9,,,,,,,,,,,,,,,,,,,,,,,,,,,,,,,,,,,,,MET09202/20/20 23:26:01 SPECI KATL 210426Z 34008KT 8SM BKN008 OVC015 04/02 A3034 RMK AO2 T00390017,FM-16,7,,,,,,,,,,,,,,,,,,,,,,,,,,,3/27/2007
72219013874,2020-02-20T23:52:00,FM-15,7,,,,,,,,,,,,,,,,,,,,,,,,,,,,,,,,,,,,,,,30.34,35,39,T,-RA:02 BR:1 |RA |RA,,,86,30.36,BKN:07 8 OVC:08 15,29.23,6,37,330,,8,,,,,,,,,,,,,,,,,,,,,,,,,,,,,,,,,,,,,MET12802/20/20 23:52:02 METAR KATL 210452Z 33007KT 6SM -RA BR BKN008 OVC015 04/02 A3034 RMK AO2 RAB50 SLP280 P0000 T00390017 401000039,FM-15,7,,,,,,,,,,,,,,,,,,,,,,,,,,,3/27/2007
72219013874,2020-02-20T23:59:00,SOD  ,6,,,,,,,,,,,,,,,,,38,45,85,30.28,29.15,40,13.9,0,-3.2,20,50,39,40,31,0.94,0,0,60,22,RA DZ BR,,,,,,,,,,,,,,,,,,,,,,,,,,,,,,,,,,,,,,,,,,,,,,,,,,,,,,,SOD78124 HR PRECIPITATION (IN): 0.94 SNOW DEPTH (IN):0     24 HR SNOWFALL (IN):0.0  WEATHER(CODE):18  24 HR MAX TEMP (F): 5024 HR MIN TEMP (F): 39AVERAGE STATION PRESSURE:29.155 MINIMUM SEA LEVEL PRESSURE:30.21 TIME OF OCCURRENCE:1642 PEAK WIND SPEED (MPH): 31 PEAK WIND DIR (DEG): 40 PEAK WIND TIME (LST):      FASTEST 2MIN SPEED (MPH): 22FASTEST 2MIN DIR (DEG): 60 FASTEST 2MIN TIME (LST):     AVERAGE WIND SPEED (MPH):13.9 24 HR AVG TEMP (F): 45DEPART FROM NORMAL: -3  SKY COVER SR-SS (TENTHS): 1HEATING DEGREE DAYS: 20 COOLING DEGREE DAYS:  0 LATEST DAY MAX TEMP (0700-1900 LST):44  LATEST NIGHT MIN TEMP(1900-0800 LST):44 HOURLY INCREMENTAL PRECIPITATION VALUES (IN):    T    T    T    0.02 0.04 0.11 0.09 0.04 0.09 0.07 0.13 0.09 0.09 0.06 0.07 0.03 0.01 T    T    0.00 T    T    T,SOD  ,6,,,,,,,,,,,,,,,,,,,,,,,,,717,1827,3/27/2007
72219013874,2020-02-21T00:50:00,FM-16,6,,,,,,,,,,,,,,,,,,,,,,,,,,,,,,,,,,,,,,,30.33,36,39,,-RA:02 |RA |RA,,,87,,FEW:02 5 OVC:08 10,29.22,8,38,340,,8,,,,,,,,,,,,,,,,,,,,,,,,,,,,,,,,,,,,,MET11502/21/20 00:50:02 SPECI KATL 210550Z 34007KT 8SM -RA FEW005 OVC010 04/02 A3033 RMK AO2 PCPN VRY LGT P0000 FIBI (RF),FM-16,6,,,,,,,,,,,,,,,,,,,,,,,,,,,3/27/2007
72219013874,2020-02-21T00:52:00,FM-15,7,,,,,,,,,,,,,,,,,,,,,,,,,,,,,,,,,,,,,,,30.33,35,39,T,-RA:02 |RA |RA,-0.01,0,86,30.35,FEW:02 5 OVC:08 10,29.22,8,37,340,,7,,,,,,,,,,,,,,,,,,,,,,,,,,,,,,,,,,,,,MET15102/21/20 00:52:02 METAR KATL 210552Z 34006KT 8SM -RA FEW005 OVC010 04/02 A3033 RMK AO2 SLP279 PCPN VRY LGT P0000 60000 T00390017 10050 20039 50005 (RF),FM-15,7,,,,,,,,,,,,,,,,,,,,,,,,,,,3/27/2007
72219013874,2020-02-21T01:00:00,FM-12,4,,,,,,,,,,,,,,,,,,,,,,,,,,,,,,,,,,,,,,,,35,39,,||RA,0.01,9,86,30.35,5,29.22,7.46,37,340,,7,,,,,,,,,,,,,,,,,,,,,,,,,,,,,,,,,,,,,SYN09272219 11262 83406 10039 20017 39894 40279 50005 69901 761// 90552 333 10089 20039 555 92106=,FM-12,4,,,,,,,,,,,,,,,,,,,,,,,,,,,3/27/2007
72219013874,2020-02-21T01:14:00,FM-16,7,,,,,,,,,,,,,,,,,,,,,,,,,,,,,,,,,,,,,,,30.33,35,38,T,-RA:02 BR:1 |RA |RA,,,89,,BKN:07 5 OVC:08 10,29.22,4,37,340,,8,,,,,,,,,,,,,,,,,,,,,,,,,,,,,,,,,,,,,MET11102/21/20 01:14:02 SPECI KATL 210614Z 34007KT 4SM -RA BR BKN005 OVC010 03/02 A3033 RMK AO2 P0000 T00330017 (CPS),FM-16,7,,,,,,,,,,,,,,,,,,,,,,,,,,,3/27/2007
72219013874,2020-02-21T01:52:00,FM-15,7,,,,,,,,,,,,,,,,,,,,,,,,,,,,,,,,,,,,,,,30.33,35,38,T,-DZ:01 BR:1 |DZ |DZ,,,89,30.35,BKN:07 5 OVC:08 12,29.22,4,37,330,,8,,,,,,,,,,,,,,,,,,,,,,,,,,,,,,,,,,,,,MET12902/21/20 01:52:02 METAR KATL 210652Z 33007KT 4SM -DZ BR BKN005 OVC012 03/02 A3033 RMK AO2 SLP278 RAE40DZB40 P0000 T00330017 (CPS),FM-15,7,,,,,,,,,,,,,,,,,,,,,,,,,,,3/27/2007
72219013874,2020-02-21T02:52:00,FM-15,7,,,,,,,,,,,,,,,,,,,,,,,,,,,,,,,,,,,,,,,30.33,34,37,T,-DZ:01 BR:1 |DZ |DZ,,,89,30.35,BKN:07 7 BKN:07 12 OVC:08 20,29.22,5,36,350,,13,,,,,,,,,,,,,,,,,,,,,,,,,,,,,,,,,,,,,MET12502/21/20 02:52:02 METAR KATL 210752Z 35011KT 5SM -DZ BR BKN007 BKN012 OVC020 03/01 A3033 RMK AO2 SLP279 P0000 T00280011 (CPS),FM-15,7,,,,,,,,,,,,,,,,,,,,,,,,,,,3/27/2007
72219013874,2020-02-21T03:45:00,FM-16,7,,,,,,,,,,,,,,,,,,,,,,,,,,,,,,,,,,,,,,,30.33,33,36,0.01,,,,89,,SCT:04 9 SCT:04 35 OVC:08 49,29.22,10,35,340,,8,,,,,,,,,,,,,,,,,,,,,,,,,,,,,,,,,,,,,MET11802/21/20 03:45:02 SPECI KATL 210845Z 34007KT 10SM SCT009 SCT035 OVC049 02/01 A3033 RMK AO2 DZE33 P0001 T00220006 (CPS),FM-16,7,,,,,,,,,,,,,,,,,,,,,,,,,,,3/27/2007
72219013874,2020-02-21T03:52:00,FM-15,7,,,,,,,,,,,,,,,,,,,,,,,,,,,,,,,,,,,,,,,30.33,33,36,0.01,,0,7,89,30.35,SCT:04 9 SCT:04 35 OVC:08 49,29.22,10,35,330,,8,,,,,,,,,,,,,,,,,,,,,,,,,,,,,,,,,,,,,MET13702/21/20 03:52:02 METAR KATL 210852Z 33007KT 10SM SCT009 SCT035 OVC049 02/01 A3033 RMK AO2 SLP278 DZE33 P0001 60001 T00220006 57001 (CPS),FM-15,7,,,,,,,,,,,,,,,,,,,,,,,,,,,3/27/2007
72219013874,2020-02-21T04:38:00,FM-16,7,,,,,,,,,,,,,,,,,,,,,,,,,,,,,,,,,,,,,,,30.34,31,36,,,,,82,,SCT:04 13 BKN:07 27 OVC:08 45,29.23,10,34,330,,13,,,,,,,,,,,,,,,,,,,,,,,,,,,,,,,,,,,,,MET10702/21/20 04:38:02 SPECI KATL 210938Z 33011KT 10SM SCT013 BKN027 OVC045 02/M01 A3034 RMK AO2 T00221006 (CPS),FM-16,7,,,,,,,,,,,,,,,,,,,,,,,,,,,3/27/2007
72219013874,2020-02-21T04:52:00,FM-15,7,,,,,,,,,,,,,,,,,,,,,,,,,,,,,,,,,,,,,,,30.34,30,36,0,,,,79,30.36,SCT:04 12 BKN:07 27 OVC:08 45,29.23,10,34,330,,9,,,,,,,,,,,,,,,,,,,,,,,,,,,,,,,,,,,,,MET11402/21/20 04:52:02 METAR KATL 210952Z 33008KT 10SM SCT012 BKN027 OVC045 02/M01 A3034 RMK AO2 SLP282 T00221011 (CPS),FM-15,7,,,,,,,,,,,,,,,,,,,,,,,,,,,3/27/2007
72219013874,2020-02-21T05:52:00,FM-15,7,,,,,,,,,,,,,,,,,,,,,,,,,,,,,,,,,,,,,,,30.36,29,35,0,,,,78,30.38,FEW:02 15 BKN:07 29 OVC:08 45,29.25,10,33,340,,10,,,,,,,,,,,,,,,,,,,,,,,,,,,,,,,,,,,,,MET11402/21/20 05:52:02 METAR KATL 211052Z 34009KT 10SM FEW015 BKN029 OVC045 02/M02 A3036 RMK AO2 SLP289 T00171017 (CPS),FM-15,7,,,,,,,,,,,,,,,,,,,,,,,,,,,3/27/2007
72219013874,2020-02-21T06:52:00,FM-15,7,,,,,,,,,,,,,,,,,,,,,,,,,,,,,,,,,,,,,,,30.38,29,35,0,,-0.05,3,78,30.4,BKN:07 29 OVC:08 35,29.27,10,33,340,,11,,,,,,,,,,,,,,,,,,,,,,,,,,,,,,,,,,,,,MET13702/21/20 06:52:02 METAR KATL 211152Z 34010KT 10SM BKN029 OVC035 02/M02 A3038 RMK AO2 SLP296 60001 70080 T00171017 10039 20017 53017 (CPS),FM-15,7,,,,,,,,,,,,,,,,,,,,,,,,,,,3/27/2007
72219013874,2020-02-21T07:00:00,FM-12,4,,,,,,,,,,,,,,,,,,,,,,,,,,,,,,,,,,,,,,,,29,35,,,-0.05,3,78,30.4,26,29.26,9.94,33,340,,11,,,,,,,,,,,,,,,,,,,,,,,,,,,,,,,,,,,,,SYN09272219 12566 83410 10017 21017 39910 40296 53017 69931 91152 333 10100 20017 70203 555 92112=,FM-12,4,,,,,,,,,,,,,,,,,,,,,,,,,,,3/27/2007
72219013874,2020-02-21T07:49:00,FM-16,7,,,,,,,,,,,,,,,,,,,,,,,,,,,,,,,,,,,,,,,30.41,28,34,,,,,81,,BKN:07 32 BKN:07 50,29.3,10,32,340,,10,,,,,,,,,,,,,,,,,,,,,,,,,,,,,,,,,,,,,MET09002/21/20 07:49:02 SPECI KATL 211249Z 34009KT 10SM BKN032 BKN050 01/M02 A3041 RMK AO2 (CPS),FM-16,7,,,,,,,,,,,,,,,,,,,,,,,,,,,3/27/2007
72219013874,2020-02-21T07:52:00,FM-15,7,,,,,,,,,,,,,,,,,,,,,,,,,,,,,,,,,,,,,,,30.41,28,34,0,,,,79,30.43,FEW:02 15 BKN:07 35 BKN:07 50,29.3,10,32,330,,11,,,,,,,,,,,,,,,,,,,,,,,,,,,,,,,,,,,,,MET11402/21/20 07:52:02 METAR KATL 211252Z 33010KT 10SM FEW015 BKN035 BKN050 01/M02 A3041 RMK AO2 SLP306 T00111022 (CPS),FM-15,7,,,,,,,,,,,,,,,,,,,,,,,,,,,3/27/2007
72219013874,2020-02-21T08:52:00,FM-15,7,,,,,,,,,,,,,,,,,,,,,,,,,,,,,,,,,,,,,,,30.44,27,34,0,,,,75,30.46,FEW:02 35 SCT:04 46,29.33,10,31,340,,9,,,,,,,,,,,,,,,,,,,,,,,,,,,,,,,,,,,,,MET10702/21/20 08:52:02 METAR KATL 211352Z 34008KT 10SM FEW035 SCT046 01/M03 A3044 RMK AO2 SLP316 T00111028 (CPS),FM-15,7,,,,,,,,,,,,,,,,,,,,,,,,,,,3/27/2007
72219013874,2020-02-21T09:52:00,FM-15,7,,,,,,,,,,,,,,,,,,,,,,,,,,,,,,,,,,,,,,,30.46,27,37,0,,-0.05,3,67,30.48,FEW:02 34 SCT:04 46,29.35,10,33,340,,11,,,,,,,,,,,,,,,,,,,,,,,,,,,,,,,,,,,,,MET11302/21/20 09:52:02 METAR KATL 211452Z 34010KT 10SM FEW034 SCT046 03/M03 A3046 RMK AO2 SLP323 T00281028 53017 (KAF),FM-15,7,,,,,,,,,,,,,,,,,,,,,,,,,,,3/27/2007
72219013874,2020-02-21T10:52:00,FM-15,7,,,,,,,,,,,,,,,,,,,,,,,,,,,,,,,,,,,,,,,30.47,27,39,0,,,,62,30.49,FEW:02 32 SCT:04 42,29.36,10,34,350,,6,,,,,,,,,,,,,,,,,,,,,,,,,,,,,,,,,,,,,MET10702/21/20 10:52:02 METAR KATL 211552Z 35005KT 10SM FEW032 SCT042 04/M03 A3047 RMK AO2 SLP326 T00391028 (KAF),FM-15,7,,,,,,,,,,,,,,,,,,,,,,,,,,,3/27/2007
72219013874,2020-02-21T11:52:00,FM-15,7,,,,,,,,,,,,,,,,,,,,,,,,,,,,,,,,,,,,,,,30.48,28,42,0,,,,58,30.5,FEW:02 26 BKN:07 30,29.37,10,36,20,,8,,,,,,,,,,,,,,,,,,,,,,,,,,,,,,,,,,,,,MET10702/21/20 11:52:02 METAR KATL 211652Z 02007KT 10SM FEW026 BKN030 06/M02 A3048 RMK AO2 SLP327 T00561022 (KAF),FM-15,7,,,,,,,,,,,,,,,,,,,,,,,,,,,3/27/2007
72219013874,2020-02-21T12:52:00,FM-15,7,,,,,,,,,,,,,,,,,,,,,,,,,,,,,,,,,,,,,,,30.47,28,43,0,,0,0,56,30.48,BKN:07 34,29.36,10,37,20,,7,,,,,,,,,,,,,,,,,,,,,,,,,,,,,,,,,,,,,MET11802/21/20 12:52:02 METAR KATL 211752Z 02006KT 10SM BKN034 06/M02 A3047 RMK AO2 SLP323 T00611022 10061 20011 50001 (KAF),FM-15,7,,,,,,,,,,,,,,,,,,,,,,,,,,,3/27/2007
72219013874,2020-02-21T13:00:00,FM-12,4,,,,,,,,,,,,,,,,,,,,,,,,,,,,,,,,,,,,,,,,28,43,,,0,9,56,30.48,41,29.35,9.94,37,20,,7,,,,,,,,,,,,,,,,,,,,,,,,,,,,,,,,,,,,,SYN08072219 32666 60206 10061 21022 39940 40323 50001 91752 333 10061 20011 555 92118=,FM-12,4,,,,,,,,,,,,,,,,,,,,,,,,,,,3/27/2007
72219013874,2020-02-21T13:52:00,FM-15,7,,,,,,,,,,,,,,,,,,,,,,,,,,,,,,,,,,,,,,,30.44,28,44,0,,,,53,30.46,SCT:04 38 BKN:07 46,29.33,10,37,VRB,,8,,,,,,,,,,,,,,,,,,,,,,,,,,,,,,,,,,,,,MET10702/21/20 13:52:02 METAR KATL 211852Z 01007KT 10SM SCT038 BKN046 07/M02 A3044 RMK AO2 SLP315 T00671022 (KAF),FM-15,7,,,,,,,,,,,,,,,,,,,,,,,,,,,3/27/2007
72219013874,2020-02-21T14:52:00,FM-15,7,,,,,,,,,,,,,,,,,,,,,,,,,,,,,,,,,,,,,,,30.42,26,45,0,,,,48,30.44,FEW:02 38 BKN:07 44,29.31,10,37,360,,8,,,,,,,,,,,,,,,,,,,,,,,,,,,,,,,,,,,,,MET10702/21/20 14:52:02 METAR KATL 211952Z 36007KT 10SM FEW038 BKN044 07/M03 A3042 RMK AO2 SLP308 T00721033 (KAF),FM-15,7,,,,,,,,,,,,,,,,,,,,,,,,,,,3/27/2007
72219013874,2020-02-21T15:52:00,FM-15,7,,,,,,,,,,,,,,,,,,,,,,,,,,,,,,,,,,,,,,,30.41,27,47,0,,0.06,6,46,30.42,SCT:04 47,29.3,10,39,350,,10,,,,,,,,,,,,,,,,,,,,,,,,,,,,,,,,,,,,,MET10602/21/20 15:52:02 METAR KATL 212052Z 35009KT 10SM SCT047 08/M03 A3041 RMK AO2 SLP303 T00831028 56019 (KAF),FM-15,7,,,,,,,,,,,,,,,,,,,,,,,,,,,3/27/2007
72219013874,2020-02-21T16:52:00,FM-15,7,,,,,,,,,,,,,,,,,,,,,,,,,,,,,,,,,,,,,,,30.41,27,48,0,,,,44,30.42,FEW:02 48,29.3,10,39,360,,5,,,,,,,,,,,,,,,,,,,,,,,,,,,,,,,,,,,,,MET10002/21/20 16:52:02 METAR KATL 212152Z 36004KT 10SM FEW048 09/M03 A3041 RMK AO2 SLP303 T00891028 (KAF),FM-15,7,,,,,,,,,,,,,,,,,,,,,,,,,,,3/27/2007
72219013874,2020-02-21T17:52:00,FM-15,7,,,,,,,,,,,,,,,,,,,,,,,,,,,,,,,,,,,,,,,30.42,28,47,0,,,,48,30.44,FEW:02 45,29.31,10,39,300,,8,,,,,,,,,,,,,,,,,,,,,,,,,,,,,,,,,,,,,MET09902/21/20 17:52:02 METAR KATL 212252Z 30007KT 10SM FEW045 08/M02 A3042 RMK AO2 SLP308 T00831022 (RF),FM-15,7,,,,,,,,,,,,,,,,,,,,,,,,,,,3/27/2007
72219013874,2020-02-21T18:52:00,FM-15,7,,,,,,,,,,,,,,,,,,,,,,,,,,,,,,,,,,,,,,,30.44,28,44,0,,-0.03,3,53,30.46,CLR:00,29.33,10,37,310,,9,,,,,,,,,,,,,,,,,,,,,,,,,,,,,,,,,,,,,MET11402/21/20 18:52:02 METAR KATL 212352Z 31008KT 10SM CLR 07/M02 A3044 RMK AO2 SLP314 T00671022 10089 20061 53009 (RF),FM-15,7,,,,,,,,,,,,,,,,,,,,,,,,,,,3/27/2007
72219013874,2020-02-21T19:00:00,FM-12,4,,,,,,,,,,,,,,,,,,,,,,,,,,,,,,,,,,,,,,,,28,44,,,-0.03,3,53,30.46,,29.32,9.94,37,310,,9,,,,,,,,,,,,,,,,,,,,,,,,,,,,,,,,,,,,,SYN08072219 32966 03108 10067 21022 39930 40314 53009 92352 333 10089 20017 555 92200=,FM-12,4,,,,,,,,,,,,,,,,,,,,,,,,,,,3/27/2007
72219013874,2020-02-21T19:52:00,FM-15,7,,,,,,,,,,,,,,,,,,,,,,,,,,,,,,,,,,,,,,,30.45,28,42,0,,,,58,30.47,CLR:00,29.34,10,36,320,,9,,,,,,,,,,,,,,,,,,,,,,,,,,,,,,,,,,,,,MET09102/21/20 19:52:01 METAR KATL 220052Z 32008KT 10SM CLR 06/M02 A3045 RMK AO2 SLP319 T00561022,FM-15,7,,,,,,,,,,,,,,,,,,,,,,,,,,,3/27/2007
72219013874,2020-02-21T20:52:00,FM-15,7,,,,,,,,,,,,,,,,,,,,,,,,,,,,,,,,,,,,,,,30.46,27,41,0,,,,57,30.48,CLR:00,29.35,10,35,330,,8,,,,,,,,,,,,,,,,,,,,,,,,,,,,,,,,,,,,,MET09102/21/20 20:52:01 METAR KATL 220152Z 33007KT 10SM CLR 05/M03 A3046 RMK AO2 SLP322 T00501028,FM-15,7,,,,,,,,,,,,,,,,,,,,,,,,,,,3/27/2007
72219013874,2020-02-21T21:52:00,FM-15,7,,,,,,,,,,,,,,,,,,,,,,,,,,,,,,,,,,,,,,,30.47,26,40,0,,-0.03,1,58,30.49,CLR:00,29.36,10,35,340,,8,,,,,,,,,,,,,,,,,,,,,,,,,,,,,,,,,,,,,MET09702/21/20 21:52:01 METAR KATL 220252Z 34007KT 10SM CLR 04/M03 A3047 RMK AO2 SLP326 T00441033 51010,FM-15,7,,,,,,,,,,,,,,,,,,,,,,,,,,,3/27/2007
72219013874,2020-02-21T22:52:00,FM-15,7,,,,,,,,,,,,,,,,,,,,,,,,,,,,,,,,,,,,,,,30.45,23,39,0,,,,53,30.47,CLR:00,29.34,10,33,340,,6,,,,,,,,,,,,,,,,,,,,,,,,,,,,,,,,,,,,,MET09102/21/20 22:52:01 METAR KATL 220352Z 34005KT 10SM CLR 04/M05 A3045 RMK AO2 SLP319 T00391050,FM-15,7,,,,,,,,,,,,,,,,,,,,,,,,,,,3/27/2007
72219013874,2020-02-21T23:52:00,FM-15,7,,,,,,,,,,,,,,,,,,,,,,,,,,,,,,,,,,,,,,,30.45,23,37,0,,,,57,30.47,CLR:00,29.34,10,32,320,,3,,,,,,,,,,,,,,,,,,,,,,,,,,,,,,,,,,,,,MET10102/21/20 23:52:02 METAR KATL 220452Z 32003KT 10SM CLR 03/M05 A3045 RMK AO2 SLP318 T00281050 400890011,FM-15,7,,,,,,,,,,,,,,,,,,,,,,,,,,,3/27/2007
72219013874,2020-02-21T23:59:00,SOD  ,6,,,,,,,,,,,,,,,,,28,41,64,30.43,29.29,35,8.5,0,-7.5,24,48,34,320,18,0.01,0,0,340,15,RA DZ BR,,,,,,,,,,,,,,,,,,,,,,,,,,,,,,,,,,,,,,,,,,,,,,,,,,,,,,,SOD75624 HR PRECIPITATION (IN): 0.01 SNOW DEPTH (IN):0     24 HR SNOWFALL (IN):0.0  WEATHER(CODE):1  24 HR MAX TEMP (F): 4824 HR MIN TEMP (F): 34AVERAGE STATION PRESSURE:29.295 MINIMUM SEA LEVEL PRESSURE:30.34 TIME OF OCCURRENCE:0219 PEAK WIND SPEED (MPH): 18 PEAK WIND DIR (DEG):320 PEAK WIND TIME (LST):      FASTEST 2MIN SPEED (MPH): 15FASTEST 2MIN DIR (DEG):340 FASTEST 2MIN TIME (LST):     AVERAGE WIND SPEED (MPH): 8.5 24 HR AVG TEMP (F): 41DEPART FROM NORMAL: -7  HEATING DEGREE DAYS: 24 COOLING DEGREE DAYS:  0 LATEST DAY MAX TEMP (0700-1900 LST):48  LATEST NIGHT MIN TEMP(1900-0800 LST):34 HOURLY INCREMENTAL PRECIPITATION VALUES (IN):    T    T    0.01 0.00 0.00 0.00 0.00 0.00 0.00 0.00 0.00 0.00 0.00 0.00 0.00 0.00 0.00 0.00 0.00 0.00 0.00 0.00 0.00,SOD  ,6,,,,,,,,,,,,,,,,,,,,,,,,,716,1827,3/27/2007
72219013874,2020-02-22T00:52:00,FM-15,7,,,,,,,,,,,,,,,,,,,,,,,,,,,,,,,,,,,,,,,30.44,24,36,0,,0.03,6,62,30.46,CLR:00,29.33,10,32,0,,0,,,,,,,,,,,,,,,,,,,,,,,,,,,,,,,,,,,,,MET11402/22/20 00:52:02 METAR KATL 220552Z 00000KT 10SM CLR 02/M04 A3044 RMK AO2 SLP315 T00221044 10067 20017 56009 (DB),FM-15,7,,,,,,,,,,,,,,,,,,,,,,,,,,,3/27/2007
72219013874,2020-02-22T01:00:00,FM-12,4,,,,,,,,,,,,,,,,,,,,,,,,,,,,,,,,,,,,,,,,24,36,,,0.03,6,62,30.46,,29.32,9.94,32,0,,0,,,,,,,,,,,,,,,,,,,,,,,,,,,,,,,,,,,,,SYN08072219 32966 00000 10022 21044 39930 40315 56009 90552 333 10067 20017 555 92206=,FM-12,4,,,,,,,,,,,,,,,,,,,,,,,,,,,3/27/2007
72219013874,2020-02-22T01:52:00,FM-15,7,,,,,,,,,,,,,,,,,,,,,,,,,,,,,,,,,,,,,,,30.43,24,34,0,,,,67,30.45,CLR:00,29.32,10,30,0,,0,,,,,,,,,,,,,,,,,,,,,,,,,,,,,,,,,,,,,MET09602/22/20 01:52:02 METAR KATL 220652Z 00000KT 10SM CLR 01/M04 A3043 RMK AO2 SLP313 T00111044 (DB),FM-15,7,,,,,,,,,,,,,,,,,,,,,,,,,,,3/27/2007
72219013874,2020-02-22T02:52:00,FM-15,7,,,,,,,,,,,,,,,,,,,,,,,,,,,,,,,,,,,,,,,30.42,25,33,0,,,,72,30.44,CLR:00,29.31,10,30,0,,0,,,,,,,,,,,,,,,,,,,,,,,,,,,,,,,,,,,,,MET09602/22/20 02:52:02 METAR KATL 220752Z 00000KT 10SM CLR 01/M04 A3042 RMK AO2 SLP307 T00061039 (DB),FM-15,7,,,,,,,,,,,,,,,,,,,,,,,,,,,3/27/2007
72219013874,2020-02-22T03:52:00,FM-15,7,,,,,,,,,,,,,,,,,,,,,,,,,,,,,,,,,,,,,,,30.41,24,32,0,,0.03,6,73,30.43,CLR:00,29.3,10,29,310,,3,,,,,,,,,,,,,,,,,,,,,,,,,,,,,,,,,,,,,MET10202/22/20 03:52:02 METAR KATL 220852Z 31003KT 10SM CLR 00/M04 A3041 RMK AO2 SLP305 T00001044 56009 (DB),FM-15,7,,,,,,,,,,,,,,,,,,,,,,,,,,,3/27/2007
72219013874,2020-02-22T04:52:00,FM-15,7,,,,,,,,,,,,,,,,,,,,,,,,,,,,,,,,,,,,,,,30.41,24,31,0,,,,76,30.43,CLR:00,29.3,10,28,320,,5,,,,,,,,,,,,,,,,,,,,,,,,,,,,,,,,,,,,,MET09702/22/20 04:52:02 METAR KATL 220952Z 32004KT 10SM CLR M01/M04 A3041 RMK AO2 SLP305 T10061044 (DB),FM-15,7,,,,,,,,,,,,,,,,,,,,,,,,,,,3/27/2007
72219013874,2020-02-22T05:52:00,FM-15,7,,,,,,,,,,,,,,,,,,,,,,,,,,,,,,,,,,,,,,,30.43,23,31,0,,,,72,30.45,CLR:00,29.32,10,28,330,,6,,,,,,,,,,,,,,,,,,,,,,,,,,,,,,,,,,,,,MET09702/22/20 05:52:02 METAR KATL 221052Z 33005KT 10SM CLR M01/M05 A3043 RMK AO2 SLP313 T10061050 (DB),FM-15,7,,,,,,,,,,,,,,,,,,,,,,,,,,,3/27/2007
72219013874,2020-02-22T06:52:00,FM-15,7,,,,,,,,,,,,,,,,,,,,,,,,,,,,,,,,,,,,,,,30.45,23,31,0,,-0.03,3,72,30.47,CLR:00,29.34,10,28,310,,3,,,,,,,,,,,,,,,,,,,,,,,,,,,,,,,,,,,,,MET11502/22/20 06:52:02 METAR KATL 221152Z 31003KT 10SM CLR M01/M05 A3045 RMK AO2 SLP318 T10061050 10028 21011 53011 (DB),FM-15,7,,,,,,,,,,,,,,,,,,,,,,,,,,,3/27/2007
72219013874,2020-02-22T07:00:00,FM-12,4,,,,,,,,,,,,,,,,,,,,,,,,,,,,,,,,,,,,,,,,23,31,,,-0.03,3,72,30.47,,29.33,9.94,28,310,,3,,,,,,,,,,,,,,,,,,,,,,,,,,,,,,,,,,,,,SYN08072219 32966 03103 11006 21050 39933 40318 53011 91152 333 10089 21011 555 92212=,FM-12,4,,,,,,,,,,,,,,,,,,,,,,,,,,,3/27/2007
72219013874,2020-02-22T07:52:00,FM-15,7,,,,,,,,,,,,,,,,,,,,,,,,,,,,,,,,,,,,,,,30.46,24,31,0,,,,76,30.49,CLR:00,29.35,10,29,320,,3,,,,,,,,,,,,,,,,,,,,,,,,,,,,,,,,,,,,,MET09702/22/20 07:52:02 METAR KATL 221252Z 32003KT 10SM CLR M01/M04 A3046 RMK AO2 SLP324 T10061044 (DB),FM-15,7,,,,,,,,,,,,,,,,,,,,,,,,,,,3/27/2007
72219013874,2020-02-22T08:52:00,FM-15,7,,,,,,,,,,,,,,,,,,,,,,,,,,,,,,,,,,,,,,,30.49,26,36,0,,,,67,30.51,CLR:00,29.38,10,32,310,,5,,,,,,,,,,,,,,,,,,,,,,,,,,,,,,,,,,,,,MET09602/22/20 08:52:02 METAR KATL 221352Z 31004KT 10SM CLR 02/M03 A3049 RMK AO2 SLP333 T00221033 (DB),FM-15,7,,,,,,,,,,,,,,,,,,,,,,,,,,,3/27/2007
72219013874,2020-02-22T09:52:00,FM-15,7,,,,,,,,,,,,,,,,,,,,,,,,,,,,,,,,,,,,,,,30.49,25,41,0,,-0.04,0,53,30.5,FEW:02 250,29.38,10,35,0,,0,,,,,,,,,,,,,,,,,,,,,,,,,,,,,,,,,,,,,MET10502/22/20 09:52:02 METAR KATL 221452Z 00000KT 10SM FEW250 05/M04 A3049 RMK AO2 SLP330 T00501039 50013 (KM),FM-15,7,,,,,,,,,,,,,,,,,,,,,,,,,,,3/27/2007
72219013874,2020-02-22T10:52:00,FM-15,7,,,,,,,,,,,,,,,,,,,,,,,,,,,,,,,,,,,,,,,30.49,26,46,0,,,,46,30.5,SCT:04 250,29.38,10,38,VRB,,3,,,,,,,,,,,,,,,,,,,,,,,,,,,,,,,,,,,,,MET09902/22/20 10:52:02 METAR KATL 221552Z VRB03KT 10SM SCT250 08/M03 A3049 RMK AO2 SLP330 T00781033 (KM),FM-15,7,,,,,,,,,,,,,,,,,,,,,,,,,,,3/27/2007
72219013874,2020-02-22T11:52:00,FM-15,7,,,,,,,,,,,,,,,,,,,,,,,,,,,,,,,,,,,,,,,30.48,27,48,0,,,,44,30.49,SCT:04 250,29.37,10,39,260,,5,,,,,,,,,,,,,,,,,,,,,,,,,,,,,,,,,,,,,MET09902/22/20 11:52:02 METAR KATL 221652Z 26004KT 10SM SCT250 09/M03 A3048 RMK AO2 SLP325 T00891028 (KM),FM-15,7,,,,,,,,,,,,,,,,,,,,,,,,,,,3/27/2007
72219013874,2020-02-22T12:52:00,FM-15,7,,,,,,,,,,,,,,,,,,,,,,,,,,,,,,,,,,,,,,,30.45,25,49,0,,0.04,8,39,30.47,SCT:04 250,29.34,10,39,0,,0,,,,,,,,,,,,,,,,,,,,,,,,,,,,,,,,,,,,,MET11702/22/20 12:52:02 METAR KATL 221752Z 00000KT 10SM SCT250 09/M04 A3045 RMK AO2 SLP317 T00941039 10106 21011 58012 (KM),FM-15,7,,,,,,,,,,,,,,,,,,,,,,,,,,,3/27/2007
72219013874,2020-02-22T13:00:00,FM-12,4,,,,,,,,,,,,,,,,,,,,,,,,,,,,,,,,,,,,,,,,25,49,,,0.04,8,39,30.47,,29.33,9.94,39,0,,0,,,,,,,,,,,,,,,,,,,,,,,,,,,,,,,,,,,,,SYN08072219 32966 40000 10094 21039 39933 40317 58012 91752 333 10106 21011 555 92218=,FM-12,4,,,,,,,,,,,,,,,,,,,,,,,,,,,3/27/2007
72219013874,2020-02-22T13:52:00,FM-15,7,,,,,,,,,,,,,,,,,,,,,,,,,,,,,,,,,,,,,,,30.41,26,52,0,,,,37,30.42,SCT:04 250,29.3,10,41,VRB,,3,,,,,,,,,,,,,,,,,,,,,,,,,,,,,,,,,,,,,MET09902/22/20 13:52:02 METAR KATL 221852Z VRB03KT 10SM SCT250 11/M03 A3041 RMK AO2 SLP303 T01111033 (KM),FM-15,7,,,,,,,,,,,,,,,,,,,,,,,,,,,3/27/2007
72219013874,2020-02-22T14:52:00,FM-15,7,,,,,,,,,,,,,,,,,,,,,,,,,,,,,,,,,,,,,,,30.38,27,55,0,,,,34,30.4,SCT:04 250,29.27,10,43,0,,0,,,,,,,,,,,,,,,,,,,,,,,,,,,,,,,,,,,,,MET09902/22/20 14:52:02 METAR KATL 221952Z 00000KT 10SM SCT250 13/M03 A3038 RMK AO2 SLP293 T01281028 (KM),FM-15,7,,,,,,,,,,,,,,,,,,,,,,,,,,,3/27/2007
72219013874,2020-02-22T15:52:00,FM-15,7,,,,,,,,,,,,,,,,,,,,,,,,,,,,,,,,,,,,,,,30.36,25,55,0,,0.09,6,31,30.37,FEW:02 150 SCT:04 250,29.25,10,42,0,,0,,,,,,,,,,,,,,,,,,,,,,,,,,,,,,,,,,,,,MET11202/22/20 15:52:02 METAR KATL 222052Z 00000KT 10SM FEW150 SCT250 13/M04 A3036 RMK AO2 SLP286 T01281039 56029 (KM),FM-15,7,,,,,,,,,,,,,,,,,,,,,,,,,,,3/27/2007
72219013874,2020-02-22T16:52:00,FM-15,7,,,,,,,,,,,,,,,,,,,,,,,,,,,,,,,,,,,,,,,30.34,24,55,0,,,,30,30.36,FEW:02 150 SCT:04 250,29.23,10,42,VRB,,5,,,,,,,,,,,,,,,,,,,,,,,,,,,,,,,,,,,,,MET10602/22/20 16:52:02 METAR KATL 222152Z VRB04KT 10SM FEW150 SCT250 13/M04 A3034 RMK AO2 SLP280 T01281044 (KM),FM-15,7,,,,,,,,,,,,,,,,,,,,,,,,,,,3/27/2007
