STATION,DATE,LATITUDE,LONGITUDE,ELEVATION,NAME,REPORT_TYPE,SOURCE,HourlyAltimeterSetting,HourlyDewPointTemperature,HourlyDryBulbTemperature,HourlyPrecipitation,HourlyPresentWeatherType,HourlyPressureChange,HourlyPressureTendency,HourlyRelativeHumidity,HourlySkyConditions,HourlySeaLevelPressure,HourlyStationPressure,HourlyVisibility,HourlyWetBulbTemperature,HourlyWindDirection,HourlyWindGustSpeed,HourlyWindSpeed,Sunrise,Sunset,DailyAverageDewPointTemperature,DailyAverageDryBulbTemperature,DailyAverageRelativeHumidity,DailyAverageSeaLevelPressure,DailyAverageStationPressure,DailyAverageWetBulbTemperature,DailyAverageWindSpeed,DailyCoolingDegreeDays,DailyDepartureFromNormalAverageTemperature,DailyHeatingDegreeDays,DailyMaximumDryBulbTemperature,DailyMinimumDryBulbTemperature,DailyPeakWindDirection,DailyPeakWindSpeed,DailyPrecipitation,DailySnowDepth,DailySnowfall,DailySustainedWindDirection,DailySustainedWindSpeed,DailyWeather,MonthlyAverageRH,MonthlyDaysWithGT001Precip,MonthlyDaysWithGT010Precip,MonthlyDaysWithGT32Temp,MonthlyDaysWithGT90Temp,MonthlyDaysWithLT0Temp,MonthlyDaysWithLT32Temp,MonthlyDepartureFromNormalAverageTemperature,MonthlyDepartureFromNormalCoolingDegreeDays,MonthlyDepartureFromNormalHeatingDegreeDays,MonthlyDepartureFromNormalMaximumTemperature,MonthlyDepartureFromNormalMinimumTemperature,MonthlyDepartureFromNormalPrecipitation,MonthlyDewpointTemperature,MonthlyGreatestPrecip,MonthlyGreatestPrecipDate,MonthlyGreatestSnowDepth,MonthlyGreatestSnowDepthDate,MonthlyGreatestSnowfall,MonthlyGreatestSnowfallDate,MonthlyMaxSeaLevelPressureValue,MonthlyMaxSeaLevelPressureValueDate,MonthlyMaxSeaLevelPressureValueTime,MonthlyMaximumTemperature,MonthlyMeanTemperature,MonthlyMinSeaLevelPressureValue,MonthlyMinSeaLevelPressureValueDate,MonthlyMinSeaLevelPressureValueTime,MonthlyMinimumTemperature,MonthlySeaLevelPressure,MonthlyStationPressure,MonthlyTotalLiquidPrecipitation,MonthlyTotalSnowfall,MonthlyWetBulb,MonthlyAverageWindSpeed,CoolingDegreeDaysSeasonToDate,MonthlyCoolingDegreeDays,MonthlyNumberDaysWithSnowfall,HeatingDegreeDaysSeasonToDate,MonthlyHeatingDegreeDays,MonthlyNumberDaysWithThunderstorms,MonthlyNumberDaysWithHeavyFog,NormalsCoolingDegreeDay,NormalsHeatingDegreeDay,ShortDurationEndDate005,ShortDurationEndDate010,ShortDurationEndDate015,ShortDurationEndDate020,ShortDurationEndDate030,ShortDurationEndDate045,ShortDurationEndDate060,ShortDurationEndDate080,ShortDurationEndDate100,ShortDurationEndDate120,ShortDurationEndDate150,ShortDurationEndDate180,ShortDurationPrecipitationValue005,ShortDurationPrecipitationValue010,ShortDurationPrecipitationValue015,ShortDurationPrecipitationValue020,ShortDurationPrecipitationValue030,ShortDurationPrecipitationValue045,ShortDurationPrecipitationValue060,ShortDurationPrecipitationValue080,ShortDurationPrecipitationValue100,ShortDurationPrecipitationValue120,ShortDurationPrecipitationValue150,ShortDurationPrecipitationValue180,REM,BackupDirection,BackupDistance,BackupDistanceUnit,BackupElements,BackupElevation,BackupEquipment,BackupLatitude,BackupLongitude,BackupName,WindEquipmentChangeDate
USW00014939,2023-01-01T00:00:00,40.8508,-96.7475,362.7,"LINCOLN AIRPORT, NE US",FM-12,223,,-3.3,-2.2,,,1.6,1,92,,1010,966.3,,-2.6,,,0,,,,,,,,,,,,,,,,,,,,,,,,,,,,,,,,,,,,,,,,,,,,,,,,,,,,,,,,,,,,,,,,,,,,,,,,,,,,,,,,,,,,,,,,,,,SYN08072551 32964 00000 11022 21033 39663 40100 51016 90554 333 10067 21028 555 90106=,,,,,,,,,,3/26/2007
USW00014939,2023-01-01T00:00:00,40.8508,-96.7475,362.7,"LINCOLN AIRPORT, NE US",SOD,,,,,,,,,,,,,,,,,,751,1709,-2.2,3.1,73,1014.2,970.9,0.6,2.9,0,6.71,15.2,10,-3.8,60,8.1,0,0,0,60,6.3,BR,,,,,,,,,,,,,,,,,,,,,,,,,,,,,,,,,,,,,,,,,,,,,,,,,,,,,,,,,,,,,,,,,,,,,,,,,,,,,,,3/26/2007
USW00014939,2023-01-01T00:00:00,40.8508,-96.7475,362.7,"LINCOLN AIRPORT, NE US",SOM,,,,,,,,,,,,,,,,,,,,,,,,,,,,,,,,,,,,,,,,75,5,3,30,0,0,9,2.03,0,-62.88,0.84,3.23,15,-5.77,21.3,18-19,30,22,38,18-19,1037.6,30,1054,2.84,-1.86,992.5,16,554,-6.55,1018.3,974,33.5,51,-3.15,3.9,0,0,1,1960.2,625.9,1,2,0,1239.8,1/3/2023 3:36,1/3/2023 3:37,1/2/2023 16:23,1/2/2023 16:28,1/2/2023 16:28,1/2/2023 16:28,1/2/2023 16:34,1/2/2023 16:34,1/18/2023 14:33,1/18/2023 14:21,1/18/2023 14:33,1/18/2023 14:27,1.5,2,2.3,2.8,3.8,5.1,5.6,5.6,5.8,7.1,8.6,10.4,,,,,,,,,,,3/26/2007
USW00014939,2023-01-01T00:54:00,40.8508,-96.7475,362.7,"LINCOLN AIRPORT, NE US",FM-15,343,1009.1,-5,-3.3,0,,,,88,CLR:00,1010.2,966.5,12.875,-3.9,10,,2.6,,,,,,,,,,,,,,,,,,,,,,,,,,,,,,,,,,,,,,,,,,,,,,,,,,,,,,,,,,,,,,,,,,,,,,,,,,,,,,,,,,,,,,,,,,,MET09601/01/23 00:54:02 METAR KLNK 010654Z 01005KT 8SM CLR M03/M05 A2980 RMK AO2 SLP102 T10331050 (CK),,,,,,,,,,3/26/2007
USW00014939,2023-01-01T01:54:00,40.8508,-96.7475,362.7,"LINCOLN AIRPORT, NE US",FM-15,343,1009.8,-3.3,-2.2,0,,,,92,CLR:00,1010.4,967.2,16.093,-2.6,,,0,,,,,,,,,,,,,,,,,,,,,,,,,,,,,,,,,,,,,,,,,,,,,,,,,,,,,,,,,,,,,,,,,,,,,,,,,,,,,,,,,,,,,,,,,,,MET09701/01/23 01:54:02 METAR KLNK 010754Z 00000KT 10SM CLR M02/M03 A2982 RMK AO2 SLP104 T10221033 (CK),,,,,,,,,,3/26/2007
USW00014939,2023-01-01T02:54:00,40.8508,-96.7475,362.7,"LINCOLN AIRPORT, NE US",FM-15,343,1010.5,-3.3,-2.2,0,,1.1,3,92,CLR:00,1011,967.8,12.875,-2.6,,,0,,,,,,,,,,,,,,,,,,,,,,,,,,,,,,,,,,,,,,,,,,,,,,,,,,,,,,,,,,,,,,,,,,,,,,,,,,,,,,,,,,,,,,,,,,,MET10201/01/23 02:54:02 METAR KLNK 010854Z 00000KT 8SM CLR M02/M03 A2984 RMK AO2 SLP110 T10221033 53011 (CK),,,,,,,,,,3/26/2007
USW00014939,2023-01-01T03:54:00,40.8508,-96.7475,362.7,"LINCOLN AIRPORT, NE US",FM-15,343,1010.8,-2.8,-1.1,0,,,,88,SCT:04 33.53,1011.5,968.2,12.875,-1.7,330,,2.6,,,,,,,,,,,,,,,,,,,,,,,,,,,,,,,,,,,,,,,,,,,,,,,,,,,,,,,,,,,,,,,,,,,,,,,,,,,,,,,,,,,,,,,,,,,MET09901/01/23 03:54:02 METAR KLNK 010954Z 33005KT 8SM SCT110 M01/M03 A2985 RMK AO2 SLP115 T10111028 (CK),,,,,,,,,,3/26/2007
USW00014939,2023-01-01T04:54:00,40.8508,-96.7475,362.7,"LINCOLN AIRPORT, NE US",FM-15,343,1010.8,-3.3,-1.7,0,,,,89,FEW:02 33.53,1011.3,968.2,12.875,-2.3,350,,2.6,,,,,,,,,,,,,,,,,,,,,,,,,,,,,,,,,,,,,,,,,,,,,,,,,,,,,,,,,,,,,,,,,,,,,,,,,,,,,,,,,,,,,,,,,,,MET09901/01/23 04:54:02 METAR KLNK 011054Z 35005KT 8SM FEW110 M02/M03 A2985 RMK AO2 SLP113 T10171033 (CK),,,,,,,,,,3/26/2007
USW00014939,2023-01-01T05:54:00,40.8508,-96.7475,362.7,"LINCOLN AIRPORT, NE US",FM-15,343,1010.8,-2.8,-1.1,0,,0.4,1,88,CLR:00,1011.6,968.2,12.875,-1.7,360,,2.1,,,,,,,,,,,,,,,,,,,,,,,,,,,,,,,,,,,,,,,,,,,,,,,,,,,,,,,,,,,,,,,,,,,,,,,,,,,,,,,,,,,,,,,,,,,MET11401/01/23 05:54:02 METAR KLNK 011154Z 36004KT 8SM CLR M01/M03 A2985 RMK AO2 SLP116 T10111028 11006 21039 51004 (SD),,,,,,,,,,3/26/2007
USW00014939,2023-01-01T06:00:00,40.8508,-96.7475,362.7,"LINCOLN AIRPORT, NE US",FM-12,223,,-2.8,-1.1,,,0.4,1,88,,1011.6,967.9,,-1.7,360,,2.1,,,,,,,,,,,,,,,,,,,,,,,,,,,,,,,,,,,,,,,,,,,,,,,,,,,,,,,,,,,,,,,,,,,,,,,,,,,,,,,,,,,,,,,,,,,SYN08072551 32962 03604 11011 21028 39679 40116 51004 91154 333 10106 21039 555 90112=,,,,,,,,,,3/26/2007
USW00014939,2023-01-01T06:54:00,40.8508,-96.7475,362.7,"LINCOLN AIRPORT, NE US",FM-15,343,1011.5,-2.2,-1.1,0,,,,92,CLR:00,1012.4,968.8,11.265,-1.5,,,0,,,,,,,,,,,,,,,,,,,,,,,,,,,,,,,,,,,,,,,,,,,,,,,,,,,,,,,,,,,,,,,,,,,,,,,,,,,,,,,,,,,,,,,,,,,MET09601/01/23 06:54:02 METAR KLNK 011254Z 00000KT 7SM CLR M01/M02 A2987 RMK AO2 SLP124 T10111022 (SD),,,,,,,,,,3/26/2007
USW00014939,2023-01-01T07:54:00,40.8508,-96.7475,362.7,"LINCOLN AIRPORT, NE US",FM-15,343,1012.9,-2.2,-0.6,0,,,,89,CLR:00,1013.6,970.1,12.875,-1.2,320,,1.5,,,,,,,,,,,,,,,,,,,,,,,,,,,,,,,,,,,,,,,,,,,,,,,,,,,,,,,,,,,,,,,,,,,,,,,,,,,,,,,,,,,,,,,,,,,MET09601/01/23 07:54:02 METAR KLNK 011354Z 32003KT 8SM CLR M01/M02 A2991 RMK AO2 SLP136 T10061022 (SD),,,,,,,,,,3/26/2007
USW00014939,2023-01-01T08:54:00,40.8508,-96.7475,362.7,"LINCOLN AIRPORT, NE US",FM-15,343,1013.2,-1.7,0,0,BR:1 |BR |,2.2,1,88,SCT:04 36.58,1014,970.4,9.656,-0.6,360,,2.6,,,,,,,,,,,,,,,,,,,,,,,,,,,,,,,,,,,,,,,,,,,,,,,,,,,,,,,,,,,,,,,,,,,,,,,,,,,,,,,,,,,,,,,,,,,MET10701/01/23 08:54:02 METAR KLNK 011454Z 36005KT 6SM BR SCT120 00/M02 A2992 RMK AO2 SLP140 T00001017 51022 (SD),,,,,,,,,,3/26/2007
USW00014939,2023-01-01T09:54:00,40.8508,-96.7475,362.7,"LINCOLN AIRPORT, NE US",FM-15,343,1013.2,0,2.8,0,,,,82,CLR:00,1014.1,970.4,12.875,1.6,30,,2.6,,,,,,,,,,,,,,,,,,,,,,,,,,,,,,,,,,,,,,,,,,,,,,,,,,,,,,,,,,,,,,,,,,,,,,,,,,,,,,,,,,,,,,,,,,,MET09401/01/23 09:54:02 METAR KLNK 011554Z 03005KT 8SM CLR 03/00 A2992 RMK AO2 SLP141 T00280000 (SD),,,,,,,,,,3/26/2007
USW00014939,2023-01-01T10:54:00,40.8508,-96.7475,362.7,"LINCOLN AIRPORT, NE US",FM-15,343,1013.5,0,5.6,0,,,,68,CLR:00,1014.4,970.8,16.093,3.2,30,,2.6,,,,,,,,,,,,,,,,,,,,,,,,,,,,,,,,,,,,,,,,,,,,,,,,,,,,,,,,,,,,,,,,,,,,,,,,,,,,,,,,,,,,,,,,,,,MET09501/01/23 10:54:02 METAR KLNK 011654Z 03005KT 10SM CLR 06/00 A2993 RMK AO2 SLP144 T00560000 (SD),,,,,,,,,,3/26/2007
USW00014939,2023-01-01T11:54:00,40.8508,-96.7475,362.7,"LINCOLN AIRPORT, NE US",FM-15,343,1014.2,-0.6,6.7,0,,1.2,3,60,FEW:02 36.58,1015.2,971.4,16.093,3.6,110,,2.1,,,,,,,,,,,,,,,,,,,,,,,,,,,,,,,,,,,,,,,,,,,,,,,,,,,,,,,,,,,,,,,,,,,,,,,,,,,,,,,,,,,,,,,,,,,MET11701/01/23 11:54:02 METAR KLNK 011754Z 11004KT 10SM FEW120 07/M01 A2995 RMK AO2 SLP152 T00671006 10067 21011 53012 (SD),,,,,,,,,,3/26/2007
USW00014939,2023-01-01T12:00:00,40.8508,-96.7475,362.7,"LINCOLN AIRPORT, NE US",FM-12,223,,-0.6,6.7,,,1.2,3,60,,1015.2,971.2,,3.6,110,,2.1,,,,,,,,,,,,,,,,,,,,,,,,,,,,,,,,,,,,,,,,,,,,,,,,,,,,,,,,,,,,,,,,,,,,,,,,,,,,,,,,,,,,,,,,,,,SYN08072551 32966 21104 10067 21006 39712 40152 53012 91754 333 10067 21011 555 90118=,,,,,,,,,,3/26/2007
USW00014939,2023-01-01T12:54:00,40.8508,-96.7475,362.7,"LINCOLN AIRPORT, NE US",FM-15,343,1014.2,-1.7,9.4,0,,,,46,CLR:00,1014.8,971.4,16.093,4.7,60,,3.1,,,,,,,,,,,,,,,,,,,,,,,,,,,,,,,,,,,,,,,,,,,,,,,,,,,,,,,,,,,,,,,,,,,,,,,,,,,,,,,,,,,,,,,,,,,MET09601/01/23 12:54:02 METAR KLNK 011854Z 06006KT 10SM CLR 09/M02 A2995 RMK AO2 SLP148 T00941017 (SD),,,,,,,,,,3/26/2007
USW00014939,2023-01-01T13:54:00,40.8508,-96.7475,362.7,"LINCOLN AIRPORT, NE US",FM-15,343,1013.2,-3.3,9.4,0,,,,41,OVC:08 36.58,1014,970.4,16.093,4.1,40,,5.7,,,,,,,,,,,,,,,,,,,,,,,,,,,,,,,,,,,,,,,,,,,,,,,,,,,,,,,,,,,,,,,,,,,,,,,,,,,,,,,,,,,,,,,,,,,MET09901/01/23 13:54:02 METAR KLNK 011954Z 04011KT 10SM OVC120 09/M03 A2992 RMK AO2 SLP140 T00941033 (JJ),,,,,,,,,,3/26/2007
USW00014939,2023-01-01T14:54:00,40.8508,-96.7475,362.7,"LINCOLN AIRPORT, NE US",FM-15,343,1012.9,-2.8,8.9,0,,-1.4,8,44,FEW:02 36.58,1013.6,970.1,16.093,4,60,,5.1,,,,,,,,,,,,,,,,,,,,,,,,,,,,,,,,,,,,,,,,,,,,,,,,,,,,,,,,,,,,,,,,,,,,,,,,,,,,,,,,,,,,,,,,,,,MET10501/01/23 14:54:02 METAR KLNK 012054Z 06010KT 10SM FEW120 09/M03 A2991 RMK AO2 SLP136 T00891028 58014 (JJ),,,,,,,,,,3/26/2007
USW00014939,2023-01-01T15:54:00,40.8508,-96.7475,362.7,"LINCOLN AIRPORT, NE US",FM-15,343,1013.5,-2.8,8.3,0,,,,46,FEW:02 30.48,1014,970.8,16.093,3.7,50,,3.1,,,,,,,,,,,,,,,,,,,,,,,,,,,,,,,,,,,,,,,,,,,,,,,,,,,,,,,,,,,,,,,,,,,,,,,,,,,,,,,,,,,,,,,,,,,MET09901/01/23 15:54:02 METAR KLNK 012154Z 05006KT 10SM FEW100 08/M03 A2993 RMK AO2 SLP140 T00831028 (JJ),,,,,,,,,,3/26/2007
USW00014939,2023-01-01T16:54:00,40.8508,-96.7475,362.7,"LINCOLN AIRPORT, NE US",FM-15,343,1014.6,-3.3,5,0,,,,55,SCT:04 30.48,1015.6,971.8,16.093,1.7,360,,4.1,,,,,,,,,,,,,,,,,,,,,,,,,,,,,,,,,,,,,,,,,,,,,,,,,,,,,,,,,,,,,,,,,,,,,,,,,,,,,,,,,,,,,,,,,,,MET09901/01/23 16:54:02 METAR KLNK 012254Z 36008KT 10SM SCT100 05/M03 A2996 RMK AO2 SLP156 T00501033 (JJ),,,,,,,,,,3/26/2007
USW00014939,2023-01-01T17:54:00,40.8508,-96.7475,362.7,"LINCOLN AIRPORT, NE US",FM-15,343,1015.6,-2.8,2.8,0,,2.6,3,67,CLR:00,1016.5,972.7,16.093,0.6,350,,4.1,,,,,,,,,,,,,,,,,,,,,,,,,,,,,,,,,,,,,,,,,,,,,,,,,,,,,,,,,,,,,,,,,,,,,,,,,,,,,,,,,,,,,,,,,,,MET11401/01/23 17:54:02 METAR KLNK 012354Z 35008KT 10SM CLR 03/M03 A2999 RMK AO2 SLP165 T00281028 10100 20022 53026 (JJ),,,,,,,,,,3/26/2007
USW00014939,2023-01-01T18:00:00,40.8508,-96.7475,362.7,"LINCOLN AIRPORT, NE US",FM-12,223,,-2.8,2.8,,,2.6,3,67,,1016.5,972.5,,0.6,350,,4.1,,,,,,,,,,,,,,,,,,,,,,,,,,,,,,,,,,,,,,,,,,,,,,,,,,,,,,,,,,,,,,,,,,,,,,,,,,,,,,,,,,,,,,,,,,,SYN08072551 32966 03508 10028 21028 39725 40165 53026 92354 333 10100 21038 555 90200=,,,,,,,,,,3/26/2007
USW00014939,2023-01-01T18:54:00,40.8508,-96.7475,362.7,"LINCOLN AIRPORT, NE US",FM-15,343,1015.9,-2.8,1.7,0,,,,72,SCT:04 30.48,1017,973.1,16.093,0,350,,3.1,,,,,,,,,,,,,,,,,,,,,,,,,,,,,,,,,,,,,,,,,,,,,,,,,,,,,,,,,,,,,,,,,,,,,,,,,,,,,,,,,,,,,,,,,,,MET09401/01/23 18:54:01 METAR KLNK 020054Z 35006KT 10SM SCT100 02/M03 A3000 RMK AO2 SLP170 T00171028,,,,,,,,,,3/26/2007
USW00014939,2023-01-01T19:54:00,40.8508,-96.7475,362.7,"LINCOLN AIRPORT, NE US",FM-15,343,1015.9,-2.8,1.7,0,,,,72,FEW:02 28.96,1017,973.1,16.093,0,350,,3.6,,,,,,,,,,,,,,,,,,,,,,,,,,,,,,,,,,,,,,,,,,,,,,,,,,,,,,,,,,,,,,,,,,,,,,,,,,,,,,,,,,,,,,,,,,,MET09401/01/23 19:54:01 METAR KLNK 020154Z 35007KT 10SM FEW095 02/M03 A3000 RMK AO2 SLP170 T00171028,,,,,,,,,,3/26/2007
USW00014939,2023-01-01T20:54:00,40.8508,-96.7475,362.7,"LINCOLN AIRPORT, NE US",FM-15,343,1015.6,-1.7,2.2,0,,0.2,0,76,CLR:00,1016.7,972.7,16.093,0.7,20,,4.6,,,,,,,,,,,,,,,,,,,,,,,,,,,,,,,,,,,,,,,,,,,,,,,,,,,,,,,,,,,,,,,,,,,,,,,,,,,,,,,,,,,,,,,,,,,MET09701/01/23 20:54:01 METAR KLNK 020254Z 02009KT 10SM CLR 02/M02 A2999 RMK AO2 SLP167 T00221017 50002,,,,,,,,,,3/26/2007
USW00014939,2023-01-01T21:54:00,40.8508,-96.7475,362.7,"LINCOLN AIRPORT, NE US",FM-15,343,1015.2,-1.7,2.2,0,,,,76,CLR:00,1016.2,972.4,16.093,0.7,40,,5.1,,,,,,,,,,,,,,,,,,,,,,,,,,,,,,,,,,,,,,,,,,,,,,,,,,,,,,,,,,,,,,,,,,,,,,,,,,,,,,,,,,,,,,,,,,,MET09101/01/23 21:54:02 METAR KLNK 020354Z 04010KT 10SM CLR 02/M02 A2998 RMK AO2 SLP162 T00221017,,,,,,,,,,3/26/2007
USW00014939,2023-01-01T22:54:00,40.8508,-96.7475,362.7,"LINCOLN AIRPORT, NE US",FM-15,343,1015.6,-1.7,2.8,0,,,,73,CLR:00,1016.2,972.7,16.093,1,30,,2.1,,,,,,,,,,,,,,,,,,,,,,,,,,,,,,,,,,,,,,,,,,,,,,,,,,,,,,,,,,,,,,,,,,,,,,,,,,,,,,,,,,,,,,,,,,,MET09101/01/23 22:54:02 METAR KLNK 020454Z 03004KT 10SM CLR 03/M02 A2999 RMK AO2 SLP162 T00281017,,,,,,,,,,3/26/2007
USW00014939,2023-01-01T23:54:00,40.8508,-96.7475,362.7,"LINCOLN AIRPORT, NE US",FM-15,343,1015.2,-2.2,1.1,0,,-0.6,8,79,CLR:00,1015.8,972.4,16.093,-0.2,40,,4.1,,,,,,,,,,,,,,,,,,,,,,,,,,,,,,,,,,,,,,,,,,,,,,,,,,,,,,,,,,,,,,,,,,,,,,,,,,,,,,,,,,,,,,,,,,,MET11901/01/23 23:54:02 METAR KLNK 020554Z 04008KT 10SM CLR 01/M02 A2998 RMK AO2 SLP158 T00111022 10028 20000 401001039 58006,,,,,,,,,,3/26/2007
USW00014939,2023-01-02T00:00:00,40.8508,-96.7475,362.7,"LINCOLN AIRPORT, NE US",FM-12,223,,-2.2,1.1,,,-0.6,8,79,,1015.8,972.2,,-0.2,40,,4.1,,,,,,,,,,,,,,,,,,,,,,,,,,,,,,,,,,,,,,,,,,,,,,,,,,,,,,,,,,,,,,,,,,,,,,,,,,,,,,,,,,,,,,,,,,,SYN08072551 35966 00408 10011 21022 39722 40158 58006 90554 333 10028 21038 555 90206=,,,,,,,,,,3/26/2007
USW00014939,2023-01-02T00:00:00,40.8508,-96.7475,362.7,"LINCOLN AIRPORT, NE US",SOD,,,,,,,,,,,,,,,,,,752,1710,-1.1,1.4,84,1011.9,967.2,0.6,4.7,0,5.07,16.9,3.3,-0.5,80,12.5,7.6,0,T,20,9.4,BR RA,,,,,,,,,,,,,,,,,,,,,,,,,,,,,,,,,,,,,,,,,,,,,,,,,,,,,,,,,,,,,,,,,,,,,,,,,,,,,,,3/26/2007
USW00014939,2023-01-02T00:54:00,40.8508,-96.7475,362.7,"LINCOLN AIRPORT, NE US",FM-15,343,1015.9,-2.2,1.1,0,,,,79,CLR:00,1016.3,973.1,16.093,-0.2,340,,1.5,,,,,,,,,,,,,,,,,,,,,,,,,,,,,,,,,,,,,,,,,,,,,,,,,,,,,,,,,,,,,,,,,,,,,,,,,,,,,,,,,,,,,,,,,,,MET09101/02/23 00:54:02 METAR KLNK 020654Z 34003KT 10SM CLR 01/M02 A3000 RMK AO2 SLP163 T00111022,,,,,,,,,,3/26/2007
USW00014939,2023-01-02T01:54:00,40.8508,-96.7475,362.7,"LINCOLN AIRPORT, NE US",FM-15,343,1015.6,-2.2,0,0,,,,85,CLR:00,1016,972.7,16.093,-0.8,340,,2.1,,,,,,,,,,,,,,,,,,,,,,,,,,,,,,,,,,,,,,,,,,,,,,,,,,,,,,,,,,,,,,,,,,,,,,,,,,,,,,,,,,,,,,,,,,,MET09101/02/23 01:54:02 METAR KLNK 020754Z 34004KT 10SM CLR 00/M02 A2999 RMK AO2 SLP160 T00001022,,,,,,,,,,3/26/2007
USW00014939,2023-01-02T02:54:00,40.8508,-96.7475,362.7,"LINCOLN AIRPORT, NE US",FM-15,343,1016.9,-2.2,1.1,0,,1.8,3,79,CLR:00,1017.5,974,16.093,-0.2,320,,2.1,,,,,,,,,,,,,,,,,,,,,,,,,,,,,,,,,,,,,,,,,,,,,,,,,,,,,,,,,,,,,,,,,,,,,,,,,,,,,,,,,,,,,,,,,,,MET10401/02/23 02:54:02 METAR KLNK 020854Z 32004KT 10SM CLR 01/M02 A3003 RMK AO2 PRESRR SLP175 T00111022 53018,,,,,,,,,,3/26/2007
USW00014939,2023-01-02T03:54:00,40.8508,-96.7475,362.7,"LINCOLN AIRPORT, NE US",FM-15,343,1016.6,-2.2,0,0,,,,85,CLR:00,1017.3,973.7,16.093,-0.8,350,,3.6,,,,,,,,,,,,,,,,,,,,,,,,,,,,,,,,,,,,,,,,,,,,,,,,,,,,,,,,,,,,,,,,,,,,,,,,,,,,,,,,,,,,,,,,,,,MET09101/02/23 03:54:02 METAR KLNK 020954Z 35007KT 10SM CLR 00/M02 A3002 RMK AO2 SLP173 T00001022,,,,,,,,,,3/26/2007
USW00014939,2023-01-02T04:54:00,40.8508,-96.7475,362.7,"LINCOLN AIRPORT, NE US",FM-15,343,1015.9,-2.2,0.6,0,,,,82,CLR:00,1016.7,973.1,16.093,-0.5,20,,3.1,,,,,,,,,,,,,,,,,,,,,,,,,,,,,,,,,,,,,,,,,,,,,,,,,,,,,,,,,,,,,,,,,,,,,,,,,,,,,,,,,,,,,,,,,,,MET09101/02/23 04:54:02 METAR KLNK 021054Z 02006KT 10SM CLR 01/M02 A3000 RMK AO2 SLP167 T00061022,,,,,,,,,,3/26/2007
USW00014939,2023-01-02T05:54:00,40.8508,-96.7475,362.7,"LINCOLN AIRPORT, NE US",FM-15,343,1015.2,-2.2,0.6,0,,-1.6,8,82,CLR:00,1016.3,972.4,16.093,-0.5,20,,4.1,,,,,,,,,,,,,,,,,,,,,,,,,,,,,,,,,,,,,,,,,,,,,,,,,,,,,,,,,,,,,,,,,,,,,,,,,,,,,,,,,,,,,,,,,,,MET11401/02/23 05:54:02 METAR KLNK 021154Z 02008KT 10SM CLR 01/M02 A2998 RMK AO2 SLP163 T00061022 10011 21006 58016 (CD),,,,,,,,,,3/26/2007
USW00014939,2023-01-02T06:00:00,40.8508,-96.7475,362.7,"LINCOLN AIRPORT, NE US",FM-12,223,,-2.2,0.6,,,-1.6,8,82,,1016.3,972.2,,-0.5,20,,4.1,,,,,,,,,,,,,,,,,,,,,,,,,,,,,,,,,,,,,,,,,,,,,,,,,,,,,,,,,,,,,,,,,,,,,,,,,,,,,,,,,,,,,,,,,,,SYN08072551 32966 00208 10006 21022 39722 40163 58016 91154 333 10100 21006 555 90212=,,,,,,,,,,3/26/2007
USW00014939,2023-01-02T06:54:00,40.8508,-96.7475,362.7,"LINCOLN AIRPORT, NE US",FM-15,343,1014.9,-2.2,1.1,0,,,,79,CLR:00,1015.7,972.1,16.093,-0.2,50,,5.7,,,,,,,,,,,,,,,,,,,,,,,,,,,,,,,,,,,,,,,,,,,,,,,,,,,,,,,,,,,,,,,,,,,,,,,,,,,,,,,,,,,,,,,,,,,MET09601/02/23 06:54:02 METAR KLNK 021254Z 05011KT 10SM CLR 01/M02 A2997 RMK AO2 SLP157 T00111022 (CD),,,,,,,,,,3/26/2007
USW00014939,2023-01-02T07:52:00,40.8508,-96.7475,362.7,"LINCOLN AIRPORT, NE US",FM-16,343,1014.6,-2,1,,,,,81,BKN:07 8.23 BKN:07 10.06,,971.8,16.093,-0.2,50,,4.6,,,,,,,,,,,,,,,,,,,,,,,,,,,,,,,,,,,,,,,,,,,,,,,,,,,,,,,,,,,,,,,,,,,,,,,,,,,,,,,,,,,,,,,,,,,MET09401/02/23 07:52:02 SPECI KLNK 021352Z 05009KT 10SM BKN027 BKN033 01/M02 A2996 RMK AO2 FIBI (CD),,,,,,,,,,3/26/2007
USW00014939,2023-01-02T07:54:00,40.8508,-96.7475,362.7,"LINCOLN AIRPORT, NE US",FM-15,343,1014.6,-2.2,1.1,0,,,,79,BKN:07 8.23 BKN:07 10.06,1015.4,971.8,16.093,-0.2,60,,5.1,,,,,,,,,,,,,,,,,,,,,,,,,,,,,,,,,,,,,,,,,,,,,,,,,,,,,,,,,,,,,,,,,,,,,,,,,,,,,,,,,,,,,,,,,,,MET10601/02/23 07:54:02 METAR KLNK 021354Z 06010KT 10SM BKN027 BKN033 01/M02 A2996 RMK AO2 SLP154 T00111022 (CD),,,,,,,,,,3/26/2007
USW00014939,2023-01-02T08:54:00,40.8508,-96.7475,362.7,"LINCOLN AIRPORT, NE US",FM-15,343,1015.2,-2.2,1.7,0,,-0.2,5,76,OVC:08 8.23,1016,972.4,16.093,0.2,20,,3.6,,,,,,,,,,,,,,,,,,,,,,,,,,,,,,,,,,,,,,,,,,,,,,,,,,,,,,,,,,,,,,,,,,,,,,,,,,,,,,,,,,,,,,,,,,,MET10501/02/23 08:54:02 METAR KLNK 021454Z 02007KT 10SM OVC027 02/M02 A2998 RMK AO2 SLP160 T00171022 55002 (CD),,,,,,,,,,3/26/2007
USW00014939,2023-01-02T09:42:00,40.8508,-96.7475,362.7,"LINCOLN AIRPORT, NE US",FM-16,343,1015.2,-1.7,1.7,,,,,78,OVC:08 5.49,,972.4,16.093,0.4,10,,3.6,,,,,,,,,,,,,,,,,,,,,,,,,,,,,,,,,,,,,,,,,,,,,,,,,,,,,,,,,,,,,,,,,,,,,,,,,,,,,,,,,,,,,,,,,,,MET09201/02/23 09:42:02 SPECI KLNK 021542Z 01007KT 10SM OVC018 02/M02 A2998 RMK AO2 T00171017 (CD),,,,,,,,,,3/26/2007
USW00014939,2023-01-02T09:54:00,40.8508,-96.7475,362.7,"LINCOLN AIRPORT, NE US",FM-15,343,1015.2,-1.7,1.7,0,,,,78,OVC:08 5.49,1016.1,972.4,16.093,0.4,20,,3.6,,,,,,,,,,,,,,,,,,,,,,,,,,,,,,,,,,,,,,,,,,,,,,,,,,,,,,,,,,,,,,,,,,,,,,,,,,,,,,,,,,,,,,,,,,,MET09901/02/23 09:54:02 METAR KLNK 021554Z 02007KT 10SM OVC018 02/M02 A2998 RMK AO2 SLP161 T00171017 (CD),,,,,,,,,,3/26/2007
USW00014939,2023-01-02T10:01:00,40.8508,-96.7475,362.7,"LINCOLN AIRPORT, NE US",FM-16,343,1015.2,-1.7,2.2,,,,,76,OVC:08 6.1,,972.4,16.093,0.7,30,,3.6,,,,,,,,,,,,,,,,,,,,,,,,,,,,,,,,,,,,,,,,,,,,,,,,,,,,,,,,,,,,,,,,,,,,,,,,,,,,,,,,,,,,,,,,,,,MET09201/02/23 10:01:02 SPECI KLNK 021601Z 03007KT 10SM OVC020 02/M02 A2998 RMK AO2 T00221017 (CD),,,,,,,,,,3/26/2007
USW00014939,2023-01-02T10:16:00,40.8508,-96.7475,362.7,"LINCOLN AIRPORT, NE US",FM-16,343,1015.2,-1.7,2.2,,,,,76,OVC:08 5.49,,972.4,16.093,0.7,30,,4.1,,,,,,,,,,,,,,,,,,,,,,,,,,,,,,,,,,,,,,,,,,,,,,,,,,,,,,,,,,,,,,,,,,,,,,,,,,,,,,,,,,,,,,,,,,,MET09201/02/23 10:16:02 SPECI KLNK 021616Z 03008KT 10SM OVC018 02/M02 A2998 RMK AO2 T00221017 (CD),,,,,,,,,,3/26/2007
USW00014939,2023-01-02T10:54:00,40.8508,-96.7475,362.7,"LINCOLN AIRPORT, NE US",FM-15,343,1014.6,-2.2,2.8,0,,,,70,OVC:08 5.18,1015.5,971.8,16.093,0.8,40,,5.1,,,,,,,,,,,,,,,,,,,,,,,,,,,,,,,,,,,,,,,,,,,,,,,,,,,,,,,,,,,,,,,,,,,,,,,,,,,,,,,,,,,,,,,,,,,MET09901/02/23 10:54:02 METAR KLNK 021654Z 04010KT 10SM OVC017 03/M02 A2996 RMK AO2 SLP155 T00281022 (CD),,,,,,,,,,3/26/2007
USW00014939,2023-01-02T11:54:00,40.8508,-96.7475,362.7,"LINCOLN AIRPORT, NE US",FM-15,343,1013.9,-2.2,2.8,0,,-1.2,8,70,OVC:08 5.18,1014.7,971.1,16.093,0.8,50,,4.6,,,,,,,,,,,,,,,,,,,,,,,,,,,,,,,,,,,,,,,,,,,,,,,,,,,,,,,,,,,,,,,,,,,,,,,,,,,,,,,,,,,,,,,,,,,MET11701/02/23 11:54:02 METAR KLNK 021754Z 05009KT 10SM OVC017 03/M02 A2994 RMK AO2 SLP147 T00281022 10033 20006 58012 (CD),,,,,,,,,,3/26/2007
USW00014939,2023-01-02T12:00:00,40.8508,-96.7475,362.7,"LINCOLN AIRPORT, NE US",FM-12,223,,-2.2,2.8,,,-1.2,8,70,,1014.7,970.9,,0.8,50,,4.6,,,,,,,,,,,,,,,,,,,,,,,,,,,,,,,,,,,,,,,,,,,,,,,,,,,,,,,,,,,,,,,,,,,,,,,,,,,,,,,,,,,,,,,,,,,SYN08072551 32466 80509 10028 21022 39709 40147 58012 91754 333 10033 20006 555 90218=,,,,,,,,,,3/26/2007
USW00014939,2023-01-02T12:30:00,40.8508,-96.7475,362.7,"LINCOLN AIRPORT, NE US",FM-16,343,1012.5,-1.1,2.8,T,-RA:02 |RA |RA,,,76,OVC:08 3.96,,969.8,16.093,1.2,60,,4.6,,,,,,,,,,,,,,,,,,,,,,,,,,,,,,,,,,,,,,,,,,,,,,,,,,,,,,,,,,,,,,,,,,,,,,,,,,,,,,,,,,,,,,,,,,,MET10801/02/23 12:30:02 SPECI KLNK 021830Z 06009KT 10SM -RA OVC013 03/M01 A2990 RMK AO2 RAB12 P0000 T00281011 (CK),,,,,,,,,,3/26/2007
USW00014939,2023-01-02T12:54:00,40.8508,-96.7475,362.7,"LINCOLN AIRPORT, NE US",FM-15,343,1011.2,-0.6,2.2,0.3,-RA:02 |RA |RA,,,82,OVC:08 3.96,1012.2,968.5,11.265,1.1,80,12.4,7.7,,,,,,,,,,,,,,,,,,,,,,,,,,,,,,,,,,,,,,,,,,,,,,,,,,,,,,,,,,,,,,,,,,,,,,,,,,,,,,,,,,,,,,,,,,,MET12401/02/23 12:54:02 METAR KLNK 021854Z 08015G24KT 7SM -RA OVC013 02/M01 A2986 RMK AO2 RAB12 PRESFR SLP122 P0000 T00221006 (RC),,,,,,,,,,3/26/2007
USW00014939,2023-01-02T13:22:00,40.8508,-96.7475,362.7,"LINCOLN AIRPORT, NE US",FM-16,343,1010.5,0,2.2,0.5,-RA:02 |RA |RA,,,86,OVC:08 2.74,,967.8,11.265,1.3,80,10.8,5.7,,,,,,,,,,,,,,,,,,,,,,,,,,,,,,,,,,,,,,,,,,,,,,,,,,,,,,,,,,,,,,,,,,,,,,,,,,,,,,,,,,,,,,,,,,,MET10301/02/23 13:22:02 SPECI KLNK 021922Z 08011G21KT 7SM -RA OVC009 02/00 A2984 RMK AO2 P0002 T00220000 (RC),,,,,,,,,,3/26/2007
USW00014939,2023-01-02T13:52:00,40.8508,-96.7475,362.7,"LINCOLN AIRPORT, NE US",FM-16,343,1009.8,1,2,,,,,93,OVC:08 3.05,,967.2,16.093,1.8,70,,4.1,,,,,,,,,,,,,,,,,,,,,,,,,,,,,,,,,,,,,,,,,,,,,,,,,,,,,,,,,,,,,,,,,,,,,,,,,,,,,,,,,,,,,,,,,,,MET11701/02/23 13:52:02 SPECI KLNK 021952Z 07008KT 10SM OVC010 02/01 A2982 RMK AO2 RAE45 CIG 008V012 PRESFR P0002 FIBI (RC),,,,,,,,,,3/26/2007
USW00014939,2023-01-02T13:54:00,40.8508,-96.7475,362.7,"LINCOLN AIRPORT, NE US",FM-15,343,1009.8,0.6,2.2,0.3,,,,89,OVC:08 3.05,1010.7,967.2,16.093,1.5,70,,4.1,,,,,,,,,,,,,,,,,,,,,,,,,,,,,,,,,,,,,,,,,,,,,,,,,,,,,,,,,,,,,,,,,,,,,,,,,,,,,,,,,,,,,,,,,,,MET12201/02/23 13:54:02 METAR KLNK 021954Z 07008KT 10SM OVC010 02/01 A2982 RMK AO2 RAE45 CIG 008V012 SLP107 P0002 T00220006 (RC),,,,,,,,,,3/26/2007
USW00014939,2023-01-02T14:54:00,40.8508,-96.7475,362.7,"LINCOLN AIRPORT, NE US",FM-15,343,1008.8,0,2.8,T,,-4.9,6,82,OVC:08 3.35,1009.6,966.2,16.093,1.6,60,,4.6,,,,,,,,,,,,,,,,,,,,,,,,,,,,,,,,,,,,,,,,,,,,,,,,,,,,,,,,,,,,,,,,,,,,,,,,,,,,,,,,,,,,,,,,,,,MET13301/02/23 14:54:02 METAR KLNK 022054Z 06009KT 10SM OVC011 03/00 A2979 RMK AO2 UPB27E36RAB36E37 SLP096 P0000 60002 T00280000 56049 (RC),,,,,,,,,,3/26/2007
USW00014939,2023-01-02T15:47:00,40.8508,-96.7475,362.7,"LINCOLN AIRPORT, NE US",FM-16,343,1009.8,0.6,2.2,0.5,RA:02 BR:1 |RA BR |RA,,,89,OVC:08 2.74,,967.2,4.023,1.5,20,,3.1,,,,,,,,,,,,,,,,,,,,,,,,,,,,,,,,,,,,,,,,,,,,,,,,,,,,,,,,,,,,,,,,,,,,,,,,,,,,,,,,,,,,,,,,,,,MET11201/02/23 15:47:02 SPECI KLNK 022147Z 02006KT 2 1/2SM RA BR OVC009 02/01 A2982 RMK AO2 RAB00 P0002 T00220006 (RC),,,,,,,,,,3/26/2007
USW00014939,2023-01-02T15:54:00,40.8508,-96.7475,362.7,"LINCOLN AIRPORT, NE US",FM-15,343,1009.8,0.6,2.2,1.5,RA:02 BR:1 |RA BR |RA,,,89,OVC:08 2.74,1010.6,967.2,4.023,1.5,30,,3.6,,,,,,,,,,,,,,,,,,,,,,,,,,,,,,,,,,,,,,,,,,,,,,,,,,,,,,,,,,,,,,,,,,,,,,,,,,,,,,,,,,,,,,,,,,,MET11901/02/23 15:54:02 METAR KLNK 022154Z 03007KT 2 1/2SM RA BR OVC009 02/01 A2982 RMK AO2 RAB00 SLP106 P0005 T00220006 (RC),,,,,,,,,,3/26/2007
USW00014939,2023-01-02T16:31:00,40.8508,-96.7475,362.7,"LINCOLN AIRPORT, NE US",FM-16,343,1008.5,0.6,1.7,4,-RA:02 BR:1 |RA BR |RA,,,93,OVC:08 3.35,,965.9,4.023,1.2,30,,5.1,,,,,,,,,,,,,,,,,,,,,,,,,,,,,,,,,,,,,,,,,,,,,,,,,,,,,,,,,,,,,,,,,,,,,,,,,,,,,,,,,,,,,,,,,,,MET10701/02/23 16:31:02 SPECI KLNK 022231Z 03010KT 2 1/2SM -RA BR OVC011 02/01 A2978 RMK AO2 P0016 T00170006 (RC),,,,,,,,,,3/26/2007
USW00014939,2023-01-02T16:39:00,40.8508,-96.7475,362.7,"LINCOLN AIRPORT, NE US",FM-16,343,1008.5,0.6,1.7,4.3,-RA:02 BR:1 |RA BR |RA,,,93,OVC:08 3.35,,965.9,4.828,1.2,20,,5.7,,,,,,,,,,,,,,,,,,,,,,,,,,,,,,,,,,,,,,,,,,,,,,,,,,,,,,,,,,,,,,,,,,,,,,,,,,,,,,,,,,,,,,,,,,,MET10301/02/23 16:39:02 SPECI KLNK 022239Z 02011KT 3SM -RA BR OVC011 02/01 A2978 RMK AO2 P0017 T00170006 (RC),,,,,,,,,,3/26/2007
USW00014939,2023-01-02T16:51:00,40.8508,-96.7475,362.7,"LINCOLN AIRPORT, NE US",FM-16,343,1007.8,1,2,4.3,-RA:02 BR:1 |RA BR |RA,,,93,SCT:04 2.13 OVC:08 3.35,,965.2,4.828,1.8,10,,6.7,,,,,,,,,,,,,,,,,,,,,,,,,,,,,,,,,,,,,,,,,,,,,,,,,,,,,,,,,,,,,,,,,,,,,,,,,,,,,,,,,,,,,,,,,,,MET10701/02/23 16:51:02 SPECI KLNK 022251Z 01013KT 3SM -RA BR SCT007 OVC011 02/01 A2976 RMK AO2 PRESFR P0017 (RC),,,,,,,,,,3/26/2007
USW00014939,2023-01-02T16:54:00,40.8508,-96.7475,362.7,"LINCOLN AIRPORT, NE US",FM-15,343,1007.5,0.6,1.7,4.1,-RA:02 BR:1 |RA BR |RA,,,93,SCT:04 1.52 OVC:08 3.35,1008.5,964.9,8.047,1.2,10,,6.7,,,,,,,,,,,,,,,,,,,,,,,,,,,,,,,,,,,,,,,,,,,,,,,,,,,,,,,,,,,,,,,,,,,,,,,,,,,,,,,,,,,,,,,,,,,MET12401/02/23 16:54:02 METAR KLNK 022254Z 01013KT 5SM -RA BR SCT005 OVC011 02/01 A2975 RMK AO2 PRESFR SLP085 P0017 T00170006 (RC),,,,,,,,,,3/26/2007
USW00014939,2023-01-02T17:03:00,40.8508,-96.7475,362.7,"LINCOLN AIRPORT, NE US",FM-16,343,1007.5,0.6,1.7,T,BR:1 |BR |,,,93,BKN:07 1.52 OVC:08 3.66,,964.9,8.047,1.2,20,,7.2,,,,,,,,,,,,,,,,,,,,,,,,,,,,,,,,,,,,,,,,,,,,,,,,,,,,,,,,,,,,,,,,,,,,,,,,,,,,,,,,,,,,,,,,,,,MET12601/02/23 17:03:02 SPECI KLNK 022303Z 02014KT 5SM BR BKN005 OVC012 02/01 A2975 RMK AO2 RAE2259 CIG 004V008 P0000 T00170006 (RC),,,,,,,,,,3/26/2007
USW00014939,2023-01-02T17:54:00,40.8508,-96.7475,362.7,"LINCOLN AIRPORT, NE US",FM-15,343,1006.8,0,1.7,0,BR:1 |BR |,-2.7,6,89,OVC:08 1.52,1007.8,964.2,9.656,1,30,11.8,7.7,,,,,,,,,,,,,,,,,,,,,,,,,,,,,,,,,,,,,,,,,,,,,,,,,,,,,,,,,,,,,,,,,,,,,,,,,,,,,,,,,,,,,,,,,,,MET14101/02/23 17:54:02 METAR KLNK 022354Z 03015G23KT 6SM BR OVC005 02/00 A2973 RMK AO2 RAE2259 SLP078 P0000 60024 T00170000 10028 20017 56027 (RC),,,,,,,,,,3/26/2007
USW00014939,2023-01-02T18:00:00,40.8508,-96.7475,362.7,"LINCOLN AIRPORT, NE US",FM-12,223,,0,1.7,,||BR,-2.7,6,89,,1007.8,964,,1,30,,7.7,,,,,,,,,,,,,,,,,,,,,,,,,,,,,,,,,,,,,,,,,,,,,,,,,,,,,,,,,,,,,,,,,,,,,,,,,,,,,,,,,,,,,,,,,,,SYN09872551 11259 80315 10017 20000 39640 40078 56027 60061 710// 92354 333 10033 21005 91023 555 90300=,,,,,,,,,,3/26/2007
USW00014939,2023-01-02T18:54:00,40.8508,-96.7475,362.7,"LINCOLN AIRPORT, NE US",FM-15,343,1007.5,0,1.7,0,,,,89,OVC:08 1.52,1008.4,964.9,11.265,1,40,9.3,5.7,,,,,,,,,,,,,,,,,,,,,,,,,,,,,,,,,,,,,,,,,,,,,,,,,,,,,,,,,,,,,,,,,,,,,,,,,,,,,,,,,,,,,,,,,,,MET09501/02/23 18:54:01 METAR KLNK 030054Z 04011G18KT 7SM OVC005 02/00 A2975 RMK AO2 SLP084 T00170000,,,,,,,,,,3/26/2007
USW00014939,2023-01-02T19:52:00,40.8508,-96.7475,362.7,"LINCOLN AIRPORT, NE US",FM-16,343,1006.8,0,1,,BR:1 |BR |,,,93,OVC:08 1.22,,964.2,4.828,0.7,50,10.3,7.7,,,,,,,,,,,,,,,,,,,,,,,,,,,,,,,,,,,,,,,,,,,,,,,,,,,,,,,,,,,,,,,,,,,,,,,,,,,,,,,,,,,,,,,,,,,MET09101/02/23 19:52:03 SPECI KLNK 030152Z 05015G20KT 3SM BR OVC004 01/00 A2973 RMK AO2 FIBI (RC),,,,,,,,,,3/26/2007
USW00014939,2023-01-02T19:54:00,40.8508,-96.7475,362.7,"LINCOLN AIRPORT, NE US",FM-15,343,1006.8,0,1.1,0,BR:1 |BR |,,,92,OVC:08 1.22,1007.7,964.2,4.828,0.7,40,,6.7,,,,,,,,,,,,,,,,,,,,,,,,,,,,,,,,,,,,,,,,,,,,,,,,,,,,,,,,,,,,,,,,,,,,,,,,,,,,,,,,,,,,,,,,,,,MET09501/02/23 19:54:01 METAR KLNK 030154Z 04013KT 3SM BR OVC004 01/00 A2973 RMK AO2 SLP077 T00110000,,,,,,,,,,3/26/2007
USW00014939,2023-01-02T20:04:00,40.8508,-96.7475,362.7,"LINCOLN AIRPORT, NE US",FM-16,343,1006.8,0,1.1,,BR:1 |BR |,,,92,OVC:08 1.22,,964.2,4.023,0.7,40,,6.7,,,,,,,,,,,,,,,,,,,,,,,,,,,,,,,,,,,,,,,,,,,,,,,,,,,,,,,,,,,,,,,,,,,,,,,,,,,,,,,,,,,,,,,,,,,MET09201/02/23 20:04:01 SPECI KLNK 030204Z 04013KT 2 1/2SM BR OVC004 01/00 A2973 RMK AO2 T00110000,,,,,,,,,,3/26/2007
USW00014939,2023-01-02T20:21:00,40.8508,-96.7475,362.7,"LINCOLN AIRPORT, NE US",FM-16,343,1007.1,0,1.1,T,-RA:02 BR:1 |RA BR |RA,,,92,OVC:08 1.22,,964.6,2.816,0.7,40,,5.7,,,,,,,,,,,,,,,,,,,,,,,,,,,,,,,,,,,,,,,,,,,,,,,,,,,,,,,,,,,,,,,,,,,,,,,,,,,,,,,,,,,,,,,,,,,MET12201/02/23 20:21:01 SPECI KLNK 030221Z 04011KT 1 3/4SM -RA BR OVC004 01/00 A2974 RMK AO2 UPB05E16RAB16 P0000 I1000 T00110000,,,,,,,,,,3/26/2007
USW00014939,2023-01-02T20:52:00,40.8508,-96.7475,362.7,"LINCOLN AIRPORT, NE US",FM-16,343,1006.8,0,1,,RA:02 BR:1 |RA BR |RA,,,93,OVC:08 1.22,,964.2,3.219,0.7,40,9.3,3.1,,,,,,,,,,,,,,,,,,,,,,,,,,,,,,,,,,,,,,,,,,,,,,,,,,,,,,,,,,,,,,,,,,,,,,,,,,,,,,,,,,,,,,,,,,,MET12801/02/23 20:52:03 SPECI KLNK 030252Z 04006G18KT 2SM RA BR OVC004 01/00 A2973 RMK AO2 UPB05E16RAB16SNB28E39 P0004 I1000 FIBI (DS),,,,,,,,,,3/26/2007
USW00014939,2023-01-02T20:54:00,40.8508,-96.7475,362.7,"LINCOLN AIRPORT, NE US",FM-15,343,1006.4,0,1.1,1.3,RA:02 BR:1 |RA BR |RA,-0.3,8,92,OVC:08 1.22,1007.5,963.9,4.023,0.7,30,,3.6,,,,,,,,,,,,,,,,,,,,,,,,,,,,,,,,,,,,,,,,,,,,,,,,,,,,,,,,,,,,,,,,,,,,,,,,,,,,,,,,,,,,,,,,,,,MET15401/02/23 20:54:01 METAR KLNK 030254Z 03007KT 2 1/2SM RA BR OVC004 01/00 A2972 RMK AO2 UPB05E16RAB16SNB28E39 SLP075 P0005 60005 I1000 I3000 T00110000 58003,,,,,,,,,,3/26/2007
USW00014939,2023-01-02T21:28:00,40.8508,-96.7475,362.7,"LINCOLN AIRPORT, NE US",FM-16,343,1005.8,0,1.1,0.2,BR:1 |BR |,,,92,OVC:08 1.22,,963.2,8.047,0.7,30,,6.2,,,,,,,,,,,,,,,,,,,,,,,,,,,,,,,,,,,,,,,,,,,,,,,,,,,,,,,,,,,,,,,,,,,,,,,,,,,,,,,,,,,,,,,,,,,MET10801/02/23 21:28:01 SPECI KLNK 030328Z 03012KT 5SM BR OVC004 01/00 A2970 RMK AO2 RAE13UPB10E12 P0001 T00110000,,,,,,,,,,3/26/2007
USW00014939,2023-01-02T21:52:00,40.8508,-96.7475,362.7,"LINCOLN AIRPORT, NE US",FM-16,343,1006.1,0,1,,,,,93,OVC:08 1.52,,963.6,11.265,0.7,30,,6.7,,,,,,,,,,,,,,,,,,,,,,,,,,,,,,,,,,,,,,,,,,,,,,,,,,,,,,,,,,,,,,,,,,,,,,,,,,,,,,,,,,,,,,,,,,,MET10501/02/23 21:52:03 SPECI KLNK 030352Z 03013KT 7SM OVC005 01/00 A2971 RMK AO2 RAE13UPB10E12 P0001 FIBI (DS),,,,,,,,,,3/26/2007
USW00014939,2023-01-02T21:54:00,40.8508,-96.7475,362.7,"LINCOLN AIRPORT, NE US",FM-15,343,1006.1,0,1.1,0.3,,,,92,OVC:08 1.52,1006.8,963.6,11.265,0.7,30,,6.2,,,,,,,,,,,,,,,,,,,,,,,,,,,,,,,,,,,,,,,,,,,,,,,,,,,,,,,,,,,,,,,,,,,,,,,,,,,,,,,,,,,,,,,,,,,MET11201/02/23 21:54:01 METAR KLNK 030354Z 03012KT 7SM OVC005 01/00 A2971 RMK AO2 RAE13UPB10E12 SLP068 P0001 T00110000,,,,,,,,,,3/26/2007
USW00014939,2023-01-02T22:54:00,40.8508,-96.7475,362.7,"LINCOLN AIRPORT, NE US",FM-15,343,1005.4,0,1.1,0,,,,92,OVC:08 1.52,1006.2,962.9,14.484,0.7,30,,5.1,,,,,,,,,,,,,,,,,,,,,,,,,,,,,,,,,,,,,,,,,,,,,,,,,,,,,,,,,,,,,,,,,,,,,,,,,,,,,,,,,,,,,,,,,,,MET09201/02/23 22:54:02 METAR KLNK 030454Z 03010KT 9SM OVC005 01/00 A2969 RMK AO2 SLP062 T00110000,,,,,,,,,,3/26/2007
USW00014939,2023-01-02T23:54:00,40.8508,-96.7475,362.7,"LINCOLN AIRPORT, NE US",FM-15,343,1004.4,0,1.1,T,,-2.1,8,92,OVC:08 1.83,1005.2,961.9,16.093,0.7,40,,5.1,,,,,,,,,,,,,,,,,,,,,,,,,,,,,,,,,,,,,,,,,,,,,,,,,,,,,,,,,,,,,,,,,,,,,,,,,,,,,,,,,,,,,,,,,,,MET14801/02/23 23:54:02 METAR KLNK 030554Z 04010KT 10SM OVC006 01/00 A2966 RMK AO2 RAB04E40 SLP052 P0000 60006 I6000 T00110000 10017 20011 400331006 58021,,,,,,,,,,3/26/2007
USW00014939,2023-01-03T00:00:00,40.8508,-96.7475,362.7,"LINCOLN AIRPORT, NE US",FM-12,223,,0,1.1,,,-2.1,8,92,,1005.2,961.7,,0.7,40,,5.1,,,,,,,,,,,,,,,,,,,,,,,,,,,,,,,,,,,,,,,,,,,,,,,,,,,,,,,,,,,,,,,,,,,,,,,,,,,,,,,,,,,,,,,,,,,SYN08672551 15266 80410 10011 20000 39617 40052 58021 60021 90554 333 10017 21005 555 90306=,,,,,,,,,,3/26/2007
USW00014939,2023-01-03T00:00:00,40.8508,-96.7475,362.7,"LINCOLN AIRPORT, NE US",SOD,,,,,,,,,,,,,,,,,,752,1711,-2.2,-0.2,86,1003.7,960.4,-1.1,5.1,0,3.58,18.5,1.1,-1.6,300,13.4,2.8,0,T,310,10.3,BR FG UP SN RA TS,,,,,,,,,,,,,,,,,,,,,,,,,,,,,,,,,,,,,,,,,,,,,,,,,,,,,,,,,,,,,,,,,,,,,,,,,,,,,,,3/26/2007
USW00014939,2023-01-03T00:54:00,40.8508,-96.7475,362.7,"LINCOLN AIRPORT, NE US",FM-15,343,1002.7,0,1.1,0,,,,92,OVC:08 1.52,1003.5,960.3,14.484,0.7,50,,6.2,,,,,,,,,,,,,,,,,,,,,,,,,,,,,,,,,,,,,,,,,,,,,,,,,,,,,,,,,,,,,,,,,,,,,,,,,,,,,,,,,,,,,,,,,,,MET09201/03/23 00:54:02 METAR KLNK 030654Z 05012KT 9SM OVC005 01/00 A2961 RMK AO2 SLP035 T00110000,,,,,,,,,,3/26/2007
USW00014939,2023-01-03T01:30:00,40.8508,-96.7475,362.7,"LINCOLN AIRPORT, NE US",FM-16,343,1002,0,1.1,,BR:1 |BR |,,,92,OVC:08 1.52,,959.7,4.023,0.7,60,,6.7,,,,,,,,,,,,,,,,,,,,,,,,,,,,,,,,,,,,,,,,,,,,,,,,,,,,,,,,,,,,,,,,,,,,,,,,,,,,,,,,,,,,,,,,,,,MET09201/03/23 01:30:02 SPECI KLNK 030730Z 06013KT 2 1/2SM BR OVC005 01/00 A2959 RMK AO2 T00110000,,,,,,,,,,3/26/2007
USW00014939,2023-01-03T01:52:00,40.8508,-96.7475,362.7,"LINCOLN AIRPORT, NE US",FM-16,343,1000,0,1,,-RA:02 BR:1 |RA BR |RA,,,93,OVC:08 1.22,,957.7,4.023,0.7,50,11.8,7.7,,,,,,,,,,,,,,,,,,,,,,,,,,,,,,,,,,,,,,,,,,,,,,,,,,,,,,,,,,,,,,,,,,,,,,,,,,,,,,,,,,,,,,,,,,,MET12001/03/23 01:52:02 SPECI KLNK 030752Z 05015G23KT 2 1/2SM -RA BR OVC004 01/00 A2953 RMK AO2 UPB43E46RAB46 P0000 I1000 FIBI,,,,,,,,,,3/26/2007
USW00014939,2023-01-03T01:54:00,40.8508,-96.7475,362.7,"LINCOLN AIRPORT, NE US",FM-15,343,1000,0,1.1,T,-RA:02 BR:1 |RA BR |RA,,,92,OVC:08 1.22,1001,957.7,4.023,0.7,50,11.8,7.2,,,,,,,,,,,,,,,,,,,,,,,,,,,,,,,,,,,,,,,,,,,,,,,,,,,,,,,,,,,,,,,,,,,,,,,,,,,,,,,,,,,,,,,,,,,MET13201/03/23 01:54:02 METAR KLNK 030754Z 05014G23KT 2 1/2SM -RA BR OVC004 01/00 A2953 RMK AO2 UPB43E46RAB46 SLP010 P0000 I1000 T00110000,,,,,,,,,,3/26/2007
USW00014939,2023-01-03T02:04:00,40.8508,-96.7475,362.7,"LINCOLN AIRPORT, NE US",FM-16,343,1000.3,0,1.1,T,BR:1 |BR |,,,92,OVC:08 1.22,,958,4.828,0.7,70,10.3,6.7,,,,,,,,,,,,,,,,,,,,,,,,,,,,,,,,,,,,,,,,,,,,,,,,,,,,,,,,,,,,,,,,,,,,,,,,,,,,,,,,,,,,,,,,,,,MET10301/03/23 02:04:02 SPECI KLNK 030804Z 07013G20KT 3SM BR OVC004 01/00 A2954 RMK AO2 RAE01 P0000 T00110000,,,,,,,,,,3/26/2007
USW00014939,2023-01-03T02:54:00,40.8508,-96.7475,362.7,"LINCOLN AIRPORT, NE US",FM-15,343,999.3,0,1.1,T,BR:1 |BR |,-4.9,6,92,OVC:08 1.22,1000,957,6.437,0.7,50,,6.7,,,,,,,,,,,,,,,,,,,,,,,,,,,,,,,,,,,,,,,,,,,,,,,,,,,,,,,,,,,,,,,,,,,,,,,,,,,,,,,,,,,,,,,,,,,MET15001/03/23 02:54:02 METAR KLNK 030854Z 05013KT 4SM BR OVC004 01/00 A2951 RMK AO2 LTG DSNT SW AND W RAE01 PRESFR SLP000 P0000 60000 I3000 T00110000 56049,,,,,,,,,,3/26/2007
USW00014939,2023-01-03T03:16:00,40.8508,-96.7475,362.7,"LINCOLN AIRPORT, NE US",FM-16,343,1000.7,0,1.1,,TS BR:1 |TS BR |,,,92,OVC:08 0.91,,958.3,6.437,0.7,,8.2,3.1,,,,,,,,,,,,,,,,,,,,,,,,,,,,,,,,,,,,,,,,,,,,,,,,,,,,,,,,,,,,,,,,,,,,,,,,,,,,,,,,,,,,,,,,,,,MET11901/03/23 03:16:02 SPECI KLNK 030916Z VRB06G16KT 4SM TS BR OVC003 01/00 A2955 RMK AO2 LTG DSNT NW TSB16 PRESRR T00110000,,,,,,,,,,3/26/2007
USW00014939,2023-01-03T03:36:00,40.8508,-96.7475,362.7,"LINCOLN AIRPORT, NE US",FM-16,343,1000.7,0,1.1,1.5,TS -RA:02 BR:1 |TS RA BR |RA,,,92,OVC:08 1.22,,958.3,4.023,0.7,90,,2.1,,,,,,,,,,,,,,,,,,,,,,,,,,,,,,,,,,,,,,,,,,,,,,,,,,,,,,,,,,,,,,,,,,,,,,,,,,,,,,,,,,,,,,,,,,,MET12801/03/23 03:36:02 SPECI KLNK 030936Z 09004KT 2 1/2SM -TSRA BR OVC004 01/00 A2955 RMK AO2 LTG DSNT NW RAB22 TSB16 P0006 T00110000,,,,,,,,,,3/26/2007
USW00014939,2023-01-03T03:38:00,40.8508,-96.7475,362.7,"LINCOLN AIRPORT, NE US",FM-16,343,1000.7,0,1.1,2,VCTS -RA:02 BR:1 |RA BR BR |RA,,,92,OVC:08 1.22,,958.3,4.828,0.7,,,0,,,,,,,,,,,,,,,,,,,,,,,,,,,,,,,,,,,,,,,,,,,,,,,,,,,,,,,,,,,,,,,,,,,,,,,,,,,,,,,,,,,,,,,,,,,MET13001/03/23 03:38:02 SPECI KLNK 030938Z 00000KT 3SM VCTS -RA BR OVC004 01/00 A2955 RMK AO2 LTG DSNT NW RAB22 TSB16E37 P0008 T00110000,,,,,,,,,,3/26/2007
USW00014939,2023-01-03T03:51:00,40.8508,-96.7475,362.7,"LINCOLN AIRPORT, NE US",FM-16,343,1001,1,1,2,BR:1 |BR |,,,100,OVC:08 1.22,,958.7,8.047,1.1,,,0,,,,,,,,,,,,,,,,,,,,,,,,,,,,,,,,,,,,,,,,,,,,,,,,,,,,,,,,,,,,,,,,,,,,,,,,,,,,,,,,,,,,,,,,,,,MET11401/03/23 03:51:02 SPECI KLNK 030951Z 00000KT 5SM BR OVC004 01/01 A2956 RMK AO2 LTG DSNT NW RAB22E51 TSB16E37 P0008,,,,,,,,,,3/26/2007
USW00014939,2023-01-03T03:54:00,40.8508,-96.7475,362.7,"LINCOLN AIRPORT, NE US",FM-15,343,1001.4,0.6,1.1,2,-RA:02 BR:1 |RA BR |RA,,,97,OVC:08 1.22,1002.1,959,6.437,0.9,,,0,,,,,,,,,,,,,,,,,,,,,,,,,,,,,,,,,,,,,,,,,,,,,,,,,,,,,,,,,,,,,,,,,,,,,,,,,,,,,,,,,,,,,,,,,,,MET13801/03/23 03:54:02 METAR KLNK 030954Z 00000KT 4SM -RA BR OVC004 01/01 A2957 RMK AO2 LTG DSNT NW RAB22E51B54 TSB16E37 SLP021 P0008 T00110006,,,,,,,,,,3/26/2007
USW00014939,2023-01-03T04:01:00,40.8508,-96.7475,362.7,"LINCOLN AIRPORT, NE US",FM-16,343,1001,0,1.1,T,-RA:02 BR:1 |RA BR |RA,,,92,OVC:08 1.22,,958.7,2.816,0.7,,,0,,,,,,,,,,,,,,,,,,,,,,,,,,,,,,,,,,,,,,,,,,,,,,,,,,,,,,,,,,,,,,,,,,,,,,,,,,,,,,,,,,,,,,,,,,,MET13701/03/23 04:01:02 SPECI KLNK 031001Z 00000KT 1 3/4SM R36/3500VP6000FT -RA BR OVC004 01/00 A2956 RMK AO2 LTG DSNT N AND NW P0000 T00110000,,,,,,,,,,3/26/2007
USW00014939,2023-01-03T04:19:00,40.8508,-96.7475,362.7,"LINCOLN AIRPORT, NE US",FM-16,343,1000.7,0,1.1,0.2,BR:1 |BR |,,,92,OVC:08 1.22,,958.3,3.219,0.7,,,0,,,,,,,,,,,,,,,,,,,,,,,,,,,,,,,,,,,,,,,,,,,,,,,,,,,,,,,,,,,,,,,,,,,,,,,,,,,,,,,,,,,,,,,,,,,MET12001/03/23 04:19:02 SPECI KLNK 031019Z 00000KT 2SM BR OVC004 01/00 A2955 RMK AO2 LTG DSNT NW RAE16UPB16E19 P0001 T00110000,,,,,,,,,,3/26/2007
USW00014939,2023-01-03T04:28:00,40.8508,-96.7475,362.7,"LINCOLN AIRPORT, NE US",FM-16,343,1000.7,0,1.1,0.5,BR:1 |BR |,,,92,OVC:08 1.22,,958.3,2.414,0.7,,,0,,,,,,,,,,,,,,,,,,,,,,,,,,,,,,,,,,,,,,,,,,,,,,,,,,,,,,,,,,,,,,,,,,,,,,,,,,,,,,,,,,,,,,,,,,,MET11201/03/23 04:28:02 SPECI KLNK 031028Z 00000KT 1 1/2SM BR OVC004 01/00 A2955 RMK AO2 RAE16UPB16E19 P0002 T00110000,,,,,,,,,,3/26/2007
USW00014939,2023-01-03T04:38:00,40.8508,-96.7475,362.7,"LINCOLN AIRPORT, NE US",FM-16,343,1000.3,0,0.6,0.5,BR:1 |BR |,,,96,OVC:08 1.83,,958,2.414,0.3,10,,2.1,,,,,,,,,,,,,,,,,,,,,,,,,,,,,,,,,,,,,,,,,,,,,,,,,,,,,,,,,,,,,,,,,,,,,,,,,,,,,,,,,,,,,,,,,,,MET12901/03/23 04:38:02 SPECI KLNK 031038Z 01004KT 1 1/2SM R36/5000VP6000FT BR OVC006 01/00 A2954 RMK AO2 RAE16UPB16E19 P0002 T00060000,,,,,,,,,,3/26/2007
USW00014939,2023-01-03T04:54:00,40.8508,-96.7475,362.7,"LINCOLN AIRPORT, NE US",FM-15,343,1000.3,0,1.1,0.5,BR:1 |BR |,,,92,OVC:08 2.74,1001.3,958,2.816,0.7,20,,1.5,,,,,,,,,,,,,,,,,,,,,,,,,,,,,,,,,,,,,,,,,,,,,,,,,,,,,,,,,,,,,,,,,,,,,,,,,,,,,,,,,,,,,,,,,,,MET11901/03/23 04:54:02 METAR KLNK 031054Z 02003KT 1 3/4SM BR OVC009 01/00 A2954 RMK AO2 RAE16UPB16E19 SLP013 P0002 T00110000,,,,,,,,,,3/26/2007
USW00014939,2023-01-03T05:23:00,40.8508,-96.7475,362.7,"LINCOLN AIRPORT, NE US",FM-16,343,1000,0,1.1,0.2,UP:09 BR:1 |41 BR |,,,92,BKN:07 3.05 OVC:08 5.49,,957.7,2.414,0.7,,,0,,,,,,,,,,,,,,,,,,,,,,,,,,,,,,,,,,,,,,,,,,,,,,,,,,,,,,,,,,,,,,,,,,,,,,,,,,,,,,,,,,,,,,,,,,,MET13901/03/23 05:23:02 SPECI KLNK 031123Z 00000KT 1 1/2SM R36/5500VP6000FT UP BR BKN010 OVC018 01/00 A2953 RMK AO2 RAB13E23UPB23 P0001 T00110000,,,,,,,,,,3/26/2007
USW00014939,2023-01-03T05:47:00,40.8508,-96.7475,362.7,"LINCOLN AIRPORT, NE US",FM-16,343,999.7,0,0.6,0.2,BR:1 |BR |,,,96,SCT:04 1.83 BKN:07 3.05 OVC:08 11.58,,957.4,2.816,0.3,340,,2.1,,,,,,,,,,,,,,,,,,,,,,,,,,,,,,,,,,,,,,,,,,,,,,,,,,,,,,,,,,,,,,,,,,,,,,,,,,,,,,,,,,,,,,,,,,,MET12901/03/23 05:47:02 SPECI KLNK 031147Z 34004KT 1 3/4SM BR SCT006 BKN010 OVC038 01/00 A2952 RMK AO2 RAB13E23UPB23E31 P0001 T00060000,,,,,,,,,,3/26/2007
USW00014939,2023-01-03T05:52:00,40.8508,-96.7475,362.7,"LINCOLN AIRPORT, NE US",FM-16,343,1000,0,1,0.2,BR:1 |BR |,,,93,BKN:07 1.22 BKN:07 2.44 OVC:08 11.58,,957.7,2.816,0.7,330,,2.1,,,,,,,,,,,,,,,,,,,,,,,,,,,,,,,,,,,,,,,,,,,,,,,,,,,,,,,,,,,,,,,,,,,,,,,,,,,,,,,,,,,,,,,,,,,MET12401/03/23 05:52:02 SPECI KLNK 031152Z 33004KT 1 3/4SM BR BKN004 BKN008 OVC038 01/00 A2953 RMK AO2 RAB13E23UPB23E31 P0001 (RT),,,,,,,,,,3/26/2007
USW00014939,2023-01-03T05:54:00,40.8508,-96.7475,362.7,"LINCOLN AIRPORT, NE US",FM-15,343,1000,0,0.6,0.3,BR:1 |BR |,-1.3,8,96,BKN:07 1.22 BKN:07 2.44 OVC:08 11.58,1000.7,957.7,2.816,0.3,340,,2.1,,,,,,,,,,,,,,,,,,,,,,,,,,,,,,,,,,,,,,,,,,,,,,,,,,,,,,,,,,,,,,,,,,,,,,,,,,,,,,,,,,,,,,,,,,,MET17701/03/23 05:54:02 METAR KLNK 031154Z 34004KT 1 3/4SM BR BKN004 BKN008 OVC038 01/00 A2953 RMK AO2 RAB13E23UPB23E31 SLP007 P0001 60011 70041 I6000 T00060000 10011 20006 58013 (RT),,,,,,,,,,3/26/2007
USW00014939,2023-01-03T05:57:00,40.8508,-96.7475,362.7,"LINCOLN AIRPORT, NE US",FM-16,343,999.7,0,0.6,,BR:1 |BR |,,,96,SCT:04 1.22 BKN:07 2.44 OVC:08 11.58,,957.4,3.219,0.3,340,,2.1,,,,,,,,,,,,,,,,,,,,,,,,,,,,,,,,,,,,,,,,,,,,,,,,,,,,,,,,,,,,,,,,,,,,,,,,,,,,,,,,,,,,,,,,,,,MET10701/03/23 05:57:02 SPECI KLNK 031157Z 34004KT 2SM BR SCT004 BKN008 OVC038 01/00 A2952 RMK AO2 T00060000 (RT),,,,,,,,,,3/26/2007
USW00014939,2023-01-03T06:00:00,40.8508,-96.7475,362.7,"LINCOLN AIRPORT, NE US",FM-12,223,,0,0.6,,||BR,-1.3,8,96,,1000.7,957.4,,0.3,340,,2.1,,,,,,,,,,,,,,,,,,,,,,,,,,,,,,,,,,,,,,,,,,,,,,,,,,,,,,,,,,,,,,,,,,,,,,,,,,,,,,,,,,,,,,,,,,,SYN09872551 11228 83404 10006 20000 39574 40007 58013 60031 710// 91154 333 10033 20006 70104 555 90312=,,,,,,,,,,3/26/2007
USW00014939,2023-01-03T06:09:00,40.8508,-96.7475,362.7,"LINCOLN AIRPORT, NE US",FM-16,343,999.7,0,0.6,,BR:1 |BR |,,,96,OVC:08 1.52,,957.4,4.828,0.3,340,,2.1,,,,,,,,,,,,,,,,,,,,,,,,,,,,,,,,,,,,,,,,,,,,,,,,,,,,,,,,,,,,,,,,,,,,,,,,,,,,,,,,,,,,,,,,,,,MET09301/03/23 06:09:02 SPECI KLNK 031209Z 34004KT 3SM BR OVC005 01/00 A2952 RMK AO2 T00060000 (RT),,,,,,,,,,3/26/2007
USW00014939,2023-01-03T06:24:00,40.8508,-96.7475,362.7,"LINCOLN AIRPORT, NE US",FM-16,343,999.7,0,0.6,,BR:1 |BR |,,,96,OVC:08 1.22,,957.4,4.828,0.3,340,,2.1,,,,,,,,,,,,,,,,,,,,,,,,,,,,,,,,,,,,,,,,,,,,,,,,,,,,,,,,,,,,,,,,,,,,,,,,,,,,,,,,,,,,,,,,,,,MET09301/03/23 06:24:02 SPECI KLNK 031224Z 34004KT 3SM BR OVC004 01/00 A2952 RMK AO2 T00060000 (RT),,,,,,,,,,3/26/2007
USW00014939,2023-01-03T06:54:00,40.8508,-96.7475,362.7,"LINCOLN AIRPORT, NE US",FM-15,343,999.3,0,0.6,0,BR:1 |BR |,,,96,OVC:08 0.91,1000.1,957,4.023,0.3,350,,2.1,,,,,,,,,,,,,,,,,,,,,,,,,,,,,,,,,,,,,,,,,,,,,,,,,,,,,,,,,,,,,,,,,,,,,,,,,,,,,,,,,,,,,,,,,,,MET10401/03/23 06:54:02 METAR KLNK 031254Z 35004KT 2 1/2SM BR OVC003 01/00 A2951 RMK AO2 SLP001 T00060000 (RT),,,,,,,,,,3/26/2007
USW00014939,2023-01-03T07:39:00,40.8508,-96.7475,362.7,"LINCOLN AIRPORT, NE US",FM-16,343,999.3,0,1.1,,BR:1 |BR |,,,92,OVC:08 0.91,,957,6.437,0.7,,,0,,,,,,,,,,,,,,,,,,,,,,,,,,,,,,,,,,,,,,,,,,,,,,,,,,,,,,,,,,,,,,,,,,,,,,,,,,,,,,,,,,,,,,,,,,,MET09301/03/23 07:39:02 SPECI KLNK 031339Z 00000KT 4SM BR OVC003 01/00 A2951 RMK AO2 T00110000 (RT),,,,,,,,,,3/26/2007
USW00014939,2023-01-03T07:54:00,40.8508,-96.7475,362.7,"LINCOLN AIRPORT, NE US",FM-15,343,999.3,0,1.1,0,BR:1 |BR |,,,92,OVC:08 0.91,1000.1,957,6.437,0.7,320,,1.5,,,,,,,,,,,,,,,,,,,,,,,,,,,,,,,,,,,,,,,,,,,,,,,,,,,,,,,,,,,,,,,,,,,,,,,,,,,,,,,,,,,,,,,,,,,MET10001/03/23 07:54:02 METAR KLNK 031354Z 32003KT 4SM BR OVC003 01/00 A2951 RMK AO2 SLP001 T00110000 (RT),,,,,,,,,,3/26/2007
USW00014939,2023-01-03T08:12:00,40.8508,-96.7475,362.7,"LINCOLN AIRPORT, NE US",FM-16,343,999,0,1.1,T,UP:09 BR:1 |41 BR |,,,92,OVC:08 0.61,,956.7,3.219,0.7,320,,2.1,,,,,,,,,,,,,,,,,,,,,,,,,,,,,,,,,,,,,,,,,,,,,,,,,,,,,,,,,,,,,,,,,,,,,,,,,,,,,,,,,,,,,,,,,,,MET10801/03/23 08:12:02 SPECI KLNK 031412Z 32004KT 2SM UP BR OVC002 01/00 A2950 RMK AO2 UPB02 P0000 T00110000 (RT),,,,,,,,,,3/26/2007
USW00014939,2023-01-03T08:31:00,40.8508,-96.7475,362.7,"LINCOLN AIRPORT, NE US",FM-16,343,999.3,0,0.6,T,BR:1 |BR |,,,96,OVC:08 0.61,,957,2.816,0.3,290,,2.1,,,,,,,,,,,,,,,,,,,,,,,,,,,,,,,,,,,,,,,,,,,,,,,,,,,,,,,,,,,,,,,,,,,,,,,,,,,,,,,,,,,,,,,,,,,MET12901/03/23 08:31:02 SPECI KLNK 031431Z 29004KT 1 3/4SM R36/5500VP6000FT BR OVC002 01/00 A2951 RMK AO2 UPB02E23 P0000 T00060000 (RT),,,,,,,,,,3/26/2007
USW00014939,2023-01-03T08:54:00,40.8508,-96.7475,362.7,"LINCOLN AIRPORT, NE US",FM-15,343,999.3,0,1.1,T,BR:1 |BR |,-0.5,5,92,OVC:08 0.61,1000.1,957,2.816,0.7,300,,2.6,,,,,,,,,,,,,,,,,,,,,,,,,,,,,,,,,,,,,,,,,,,,,,,,,,,,,,,,,,,,,,,,,,,,,,,,,,,,,,,,,,,,,,,,,,,MET13101/03/23 08:54:02 METAR KLNK 031454Z 30005KT 1 3/4SM BR OVC002 01/00 A2951 RMK AO2 UPB02E23 SLP001 P0000 60000 T00110000 55005 (RT),,,,,,,,,,3/26/2007
USW00014939,2023-01-03T09:09:00,40.8508,-96.7475,362.7,"LINCOLN AIRPORT, NE US",FM-16,343,999.3,0,1.1,,FG:2 |FG |,,,92,OVC:08 0.61,,957,0.805,0.7,320,,2.6,,,,,,,,,,,,,,,,,,,,,,,,,,,,,,,,,,,,,,,,,,,,,,,,,,,,,,,,,,,,,,,,,,,,,,,,,,,,,,,,,,,,,,,,,,,MET11101/03/23 09:09:02 SPECI KLNK 031509Z 32005KT 1/2SM R36/3000V5000FT FG OVC002 01/00 A2951 RMK AO2 T00110000 (RT),,,,,,,,,,3/26/2007
USW00014939,2023-01-03T09:52:00,40.8508,-96.7475,362.7,"LINCOLN AIRPORT, NE US",FM-16,343,999.7,1,1,,BR:1 |BR |,,,100,OVC:08 0.61,,957.4,1.609,1.1,310,,3.6,,,,,,,,,,,,,,,,,,,,,,,,,,,,,,,,,,,,,,,,,,,,,,,,,,,,,,,,,,,,,,,,,,,,,,,,,,,,,,,,,,,,,,,,,,,MET10401/03/23 09:52:02 SPECI KLNK 031552Z 31007KT 1SM R36/4000V6000FT BR OVC002 01/01 A2952 RMK AO2 FIBI (RT),,,,,,,,,,3/26/2007
USW00014939,2023-01-03T09:54:00,40.8508,-96.7475,362.7,"LINCOLN AIRPORT, NE US",FM-15,343,999.7,0.6,1.1,0,BR:1 |BR |,,,97,OVC:08 0.61,1000.4,957.4,1.609,0.9,300,,3.1,,,,,,,,,,,,,,,,,,,,,,,,,,,,,,,,,,,,,,,,,,,,,,,,,,,,,,,,,,,,,,,,,,,,,,,,,,,,,,,,,,,,,,,,,,,MET11601/03/23 09:54:02 METAR KLNK 031554Z 30006KT 1SM R36/4500V6000FT BR OVC002 01/01 A2952 RMK AO2 SLP004 T00110006 (RT),,,,,,,,,,3/26/2007
USW00014939,2023-01-03T10:52:00,40.8508,-96.7475,362.7,"LINCOLN AIRPORT, NE US",FM-16,343,999.7,1,1,,BR:1 |BR |,,,100,OVC:08 0.91,,957.4,4.828,1.1,290,,3.6,,,,,,,,,,,,,,,,,,,,,,,,,,,,,,,,,,,,,,,,,,,,,,,,,,,,,,,,,,,,,,,,,,,,,,,,,,,,,,,,,,,,,,,,,,,MET08801/03/23 10:52:02 SPECI KLNK 031652Z 29007KT 3SM BR OVC003 01/01 A2952 RMK AO2 FIBI (RT),,,,,,,,,,3/26/2007
USW00014939,2023-01-03T10:54:00,40.8508,-96.7475,362.7,"LINCOLN AIRPORT, NE US",FM-15,343,1000,0.6,1.1,0,BR:1 |BR |,,,97,OVC:08 0.91,1000.7,957.7,4.828,0.9,290,,3.6,,,,,,,,,,,,,,,,,,,,,,,,,,,,,,,,,,,,,,,,,,,,,,,,,,,,,,,,,,,,,,,,,,,,,,,,,,,,,,,,,,,,,,,,,,,MET10001/03/23 10:54:02 METAR KLNK 031654Z 29007KT 3SM BR OVC003 01/01 A2953 RMK AO2 SLP007 T00110006 (RT),,,,,,,,,,3/26/2007
USW00014939,2023-01-03T11:15:00,40.8508,-96.7475,362.7,"LINCOLN AIRPORT, NE US",FM-16,343,1000,0,1.1,T,-SN:03 BR:1 |SN BR |SN,,,92,SCT:04 1.52 OVC:08 3.96,,957.7,6.437,0.7,300,,3.6,,,,,,,,,,,,,,,,,,,,,,,,,,,,,,,,,,,,,,,,,,,,,,,,,,,,,,,,,,,,,,,,,,,,,,,,,,,,,,,,,,,,,,,,,,,MET11601/03/23 11:15:02 SPECI KLNK 031715Z 30007KT 4SM -SN BR SCT005 OVC013 01/00 A2953 RMK AO2 SNB03 P0000 T00110000 (RT),,,,,,,,,,3/26/2007
USW00014939,2023-01-03T11:27:00,40.8508,-96.7475,362.7,"LINCOLN AIRPORT, NE US",FM-16,343,1000,-0.6,0.6,T,-SN:03 BR:1 |SN BR |SN,,,92,BKN:07 2.74 OVC:08 5.18,,957.7,4.828,0.1,310,9.3,7.2,,,,,,,,,,,,,,,,,,,,,,,,,,,,,,,,,,,,,,,,,,,,,,,,,,,,,,,,,,,,,,,,,,,,,,,,,,,,,,,,,,,,,,,,,,,MET12001/03/23 11:27:02 SPECI KLNK 031727Z 31014G18KT 3SM -SN BR BKN009 OVC017 01/M01 A2953 RMK AO2 SNB03 P0000 T00061006 (RT),,,,,,,,,,3/26/2007
USW00014939,2023-01-03T11:32:00,40.8508,-96.7475,362.7,"LINCOLN AIRPORT, NE US",FM-16,343,1000,-1.7,0,T,-SN:03 BR:1 |SN BR |SN,,,88,SCT:04 2.74 OVC:08 4.57,,957.7,3.219,-0.6,310,10.8,7.7,,,,,,,,,,,,,,,,,,,,,,,,,,,,,,,,,,,,,,,,,,,,,,,,,,,,,,,,,,,,,,,,,,,,,,,,,,,,,,,,,,,,,,,,,,,MET12001/03/23 11:32:02 SPECI KLNK 031732Z 31015G21KT 2SM -SN BR SCT009 OVC015 00/M02 A2953 RMK AO2 SNB03 P0000 T00001017 (RT),,,,,,,,,,3/26/2007
USW00014939,2023-01-03T11:39:00,40.8508,-96.7475,362.7,"LINCOLN AIRPORT, NE US",FM-16,343,1000,-1.7,0,T,-SN:03 BR:1 |SN BR |SN,,,88,BKN:07 3.05 BKN:07 4.27 OVC:08 5.79,,957.7,3.219,-0.6,320,10.8,6.7,,,,,,,,,,,,,,,,,,,,,,,,,,,,,,,,,,,,,,,,,,,,,,,,,,,,,,,,,,,,,,,,,,,,,,,,,,,,,,,,,,,,,,,,,,,MET12701/03/23 11:39:02 SPECI KLNK 031739Z 32013G21KT 2SM -SN BR BKN010 BKN014 OVC019 00/M02 A2953 RMK AO2 SNB03 P0000 T00001017 (RT),,,,,,,,,,3/26/2007
USW00014939,2023-01-03T11:52:00,40.8508,-96.7475,362.7,"LINCOLN AIRPORT, NE US",FM-16,343,1000,-2,0,,-SN:03 BR:1 |SN BR |SN,,,87,BKN:07 2.44 OVC:08 3.66,,957.7,3.219,-0.9,310,,6.7,,,,,,,,,,,,,,,,,,,,,,,,,,,,,,,,,,,,,,,,,,,,,,,,,,,,,,,,,,,,,,,,,,,,,,,,,,,,,,,,,,,,,,,,,,,MET11201/03/23 11:52:02 SPECI KLNK 031752Z 31013KT 2SM -SN BR BKN008 OVC012 00/M02 A2953 RMK AO2 SNB03 P0000 FIBI (RT),,,,,,,,,,3/26/2007
USW00014939,2023-01-03T11:54:00,40.8508,-96.7475,362.7,"LINCOLN AIRPORT, NE US",FM-15,343,1000,-2.2,0,T,-SN:03 BR:1 |SN BR |SN,0.8,2,85,OVC:08 3.05,1001,957.7,3.219,-0.9,310,,7.7,,,,,,,,,,,,,,,,,,,,,,,,,,,,,,,,,,,,,,,,,,,,,,,,,,,,,,,,,,,,,,,,,,,,,,,,,,,,,,,,,,,,,,,,,,,MET14101/03/23 11:54:02 METAR KLNK 031754Z 31015KT 2SM -SN BR OVC010 00/M02 A2953 RMK AO2 SNB03 SLP010 P0000 60000 T00001022 10011 20000 52008 (RT),,,,,,,,,,3/26/2007
USW00014939,2023-01-03T12:00:00,40.8508,-96.7475,362.7,"LINCOLN AIRPORT, NE US",FM-12,223,,-2.2,0,,||SN,0.8,2,85,,1001,957.4,,-0.9,310,,7.7,,,,,,,,,,,,,,,,,,,,,,,,,,,,,,,,,,,,,,,,,,,,,,,,,,,,,,,,,,,,,,,,,,,,,,,,,,,,,,,,,,,,,,,,,,,SYN09872551 11432 83115 10000 21022 39574 40010 52008 69901 771// 91754 333 10011 20000 96010 555 90318=,,,,,,,,,,3/26/2007
USW00014939,2023-01-03T12:52:00,40.8508,-96.7475,362.7,"LINCOLN AIRPORT, NE US",FM-16,343,1000.7,-4,-1,,,,,80,BKN:07 3.66 OVC:08 10.97,,958.3,16.093,-2.1,310,10.8,7.7,,,,,,,,,,,,,,,,,,,,,,,,,,,,,,,,,,,,,,,,,,,,,,,,,,,,,,,,,,,,,,,,,,,,,,,,,,,,,,,,,,,,,,,,,,,MET11001/03/23 12:52:02 SPECI KLNK 031852Z 31015G21KT 10SM BKN012 OVC036 M01/M04 A2955 RMK AO2 SNE13 P0000 FIBI (RC),,,,,,,,,,3/26/2007
USW00014939,2023-01-03T12:54:00,40.8508,-96.7475,362.7,"LINCOLN AIRPORT, NE US",FM-15,343,1000.7,-3.9,-1.1,T,,,,82,BKN:07 3.66 OVC:08 10.97,1001.7,958.3,16.093,-2.1,310,,7.7,,,,,,,,,,,,,,,,,,,,,,,,,,,,,,,,,,,,,,,,,,,,,,,,,,,,,,,,,,,,,,,,,,,,,,,,,,,,,,,,,,,,,,,,,,,MET11901/03/23 12:54:02 METAR KLNK 031854Z 31015KT 10SM BKN012 OVC036 M01/M04 A2955 RMK AO2 SNE13 SLP017 P0000 T10111039 (RC),,,,,,,,,,3/26/2007
USW00014939,2023-01-03T13:54:00,40.8508,-96.7475,362.7,"LINCOLN AIRPORT, NE US",FM-15,343,1001,-3.9,-1.1,0,,,,82,BKN:07 4.27 OVC:08 8.84,1002,958.7,12.875,-2.1,310,,7.2,,,,,,,,,,,,,,,,,,,,,,,,,,,,,,,,,,,,,,,,,,,,,,,,,,,,,,,,,,,,,,,,,,,,,,,,,,,,,,,,,,,,,,,,,,,MET10601/03/23 13:54:02 METAR KLNK 031954Z 31014KT 8SM BKN014 OVC029 M01/M04 A2956 RMK AO2 SLP020 T10111039 (RC),,,,,,,,,,3/26/2007
USW00014939,2023-01-03T14:49:00,40.8508,-96.7475,362.7,"LINCOLN AIRPORT, NE US",FM-16,343,1002,-5,-2,,,,,80,BKN:07 4.57 OVC:08 7.92,,959.7,16.093,-3.2,300,,5.7,,,,,,,,,,,,,,,,,,,,,,,,,,,,,,,,,,,,,,,,,,,,,,,,,,,,,,,,,,,,,,,,,,,,,,,,,,,,,,,,,,,,,,,,,,,MET09001/03/23 14:49:02 SPECI KLNK 032049Z 30011KT 10SM BKN015 OVC026 M02/M05 A2959 RMK AO2 (RC),,,,,,,,,,3/26/2007
USW00014939,2023-01-03T14:54:00,40.8508,-96.7475,362.7,"LINCOLN AIRPORT, NE US",FM-15,343,1002.4,-4.4,-1.7,0,,1.5,1,82,BKN:07 4.57 OVC:08 7.92,1003.3,960,16.093,-2.7,300,,6.7,,,,,,,,,,,,,,,,,,,,,,,,,,,,,,,,,,,,,,,,,,,,,,,,,,,,,,,,,,,,,,,,,,,,,,,,,,,,,,,,,,,,,,,,,,,MET11901/03/23 14:54:02 METAR KLNK 032054Z 30013KT 10SM BKN015 OVC026 M02/M04 A2960 RMK AO2 SLP033 60000 T10171044 51015 (RC),,,,,,,,,,3/26/2007
USW00014939,2023-01-03T15:54:00,40.8508,-96.7475,362.7,"LINCOLN AIRPORT, NE US",FM-15,343,1003,-5,-1.7,0,,,,78,BKN:07 4.57 OVC:08 7.01,1004,960.6,16.093,-2.8,310,11.8,7.2,,,,,,,,,,,,,,,,,,,,,,,,,,,,,,,,,,,,,,,,,,,,,,,,,,,,,,,,,,,,,,,,,,,,,,,,,,,,,,,,,,,,,,,,,,,MET11001/03/23 15:54:02 METAR KLNK 032154Z 31014G23KT 10SM BKN015 OVC023 M02/M05 A2962 RMK AO2 SLP040 T10171050 (RC),,,,,,,,,,3/26/2007
USW00014939,2023-01-03T16:54:00,40.8508,-96.7475,362.7,"LINCOLN AIRPORT, NE US",FM-15,343,1004.1,-5,-1.7,0,,,,78,OVC:08 4.88,1005.1,961.6,16.093,-2.8,300,,5.1,,,,,,,,,,,,,,,,,,,,,,,,,,,,,,,,,,,,,,,,,,,,,,,,,,,,,,,,,,,,,,,,,,,,,,,,,,,,,,,,,,,,,,,,,,,MET10001/03/23 16:54:02 METAR KLNK 032254Z 30010KT 10SM OVC016 M02/M05 A2965 RMK AO2 SLP051 T10171050 (RC),,,,,,,,,,3/26/2007
USW00014939,2023-01-03T17:04:00,40.8508,-96.7475,362.7,"LINCOLN AIRPORT, NE US",FM-16,343,1004.1,-4.4,-1.7,,,,,82,OVC:08 4.27,,961.6,16.093,-2.7,300,,7.2,,,,,,,,,,,,,,,,,,,,,,,,,,,,,,,,,,,,,,,,,,,,,,,,,,,,,,,,,,,,,,,,,,,,,,,,,,,,,,,,,,,,,,,,,,,MET09301/03/23 17:04:02 SPECI KLNK 032304Z 30014KT 10SM OVC014 M02/M04 A2965 RMK AO2 T10171044 (RC),,,,,,,,,,3/26/2007
USW00014939,2023-01-03T17:54:00,40.8508,-96.7475,362.7,"LINCOLN AIRPORT, NE US",FM-15,343,1004.7,-5,-1.7,0,,2.3,1,78,OVC:08 4.27,1005.8,962.3,16.093,-2.8,300,,5.7,,,,,,,,,,,,,,,,,,,,,,,,,,,,,,,,,,,,,,,,,,,,,,,,,,,,,,,,,,,,,,,,,,,,,,,,,,,,,,,,,,,,,,,,,,,MET12401/03/23 17:54:02 METAR KLNK 032354Z 30011KT 10SM OVC014 M02/M05 A2967 RMK AO2 SLP058 60000 T10171050 10000 21017 51023 (RC),,,,,,,,,,3/26/2007
USW00014939,2023-01-03T18:00:00,40.8508,-96.7475,362.7,"LINCOLN AIRPORT, NE US",FM-12,223,,-5,-1.7,,,2.3,1,78,,1005.8,962,,-2.8,300,,5.7,,,,,,,,,,,,,,,,,,,,,,,,,,,,,,,,,,,,,,,,,,,,,,,,,,,,,,,,,,,,,,,,,,,,,,,,,,,,,,,,,,,,,,,,,,,SYN08672551 12466 83011 11017 21050 39620 40058 51023 69901 92354 333 10011 21017 555 90400=,,,,,,,,,,3/26/2007
USW00014939,2023-01-03T18:54:00,40.8508,-96.7475,362.7,"LINCOLN AIRPORT, NE US",FM-15,343,1005.8,-5,-1.1,0,,,,75,OVC:08 4.27,1006.6,963.2,16.093,-2.5,300,,5.7,,,,,,,,,,,,,,,,,,,,,,,,,,,,,,,,,,,,,,,,,,,,,,,,,,,,,,,,,,,,,,,,,,,,,,,,,,,,,,,,,,,,,,,,,,,MET09501/03/23 18:54:01 METAR KLNK 040054Z 30011KT 10SM OVC014 M01/M05 A2970 RMK AO2 SLP066 T10111050,,,,,,,,,,3/26/2007
USW00014939,2023-01-03T19:01:00,40.8508,-96.7475,362.7,"LINCOLN AIRPORT, NE US",FM-16,343,1005.8,-5,-1.1,,,,,75,OVC:08 4.27,,963.2,16.093,-2.5,300,,4.6,,,,,,,,,,,,,,,,,,,,,,,,,,,,,,,,,,,,,,,,,,,,,,,,,,,,,,,,,,,,,,,,,,,,,,,,,,,,,,,,,,,,,,,,,,,MET08801/03/23 19:01:01 SPECI KLNK 040101Z 30009KT 10SM OVC014 M01/M05 A2970 RMK AO2 T10111050,,,,,,,,,,3/26/2007
USW00014939,2023-01-03T19:54:00,40.8508,-96.7475,362.7,"LINCOLN AIRPORT, NE US",FM-15,343,1006.4,-4.4,-1.1,0,,,,79,OVC:08 4.57,1007.3,963.9,16.093,-2.3,310,,4.6,,,,,,,,,,,,,,,,,,,,,,,,,,,,,,,,,,,,,,,,,,,,,,,,,,,,,,,,,,,,,,,,,,,,,,,,,,,,,,,,,,,,,,,,,,,MET09501/03/23 19:54:01 METAR KLNK 040154Z 31009KT 10SM OVC015 M01/M04 A2972 RMK AO2 SLP073 T10111044,,,,,,,,,,3/26/2007
USW00014939,2023-01-03T20:52:00,40.8508,-96.7475,362.7,"LINCOLN AIRPORT, NE US",FM-16,343,1006.8,-4,-1,,,,,80,OVC:08 4.27,,964.2,16.093,-2.1,310,12.4,8.2,,,,,,,,,,,,,,,,,,,,,,,,,,,,,,,,,,,,,,,,,,,,,,,,,,,,,,,,,,,,,,,,,,,,,,,,,,,,,,,,,,,,,,,,,,,MET09101/03/23 20:52:03 SPECI KLNK 040252Z 31016G24KT 10SM OVC014 M01/M04 A2973 RMK AO2 FIBI (HN),,,,,,,,,,3/26/2007
USW00014939,2023-01-03T20:54:00,40.8508,-96.7475,362.7,"LINCOLN AIRPORT, NE US",FM-15,343,1006.8,-3.9,-1.1,0,,1.9,1,82,OVC:08 4.27,1007.7,964.2,16.093,-2.1,320,12.4,8.8,,,,,,,,,,,,,,,,,,,,,,,,,,,,,,,,,,,,,,,,,,,,,,,,,,,,,,,,,,,,,,,,,,,,,,,,,,,,,,,,,,,,,,,,,,,MET10401/03/23 20:54:01 METAR KLNK 040254Z 32017G24KT 10SM OVC014 M01/M04 A2973 RMK AO2 SLP077 T10111039 51019,,,,,,,,,,3/26/2007
USW00014939,2023-01-03T21:54:00,40.8508,-96.7475,362.7,"LINCOLN AIRPORT, NE US",FM-15,343,1007.1,-3.9,-1.1,0,,,,82,OVC:08 3.35,1008.2,964.6,16.093,-2.1,300,,6.7,,,,,,,,,,,,,,,,,,,,,,,,,,,,,,,,,,,,,,,,,,,,,,,,,,,,,,,,,,,,,,,,,,,,,,,,,,,,,,,,,,,,,,,,,,,MET09501/03/23 21:54:01 METAR KLNK 040354Z 30013KT 10SM OVC011 M01/M04 A2974 RMK AO2 SLP082 T10111039,,,,,,,,,,3/26/2007
USW00014939,2023-01-03T22:54:00,40.8508,-96.7475,362.7,"LINCOLN AIRPORT, NE US",FM-15,343,1007.8,-3.9,-1.1,0,,,,82,OVC:08 3.96,1008.7,965.2,16.093,-2.1,310,,6.7,,,,,,,,,,,,,,,,,,,,,,,,,,,,,,,,,,,,,,,,,,,,,,,,,,,,,,,,,,,,,,,,,,,,,,,,,,,,,,,,,,,,,,,,,,,MET09501/03/23 22:54:01 METAR KLNK 040454Z 31013KT 10SM OVC013 M01/M04 A2976 RMK AO2 SLP087 T10111039,,,,,,,,,,3/26/2007
USW00014939,2023-01-03T23:54:00,40.8508,-96.7475,362.7,"LINCOLN AIRPORT, NE US",FM-15,343,1007.5,-3.9,-0.6,0,,0.7,0,79,OVC:08 4.27,1008.5,964.9,16.093,-1.8,310,12.4,7.2,,,,,,,,,,,,,,,,,,,,,,,,,,,,,,,,,,,,,,,,,,,,,,,,,,,,,,,,,,,,,,,,,,,,,,,,,,,,,,,,,,,,,,,,,,,MET12601/03/23 23:54:01 METAR KLNK 040554Z 31014G24KT 10SM OVC014 M01/M04 A2975 RMK AO2 SLP085 T10061039 11006 21017 400111017 50007,,,,,,,,,,3/26/2007
USW00014939,2023-01-04T00:00:00,40.8508,-96.7475,362.7,"LINCOLN AIRPORT, NE US",FM-12,223,,-3.9,-0.6,,,0.7,9,79,,1008.5,964.6,,-1.8,310,,7.2,,,,,,,,,,,,,,,,,,,,,,,,,,,,,,,,,,,,,,,,,,,,,,,,,,,,,,,,,,,,,,,,,,,,,,,,,,,,,,,,,,,,,,,,,,,SYN08672551 35466 83114 11006 21039 39646 40085 50007 90554 333 10011 21017 91024 555 90406=,,,,,,,,,,3/26/2007
USW00014939,2023-01-04T00:00:00,40.8508,-96.7475,362.7,"LINCOLN AIRPORT, NE US",SOD,,,,,,,,,,,,,,,,,,752,1712,-5,-0.2,70,1012.2,968.8,-1.7,6.4,0,3.58,18.5,1.1,-1.6,320,13,T,T,T,310,10.3,SN,,,,,,,,,,,,,,,,,,,,,,,,,,,,,,,,,,,,,,,,,,,,,,,,,,,,,,,,,,,,,,,,,,,,,,,,,,,,,,,3/26/2007
USW00014939,2023-01-04T00:27:00,40.8508,-96.7475,362.7,"LINCOLN AIRPORT, NE US",FM-16,343,1007.5,-3.9,-0.6,,,,,79,OVC:08 4.88,,964.9,16.093,-1.8,320,12.9,7.2,,,,,,,,,,,,,,,,,,,,,,,,,,,,,,,,,,,,,,,,,,,,,,,,,,,,,,,,,,,,,,,,,,,,,,,,,,,,,,,,,,,,,,,,,,,MET09101/04/23 00:27:02 SPECI KLNK 040627Z 32014G25KT 10SM OVC016 M01/M04 A2975 RMK AO2 T10061039,,,,,,,,,,3/26/2007
USW00014939,2023-01-04T00:54:00,40.8508,-96.7475,362.7,"LINCOLN AIRPORT, NE US",FM-15,343,1007.8,-3.3,-0.6,0,,,,82,OVC:08 4.88,1008.8,965.2,16.093,-1.6,310,11.3,6.2,,,,,,,,,,,,,,,,,,,,,,,,,,,,,,,,,,,,,,,,,,,,,,,,,,,,,,,,,,,,,,,,,,,,,,,,,,,,,,,,,,,,,,,,,,,MET09801/04/23 00:54:02 METAR KLNK 040654Z 31012G22KT 10SM OVC016 M01/M03 A2976 RMK AO2 SLP088 T10061033,,,,,,,,,,3/26/2007
USW00014939,2023-01-04T01:54:00,40.8508,-96.7475,362.7,"LINCOLN AIRPORT, NE US",FM-15,343,1007.8,-3.9,-0.6,0,,,,79,BKN:07 4.88 OVC:08 7.32,1008.7,965.2,16.093,-1.8,300,,6.2,,,,,,,,,,,,,,,,,,,,,,,,,,,,,,,,,,,,,,,,,,,,,,,,,,,,,,,,,,,,,,,,,,,,,,,,,,,,,,,,,,,,,,,,,,,MET10201/04/23 01:54:02 METAR KLNK 040754Z 30012KT 10SM BKN016 OVC024 M01/M04 A2976 RMK AO2 SLP087 T10061039,,,,,,,,,,3/26/2007
USW00014939,2023-01-04T02:05:00,40.8508,-96.7475,362.7,"LINCOLN AIRPORT, NE US",FM-16,343,1007.8,-3.9,-0.6,,,,,79,OVC:08 5.79,,965.2,16.093,-1.8,300,,6.2,,,,,,,,,,,,,,,,,,,,,,,,,,,,,,,,,,,,,,,,,,,,,,,,,,,,,,,,,,,,,,,,,,,,,,,,,,,,,,,,,,,,,,,,,,,MET08801/04/23 02:05:02 SPECI KLNK 040805Z 30012KT 10SM OVC019 M01/M04 A2976 RMK AO2 T10061039,,,,,,,,,,3/26/2007
USW00014939,2023-01-04T02:54:00,40.8508,-96.7475,362.7,"LINCOLN AIRPORT, NE US",FM-15,343,1008.1,-5,-1.1,0,,0.4,3,75,SCT:04 5.79 BKN:07 8.84 BKN:07 13.41,1009.2,965.5,16.093,-2.5,310,,5.1,,,,,,,,,,,,,,,,,,,,,,,,,,,,,,,,,,,,,,,,,,,,,,,,,,,,,,,,,,,,,,,,,,,,,,,,,,,,,,,,,,,,,,,,,,,MET11501/04/23 02:54:02 METAR KLNK 040854Z 31010KT 10SM SCT019 BKN029 BKN044 M01/M05 A2977 RMK AO2 SLP092 T10111050 53004,,,,,,,,,,3/26/2007
USW00014939,2023-01-04T03:01:00,40.8508,-96.7475,362.7,"LINCOLN AIRPORT, NE US",FM-16,343,1008.1,-5,-1.1,,,,,75,FEW:02 5.79 SCT:04 8.84 BKN:07 14.02,,965.5,16.093,-2.5,310,,5.1,,,,,,,,,,,,,,,,,,,,,,,,,,,,,,,,,,,,,,,,,,,,,,,,,,,,,,,,,,,,,,,,,,,,,,,,,,,,,,,,,,,,,,,,,,,MET10201/04/23 03:01:02 SPECI KLNK 040901Z 31010KT 10SM FEW019 SCT029 BKN046 M01/M05 A2977 RMK AO2 T10111050,,,,,,,,,,3/26/2007
USW00014939,2023-01-04T03:54:00,40.8508,-96.7475,362.7,"LINCOLN AIRPORT, NE US",FM-15,343,1008.1,-5,-1.1,0,,,,75,BKN:07 33.53,1009.3,965.5,16.093,-2.5,310,,5.1,,,,,,,,,,,,,,,,,,,,,,,,,,,,,,,,,,,,,,,,,,,,,,,,,,,,,,,,,,,,,,,,,,,,,,,,,,,,,,,,,,,,,,,,,,,MET09501/04/23 03:54:02 METAR KLNK 040954Z 31010KT 10SM BKN110 M01/M05 A2977 RMK AO2 SLP093 T10111050,,,,,,,,,,3/26/2007
USW00014939,2023-01-04T04:54:00,40.8508,-96.7475,362.7,"LINCOLN AIRPORT, NE US",FM-15,343,1008.1,-5,-1.1,0,,,,75,CLR:00,1009.4,965.5,16.093,-2.5,300,,5.1,,,,,,,,,,,,,,,,,,,,,,,,,,,,,,,,,,,,,,,,,,,,,,,,,,,,,,,,,,,,,,,,,,,,,,,,,,,,,,,,,,,,,,,,,,,MET09201/04/23 04:54:02 METAR KLNK 041054Z 30010KT 10SM CLR M01/M05 A2977 RMK AO2 SLP094 T10111050,,,,,,,,,,3/26/2007
USW00014939,2023-01-04T05:31:00,40.8508,-96.7475,362.7,"LINCOLN AIRPORT, NE US",FM-16,343,1008.5,-5,-1.1,,,,,75,BKN:07 5.18,,965.9,16.093,-2.5,280,,6.2,,,,,,,,,,,,,,,,,,,,,,,,,,,,,,,,,,,,,,,,,,,,,,,,,,,,,,,,,,,,,,,,,,,,,,,,,,,,,,,,,,,,,,,,,,,MET08801/04/23 05:31:02 SPECI KLNK 041131Z 28012KT 10SM BKN017 M01/M05 A2978 RMK AO2 T10111050,,,,,,,,,,3/26/2007
USW00014939,2023-01-04T05:52:00,40.8508,-96.7475,362.7,"LINCOLN AIRPORT, NE US",FM-16,343,1008.8,-5,-1,,,,,75,SCT:04 4.88 BKN:07 36.58,,966.2,16.093,-2.5,290,,6.7,,,,,,,,,,,,,,,,,,,,,,,,,,,,,,,,,,,,,,,,,,,,,,,,,,,,,,,,,,,,,,,,,,,,,,,,,,,,,,,,,,,,,,,,,,,MET09501/04/23 05:52:02 SPECI KLNK 041152Z 29013KT 10SM SCT016 BKN120 M01/M05 A2979 RMK AO2 FIBI (CK),,,,,,,,,,3/26/2007
USW00014939,2023-01-04T05:54:00,40.8508,-96.7475,362.7,"LINCOLN AIRPORT, NE US",FM-15,343,1008.8,-5,-1.1,0,,0.7,3,75,SCT:04 4.88 BKN:07 36.58,1009.9,966.2,16.093,-2.5,290,,6.7,,,,,,,,,,,,,,,,,,,,,,,,,,,,,,,,,,,,,,,,,,,,,,,,,,,,,,,,,,,,,,,,,,,,,,,,,,,,,,,,,,,,,,,,,,,MET12501/04/23 05:54:02 METAR KLNK 041154Z 29013KT 10SM SCT016 BKN120 M01/M05 A2979 RMK AO2 SLP099 T10111050 10000 21011 53007 (CK),,,,,,,,,,3/26/2007
USW00014939,2023-01-04T06:00:00,40.8508,-96.7475,362.7,"LINCOLN AIRPORT, NE US",FM-12,223,,-5,-1.1,,,0.7,3,75,,1009.9,965.9,,-2.5,290,,6.7,,,,,,,,,,,,,,,,,,,,,,,,,,,,,,,,,,,,,,,,,,,,,,,,,,,,,,,,,,,,,,,,,,,,,,,,,,,,,,,,,,,,,,,,,,,SYN08072551 32466 62913 11011 21050 39659 40099 53007 91154 333 10011 21017 555 90412=,,,,,,,,,,3/26/2007
USW00014939,2023-01-04T06:54:00,40.8508,-96.7475,362.7,"LINCOLN AIRPORT, NE US",FM-15,343,1009.1,-5.6,-1.7,0,,,,75,SCT:04 19.81 BKN:07 24.38,1010.5,966.5,16.093,-3,300,,6.2,,,,,,,,,,,,,,,,,,,,,,,,,,,,,,,,,,,,,,,,,,,,,,,,,,,,,,,,,,,,,,,,,,,,,,,,,,,,,,,,,,,,,,,,,,,MET10701/04/23 06:54:02 METAR KLNK 041254Z 30012KT 10SM SCT065 BKN080 M02/M06 A2980 RMK AO2 SLP105 T10171056 (CK),,,,,,,,,,3/26/2007
USW00014939,2023-01-04T07:54:00,40.8508,-96.7475,362.7,"LINCOLN AIRPORT, NE US",FM-15,343,1009.8,-5.6,-1.1,0,,,,72,FEW:02 16.76 OVC:08 22.86,1011,967.2,16.093,-2.7,300,,5.1,,,,,,,,,,,,,,,,,,,,,,,,,,,,,,,,,,,,,,,,,,,,,,,,,,,,,,,,,,,,,,,,,,,,,,,,,,,,,,,,,,,,,,,,,,,MET10701/04/23 07:54:02 METAR KLNK 041354Z 30010KT 10SM FEW055 OVC075 M01/M06 A2982 RMK AO2 SLP110 T10111056 (CK),,,,,,,,,,3/26/2007
USW00014939,2023-01-04T08:54:00,40.8508,-96.7475,362.7,"LINCOLN AIRPORT, NE US",FM-15,343,1010.2,-5,-1.1,0,,1.4,1,75,OVC:08 19.81,1011.3,967.5,16.093,-2.5,310,,5.7,,,,,,,,,,,,,,,,,,,,,,,,,,,,,,,,,,,,,,,,,,,,,,,,,,,,,,,,,,,,,,,,,,,,,,,,,,,,,,,,,,,,,,,,,,,MET10601/04/23 08:54:02 METAR KLNK 041454Z 31011KT 10SM OVC065 M01/M05 A2983 RMK AO2 SLP113 T10111050 51014 (RC),,,,,,,,,,3/26/2007
USW00014939,2023-01-04T09:54:00,40.8508,-96.7475,362.7,"LINCOLN AIRPORT, NE US",FM-15,343,1010.5,-5,-0.6,0,,,,72,BKN:07 18.29 OVC:08 22.86,1011.6,967.8,16.093,-2.1,300,11.3,7.7,,,,,,,,,,,,,,,,,,,,,,,,,,,,,,,,,,,,,,,,,,,,,,,,,,,,,,,,,,,,,,,,,,,,,,,,,,,,,,,,,,,,,,,,,,,MET11001/04/23 09:54:02 METAR KLNK 041554Z 30015G22KT 10SM BKN060 OVC075 M01/M05 A2984 RMK AO2 SLP116 T10061050 (RC),,,,,,,,,,3/26/2007
USW00014939,2023-01-04T10:34:00,40.8508,-96.7475,362.7,"LINCOLN AIRPORT, NE US",FM-16,343,1011.2,-4.4,-0.6,T,-SN:03 |SN |SN,,,76,BKN:07 12.19 OVC:08 14.94,,968.5,3.219,-2,300,,6.7,,,,,,,,,,,,,,,,,,,,,,,,,,,,,,,,,,,,,,,,,,,,,,,,,,,,,,,,,,,,,,,,,,,,,,,,,,,,,,,,,,,,,,,,,,,MET13201/04/23 10:34:02 SPECI KLNK 041634Z 30013KT 2SM R36/6000VP6000FT -SN BKN040 OVC049 M01/M04 A2986 RMK AO2 SNB10 P0000 T10061044 (RC),,,,,,,,,,3/26/2007
USW00014939,2023-01-04T10:46:00,40.8508,-96.7475,362.7,"LINCOLN AIRPORT, NE US",FM-16,343,1010.8,-3.9,-0.6,T,-SN:03 |SN |SN,,,79,BKN:07 11.58 OVC:08 15.24,,968.2,6.437,-1.8,300,,7.7,,,,,,,,,,,,,,,,,,,,,,,,,,,,,,,,,,,,,,,,,,,,,,,,,,,,,,,,,,,,,,,,,,,,,,,,,,,,,,,,,,,,,,,,,,,MET11501/04/23 10:46:02 SPECI KLNK 041646Z 30015KT 4SM -SN BKN038 OVC050 M01/M04 A2985 RMK AO2 SNB10 P0000 T10061039 (RC),,,,,,,,,,3/26/2007
USW00014939,2023-01-04T10:54:00,40.8508,-96.7475,362.7,"LINCOLN AIRPORT, NE US",FM-15,343,1010.8,-3.9,-0.6,T,-SN:03 |SN |SN,,,79,BKN:07 11.58 BKN:07 13.72 OVC:08 15.24,1012.1,968.2,4.023,-1.8,300,9.8,5.1,,,,,,,,,,,,,,,,,,,,,,,,,,,,,,,,,,,,,,,,,,,,,,,,,,,,,,,,,,,,,,,,,,,,,,,,,,,,,,,,,,,,,,,,,,,MET13601/04/23 10:54:02 METAR KLNK 041654Z 30010G19KT 2 1/2SM -SN BKN038 BKN045 OVC050 M01/M04 A2985 RMK AO2 SNB10 SLP121 P0000 T10061039 (RC),,,,,,,,,,3/26/2007
USW00014939,2023-01-04T11:08:00,40.8508,-96.7475,362.7,"LINCOLN AIRPORT, NE US",FM-16,343,1010.8,-3.9,0,T,-SN:03 |SN |SN,,,75,BKN:07 12.5 OVC:08 15.24,,968.2,9.656,-1.4,300,,7.2,,,,,,,,,,,,,,,,,,,,,,,,,,,,,,,,,,,,,,,,,,,,,,,,,,,,,,,,,,,,,,,,,,,,,,,,,,,,,,,,,,,,,,,,,,,MET10801/04/23 11:08:02 SPECI KLNK 041708Z 30014KT 6SM -SN BKN041 OVC050 00/M04 A2985 RMK AO2 P0000 T00001039 (RC),,,,,,,,,,3/26/2007
USW00014939,2023-01-04T11:54:00,40.8508,-96.7475,362.7,"LINCOLN AIRPORT, NE US",FM-15,343,1010.8,-3.9,0.6,T,,0.5,0,72,SCT:04 10.97 OVC:08 19.81,1011.7,968.2,16.093,-1.1,300,10.8,6.7,,,,,,,,,,,,,,,,,,,,,,,,,,,,,,,,,,,,,,,,,,,,,,,,,,,,,,,,,,,,,,,,,,,,,,,,,,,,,,,,,,,,,,,,,,,MET14501/04/23 11:54:02 METAR KLNK 041754Z 30013G21KT 10SM SCT036 OVC065 01/M04 A2985 RMK AO2 SNE12 SLP117 P0000 60000 T00061039 10006 21017 50005 (RC),,,,,,,,,,3/26/2007
USW00014939,2023-01-04T12:00:00,40.8508,-96.7475,362.7,"LINCOLN AIRPORT, NE US",FM-12,223,,-3.9,0.6,,,0.5,9,72,,1011.7,967.9,,-1.1,300,,6.7,,,,,,,,,,,,,,,,,,,,,,,,,,,,,,,,,,,,,,,,,,,,,,,,,,,,,,,,,,,,,,,,,,,,,,,,,,,,,,,,,,,,,,,,,,,SYN09272551 12666 83013 10006 21039 39679 40117 50005 69901 91754 333 10006 21017 91021 555 90418=,,,,,,,,,,3/26/2007
USW00014939,2023-01-04T12:54:00,40.8508,-96.7475,362.7,"LINCOLN AIRPORT, NE US",FM-15,343,1010.5,-4.4,0.6,0,,,,70,FEW:02 6.4 BKN:07 8.84 OVC:08 13.72,1011.7,967.8,16.093,-1.3,320,12.4,7.2,,,,,,,,,,,,,,,,,,,,,,,,,,,,,,,,,,,,,,,,,,,,,,,,,,,,,,,,,,,,,,,,,,,,,,,,,,,,,,,,,,,,,,,,,,,MET11601/04/23 12:54:02 METAR KLNK 041854Z 32014G24KT 10SM FEW021 BKN029 OVC045 01/M04 A2984 RMK AO2 SLP117 T00061044 (RC),,,,,,,,,,3/26/2007
USW00014939,2023-01-04T13:16:00,40.8508,-96.7475,362.7,"LINCOLN AIRPORT, NE US",FM-16,343,1010.5,-3.9,1.1,,,,,70,SCT:04 6.71 OVC:08 9.45,,967.8,16.093,-0.8,310,12.4,9.3,,,,,,,,,,,,,,,,,,,,,,,,,,,,,,,,,,,,,,,,,,,,,,,,,,,,,,,,,,,,,,,,,,,,,,,,,,,,,,,,,,,,,,,,,,,MET10201/04/23 13:16:02 SPECI KLNK 041916Z 31018G24KT 10SM SCT022 OVC031 01/M04 A2984 RMK AO2 T00111039 (RC),,,,,,,,,,3/26/2007
USW00014939,2023-01-04T13:54:00,40.8508,-96.7475,362.7,"LINCOLN AIRPORT, NE US",FM-15,343,1010.8,-3.9,1.1,0,,,,70,SCT:04 6.71 OVC:08 9.45,1011.8,968.2,16.093,-0.8,320,11.8,7.7,,,,,,,,,,,,,,,,,,,,,,,,,,,,,,,,,,,,,,,,,,,,,,,,,,,,,,,,,,,,,,,,,,,,,,,,,,,,,,,,,,,,,,,,,,,MET10901/04/23 13:54:02 METAR KLNK 041954Z 32015G23KT 10SM SCT022 OVC031 01/M04 A2985 RMK AO2 SLP118 T00111039 (RC),,,,,,,,,,3/26/2007
USW00014939,2023-01-04T14:54:00,40.8508,-96.7475,362.7,"LINCOLN AIRPORT, NE US",FM-15,343,1011.5,-3.9,1.1,0,,0.7,3,70,FEW:02 8.84 OVC:08 10.97,1012.4,968.8,16.093,-0.8,300,,7.7,,,,,,,,,,,,,,,,,,,,,,,,,,,,,,,,,,,,,,,,,,,,,,,,,,,,,,,,,,,,,,,,,,,,,,,,,,,,,,,,,,,,,,,,,,,MET11201/04/23 14:54:02 METAR KLNK 042054Z 30015KT 10SM FEW029 OVC036 01/M04 A2987 RMK AO2 SLP124 T00111039 53007 (RC),,,,,,,,,,3/26/2007
USW00014939,2023-01-04T15:08:00,40.8508,-96.7475,362.7,"LINCOLN AIRPORT, NE US",FM-16,343,1011.5,-3.9,1.1,,,,,70,BKN:07 8.84 OVC:08 11.58,,968.8,16.093,-0.8,320,11.3,6.2,,,,,,,,,,,,,,,,,,,,,,,,,,,,,,,,,,,,,,,,,,,,,,,,,,,,,,,,,,,,,,,,,,,,,,,,,,,,,,,,,,,,,,,,,,,MET10201/04/23 15:08:02 SPECI KLNK 042108Z 32012G22KT 10SM BKN029 OVC038 01/M04 A2987 RMK AO2 T00111039 (RC),,,,,,,,,,3/26/2007
USW00014939,2023-01-04T15:54:00,40.8508,-96.7475,362.7,"LINCOLN AIRPORT, NE US",FM-15,343,1012.2,-4.4,1.1,0,,,,67,OVC:08 7.01,1013.3,969.5,16.093,-0.9,310,,7.2,,,,,,,,,,,,,,,,,,,,,,,,,,,,,,,,,,,,,,,,,,,,,,,,,,,,,,,,,,,,,,,,,,,,,,,,,,,,,,,,,,,,,,,,,,,MET09901/04/23 15:54:02 METAR KLNK 042154Z 31014KT 10SM OVC023 01/M04 A2989 RMK AO2 SLP133 T00111044 (RC),,,,,,,,,,3/26/2007
USW00014939,2023-01-04T16:54:00,40.8508,-96.7475,362.7,"LINCOLN AIRPORT, NE US",FM-15,343,1012.9,-5,1.1,0,,,,64,FEW:02 7.92 OVC:08 10.67,1014.1,970.1,16.093,-1.1,300,,5.1,,,,,,,,,,,,,,,,,,,,,,,,,,,,,,,,,,,,,,,,,,,,,,,,,,,,,,,,,,,,,,,,,,,,,,,,,,,,,,,,,,,,,,,,,,,MET10601/04/23 16:54:02 METAR KLNK 042254Z 30010KT 10SM FEW026 OVC035 01/M05 A2991 RMK AO2 SLP141 T00111050 (WC),,,,,,,,,,3/26/2007
USW00014939,2023-01-04T17:54:00,40.8508,-96.7475,362.7,"LINCOLN AIRPORT, NE US",FM-15,343,1013.5,-5.6,0.6,0,,2.1,1,64,BKN:07 13.11 OVC:08 18.29,1014.6,970.8,16.093,-1.6,300,10.3,6.2,,,,,,,,,,,,,,,,,,,,,,,,,,,,,,,,,,,,,,,,,,,,,,,,,,,,,,,,,,,,,,,,,,,,,,,,,,,,,,,,,,,,,,,,,,,MET12701/04/23 17:54:02 METAR KLNK 042354Z 30012G20KT 10SM BKN043 OVC060 01/M06 A2993 RMK AO2 SLP146 T00061056 10011 20006 51021 (WC),,,,,,,,,,3/26/2007
USW00014939,2023-01-04T18:00:00,40.8508,-96.7475,362.7,"LINCOLN AIRPORT, NE US",FM-12,223,,-5.6,0.6,,,2.1,1,64,,1014.6,970.5,,-1.6,300,,6.2,,,,,,,,,,,,,,,,,,,,,,,,,,,,,,,,,,,,,,,,,,,,,,,,,,,,,,,,,,,,,,,,,,,,,,,,,,,,,,,,,,,,,,,,,,,SYN08672551 32666 83012 10006 21056 39705 40146 51021 92354 333 10011 21010 91020 555 90500=,,,,,,,,,,3/26/2007
USW00014939,2023-01-04T18:54:00,40.8508,-96.7475,362.7,"LINCOLN AIRPORT, NE US",FM-15,343,1013.9,-5.6,1.1,0,,,,61,OVC:08 9.75,1014.9,971.1,16.093,-1.3,290,11.3,8.2,,,,,,,,,,,,,,,,,,,,,,,,,,,,,,,,,,,,,,,,,,,,,,,,,,,,,,,,,,,,,,,,,,,,,,,,,,,,,,,,,,,,,,,,,,,MET09701/04/23 18:54:01 METAR KLNK 050054Z 29016G22KT 10SM OVC032 01/M06 A2994 RMK AO2 SLP149 T00111056,,,,,,,,,,3/26/2007
USW00014939,2023-01-04T19:54:00,40.8508,-96.7475,362.7,"LINCOLN AIRPORT, NE US",FM-15,343,1014.2,-5.6,0.6,0,,,,64,BKN:07 18.29 OVC:08 25.91,1015.2,971.4,16.093,-1.6,300,,7.7,,,,,,,,,,,,,,,,,,,,,,,,,,,,,,,,,,,,,,,,,,,,,,,,,,,,,,,,,,,,,,,,,,,,,,,,,,,,,,,,,,,,,,,,,,,MET10101/04/23 19:54:01 METAR KLNK 050154Z 30015KT 10SM BKN060 OVC085 01/M06 A2995 RMK AO2 SLP152 T00061056,,,,,,,,,,3/26/2007
USW00014939,2023-01-04T20:54:00,40.8508,-96.7475,362.7,"LINCOLN AIRPORT, NE US",FM-15,343,1014.6,-6.1,0.6,0,,0.8,2,61,OVC:08 24.38,1015.5,971.8,16.093,-1.8,300,10.8,6.7,,,,,,,,,,,,,,,,,,,,,,,,,,,,,,,,,,,,,,,,,,,,,,,,,,,,,,,,,,,,,,,,,,,,,,,,,,,,,,,,,,,,,,,,,,,MET10301/04/23 20:54:01 METAR KLNK 050254Z 30013G21KT 10SM OVC080 01/M06 A2996 RMK AO2 SLP155 T00061061 52008,,,,,,,,,,3/26/2007
USW00014939,2023-01-04T21:54:00,40.8508,-96.7475,362.7,"LINCOLN AIRPORT, NE US",FM-15,343,1014.6,-6.1,0,0,,,,64,SCT:04 36.58,1015.6,971.8,16.093,-2.1,290,,5.7,,,,,,,,,,,,,,,,,,,,,,,,,,,,,,,,,,,,,,,,,,,,,,,,,,,,,,,,,,,,,,,,,,,,,,,,,,,,,,,,,,,,,,,,,,,MET09401/04/23 21:54:01 METAR KLNK 050354Z 29011KT 10SM SCT120 00/M06 A2996 RMK AO2 SLP156 T00001061,,,,,,,,,,3/26/2007
USW00014939,2023-01-04T22:54:00,40.8508,-96.7475,362.7,"LINCOLN AIRPORT, NE US",FM-15,343,1014.6,-5.6,-0.6,0,,,,69,SCT:04 15.24 BKN:07 24.38 OVC:08 33.53,1015.6,971.8,16.093,-2.3,310,,6.2,,,,,,,,,,,,,,,,,,,,,,,,,,,,,,,,,,,,,,,,,,,,,,,,,,,,,,,,,,,,,,,,,,,,,,,,,,,,,,,,,,,,,,,,,,,MET10901/04/23 22:54:02 METAR KLNK 050454Z 31012KT 10SM SCT050 BKN080 OVC110 M01/M06 A2996 RMK AO2 SLP156 T10061056,,,,,,,,,,3/26/2007
USW00014939,2023-01-04T23:54:00,40.8508,-96.7475,362.7,"LINCOLN AIRPORT, NE US",FM-15,343,1014.6,-6.1,-0.6,0,,0.3,3,67,SCT:04 16.76,1015.7,971.8,16.093,-2.5,310,,6.7,,,,,,,,,,,,,,,,,,,,,,,,,,,,,,,,,,,,,,,,,,,,,,,,,,,,,,,,,,,,,,,,,,,,,,,,,,,,,,,,,,,,,,,,,,,MET12301/04/23 23:54:02 METAR KLNK 050554Z 31013KT 10SM SCT055 M01/M06 A2996 RMK AO2 SLP157 T10061061 10011 21011 400111017 53003,,,,,,,,,,3/26/2007
USW00014939,2023-01-05T00:00:00,40.8508,-96.7475,362.7,"LINCOLN AIRPORT, NE US",FM-12,223,,-6.1,-0.6,,,0.3,3,67,,1015.7,971.5,,-2.5,310,,6.7,,,,,,,,,,,,,,,,,,,,,,,,,,,,,,,,,,,,,,,,,,,,,,,,,,,,,,,,,,,,,,,,,,,,,,,,,,,,,,,,,,,,,,,,,,,SYN08072551 32766 43113 11006 21061 39715 40157 53003 90554 333 10011 21011 555 90506=,,,,,,,,,,3/26/2007
USW00014939,2023-01-05T00:00:00,40.8508,-96.7475,362.7,"LINCOLN AIRPORT, NE US",SOD,,,,,,,,,,,,,,,,,,752,1713,-6.1,-1,68,1020,976.6,-2.8,4.4,0,2.83,19.3,3.9,-6,330,11.6,0,0,0,310,8.9,,,,,,,,,,,,,,,,,,,,,,,,,,,,,,,,,,,,,,,,,,,,,,,,,,,,,,,,,,,,,,,,,,,,,,,,,,,,,,,,3/26/2007
USW00014939,2023-01-05T00:54:00,40.8508,-96.7475,362.7,"LINCOLN AIRPORT, NE US",FM-15,343,1014.6,-6.7,-1.1,0,,,,66,FEW:02 18.29 FEW:02 27.43,1015.8,971.8,16.093,-3,300,,7.2,,,,,,,,,,,,,,,,,,,,,,,,,,,,,,,,,,,,,,,,,,,,,,,,,,,,,,,,,,,,,,,,,,,,,,,,,,,,,,,,,,,,,,,,,,,MET10701/05/23 00:54:02 METAR KLNK 050654Z 30014KT 10SM FEW060 FEW090 M01/M07 A2996 RMK AO2 SLP158 T10111067 (WC),,,,,,,,,,3/26/2007
USW00014939,2023-01-05T01:54:00,40.8508,-96.7475,362.7,"LINCOLN AIRPORT, NE US",FM-15,343,1014.9,-6.7,-1.7,0,,,,69,BKN:07 18.29,1016.1,972.1,16.093,-3.4,300,,5.7,,,,,,,,,,,,,,,,,,,,,,,,,,,,,,,,,,,,,,,,,,,,,,,,,,,,,,,,,,,,,,,,,,,,,,,,,,,,,,,,,,,,,,,,,,,MET10001/05/23 01:54:02 METAR KLNK 050754Z 30011KT 10SM BKN060 M02/M07 A2997 RMK AO2 SLP161 T10171067 (WC),,,,,,,,,,3/26/2007
USW00014939,2023-01-05T02:54:00,40.8508,-96.7475,362.7,"LINCOLN AIRPORT, NE US",FM-15,343,1015.6,-6.7,-2.2,0,,0.8,3,72,BKN:07 18.29,1016.6,972.7,16.093,-3.7,300,,6.7,,,,,,,,,,,,,,,,,,,,,,,,,,,,,,,,,,,,,,,,,,,,,,,,,,,,,,,,,,,,,,,,,,,,,,,,,,,,,,,,,,,,,,,,,,,MET10601/05/23 02:54:02 METAR KLNK 050854Z 30013KT 10SM BKN060 M02/M07 A2999 RMK AO2 SLP166 T10221067 53008 (WC),,,,,,,,,,3/26/2007
USW00014939,2023-01-05T03:40:00,40.8508,-96.7475,362.7,"LINCOLN AIRPORT, NE US",FM-16,343,1015.9,-6.7,-1.7,,,,,69,BKN:07 8.84,,973.1,16.093,-3.4,320,,6.2,,,,,,,,,,,,,,,,,,,,,,,,,,,,,,,,,,,,,,,,,,,,,,,,,,,,,,,,,,,,,,,,,,,,,,,,,,,,,,,,,,,,,,,,,,,MET09301/05/23 03:40:02 SPECI KLNK 050940Z 32012KT 10SM BKN029 M02/M07 A3000 RMK AO2 T10171067 (WC),,,,,,,,,,3/26/2007
USW00014939,2023-01-05T03:54:00,40.8508,-96.7475,362.7,"LINCOLN AIRPORT, NE US",FM-15,343,1015.9,-6.7,-1.7,0,,,,69,OVC:08 8.23,1016.9,973.1,16.093,-3.4,310,,6.2,,,,,,,,,,,,,,,,,,,,,,,,,,,,,,,,,,,,,,,,,,,,,,,,,,,,,,,,,,,,,,,,,,,,,,,,,,,,,,,,,,,,,,,,,,,MET10001/05/23 03:54:02 METAR KLNK 050954Z 31012KT 10SM OVC027 M02/M07 A3000 RMK AO2 SLP169 T10171067 (WC),,,,,,,,,,3/26/2007
USW00014939,2023-01-05T04:42:00,40.8508,-96.7475,362.7,"LINCOLN AIRPORT, NE US",FM-16,343,1016.3,-6.7,-1.7,,,,,69,SCT:04 8.23 OVC:08 21.34,,973.4,16.093,-3.4,310,11.3,7.2,,,,,,,,,,,,,,,,,,,,,,,,,,,,,,,,,,,,,,,,,,,,,,,,,,,,,,,,,,,,,,,,,,,,,,,,,,,,,,,,,,,,,,,,,,,MET10301/05/23 04:42:02 SPECI KLNK 051042Z 31014G22KT 10SM SCT027 OVC070 M02/M07 A3001 RMK AO2 T10171067 (WC),,,,,,,,,,3/26/2007
USW00014939,2023-01-05T04:54:00,40.8508,-96.7475,362.7,"LINCOLN AIRPORT, NE US",FM-15,343,1016.6,-6.7,-1.1,0,,,,66,FEW:02 14.33 OVC:08 19.81,1017.6,973.7,16.093,-3,310,,6.7,,,,,,,,,,,,,,,,,,,,,,,,,,,,,,,,,,,,,,,,,,,,,,,,,,,,,,,,,,,,,,,,,,,,,,,,,,,,,,,,,,,,,,,,,,,MET10701/05/23 04:54:02 METAR KLNK 051054Z 31013KT 10SM FEW047 OVC065 M01/M07 A3002 RMK AO2 SLP176 T10111067 (WC),,,,,,,,,,3/26/2007
USW00014939,2023-01-05T05:54:00,40.8508,-96.7475,362.7,"LINCOLN AIRPORT, NE US",FM-15,343,1017.3,-6.1,-1.1,0,,1.6,3,69,OVC:08 19.81,1018.2,974.4,16.093,-2.8,320,,6.7,,,,,,,,,,,,,,,,,,,,,,,,,,,,,,,,,,,,,,,,,,,,,,,,,,,,,,,,,,,,,,,,,,,,,,,,,,,,,,,,,,,,,,,,,,,MET11801/05/23 05:54:02 METAR KLNK 051154Z 32013KT 10SM OVC065 M01/M06 A3004 RMK AO2 SLP182 T10111061 11006 21022 53016 (JJ),,,,,,,,,,3/26/2007
USW00014939,2023-01-05T06:00:00,40.8508,-96.7475,362.7,"LINCOLN AIRPORT, NE US",FM-12,223,,-6.1,-1.1,,,1.6,3,69,,1018.2,974.1,,-2.8,320,,6.7,,,,,,,,,,,,,,,,,,,,,,,,,,,,,,,,,,,,,,,,,,,,,,,,,,,,,,,,,,,,,,,,,,,,,,,,,,,,,,,,,,,,,,,,,,,SYN08072551 32766 83213 11011 21061 39741 40182 53016 91154 333 10011 21022 555 90512=,,,,,,,,,,3/26/2007
USW00014939,2023-01-05T06:54:00,40.8508,-96.7475,362.7,"LINCOLN AIRPORT, NE US",FM-15,343,1017.3,-6.1,-1.1,0,,,,69,BKN:07 8.84 OVC:08 21.34,1018.4,974.4,16.093,-2.8,330,,6.2,,,,,,,,,,,,,,,,,,,,,,,,,,,,,,,,,,,,,,,,,,,,,,,,,,,,,,,,,,,,,,,,,,,,,,,,,,,,,,,,,,,,,,,,,,,MET10701/05/23 06:54:02 METAR KLNK 051254Z 33012KT 10SM BKN029 OVC070 M01/M06 A3004 RMK AO2 SLP184 T10111061 (JJ),,,,,,,,,,3/26/2007
USW00014939,2023-01-05T07:09:00,40.8508,-96.7475,362.7,"LINCOLN AIRPORT, NE US",FM-16,343,1017.3,-6.1,-1.1,,,,,69,SCT:04 8.84 BKN:07 21.34,,974.4,16.093,-2.8,330,,6.7,,,,,,,,,,,,,,,,,,,,,,,,,,,,,,,,,,,,,,,,,,,,,,,,,,,,,,,,,,,,,,,,,,,,,,,,,,,,,,,,,,,,,,,,,,,MET10001/05/23 07:09:02 SPECI KLNK 051309Z 33013KT 10SM SCT029 BKN070 M01/M06 A3004 RMK AO2 T10111061 (JJ),,,,,,,,,,3/26/2007
USW00014939,2023-01-05T07:54:00,40.8508,-96.7475,362.7,"LINCOLN AIRPORT, NE US",FM-15,343,1017.9,-6.7,-1.7,0,,,,69,BKN:07 21.34,1019.1,975,16.093,-3.4,320,,5.1,,,,,,,,,,,,,,,,,,,,,,,,,,,,,,,,,,,,,,,,,,,,,,,,,,,,,,,,,,,,,,,,,,,,,,,,,,,,,,,,,,,,,,,,,,,MET10001/05/23 07:54:02 METAR KLNK 051354Z 32010KT 10SM BKN070 M02/M07 A3006 RMK AO2 SLP191 T10171067 (JJ),,,,,,,,,,3/26/2007
USW00014939,2023-01-05T08:54:00,40.8508,-96.7475,362.7,"LINCOLN AIRPORT, NE US",FM-15,343,1019,-6.1,-1.1,0,,1.7,3,69,CLR:00,1019.9,976,16.093,-2.8,310,,4.6,,,,,,,,,,,,,,,,,,,,,,,,,,,,,,,,,,,,,,,,,,,,,,,,,,,,,,,,,,,,,,,,,,,,,,,,,,,,,,,,,,,,,,,,,,,MET10301/05/23 08:54:02 METAR KLNK 051454Z 31009KT 10SM CLR M01/M06 A3009 RMK AO2 SLP199 T10111061 53017 (JJ),,,,,,,,,,3/26/2007
USW00014939,2023-01-05T09:54:00,40.8508,-96.7475,362.7,"LINCOLN AIRPORT, NE US",FM-15,343,1019.6,-6.1,0,0,,,,64,CLR:00,1020.9,976.7,16.093,-2.1,320,,6.7,,,,,,,,,,,,,,,,,,,,,,,,,,,,,,,,,,,,,,,,,,,,,,,,,,,,,,,,,,,,,,,,,,,,,,,,,,,,,,,,,,,,,,,,,,,MET09601/05/23 09:54:02 METAR KLNK 051554Z 32013KT 10SM CLR 00/M06 A3011 RMK AO2 SLP209 T00001061 (RC),,,,,,,,,,3/26/2007
USW00014939,2023-01-05T10:54:00,40.8508,-96.7475,362.7,"LINCOLN AIRPORT, NE US",FM-15,343,1020.3,-6.1,0.6,0,,,,61,CLR:00,1021.5,977.3,16.093,-1.8,320,,7.2,,,,,,,,,,,,,,,,,,,,,,,,,,,,,,,,,,,,,,,,,,,,,,,,,,,,,,,,,,,,,,,,,,,,,,,,,,,,,,,,,,,,,,,,,,,MET09601/05/23 10:54:02 METAR KLNK 051654Z 32014KT 10SM CLR 01/M06 A3013 RMK AO2 SLP215 T00061061 (RC),,,,,,,,,,3/26/2007
USW00014939,2023-01-05T11:54:00,40.8508,-96.7475,362.7,"LINCOLN AIRPORT, NE US",FM-15,343,1020.3,-5.6,2.2,0,,1.4,0,57,CLR:00,1021.2,977.3,16.093,-0.6,320,,5.7,,,,,,,,,,,,,,,,,,,,,,,,,,,,,,,,,,,,,,,,,,,,,,,,,,,,,,,,,,,,,,,,,,,,,,,,,,,,,,,,,,,,,,,,,,,MET11401/05/23 11:54:02 METAR KLNK 051754Z 32011KT 10SM CLR 02/M06 A3013 RMK AO2 SLP212 T00221056 10022 21017 50014 (RC),,,,,,,,,,3/26/2007
USW00014939,2023-01-05T12:00:00,40.8508,-96.7475,362.7,"LINCOLN AIRPORT, NE US",FM-12,223,,-5.6,2.2,,,1.4,9,57,,1021.2,977.1,,-0.6,320,,5.7,,,,,,,,,,,,,,,,,,,,,,,,,,,,,,,,,,,,,,,,,,,,,,,,,,,,,,,,,,,,,,,,,,,,,,,,,,,,,,,,,,,,,,,,,,,SYN08072551 32966 03211 10022 21056 39771 40212 50014 91754 333 10022 21017 555 90518=,,,,,,,,,,3/26/2007
USW00014939,2023-01-05T12:54:00,40.8508,-96.7475,362.7,"LINCOLN AIRPORT, NE US",FM-15,343,1020,-5.6,2.8,0,,,,54,CLR:00,1021.1,977,16.093,-0.3,300,,5.7,,,,,,,,,,,,,,,,,,,,,,,,,,,,,,,,,,,,,,,,,,,,,,,,,,,,,,,,,,,,,,,,,,,,,,,,,,,,,,,,,,,,,,,,,,,MET09601/05/23 12:54:02 METAR KLNK 051854Z 30011KT 10SM CLR 03/M06 A3012 RMK AO2 SLP211 T00281056 (RC),,,,,,,,,,3/26/2007
USW00014939,2023-01-05T13:54:00,40.8508,-96.7475,362.7,"LINCOLN AIRPORT, NE US",FM-15,343,1019.6,-5,3.3,0,,,,55,CLR:00,1020.8,976.7,16.093,0.2,290,,5.1,,,,,,,,,,,,,,,,,,,,,,,,,,,,,,,,,,,,,,,,,,,,,,,,,,,,,,,,,,,,,,,,,,,,,,,,,,,,,,,,,,,,,,,,,,,MET09601/05/23 13:54:02 METAR KLNK 051954Z 29010KT 10SM CLR 03/M05 A3011 RMK AO2 SLP208 T00331050 (RC),,,,,,,,,,3/26/2007
USW00014939,2023-01-05T14:54:00,40.8508,-96.7475,362.7,"LINCOLN AIRPORT, NE US",FM-15,343,1020,-5.6,3.3,0,,-0.3,5,52,CLR:00,1021,977,16.093,0,300,,6.2,,,,,,,,,,,,,,,,,,,,,,,,,,,,,,,,,,,,,,,,,,,,,,,,,,,,,,,,,,,,,,,,,,,,,,,,,,,,,,,,,,,,,,,,,,,MET10201/05/23 14:54:02 METAR KLNK 052054Z 30012KT 10SM CLR 03/M06 A3012 RMK AO2 SLP210 T00331056 55003 (RC),,,,,,,,,,3/26/2007
USW00014939,2023-01-05T15:54:00,40.8508,-96.7475,362.7,"LINCOLN AIRPORT, NE US",FM-15,343,1020,-5.6,3.3,0,,,,52,CLR:00,1021.1,977,16.093,0,320,,5.1,,,,,,,,,,,,,,,,,,,,,,,,,,,,,,,,,,,,,,,,,,,,,,,,,,,,,,,,,,,,,,,,,,,,,,,,,,,,,,,,,,,,,,,,,,,MET09601/05/23 15:54:02 METAR KLNK 052154Z 32010KT 10SM CLR 03/M06 A3012 RMK AO2 SLP211 T00331056 (RC),,,,,,,,,,3/26/2007
USW00014939,2023-01-05T16:54:00,40.8508,-96.7475,362.7,"LINCOLN AIRPORT, NE US",FM-15,343,1020.3,-4.4,2.2,0,,,,62,CLR:00,1021.4,977.3,16.093,-0.3,310,,3.6,,,,,,,,,,,,,,,,,,,,,,,,,,,,,,,,,,,,,,,,,,,,,,,,,,,,,,,,,,,,,,,,,,,,,,,,,,,,,,,,,,,,,,,,,,,MET09601/05/23 16:54:02 METAR KLNK 052254Z 31007KT 10SM CLR 02/M04 A3013 RMK AO2 SLP214 T00221044 (RC),,,,,,,,,,3/26/2007
USW00014939,2023-01-05T17:54:00,40.8508,-96.7475,362.7,"LINCOLN AIRPORT, NE US",FM-15,343,1020.7,-5,0,0,,0.8,3,69,CLR:00,1021.9,977.6,16.093,-1.8,280,,2.6,,,,,,,,,,,,,,,,,,,,,,,,,,,,,,,,,,,,,,,,,,,,,,,,,,,,,,,,,,,,,,,,,,,,,,,,,,,,,,,,,,,,,,,,,,,MET11401/05/23 17:54:02 METAR KLNK 052354Z 28005KT 10SM CLR 00/M05 A3014 RMK AO2 SLP219 T00001050 10039 20000 53008 (RC),,,,,,,,,,3/26/2007
USW00014939,2023-01-05T18:00:00,40.8508,-96.7475,362.7,"LINCOLN AIRPORT, NE US",FM-12,223,,-5,0,,,0.8,3,69,,1021.9,977.4,,-1.8,280,,2.6,,,,,,,,,,,,,,,,,,,,,,,,,,,,,,,,,,,,,,,,,,,,,,,,,,,,,,,,,,,,,,,,,,,,,,,,,,,,,,,,,,,,,,,,,,,SYN08072551 32966 02805 10000 21050 39774 40219 53008 92354 333 10039 21021 555 90600=,,,,,,,,,,3/26/2007
USW00014939,2023-01-05T18:54:00,40.8508,-96.7475,362.7,"LINCOLN AIRPORT, NE US",FM-15,343,1021,-5.6,-1.7,0,,,,75,CLR:00,1022.2,978,16.093,-3,,,0,,,,,,,,,,,,,,,,,,,,,,,,,,,,,,,,,,,,,,,,,,,,,,,,,,,,,,,,,,,,,,,,,,,,,,,,,,,,,,,,,,,,,,,,,,,MET09201/05/23 18:54:01 METAR KLNK 060054Z 00000KT 10SM CLR M02/M06 A3015 RMK AO2 SLP222 T10171056,,,,,,,,,,3/26/2007
USW00014939,2023-01-05T19:54:00,40.8508,-96.7475,362.7,"LINCOLN AIRPORT, NE US",FM-15,343,1020.7,-6.7,-3.3,0,,,,78,CLR:00,1022.2,977.6,16.093,-4.4,,,0,,,,,,,,,,,,,,,,,,,,,,,,,,,,,,,,,,,,,,,,,,,,,,,,,,,,,,,,,,,,,,,,,,,,,,,,,,,,,,,,,,,,,,,,,,,MET09201/05/23 19:54:01 METAR KLNK 060154Z 00000KT 10SM CLR M03/M07 A3014 RMK AO2 SLP222 T10331067,,,,,,,,,,3/26/2007
USW00014939,2023-01-05T20:54:00,40.8508,-96.7475,362.7,"LINCOLN AIRPORT, NE US",FM-15,343,1021.3,-7.2,-5,0,,0.7,3,85,CLR:00,1022.9,978.3,16.093,-5.7,210,,2.1,,,,,,,,,,,,,,,,,,,,,,,,,,,,,,,,,,,,,,,,,,,,,,,,,,,,,,,,,,,,,,,,,,,,,,,,,,,,,,,,,,,,,,,,,,,MET09801/05/23 20:54:01 METAR KLNK 060254Z 21004KT 10SM CLR M05/M07 A3016 RMK AO2 SLP229 T10501072 53007,,,,,,,,,,3/26/2007
USW00014939,2023-01-05T21:54:00,40.8508,-96.7475,362.7,"LINCOLN AIRPORT, NE US",FM-15,343,1021.7,-6.7,-3.9,0,,,,81,CLR:00,1022.9,978.6,16.093,-4.8,,,0,,,,,,,,,,,,,,,,,,,,,,,,,,,,,,,,,,,,,,,,,,,,,,,,,,,,,,,,,,,,,,,,,,,,,,,,,,,,,,,,,,,,,,,,,,,MET09201/05/23 21:54:02 METAR KLNK 060354Z 00000KT 10SM CLR M04/M07 A3017 RMK AO2 SLP229 T10391067,,,,,,,,,,3/26/2007
USW00014939,2023-01-05T22:54:00,40.8508,-96.7475,362.7,"LINCOLN AIRPORT, NE US",FM-15,343,1021,-7.2,-4.4,0,,,,81,CLR:00,1022.2,978,16.093,-5.3,,,0,,,,,,,,,,,,,,,,,,,,,,,,,,,,,,,,,,,,,,,,,,,,,,,,,,,,,,,,,,,,,,,,,,,,,,,,,,,,,,,,,,,,,,,,,,,MET09201/05/23 22:54:02 METAR KLNK 060454Z 00000KT 10SM CLR M04/M07 A3015 RMK AO2 SLP222 T10441072,,,,,,,,,,3/26/2007
USW00014939,2023-01-05T23:54:00,40.8508,-96.7475,362.7,"LINCOLN AIRPORT, NE US",FM-15,343,1021,-8.3,-6.1,0,,-0.4,5,85,CLR:00,1022.4,978,16.093,-6.8,,,0,,,,,,,,,,,,,,,,,,,,,,,,,,,,,,,,,,,,,,,,,,,,,,,,,,,,,,,,,,,,,,,,,,,,,,,,,,,,,,,,,,,,,,,,,,,MET12001/05/23 23:54:02 METAR KLNK 060554Z 00000KT 10SM CLR M06/M08 A3015 RMK AO2 SLP224 T10611083 10000 21061 400391061 55004,,,,,,,,,,3/26/2007
USW00014939,2023-01-06T00:00:00,40.8508,-96.7475,362.7,"LINCOLN AIRPORT, NE US",FM-12,223,,-8.3,-6.1,,,-0.4,5,85,,1022.4,977.7,,-6.8,,,0,,,,,,,,,,,,,,,,,,,,,,,,,,,,,,,,,,,,,,,,,,,,,,,,,,,,,,,,,,,,,,,,,,,,,,,,,,,,,,,,,,,,,,,,,,,SYN08072551 35966 00000 11061 21083 39777 40224 55004 90554 333 10000 21061 555 90606=,,,,,,,,,,3/26/2007
USW00014939,2023-01-06T00:00:00,40.8508,-96.7475,362.7,"LINCOLN AIRPORT, NE US",SOD,,,,,,,,,,,,,,,,,,752,1714,-5.6,-1,76,1022.4,978.7,-2.8,2.3,0,2.89,19.3,7.2,-9.3,80,8.1,0,0,0,70,6.3,,,,,,,,,,,,,,,,,,,,,,,,,,,,,,,,,,,,,,,,,,,,,,,,,,,,,,,,,,,,,,,,,,,,,,,,,,,,,,,,3/26/2007
USW00014939,2023-01-06T00:54:00,40.8508,-96.7475,362.7,"LINCOLN AIRPORT, NE US",FM-15,343,1020.3,-8.3,-5.6,0,,,,82,CLR:00,1021.8,977.3,16.093,-6.4,,,0,,,,,,,,,,,,,,,,,,,,,,,,,,,,,,,,,,,,,,,,,,,,,,,,,,,,,,,,,,,,,,,,,,,,,,,,,,,,,,,,,,,,,,,,,,,MET09201/06/23 00:54:02 METAR KLNK 060654Z 00000KT 10SM CLR M06/M08 A3013 RMK AO2 SLP218 T10561083,,,,,,,,,,3/26/2007
USW00014939,2023-01-06T01:54:00,40.8508,-96.7475,362.7,"LINCOLN AIRPORT, NE US",FM-15,343,1020.3,-8.9,-6.1,0,,,,81,CLR:00,1021.7,977.3,16.093,-6.9,,,0,,,,,,,,,,,,,,,,,,,,,,,,,,,,,,,,,,,,,,,,,,,,,,,,,,,,,,,,,,,,,,,,,,,,,,,,,,,,,,,,,,,,,,,,,,,MET09201/06/23 01:54:02 METAR KLNK 060754Z 00000KT 10SM CLR M06/M09 A3013 RMK AO2 SLP217 T10611089,,,,,,,,,,3/26/2007
USW00014939,2023-01-06T02:54:00,40.8508,-96.7475,362.7,"LINCOLN AIRPORT, NE US",FM-15,343,1021,-8.3,-6.1,0,,-0.1,5,85,CLR:00,1022.3,978,16.093,-6.8,230,,1.5,,,,,,,,,,,,,,,,,,,,,,,,,,,,,,,,,,,,,,,,,,,,,,,,,,,,,,,,,,,,,,,,,,,,,,,,,,,,,,,,,,,,,,,,,,,MET09801/06/23 02:54:02 METAR KLNK 060854Z 23003KT 10SM CLR M06/M08 A3015 RMK AO2 SLP223 T10611083 55001,,,,,,,,,,3/26/2007
USW00014939,2023-01-06T03:54:00,40.8508,-96.7475,362.7,"LINCOLN AIRPORT, NE US",FM-15,343,1020.7,-9.4,-7.2,0,,,,84,CLR:00,1021.9,977.6,16.093,-7.9,170,,1.5,,,,,,,,,,,,,,,,,,,,,,,,,,,,,,,,,,,,,,,,,,,,,,,,,,,,,,,,,,,,,,,,,,,,,,,,,,,,,,,,,,,,,,,,,,,MET09201/06/23 03:54:02 METAR KLNK 060954Z 17003KT 10SM CLR M07/M09 A3014 RMK AO2 SLP219 T10721094,,,,,,,,,,3/26/2007
USW00014939,2023-01-06T04:54:00,40.8508,-96.7475,362.7,"LINCOLN AIRPORT, NE US",FM-15,343,1021,-8.9,-7.2,0,,,,88,CLR:00,1022.3,978,16.093,-7.7,,,0,,,,,,,,,,,,,,,,,,,,,,,,,,,,,,,,,,,,,,,,,,,,,,,,,,,,,,,,,,,,,,,,,,,,,,,,,,,,,,,,,,,,,,,,,,,MET09201/06/23 04:54:02 METAR KLNK 061054Z 00000KT 10SM CLR M07/M09 A3015 RMK AO2 SLP223 T10721089,,,,,,,,,,3/26/2007
USW00014939,2023-01-06T05:54:00,40.8508,-96.7475,362.7,"LINCOLN AIRPORT, NE US",FM-15,343,1020.3,-8.3,-7.2,0,,-0.4,8,92,CLR:00,1022,977.3,16.093,-7.6,,,0,,,,,,,,,,,,,,,,,,,,,,,,,,,,,,,,,,,,,,,,,,,,,,,,,,,,,,,,,,,,,,,,,,,,,,,,,,,,,,,,,,,,,,,,,,,MET11501/06/23 05:54:02 METAR KLNK 061154Z 00000KT 10SM CLR M07/M08 A3013 RMK AO2 SLP220 T10721083 11056 21083 58004 (AC),,,,,,,,,,3/26/2007
USW00014939,2023-01-06T06:00:00,40.8508,-96.7475,362.7,"LINCOLN AIRPORT, NE US",FM-12,223,,-8.3,-7.2,,,-0.4,8,92,,1022,977.1,,-7.6,,,0,,,,,,,,,,,,,,,,,,,,,,,,,,,,,,,,,,,,,,,,,,,,,,,,,,,,,,,,,,,,,,,,,,,,,,,,,,,,,,,,,,,,,,,,,,,SYN08072551 32966 00000 11072 21083 39771 40220 58004 91154 333 10039 21083 555 90612=,,,,,,,,,,3/26/2007
USW00014939,2023-01-06T06:54:00,40.8508,-96.7475,362.7,"LINCOLN AIRPORT, NE US",FM-15,343,1021,-8.9,-7.8,0,,,,92,CLR:00,1022.7,978,14.484,-8.1,,,0,,,,,,,,,,,,,,,,,,,,,,,,,,,,,,,,,,,,,,,,,,,,,,,,,,,,,,,,,,,,,,,,,,,,,,,,,,,,,,,,,,,,,,,,,,,MET09601/06/23 06:54:02 METAR KLNK 061254Z 00000KT 9SM CLR M08/M09 A3015 RMK AO2 SLP227 T10781089 (AC),,,,,,,,,,3/26/2007
USW00014939,2023-01-06T07:54:00,40.8508,-96.7475,362.7,"LINCOLN AIRPORT, NE US",FM-15,343,1021.3,-10,-7.8,0,,,,84,CLR:00,1023.2,978.3,16.093,-8.4,,,0,,,,,,,,,,,,,,,,,,,,,,,,,,,,,,,,,,,,,,,,,,,,,,,,,,,,,,,,,,,,,,,,,,,,,,,,,,,,,,,,,,,,,,,,,,,MET09701/06/23 07:54:02 METAR KLNK 061354Z 00000KT 10SM CLR M08/M10 A3016 RMK AO2 SLP232 T10781100 (AC),,,,,,,,,,3/26/2007
USW00014939,2023-01-06T08:54:00,40.8508,-96.7475,362.7,"LINCOLN AIRPORT, NE US",FM-15,343,1021,-8.9,-7.2,0,,0.5,0,88,CLR:00,1022.8,978,14.484,-7.7,,,0,,,,,,,,,,,,,,,,,,,,,,,,,,,,,,,,,,,,,,,,,,,,,,,,,,,,,,,,,,,,,,,,,,,,,,,,,,,,,,,,,,,,,,,,,,,MET10201/06/23 08:54:02 METAR KLNK 061454Z 00000KT 9SM CLR M07/M09 A3015 RMK AO2 SLP228 T10721089 50005 (AC),,,,,,,,,,3/26/2007
USW00014939,2023-01-06T09:54:00,40.8508,-96.7475,362.7,"LINCOLN AIRPORT, NE US",FM-15,343,1021.7,-6.7,-4.4,0,,,,84,CLR:00,1023.1,978.6,12.875,-5.2,,,0,,,,,,,,,,,,,,,,,,,,,,,,,,,,,,,,,,,,,,,,,,,,,,,,,,,,,,,,,,,,,,,,,,,,,,,,,,,,,,,,,,,,,,,,,,,MET09601/06/23 09:54:02 METAR KLNK 061554Z 00000KT 8SM CLR M04/M07 A3017 RMK AO2 SLP231 T10441067 (AC),,,,,,,,,,3/26/2007
USW00014939,2023-01-06T10:54:00,40.8508,-96.7475,362.7,"LINCOLN AIRPORT, NE US",FM-15,343,1021.7,-5,-1.7,0,,,,78,CLR:00,1023.2,978.6,11.265,-2.8,,,0,,,,,,,,,,,,,,,,,,,,,,,,,,,,,,,,,,,,,,,,,,,,,,,,,,,,,,,,,,,,,,,,,,,,,,,,,,,,,,,,,,,,,,,,,,,MET09601/06/23 10:54:02 METAR KLNK 061654Z 00000KT 7SM CLR M02/M05 A3017 RMK AO2 SLP232 T10171050 (AC),,,,,,,,,,3/26/2007
USW00014939,2023-01-06T11:54:00,40.8508,-96.7475,362.7,"LINCOLN AIRPORT, NE US",FM-15,343,1021,-3.9,0.6,0,,0.1,0,72,CLR:00,1022.5,978,12.875,-1.1,,,0,,,,,,,,,,,,,,,,,,,,,,,,,,,,,,,,,,,,,,,,,,,,,,,,,,,,,,,,,,,,,,,,,,,,,,,,,,,,,,,,,,,,,,,,,,,MET10801/06/23 11:54:02 METAR KLNK 061754Z 00000KT 8SM CLR 01/M04 A3015 RMK AO2 SLP225 T00061039 10006 21094 50001,,,,,,,,,,3/26/2007
USW00014939,2023-01-06T12:00:00,40.8508,-96.7475,362.7,"LINCOLN AIRPORT, NE US",FM-12,223,,-3.9,0.6,,,0.1,9,72,,1022.5,977.7,,-1.1,,,0,,,,,,,,,,,,,,,,,,,,,,,,,,,,,,,,,,,,,,,,,,,,,,,,,,,,,,,,,,,,,,,,,,,,,,,,,,,,,,,,,,,,,,,,,,,SYN08072551 32962 00000 10006 21039 39777 40225 50001 91754 333 10006 21094 555 90618=,,,,,,,,,,3/26/2007
USW00014939,2023-01-06T12:54:00,40.8508,-96.7475,362.7,"LINCOLN AIRPORT, NE US",FM-15,343,1020,-3.3,5.6,0,,,,53,CLR:00,1021.1,977,16.093,2,90,,2.6,,,,,,,,,,,,,,,,,,,,,,,,,,,,,,,,,,,,,,,,,,,,,,,,,,,,,,,,,,,,,,,,,,,,,,,,,,,,,,,,,,,,,,,,,,,MET09601/06/23 12:54:02 METAR KLNK 061854Z 09005KT 10SM CLR 06/M03 A3012 RMK AO2 SLP211 T00561033 (HN),,,,,,,,,,3/26/2007
USW00014939,2023-01-06T13:54:00,40.8508,-96.7475,362.7,"LINCOLN AIRPORT, NE US",FM-15,343,1019,-3.3,6.7,0,,,,49,CLR:00,1020,976,16.093,2.6,70,,4.6,,,,,,,,,,,,,,,,,,,,,,,,,,,,,,,,,,,,,,,,,,,,,,,,,,,,,,,,,,,,,,,,,,,,,,,,,,,,,,,,,,,,,,,,,,,MET09601/06/23 13:54:02 METAR KLNK 061954Z 07009KT 10SM CLR 07/M03 A3009 RMK AO2 SLP200 T00671033 (HN),,,,,,,,,,3/26/2007
USW00014939,2023-01-06T14:54:00,40.8508,-96.7475,362.7,"LINCOLN AIRPORT, NE US",FM-15,343,1018.6,-3.9,7.2,0,,-2.5,6,46,CLR:00,1019.7,975.7,16.093,2.8,80,,4.6,,,,,,,,,,,,,,,,,,,,,,,,,,,,,,,,,,,,,,,,,,,,,,,,,,,,,,,,,,,,,,,,,,,,,,,,,,,,,,,,,,,,,,,,,,,MET10201/06/23 14:54:02 METAR KLNK 062054Z 08009KT 10SM CLR 07/M04 A3008 RMK AO2 SLP197 T00721039 56025 (HN),,,,,,,,,,3/26/2007
USW00014939,2023-01-06T15:54:00,40.8508,-96.7475,362.7,"LINCOLN AIRPORT, NE US",FM-15,343,1018.6,-3.9,6.7,0,,,,47,CLR:00,1019.7,975.7,16.093,2.5,80,,5.1,,,,,,,,,,,,,,,,,,,,,,,,,,,,,,,,,,,,,,,,,,,,,,,,,,,,,,,,,,,,,,,,,,,,,,,,,,,,,,,,,,,,,,,,,,,MET09601/06/23 15:54:02 METAR KLNK 062154Z 08010KT 10SM CLR 07/M04 A3008 RMK AO2 SLP197 T00671039 (HN),,,,,,,,,,3/26/2007
USW00014939,2023-01-06T16:54:00,40.8508,-96.7475,362.7,"LINCOLN AIRPORT, NE US",FM-15,343,1019.6,-2.8,4.4,0,,,,60,CLR:00,1020.9,976.7,16.093,1.6,70,,5.1,,,,,,,,,,,,,,,,,,,,,,,,,,,,,,,,,,,,,,,,,,,,,,,,,,,,,,,,,,,,,,,,,,,,,,,,,,,,,,,,,,,,,,,,,,,MET09601/06/23 16:54:02 METAR KLNK 062254Z 07010KT 10SM CLR 04/M03 A3011 RMK AO2 SLP209 T00441028 (HN),,,,,,,,,,3/26/2007
USW00014939,2023-01-06T17:54:00,40.8508,-96.7475,362.7,"LINCOLN AIRPORT, NE US",FM-15,343,1021,-3.9,1.1,0,,2.3,3,70,CLR:00,1022.3,978,16.093,-0.7,60,,4.1,,,,,,,,,,,,,,,,,,,,,,,,,,,,,,,,,,,,,,,,,,,,,,,,,,,,,,,,,,,,,,,,,,,,,,,,,,,,,,,,,,,,,,,,,,,MET11401/06/23 17:54:02 METAR KLNK 062354Z 06008KT 10SM CLR 01/M04 A3015 RMK AO2 SLP223 T00111039 10072 20006 53023 (HN),,,,,,,,,,3/26/2007
USW00014939,2023-01-06T18:00:00,40.8508,-96.7475,362.7,"LINCOLN AIRPORT, NE US",FM-12,223,,-3.9,1.1,,,2.3,3,70,,1022.3,977.7,,-0.8,60,,4.1,,,,,,,,,,,,,,,,,,,,,,,,,,,,,,,,,,,,,,,,,,,,,,,,,,,,,,,,,,,,,,,,,,,,,,,,,,,,,,,,,,,,,,,,,,,SYN08072551 32966 00608 10011 21039 39777 40223 53023 92354 333 10072 21082 555 90700=,,,,,,,,,,3/26/2007
USW00014939,2023-01-06T18:54:00,40.8508,-96.7475,362.7,"LINCOLN AIRPORT, NE US",FM-15,343,1021.7,-3.9,1.1,0,,,,70,BKN:07 25.91,1023.3,978.6,16.093,-0.7,50,,4.1,,,,,,,,,,,,,,,,,,,,,,,,,,,,,,,,,,,,,,,,,,,,,,,,,,,,,,,,,,,,,,,,,,,,,,,,,,,,,,,,,,,,,,,,,,,MET09401/06/23 18:54:01 METAR KLNK 070054Z 05008KT 10SM BKN085 01/M04 A3017 RMK AO2 SLP233 T00111039,,,,,,,,,,3/26/2007
USW00014939,2023-01-06T19:54:00,40.8508,-96.7475,362.7,"LINCOLN AIRPORT, NE US",FM-15,343,1022.4,-3.3,1.1,0,,,,73,OVC:08 27.43,1023.9,979.3,16.093,-0.6,40,,4.1,,,,,,,,,,,,,,,,,,,,,,,,,,,,,,,,,,,,,,,,,,,,,,,,,,,,,,,,,,,,,,,,,,,,,,,,,,,,,,,,,,,,,,,,,,,MET09401/06/23 19:54:01 METAR KLNK 070154Z 04008KT 10SM OVC090 01/M03 A3019 RMK AO2 SLP239 T00111033,,,,,,,,,,3/26/2007
USW00014939,2023-01-06T20:54:00,40.8508,-96.7475,362.7,"LINCOLN AIRPORT, NE US",FM-15,343,1023,-3.3,-1.1,0,,2,1,85,BKN:07 27.43,1024.5,979.9,14.484,-1.9,20,,4.1,,,,,,,,,,,,,,,,,,,,,,,,,,,,,,,,,,,,,,,,,,,,,,,,,,,,,,,,,,,,,,,,,,,,,,,,,,,,,,,,,,,,,,,,,,,MET10001/06/23 20:54:01 METAR KLNK 070254Z 02008KT 9SM BKN090 M01/M03 A3021 RMK AO2 SLP245 T10111033 51020,,,,,,,,,,3/26/2007
USW00014939,2023-01-06T21:54:00,40.8508,-96.7475,362.7,"LINCOLN AIRPORT, NE US",FM-15,343,1023.4,-4.4,-2.2,0,,,,85,BKN:07 27.43,1024.9,980.3,14.484,-3,10,,4.1,,,,,,,,,,,,,,,,,,,,,,,,,,,,,,,,,,,,,,,,,,,,,,,,,,,,,,,,,,,,,,,,,,,,,,,,,,,,,,,,,,,,,,,,,,,MET09401/06/23 21:54:02 METAR KLNK 070354Z 01008KT 9SM BKN090 M02/M04 A3022 RMK AO2 SLP249 T10221044,,,,,,,,,,3/26/2007
USW00014939,2023-01-06T22:54:00,40.8508,-96.7475,362.7,"LINCOLN AIRPORT, NE US",FM-15,343,1024,-4.4,-2.8,0,,,,89,SCT:04 30.48 SCT:04 33.53,1025.6,980.9,12.875,-3.4,10,,4.1,,,,,,,,,,,,,,,,,,,,,,,,,,,,,,,,,,,,,,,,,,,,,,,,,,,,,,,,,,,,,,,,,,,,,,,,,,,,,,,,,,,,,,,,,,,MET10101/06/23 22:54:02 METAR KLNK 070454Z 01008KT 8SM SCT100 SCT110 M03/M04 A3024 RMK AO2 SLP256 T10281044,,,,,,,,,,3/26/2007
USW00014939,2023-01-06T23:54:00,40.8508,-96.7475,362.7,"LINCOLN AIRPORT, NE US",FM-15,343,1024.7,-3.3,-1.1,0,,1.7,3,85,OVC:08 28.96,1025.8,981.6,14.484,-1.9,40,,5.1,,,,,,,,,,,,,,,,,,,,,,,,,,,,,,,,,,,,,,,,,,,,,,,,,,,,,,,,,,,,,,,,,,,,,,,,,,,,,,,,,,,,,,,,,,,MET12201/06/23 23:54:02 METAR KLNK 070554Z 04010KT 9SM OVC095 M01/M03 A3026 RMK AO2 SLP258 T10111033 10017 21028 400721094 53017,,,,,,,,,,3/26/2007
USW00014939,2023-01-07T00:00:00,40.8508,-96.7475,362.7,"LINCOLN AIRPORT, NE US",FM-12,223,,-3.3,-1.1,,,1.7,3,85,,1025.8,981.3,,-1.9,40,,5.1,,,,,,,,,,,,,,,,,,,,,,,,,,,,,,,,,,,,,,,,,,,,,,,,,,,,,,,,,,,,,,,,,,,,,,,,,,,,,,,,,,,,,,,,,,,SYN08072551 35964 80410 11011 21033 39813 40258 53017 90554 333 10017 21083 555 90706=,,,,,,,,,,3/26/2007
USW00014939,2023-01-07T00:00:00,40.8508,-96.7475,362.7,"LINCOLN AIRPORT, NE US",SOD,,,,,,,,,,,,,,,,,,752,1714,-7.8,-2.7,74,1028.8,984.4,-4.4,2.7,0,1.24,21,1.7,-7.1,350,6.7,0,0,0,20,5.4,BR HZ,,,,,,,,,,,,,,,,,,,,,,,,,,,,,,,,,,,,,,,,,,,,,,,,,,,,,,,,,,,,,,,,,,,,,,,,,,,,,,,3/26/2007
USW00014939,2023-01-07T00:54:00,40.8508,-96.7475,362.7,"LINCOLN AIRPORT, NE US",FM-15,343,1024.7,-3.9,-2.2,0,,,,88,CLR:00,1025.7,981.6,11.265,-2.8,30,,2.6,,,,,,,,,,,,,,,,,,,,,,,,,,,,,,,,,,,,,,,,,,,,,,,,,,,,,,,,,,,,,,,,,,,,,,,,,,,,,,,,,,,,,,,,,,,MET09101/07/23 00:54:02 METAR KLNK 070654Z 03005KT 7SM CLR M02/M04 A3026 RMK AO2 SLP257 T10221039,,,,,,,,,,3/26/2007
USW00014939,2023-01-07T01:54:00,40.8508,-96.7475,362.7,"LINCOLN AIRPORT, NE US",FM-15,343,1024.7,-4.4,-2.8,0,BR:1 |BR |,,,89,SCT:04 28.96 OVC:08 36.58,1025.6,981.6,9.656,-3.4,10,,4.1,,,,,,,,,,,,,,,,,,,,,,,,,,,,,,,,,,,,,,,,,,,,,,,,,,,,,,,,,,,,,,,,,,,,,,,,,,,,,,,,,,,,,,,,,,,MET10401/07/23 01:54:02 METAR KLNK 070754Z 01008KT 6SM BR SCT095 OVC120 M03/M04 A3026 RMK AO2 SLP256 T10281044,,,,,,,,,,3/26/2007
USW00014939,2023-01-07T02:54:00,40.8508,-96.7475,362.7,"LINCOLN AIRPORT, NE US",FM-15,343,1025.4,-5,-3.3,0,BR:1 |BR |,0.6,3,88,OVC:08 30.48,1026.3,982.2,9.656,-3.9,30,,4.6,,,,,,,,,,,,,,,,,,,,,,,,,,,,,,,,,,,,,,,,,,,,,,,,,,,,,,,,,,,,,,,,,,,,,,,,,,,,,,,,,,,,,,,,,,,MET10301/07/23 02:54:02 METAR KLNK 070854Z 03009KT 6SM BR OVC100 M03/M05 A3028 RMK AO2 SLP263 T10331050 53006,,,,,,,,,,3/26/2007
USW00014939,2023-01-07T03:54:00,40.8508,-96.7475,362.7,"LINCOLN AIRPORT, NE US",FM-15,343,1025.4,-5,-3.3,0,BR:1 |BR |,,,88,OVC:08 30.48,1026.5,982.2,9.656,-3.9,20,,4.1,,,,,,,,,,,,,,,,,,,,,,,,,,,,,,,,,,,,,,,,,,,,,,,,,,,,,,,,,,,,,,,,,,,,,,,,,,,,,,,,,,,,,,,,,,,MET09701/07/23 03:54:02 METAR KLNK 070954Z 02008KT 6SM BR OVC100 M03/M05 A3028 RMK AO2 SLP265 T10331050,,,,,,,,,,3/26/2007
USW00014939,2023-01-07T04:54:00,40.8508,-96.7475,362.7,"LINCOLN AIRPORT, NE US",FM-15,343,1025.7,-5.6,-3.3,0,BR:1 |BR |,,,84,OVC:08 30.48,1027,982.5,9.656,-4.1,20,,3.1,,,,,,,,,,,,,,,,,,,,,,,,,,,,,,,,,,,,,,,,,,,,,,,,,,,,,,,,,,,,,,,,,,,,,,,,,,,,,,,,,,,,,,,,,,,MET09701/07/23 04:54:02 METAR KLNK 071054Z 02006KT 6SM BR OVC100 M03/M06 A3029 RMK AO2 SLP270 T10331056,,,,,,,,,,3/26/2007
USW00014939,2023-01-07T05:54:00,40.8508,-96.7475,362.7,"LINCOLN AIRPORT, NE US",FM-15,343,1026.4,-6.1,-3.3,0,,1.2,3,81,OVC:08 30.48,1027.9,983.2,11.265,-4.3,20,,3.6,,,,,,,,,,,,,,,,,,,,,,,,,,,,,,,,,,,,,,,,,,,,,,,,,,,,,,,,,,,,,,,,,,,,,,,,,,,,,,,,,,,,,,,,,,,MET11201/07/23 05:54:02 METAR KLNK 071154Z 02007KT 7SM OVC100 M03/M06 A3031 RMK AO2 SLP279 T10331061 11011 21044 53012,,,,,,,,,,3/26/2007
USW00014939,2023-01-07T06:00:00,40.8508,-96.7475,362.7,"LINCOLN AIRPORT, NE US",FM-12,223,,-6.1,-3.3,,,1.2,3,81,,1027.9,982.9,,-4.3,20,,3.6,,,,,,,,,,,,,,,,,,,,,,,,,,,,,,,,,,,,,,,,,,,,,,,,,,,,,,,,,,,,,,,,,,,,,,,,,,,,,,,,,,,,,,,,,,,SYN08072551 35961 80207 11033 21061 39829 40279 53012 91154 333 10072 21044 555 90712=,,,,,,,,,,3/26/2007
USW00014939,2023-01-07T06:54:00,40.8508,-96.7475,362.7,"LINCOLN AIRPORT, NE US",FM-15,343,1027.1,-6.1,-3.9,0,,,,85,OVC:08 33.53,1028.6,983.9,11.265,-4.6,360,,3.6,,,,,,,,,,,,,,,,,,,,,,,,,,,,,,,,,,,,,,,,,,,,,,,,,,,,,,,,,,,,,,,,,,,,,,,,,,,,,,,,,,,,,,,,,,,MET09901/07/23 06:54:02 METAR KLNK 071254Z 36007KT 7SM OVC110 M04/M06 A3033 RMK AO2 SLP286 T10391061 (HN),,,,,,,,,,3/26/2007
USW00014939,2023-01-07T07:54:00,40.8508,-96.7475,362.7,"LINCOLN AIRPORT, NE US",FM-15,343,1027.8,-7.2,-4.4,0,,,,81,BKN:07 33.53,1029.2,984.5,11.265,-5.3,10,,4.6,,,,,,,,,,,,,,,,,,,,,,,,,,,,,,,,,,,,,,,,,,,,,,,,,,,,,,,,,,,,,,,,,,,,,,,,,,,,,,,,,,,,,,,,,,,MET09901/07/23 07:54:02 METAR KLNK 071354Z 01009KT 7SM BKN110 M04/M07 A3035 RMK AO2 SLP292 T10441072 (HN),,,,,,,,,,3/26/2007
USW00014939,2023-01-07T08:54:00,40.8508,-96.7475,362.7,"LINCOLN AIRPORT, NE US",FM-15,343,1028.4,-7.2,-4.4,0,HZ:7 |FU |HZ,1.9,3,81,BKN:07 33.53,1030,985.2,9.656,-5.3,10,,4.6,,,,,,,,,,,,,,,,,,,,,,,,,,,,,,,,,,,,,,,,,,,,,,,,,,,,,,,,,,,,,,,,,,,,,,,,,,,,,,,,,,,,,,,,,,,MET10801/07/23 08:54:02 METAR KLNK 071454Z 01009KT 6SM HZ BKN110 M04/M07 A3037 RMK AO2 SLP300 T10441072 53019 (HN),,,,,,,,,,3/26/2007
USW00014939,2023-01-07T09:54:00,40.8508,-96.7475,362.7,"LINCOLN AIRPORT, NE US",FM-15,343,1029.5,-7.8,-4.4,0,HZ:7 |FU |HZ,,,77,OVC:08 30.48,1031,986.1,9.656,-5.5,10,,4.6,,,,,,,,,,,,,,,,,,,,,,,,,,,,,,,,,,,,,,,,,,,,,,,,,,,,,,,,,,,,,,,,,,,,,,,,,,,,,,,,,,,,,,,,,,,MET10201/07/23 09:54:02 METAR KLNK 071554Z 01009KT 6SM HZ OVC100 M04/M08 A3040 RMK AO2 SLP310 T10441078 (HN),,,,,,,,,,3/26/2007
USW00014939,2023-01-07T10:54:00,40.8508,-96.7475,362.7,"LINCOLN AIRPORT, NE US",FM-15,343,1029.8,-8.3,-3.3,0,,,,69,OVC:08 30.48,1031.2,986.5,12.875,-4.9,10,,3.1,,,,,,,,,,,,,,,,,,,,,,,,,,,,,,,,,,,,,,,,,,,,,,,,,,,,,,,,,,,,,,,,,,,,,,,,,,,,,,,,,,,,,,,,,,,MET09901/07/23 10:54:02 METAR KLNK 071654Z 01006KT 8SM OVC100 M03/M08 A3041 RMK AO2 SLP312 T10331083 (HN),,,,,,,,,,3/26/2007
USW00014939,2023-01-07T11:54:00,40.8508,-96.7475,362.7,"LINCOLN AIRPORT, NE US",FM-15,343,1029.1,-8.3,-1.7,0,,0.6,0,61,BKN:07 28.96,1030.6,985.8,14.484,-3.8,20,,2.1,,,,,,,,,,,,,,,,,,,,,,,,,,,,,,,,,,,,,,,,,,,,,,,,,,,,,,,,,,,,,,,,,,,,,,,,,,,,,,,,,,,,,,,,,,,MET11701/07/23 11:54:02 METAR KLNK 071754Z 02004KT 9SM BKN095 M02/M08 A3039 RMK AO2 SLP306 T10171083 11017 21044 50006 (HN),,,,,,,,,,3/26/2007
USW00014939,2023-01-07T12:00:00,40.8508,-96.7475,362.7,"LINCOLN AIRPORT, NE US",FM-12,223,,-8.3,-1.7,,,0.6,9,61,,1030.6,985.6,,-3.8,20,,2.1,,,,,,,,,,,,,,,,,,,,,,,,,,,,,,,,,,,,,,,,,,,,,,,,,,,,,,,,,,,,,,,,,,,,,,,,,,,,,,,,,,,,,,,,,,,SYN08072551 32964 60204 11017 21083 39856 40306 50006 91754 333 11011 21044 555 90718=,,,,,,,,,,3/26/2007
USW00014939,2023-01-07T12:54:00,40.8508,-96.7475,362.7,"LINCOLN AIRPORT, NE US",FM-15,343,1028.4,-8.3,-1.1,0,,,,58,SCT:04 33.53,1029.8,985.2,16.093,-3.5,10,,2.1,,,,,,,,,,,,,,,,,,,,,,,,,,,,,,,,,,,,,,,,,,,,,,,,,,,,,,,,,,,,,,,,,,,,,,,,,,,,,,,,,,,,,,,,,,,MET10001/07/23 12:54:02 METAR KLNK 071854Z 01004KT 10SM SCT110 M01/M08 A3037 RMK AO2 SLP298 T10111083 (CD),,,,,,,,,,3/26/2007
USW00014939,2023-01-07T13:54:00,40.8508,-96.7475,362.7,"LINCOLN AIRPORT, NE US",FM-15,343,1028.1,-8.9,0,0,,,,52,OVC:08 30.48,1029.4,984.8,16.093,-2.9,360,,2.1,,,,,,,,,,,,,,,,,,,,,,,,,,,,,,,,,,,,,,,,,,,,,,,,,,,,,,,,,,,,,,,,,,,,,,,,,,,,,,,,,,,,,,,,,,,MET09901/07/23 13:54:02 METAR KLNK 071954Z 36004KT 10SM OVC100 00/M09 A3036 RMK AO2 SLP294 T00001089 (CD),,,,,,,,,,3/26/2007
USW00014939,2023-01-07T14:54:00,40.8508,-96.7475,362.7,"LINCOLN AIRPORT, NE US",FM-15,343,1027.4,-8.9,1.1,0,,-1.6,6,48,OVC:08 30.48,1028.9,984.2,16.093,-2.2,30,,2.6,,,,,,,,,,,,,,,,,,,,,,,,,,,,,,,,,,,,,,,,,,,,,,,,,,,,,,,,,,,,,,,,,,,,,,,,,,,,,,,,,,,,,,,,,,,MET10501/07/23 14:54:02 METAR KLNK 072054Z 03005KT 10SM OVC100 01/M09 A3034 RMK AO2 SLP289 T00111089 56016 (CD),,,,,,,,,,3/26/2007
USW00014939,2023-01-07T15:54:00,40.8508,-96.7475,362.7,"LINCOLN AIRPORT, NE US",FM-15,343,1027.8,-7.2,0,0,,,,59,OVC:08 30.48,1029.1,984.5,14.484,-2.5,10,,3.6,,,,,,,,,,,,,,,,,,,,,,,,,,,,,,,,,,,,,,,,,,,,,,,,,,,,,,,,,,,,,,,,,,,,,,,,,,,,,,,,,,,,,,,,,,,MET09801/07/23 15:54:02 METAR KLNK 072154Z 01007KT 9SM OVC100 00/M07 A3035 RMK AO2 SLP291 T00001072 (CD),,,,,,,,,,3/26/2007
USW00014939,2023-01-07T16:54:00,40.8508,-96.7475,362.7,"LINCOLN AIRPORT, NE US",FM-15,343,1027.8,-7.8,-1.1,0,,,,61,OVC:08 30.48,1029.2,984.5,12.875,-3.3,50,,3.1,,,,,,,,,,,,,,,,,,,,,,,,,,,,,,,,,,,,,,,,,,,,,,,,,,,,,,,,,,,,,,,,,,,,,,,,,,,,,,,,,,,,,,,,,,,MET09901/07/23 16:54:02 METAR KLNK 072254Z 05006KT 8SM OVC100 M01/M08 A3035 RMK AO2 SLP292 T10111078 (CD),,,,,,,,,,3/26/2007
USW00014939,2023-01-07T17:54:00,40.8508,-96.7475,362.7,"LINCOLN AIRPORT, NE US",FM-15,343,1027.8,-7.8,-2.2,0,,0.2,1,66,FEW:02 36.58,1029.2,984.5,14.484,-4,20,,2.1,,,,,,,,,,,,,,,,,,,,,,,,,,,,,,,,,,,,,,,,,,,,,,,,,,,,,,,,,,,,,,,,,,,,,,,,,,,,,,,,,,,,,,,,,,,MET11701/07/23 17:54:02 METAR KLNK 072354Z 02004KT 9SM FEW120 M02/M08 A3035 RMK AO2 SLP292 T10221078 10017 21022 51002 (CD),,,,,,,,,,3/26/2007
USW00014939,2023-01-07T18:00:00,40.8508,-96.7475,362.7,"LINCOLN AIRPORT, NE US",FM-12,223,,-7.8,-2.2,,,0.2,1,66,,1029.2,984.3,,-4,20,,2.1,,,,,,,,,,,,,,,,,,,,,,,,,,,,,,,,,,,,,,,,,,,,,,,,,,,,,,,,,,,,,,,,,,,,,,,,,,,,,,,,,,,,,,,,,,,SYN08072551 32964 20204 11022 21078 39843 40292 51002 92354 333 10017 21044 555 90800=,,,,,,,,,,3/26/2007
USW00014939,2023-01-07T18:54:00,40.8508,-96.7475,362.7,"LINCOLN AIRPORT, NE US",FM-15,343,1028.1,-8.3,-4.4,0,,,,75,CLR:00,1029.6,984.8,12.875,-5.7,40,,1.5,,,,,,,,,,,,,,,,,,,,,,,,,,,,,,,,,,,,,,,,,,,,,,,,,,,,,,,,,,,,,,,,,,,,,,,,,,,,,,,,,,,,,,,,,,,MET09101/07/23 18:54:01 METAR KLNK 080054Z 04003KT 8SM CLR M04/M08 A3036 RMK AO2 SLP296 T10441083,,,,,,,,,,3/26/2007
USW00014939,2023-01-07T19:54:00,40.8508,-96.7475,362.7,"LINCOLN AIRPORT, NE US",FM-15,343,1027.8,-8.9,-4.4,0,,,,71,CLR:00,1029.6,984.5,12.875,-5.8,,,0,,,,,,,,,,,,,,,,,,,,,,,,,,,,,,,,,,,,,,,,,,,,,,,,,,,,,,,,,,,,,,,,,,,,,,,,,,,,,,,,,,,,,,,,,,,MET09101/07/23 19:54:01 METAR KLNK 080154Z 00000KT 8SM CLR M04/M09 A3035 RMK AO2 SLP296 T10441089,,,,,,,,,,3/26/2007
USW00014939,2023-01-07T20:54:00,40.8508,-96.7475,362.7,"LINCOLN AIRPORT, NE US",FM-15,343,1028.1,-10,-4.4,0,,0.4,2,65,CLR:00,1029.8,984.8,16.093,-6.1,,,0,,,,,,,,,,,,,,,,,,,,,,,,,,,,,,,,,,,,,,,,,,,,,,,,,,,,,,,,,,,,,,,,,,,,,,,,,,,,,,,,,,,,,,,,,,,MET09801/07/23 20:54:01 METAR KLNK 080254Z 00000KT 10SM CLR M04/M10 A3036 RMK AO2 SLP298 T10441100 52004,,,,,,,,,,3/26/2007
USW00014939,2023-01-07T21:54:00,40.8508,-96.7475,362.7,"LINCOLN AIRPORT, NE US",FM-15,343,1027.4,-8.9,-6.7,0,,,,85,CLR:00,1029.4,984.2,11.265,-7.3,,,0,,,,,,,,,,,,,,,,,,,,,,,,,,,,,,,,,,,,,,,,,,,,,,,,,,,,,,,,,,,,,,,,,,,,,,,,,,,,,,,,,,,,,,,,,,,MET09101/07/23 21:54:02 METAR KLNK 080354Z 00000KT 7SM CLR M07/M09 A3034 RMK AO2 SLP294 T10671089,,,,,,,,,,3/26/2007
USW00014939,2023-01-07T22:54:00,40.8508,-96.7475,362.7,"LINCOLN AIRPORT, NE US",FM-15,343,1027.4,-8.9,-6.7,0,BR:1 |BR |,,,85,CLR:00,1029,984.2,9.656,-7.3,40,,1.5,,,,,,,,,,,,,,,,,,,,,,,,,,,,,,,,,,,,,,,,,,,,,,,,,,,,,,,,,,,,,,,,,,,,,,,,,,,,,,,,,,,,,,,,,,,MET09401/07/23 22:54:02 METAR KLNK 080454Z 04003KT 6SM BR CLR M07/M09 A3034 RMK AO2 SLP290 T10671089,,,,,,,,,,3/26/2007
USW00014939,2023-01-07T23:54:00,40.8508,-96.7475,362.7,"LINCOLN AIRPORT, NE US",FM-15,343,1027.1,-8.3,-5.6,0,HZ:7 |FU |HZ,-1,6,82,CLR:00,1028.7,983.9,9.656,-6.4,270,,1.5,,,,,,,,,,,,,,,,,,,,,,,,,,,,,,,,,,,,,,,,,,,,,,,,,,,,,,,,,,,,,,,,,,,,,,,,,,,,,,,,,,,,,,,,,,,MET12201/07/23 23:54:02 METAR KLNK 080554Z 27003KT 6SM HZ CLR M06/M08 A3033 RMK AO2 SLP287 T10561083 11022 21072 400171072 56010,,,,,,,,,,3/26/2007
USW00014939,2023-01-08T00:00:00,40.8508,-96.7475,362.7,"LINCOLN AIRPORT, NE US",FM-12,223,,-8.3,-5.6,,|HZ |,-1,6,82,,1028.7,983.6,,-6.4,270,,1.5,,,,,,,,,,,,,,,,,,,,,,,,,,,,,,,,,,,,,,,,,,,,,,,,,,,,,,,,,,,,,,,,,,,,,,,,,,,,,,,,,,,,,,,,,,,SYN08672551 37959 02703 11056 21083 39836 40287 56010 704// 90554 333 11011 21072 555 90806=,,,,,,,,,,3/26/2007
USW00014939,2023-01-08T00:00:00,40.8508,-96.7475,362.7,"LINCOLN AIRPORT, NE US",SOD,,,,,,,,,,,,,,,,,,752,1715,-5.6,-0.8,75,1023.7,978.7,-2.8,1.4,0,3.14,19.1,8.3,-9.9,240,6.3,0,0,0,240,4.5,BR HZ,,,,,,,,,,,,,,,,,,,,,,,,,,,,,,,,,,,,,,,,,,,,,,,,,,,,,,,,,,,,,,,,,,,,,,,,,,,,,,,3/26/2007
USW00014939,2023-01-08T00:54:00,40.8508,-96.7475,362.7,"LINCOLN AIRPORT, NE US",FM-15,343,1026.1,-10.6,-7.8,0,,,,81,BKN:07 33.53,1027.9,982.9,11.265,-8.6,10,,1.5,,,,,,,,,,,,,,,,,,,,,,,,,,,,,,,,,,,,,,,,,,,,,,,,,,,,,,,,,,,,,,,,,,,,,,,,,,,,,,,,,,,,,,,,,,,MET09401/08/23 00:54:02 METAR KLNK 080654Z 01003KT 7SM BKN110 M08/M11 A3030 RMK AO2 SLP279 T10781106,,,,,,,,,,3/26/2007
USW00014939,2023-01-08T01:54:00,40.8508,-96.7475,362.7,"LINCOLN AIRPORT, NE US",FM-15,343,1025.4,-9.4,-7.2,0,BR:1 |BR |,,,84,OVC:08 33.53,1027.1,982.2,9.656,-7.9,,,0,,,,,,,,,,,,,,,,,,,,,,,,,,,,,,,,,,,,,,,,,,,,,,,,,,,,,,,,,,,,,,,,,,,,,,,,,,,,,,,,,,,,,,,,,,,MET09701/08/23 01:54:02 METAR KLNK 080754Z 00000KT 6SM BR OVC110 M07/M09 A3028 RMK AO2 SLP271 T10721094,,,,,,,,,,3/26/2007
USW00014939,2023-01-08T02:54:00,40.8508,-96.7475,362.7,"LINCOLN AIRPORT, NE US",FM-15,343,1025.4,-9.4,-6.1,0,,-1.5,6,78,FEW:02 30.48,1027,982.2,11.265,-7.1,,,0,,,,,,,,,,,,,,,,,,,,,,,,,,,,,,,,,,,,,,,,,,,,,,,,,,,,,,,,,,,,,,,,,,,,,,,,,,,,,,,,,,,,,,,,,,,MET10001/08/23 02:54:02 METAR KLNK 080854Z 00000KT 7SM FEW100 M06/M09 A3028 RMK AO2 SLP270 T10611094 56015,,,,,,,,,,3/26/2007
USW00014939,2023-01-08T03:54:00,40.8508,-96.7475,362.7,"LINCOLN AIRPORT, NE US",FM-15,343,1025.1,-11.7,-9.4,0,,,,84,CLR:00,1026.7,981.9,11.265,-10,,,0,,,,,,,,,,,,,,,,,,,,,,,,,,,,,,,,,,,,,,,,,,,,,,,,,,,,,,,,,,,,,,,,,,,,,,,,,,,,,,,,,,,,,,,,,,,MET09101/08/23 03:54:02 METAR KLNK 080954Z 00000KT 7SM CLR M09/M12 A3027 RMK AO2 SLP267 T10941117,,,,,,,,,,3/26/2007
USW00014939,2023-01-08T04:54:00,40.8508,-96.7475,362.7,"LINCOLN AIRPORT, NE US",FM-15,343,1024.4,-11.7,-10,0,BR:1 |BR |,,,88,CLR:00,1026.1,981.2,9.656,-10.4,,,0,,,,,,,,,,,,,,,,,,,,,,,,,,,,,,,,,,,,,,,,,,,,,,,,,,,,,,,,,,,,,,,,,,,,,,,,,,,,,,,,,,,,,,,,,,,MET09401/08/23 04:54:02 METAR KLNK 081054Z 00000KT 6SM BR CLR M10/M12 A3025 RMK AO2 SLP261 T11001117,,,,,,,,,,3/26/2007
USW00014939,2023-01-08T05:54:00,40.8508,-96.7475,362.7,"LINCOLN AIRPORT, NE US",FM-15,343,1024,-12.2,-10,0,,-1.3,6,84,CLR:00,1026,980.9,11.265,-10.6,,,0,,,,,,,,,,,,,,,,,,,,,,,,,,,,,,,,,,,,,,,,,,,,,,,,,,,,,,,,,,,,,,,,,,,,,,,,,,,,,,,,,,,,,,,,,,,MET10901/08/23 05:54:02 METAR KLNK 081154Z 00000KT 7SM CLR M10/M12 A3024 RMK AO2 SLP260 T11001122 11056 21100 56013,,,,,,,,,,3/26/2007
USW00014939,2023-01-08T06:00:00,40.8508,-96.7475,362.7,"LINCOLN AIRPORT, NE US",FM-12,223,,-12.2,-10,,,-1.3,6,84,,1026,980.7,,-10.6,,,0,,,,,,,,,,,,,,,,,,,,,,,,,,,,,,,,,,,,,,,,,,,,,,,,,,,,,,,,,,,,,,,,,,,,,,,,,,,,,,,,,,,,,,,,,,,SYN08072551 35961 00000 11100 21122 39807 40260 56013 91154 333 10017 21100 555 90812=,,,,,,,,,,3/26/2007
USW00014939,2023-01-08T06:54:00,40.8508,-96.7475,362.7,"LINCOLN AIRPORT, NE US",FM-15,343,1024,-10.6,-8.3,0,BR:1 |BR |,,,84,CLR:00,1025.9,980.9,9.656,-8.9,,,0,,,,,,,,,,,,,,,,,,,,,,,,,,,,,,,,,,,,,,,,,,,,,,,,,,,,,,,,,,,,,,,,,,,,,,,,,,,,,,,,,,,,,,,,,,,MET09401/08/23 06:54:02 METAR KLNK 081254Z 00000KT 6SM BR CLR M08/M11 A3024 RMK AO2 SLP259 T10831106,,,,,,,,,,3/26/2007
USW00014939,2023-01-08T07:54:00,40.8508,-96.7475,362.7,"LINCOLN AIRPORT, NE US",FM-15,343,1023.7,-11.7,-8.9,0,,,,80,CLR:00,1025.4,980.6,11.265,-9.6,,,0,,,,,,,,,,,,,,,,,,,,,,,,,,,,,,,,,,,,,,,,,,,,,,,,,,,,,,,,,,,,,,,,,,,,,,,,,,,,,,,,,,,,,,,,,,,MET09601/08/23 07:54:02 METAR KLNK 081354Z 00000KT 7SM CLR M09/M12 A3023 RMK AO2 SLP254 T10891117 (SD),,,,,,,,,,3/26/2007
USW00014939,2023-01-08T08:54:00,40.8508,-96.7475,362.7,"LINCOLN AIRPORT, NE US",FM-15,343,1024,-8.9,-5.6,0,HZ:7 |FU |HZ,-0.2,5,78,CLR:00,1025.6,980.9,9.656,-6.6,,,0,,,,,,,,,,,,,,,,,,,,,,,,,,,,,,,,,,,,,,,,,,,,,,,,,,,,,,,,,,,,,,,,,,,,,,,,,,,,,,,,,,,,,,,,,,,MET10501/08/23 08:54:02 METAR KLNK 081454Z 00000KT 6SM HZ CLR M06/M09 A3024 RMK AO2 SLP256 T10561089 55002 (SD),,,,,,,,,,3/26/2007
USW00014939,2023-01-08T09:54:00,40.8508,-96.7475,362.7,"LINCOLN AIRPORT, NE US",FM-15,343,1024,-5,-2.2,0,HZ:7 |FU |HZ,,,81,CLR:00,1025.5,980.9,9.656,-3.2,,,0,,,,,,,,,,,,,,,,,,,,,,,,,,,,,,,,,,,,,,,,,,,,,,,,,,,,,,,,,,,,,,,,,,,,,,,,,,,,,,,,,,,,,,,,,,,MET09901/08/23 09:54:02 METAR KLNK 081554Z 00000KT 6SM HZ CLR M02/M05 A3024 RMK AO2 SLP255 T10221050 (SD),,,,,,,,,,3/26/2007
USW00014939,2023-01-08T10:54:00,40.8508,-96.7475,362.7,"LINCOLN AIRPORT, NE US",FM-15,343,1023.7,-3.9,1.7,0,,,,67,CLR:00,1025,980.6,16.093,-0.4,220,,3.6,,,,,,,,,,,,,,,,,,,,,,,,,,,,,,,,,,,,,,,,,,,,,,,,,,,,,,,,,,,,,,,,,,,,,,,,,,,,,,,,,,,,,,,,,,,MET09601/08/23 10:54:02 METAR KLNK 081654Z 22007KT 10SM CLR 02/M04 A3023 RMK AO2 SLP250 T00171039 (SD),,,,,,,,,,3/26/2007
USW00014939,2023-01-08T11:54:00,40.8508,-96.7475,362.7,"LINCOLN AIRPORT, NE US",FM-15,343,1023,-3.9,3.3,0,,-0.8,8,60,CLR:00,1024.4,979.9,16.093,0.6,220,,3.6,,,,,,,,,,,,,,,,,,,,,,,,,,,,,,,,,,,,,,,,,,,,,,,,,,,,,,,,,,,,,,,,,,,,,,,,,,,,,,,,,,,,,,,,,,,MET11401/08/23 11:54:02 METAR KLNK 081754Z 22007KT 10SM CLR 03/M04 A3021 RMK AO2 SLP244 T00331039 10033 21100 58008 (SD),,,,,,,,,,3/26/2007
USW00014939,2023-01-08T12:00:00,40.8508,-96.7475,362.7,"LINCOLN AIRPORT, NE US",FM-12,223,,-3.9,3.3,,,-0.8,8,60,,1024.4,979.7,,0.6,220,,3.6,,,,,,,,,,,,,,,,,,,,,,,,,,,,,,,,,,,,,,,,,,,,,,,,,,,,,,,,,,,,,,,,,,,,,,,,,,,,,,,,,,,,,,,,,,,SYN08072551 32966 02207 10033 21039 39797 40244 58008 91754 333 10033 21100 555 90818=,,,,,,,,,,3/26/2007
USW00014939,2023-01-08T12:54:00,40.8508,-96.7475,362.7,"LINCOLN AIRPORT, NE US",FM-15,343,1021.7,-2.2,5,0,,,,60,CLR:00,1023.1,978.6,16.093,2.1,250,,2.6,,,,,,,,,,,,,,,,,,,,,,,,,,,,,,,,,,,,,,,,,,,,,,,,,,,,,,,,,,,,,,,,,,,,,,,,,,,,,,,,,,,,,,,,,,,MET09601/08/23 12:54:02 METAR KLNK 081854Z 25005KT 10SM CLR 05/M02 A3017 RMK AO2 SLP231 T00501022 (SD),,,,,,,,,,3/26/2007
USW00014939,2023-01-08T13:54:00,40.8508,-96.7475,362.7,"LINCOLN AIRPORT, NE US",FM-15,343,1021.3,-1.7,6.7,0,,,,55,CLR:00,1022.3,978.3,16.093,3.2,220,,2.1,,,,,,,,,,,,,,,,,,,,,,,,,,,,,,,,,,,,,,,,,,,,,,,,,,,,,,,,,,,,,,,,,,,,,,,,,,,,,,,,,,,,,,,,,,,MET09601/08/23 13:54:02 METAR KLNK 081954Z 22004KT 10SM CLR 07/M02 A3016 RMK AO2 SLP223 T00671017 (SD),,,,,,,,,,3/26/2007
USW00014939,2023-01-08T14:54:00,40.8508,-96.7475,362.7,"LINCOLN AIRPORT, NE US",FM-15,343,1020.3,-1.1,8.3,0,,-2.5,6,52,CLR:00,1021.4,977.3,16.093,4.3,230,,3.1,,,,,,,,,,,,,,,,,,,,,,,,,,,,,,,,,,,,,,,,,,,,,,,,,,,,,,,,,,,,,,,,,,,,,,,,,,,,,,,,,,,,,,,,,,,MET10201/08/23 14:54:02 METAR KLNK 082054Z 23006KT 10SM CLR 08/M01 A3013 RMK AO2 SLP214 T00831011 56025 (SD),,,,,,,,,,3/26/2007
USW00014939,2023-01-08T15:54:00,40.8508,-96.7475,362.7,"LINCOLN AIRPORT, NE US",FM-15,343,1020.7,-0.6,8.3,0,,,,54,CLR:00,1021.8,977.6,16.093,4.5,210,,2.6,,,,,,,,,,,,,,,,,,,,,,,,,,,,,,,,,,,,,,,,,,,,,,,,,,,,,,,,,,,,,,,,,,,,,,,,,,,,,,,,,,,,,,,,,,,MET09101/08/23 15:54:02 METAR KLNK 082154Z 21005KT 10SM CLR 08/M01 A3014 RMK AO2 SLP218 T00831006,,,,,,,,,,3/26/2007
USW00014939,2023-01-08T16:54:00,40.8508,-96.7475,362.7,"LINCOLN AIRPORT, NE US",FM-15,343,1020.7,-0.6,6.7,0,,,,60,CLR:00,1021.9,977.6,16.093,3.6,210,,2.1,,,,,,,,,,,,,,,,,,,,,,,,,,,,,,,,,,,,,,,,,,,,,,,,,,,,,,,,,,,,,,,,,,,,,,,,,,,,,,,,,,,,,,,,,,,MET09101/08/23 16:54:02 METAR KLNK 082254Z 21004KT 10SM CLR 07/M01 A3014 RMK AO2 SLP219 T00671006,,,,,,,,,,3/26/2007
USW00014939,2023-01-08T17:54:00,40.8508,-96.7475,362.7,"LINCOLN AIRPORT, NE US",FM-15,343,1020.3,-3.3,1.1,0,,-0.1,8,73,CLR:00,1021.9,977.3,16.093,-0.6,140,,2.1,,,,,,,,,,,,,,,,,,,,,,,,,,,,,,,,,,,,,,,,,,,,,,,,,,,,,,,,,,,,,,,,,,,,,,,,,,,,,,,,,,,,,,,,,,,MET11401/08/23 17:54:02 METAR KLNK 082354Z 14004KT 10SM CLR 01/M03 A3013 RMK AO2 SLP219 T00111033 10083 20011 58001 (CO),,,,,,,,,,3/26/2007
USW00014939,2023-01-08T18:00:00,40.8508,-96.7475,362.7,"LINCOLN AIRPORT, NE US",FM-12,223,,-3.3,1.1,,,-0.1,8,73,,1021.9,977.1,,-0.6,140,,2.1,,,,,,,,,,,,,,,,,,,,,,,,,,,,,,,,,,,,,,,,,,,,,,,,,,,,,,,,,,,,,,,,,,,,,,,,,,,,,,,,,,,,,,,,,,,SYN08072551 32966 01404 10011 21033 39771 40219 58001 92354 333 10083 21099 555 90900=,,,,,,,,,,3/26/2007
USW00014939,2023-01-08T18:54:00,40.8508,-96.7475,362.7,"LINCOLN AIRPORT, NE US",FM-15,343,1020.3,-2.8,1.1,0,,,,76,CLR:00,1021.8,977.3,16.093,-0.4,160,,2.1,,,,,,,,,,,,,,,,,,,,,,,,,,,,,,,,,,,,,,,,,,,,,,,,,,,,,,,,,,,,,,,,,,,,,,,,,,,,,,,,,,,,,,,,,,,MET09101/08/23 18:54:01 METAR KLNK 090054Z 16004KT 10SM CLR 01/M03 A3013 RMK AO2 SLP218 T00111028,,,,,,,,,,3/26/2007
USW00014939,2023-01-08T19:54:00,40.8508,-96.7475,362.7,"LINCOLN AIRPORT, NE US",FM-15,343,1020.3,-3.3,-0.6,0,,,,82,CLR:00,1022,977.3,16.093,-1.6,180,,2.1,,,,,,,,,,,,,,,,,,,,,,,,,,,,,,,,,,,,,,,,,,,,,,,,,,,,,,,,,,,,,,,,,,,,,,,,,,,,,,,,,,,,,,,,,,,MET09201/08/23 19:54:01 METAR KLNK 090154Z 18004KT 10SM CLR M01/M03 A3013 RMK AO2 SLP220 T10061033,,,,,,,,,,3/26/2007
USW00014939,2023-01-08T20:54:00,40.8508,-96.7475,362.7,"LINCOLN AIRPORT, NE US",FM-15,343,1020,-2.8,-0.6,0,,-0.3,8,85,CLR:00,1021.4,977,14.484,-1.4,150,,2.1,,,,,,,,,,,,,,,,,,,,,,,,,,,,,,,,,,,,,,,,,,,,,,,,,,,,,,,,,,,,,,,,,,,,,,,,,,,,,,,,,,,,,,,,,,,MET09701/08/23 20:54:01 METAR KLNK 090254Z 15004KT 9SM CLR M01/M03 A3012 RMK AO2 SLP214 T10061028 58003,,,,,,,,,,3/26/2007
USW00014939,2023-01-08T21:54:00,40.8508,-96.7475,362.7,"LINCOLN AIRPORT, NE US",FM-15,343,1019.6,-3.9,-1.7,0,,,,85,CLR:00,1020.9,976.7,12.875,-2.5,150,,2.1,,,,,,,,,,,,,,,,,,,,,,,,,,,,,,,,,,,,,,,,,,,,,,,,,,,,,,,,,,,,,,,,,,,,,,,,,,,,,,,,,,,,,,,,,,,MET09101/08/23 21:54:01 METAR KLNK 090354Z 15004KT 8SM CLR M02/M04 A3011 RMK AO2 SLP209 T10171039,,,,,,,,,,3/26/2007
USW00014939,2023-01-08T22:54:00,40.8508,-96.7475,362.7,"LINCOLN AIRPORT, NE US",FM-15,343,1019.6,-2.2,0,0,,,,85,CLR:00,1020.7,976.7,14.484,-0.8,140,,1.5,,,,,,,,,,,,,,,,,,,,,,,,,,,,,,,,,,,,,,,,,,,,,,,,,,,,,,,,,,,,,,,,,,,,,,,,,,,,,,,,,,,,,,,,,,,MET09001/08/23 22:54:02 METAR KLNK 090454Z 14003KT 9SM CLR 00/M02 A3011 RMK AO2 SLP207 T00001022,,,,,,,,,,3/26/2007
USW00014939,2023-01-08T23:54:00,40.8508,-96.7475,362.7,"LINCOLN AIRPORT, NE US",FM-15,343,1019.3,-5,-2.8,0,,-0.5,6,85,CLR:00,1020.6,976.3,11.265,-3.5,,,0,,,,,,,,,,,,,,,,,,,,,,,,,,,,,,,,,,,,,,,,,,,,,,,,,,,,,,,,,,,,,,,,,,,,,,,,,,,,,,,,,,,,,,,,,,,MET11901/08/23 23:54:02 METAR KLNK 090554Z 00000KT 7SM CLR M03/M05 A3010 RMK AO2 SLP206 T10281050 10022 21033 400831100 56005,,,,,,,,,,3/26/2007
USW00014939,2023-01-09T00:00:00,40.8508,-96.7475,362.7,"LINCOLN AIRPORT, NE US",FM-12,223,,-5,-2.8,,,-0.5,6,85,,1020.6,976.1,,-3.5,,,0,,,,,,,,,,,,,,,,,,,,,,,,,,,,,,,,,,,,,,,,,,,,,,,,,,,,,,,,,,,,,,,,,,,,,,,,,,,,,,,,,,,,,,,,,,,SYN08072551 35961 00000 11028 21050 39761 40206 56005 90554 333 10022 21100 555 90906=,,,,,,,,,,3/26/2007
USW00014939,2023-01-09T00:00:00,40.8508,-96.7475,362.7,"LINCOLN AIRPORT, NE US",SOD,,,,,,,,,,,,,,,,,,751,1716,-2.8,3.7,71,1015.9,971.6,0,2.4,0,7.7,14.6,11.7,-4.3,270,8.1,0,0,0,250,6.3,,,,,,,,,,,,,,,,,,,,,,,,,,,,,,,,,,,,,,,,,,,,,,,,,,,,,,,,,,,,,,,,,,,,,,,,,,,,,,,,3/26/2007
USW00014939,2023-01-09T00:54:00,40.8508,-96.7475,362.7,"LINCOLN AIRPORT, NE US",FM-15,343,1018.6,-3.9,-1.7,0,,,,85,CLR:00,1019.7,975.7,14.484,-2.5,,,0,,,,,,,,,,,,,,,,,,,,,,,,,,,,,,,,,,,,,,,,,,,,,,,,,,,,,,,,,,,,,,,,,,,,,,,,,,,,,,,,,,,,,,,,,,,MET09701/09/23 00:54:02 METAR KLNK 090654Z 00000KT 9SM CLR M02/M04 A3008 RMK AO2 SLP197 I1000 T10171039,,,,,,,,,,3/26/2007
USW00014939,2023-01-09T01:54:00,40.8508,-96.7475,362.7,"LINCOLN AIRPORT, NE US",FM-15,343,1017.9,-5,-2.8,0,,,,85,CLR:00,1018.9,975,12.875,-3.5,,,0,,,,,,,,,,,,,,,,,,,,,,,,,,,,,,,,,,,,,,,,,,,,,,,,,,,,,,,,,,,,,,,,,,,,,,,,,,,,,,,,,,,,,,,,,,,MET09101/09/23 01:54:02 METAR KLNK 090754Z 00000KT 8SM CLR M03/M05 A3006 RMK AO2 SLP189 T10281050,,,,,,,,,,3/26/2007
USW00014939,2023-01-09T02:54:00,40.8508,-96.7475,362.7,"LINCOLN AIRPORT, NE US",FM-15,343,1017.6,-3.9,-2.2,0,,-1.7,6,88,CLR:00,1018.5,974.7,16.093,-2.8,,,0,,,,,,,,,,,,,,,,,,,,,,,,,,,,,,,,,,,,,,,,,,,,,,,,,,,,,,,,,,,,,,,,,,,,,,,,,,,,,,,,,,,,,,,,,,,MET11001/09/23 02:54:02 METAR KLNK 090854Z 00000KT 10SM CLR M02/M04 A3005 RMK AO2 SLP185 I1000 I3000 T10221039 56017,,,,,,,,,,3/26/2007
USW00014939,2023-01-09T03:54:00,40.8508,-96.7475,362.7,"LINCOLN AIRPORT, NE US",FM-15,343,1016.9,-5.6,-2.2,0,,,,78,CLR:00,1017.7,974,14.484,-3.4,140,,1.5,,,,,,,,,,,,,,,,,,,,,,,,,,,,,,,,,,,,,,,,,,,,,,,,,,,,,,,,,,,,,,,,,,,,,,,,,,,,,,,,,,,,,,,,,,,MET09101/09/23 03:54:02 METAR KLNK 090954Z 14003KT 9SM CLR M02/M06 A3003 RMK AO2 SLP177 T10221056,,,,,,,,,,3/26/2007
USW00014939,2023-01-09T04:54:00,40.8508,-96.7475,362.7,"LINCOLN AIRPORT, NE US",FM-15,343,1016.9,-3.9,-2.2,0,,,,88,CLR:00,1017.8,974,16.093,-2.8,,,0,,,,,,,,,,,,,,,,,,,,,,,,,,,,,,,,,,,,,,,,,,,,,,,,,,,,,,,,,,,,,,,,,,,,,,,,,,,,,,,,,,,,,,,,,,,MET09201/09/23 04:54:02 METAR KLNK 091054Z 00000KT 10SM CLR M02/M04 A3003 RMK AO2 SLP178 T10221039,,,,,,,,,,3/26/2007
USW00014939,2023-01-09T05:54:00,40.8508,-96.7475,362.7,"LINCOLN AIRPORT, NE US",FM-15,343,1016.3,-2.8,0,0,,-1.4,6,82,CLR:00,1017.3,973.4,16.093,-1,150,,2.6,,,,,,,,,,,,,,,,,,,,,,,,,,,,,,,,,,,,,,,,,,,,,,,,,,,,,,,,,,,,,,,,,,,,,,,,,,,,,,,,,,,,,,,,,,,MET12001/09/23 05:54:02 METAR KLNK 091154Z 15005KT 10SM CLR 00/M03 A3001 RMK AO2 SLP173 I6000 T00001028 10006 21044 56014 (CD),,,,,,,,,,3/26/2007
USW00014939,2023-01-09T06:00:00,40.8508,-96.7475,362.7,"LINCOLN AIRPORT, NE US",FM-12,223,,-2.8,0,,,-1.4,6,82,,1017.3,973.1,,-1,150,,2.6,,,,,,,,,,,,,,,,,,,,,,,,,,,,,,,,,,,,,,,,,,,,,,,,,,,,,,,,,,,,,,,,,,,,,,,,,,,,,,,,,,,,,,,,,,,SYN08072551 32966 01505 10000 21028 39731 40173 56014 91154 333 10083 21044 555 90912=,,,,,,,,,,3/26/2007
USW00014939,2023-01-09T06:54:00,40.8508,-96.7475,362.7,"LINCOLN AIRPORT, NE US",FM-15,343,1015.6,-2.8,0,0,,,,82,CLR:00,1016.6,972.7,16.093,-1,140,,2.6,,,,,,,,,,,,,,,,,,,,,,,,,,,,,,,,,,,,,,,,,,,,,,,,,,,,,,,,,,,,,,,,,,,,,,,,,,,,,,,,,,,,,,,,,,,MET09601/09/23 06:54:02 METAR KLNK 091254Z 14005KT 10SM CLR 00/M03 A2999 RMK AO2 SLP166 T00001028 (CD),,,,,,,,,,3/26/2007
USW00014939,2023-01-09T07:54:00,40.8508,-96.7475,362.7,"LINCOLN AIRPORT, NE US",FM-15,343,1015.9,-2.2,0.6,0,,,,82,CLR:00,1017.1,973.1,16.093,-0.5,180,,2.6,,,,,,,,,,,,,,,,,,,,,,,,,,,,,,,,,,,,,,,,,,,,,,,,,,,,,,,,,,,,,,,,,,,,,,,,,,,,,,,,,,,,,,,,,,,MET09601/09/23 07:54:02 METAR KLNK 091354Z 18005KT 10SM CLR 01/M02 A3000 RMK AO2 SLP171 T00061022 (CD),,,,,,,,,,3/26/2007
USW00014939,2023-01-09T08:54:00,40.8508,-96.7475,362.7,"LINCOLN AIRPORT, NE US",FM-15,343,1015.6,-1.7,1.1,0,,-0.8,6,82,CLR:00,1016.5,972.7,14.484,0,170,,3.6,,,,,,,,,,,,,,,,,,,,,,,,,,,,,,,,,,,,,,,,,,,,,,,,,,,,,,,,,,,,,,,,,,,,,,,,,,,,,,,,,,,,,,,,,,,MET10101/09/23 08:54:02 METAR KLNK 091454Z 17007KT 9SM CLR 01/M02 A2999 RMK AO2 SLP165 T00111017 56008 (CD),,,,,,,,,,3/26/2007
USW00014939,2023-01-09T09:54:00,40.8508,-96.7475,362.7,"LINCOLN AIRPORT, NE US",FM-15,343,1015.2,-0.6,3.3,0,,,,76,CLR:00,1016.3,972.4,16.093,1.7,230,,3.1,,,,,,,,,,,,,,,,,,,,,,,,,,,,,,,,,,,,,,,,,,,,,,,,,,,,,,,,,,,,,,,,,,,,,,,,,,,,,,,,,,,,,,,,,,,MET09601/09/23 09:54:02 METAR KLNK 091554Z 23006KT 10SM CLR 03/M01 A2998 RMK AO2 SLP163 T00331006 (CD),,,,,,,,,,3/26/2007
USW00014939,2023-01-09T10:54:00,40.8508,-96.7475,362.7,"LINCOLN AIRPORT, NE US",FM-15,343,1014.9,-0.6,6.1,0,,,,63,CLR:00,1015.8,972.1,16.093,3.3,220,,5.1,,,,,,,,,,,,,,,,,,,,,,,,,,,,,,,,,,,,,,,,,,,,,,,,,,,,,,,,,,,,,,,,,,,,,,,,,,,,,,,,,,,,,,,,,,,MET09101/09/23 10:54:02 METAR KLNK 091654Z 22010KT 10SM CLR 06/M01 A2997 RMK AO2 SLP158 T00611006,,,,,,,,,,3/26/2007
USW00014939,2023-01-09T11:54:00,40.8508,-96.7475,362.7,"LINCOLN AIRPORT, NE US",FM-15,343,1013.5,-0.6,8.3,0,,-1.7,8,54,CLR:00,1014.5,970.8,16.093,4.5,240,,5.1,,,,,,,,,,,,,,,,,,,,,,,,,,,,,,,,,,,,,,,,,,,,,,,,,,,,,,,,,,,,,,,,,,,,,,,,,,,,,,,,,,,,,,,,,,,MET10901/09/23 11:54:02 METAR KLNK 091754Z 24010KT 10SM CLR 08/M01 A2993 RMK AO2 SLP145 T00831006 10089 21006 58017,,,,,,,,,,3/26/2007
USW00014939,2023-01-09T12:00:00,40.8508,-96.7475,362.7,"LINCOLN AIRPORT, NE US",FM-12,223,,-0.6,8.3,,,-1.7,8,54,,1014.5,970.5,,4.5,240,,5.1,,,,,,,,,,,,,,,,,,,,,,,,,,,,,,,,,,,,,,,,,,,,,,,,,,,,,,,,,,,,,,,,,,,,,,,,,,,,,,,,,,,,,,,,,,,SYN08072551 32966 02410 10083 21006 39705 40145 58017 91754 333 10089 21006 555 90918=,,,,,,,,,,3/26/2007
USW00014939,2023-01-09T12:54:00,40.8508,-96.7475,362.7,"LINCOLN AIRPORT, NE US",FM-15,343,1012.5,0,10,0,,,,50,CLR:00,1013.3,969.8,16.093,5.6,240,,4.6,,,,,,,,,,,,,,,,,,,,,,,,,,,,,,,,,,,,,,,,,,,,,,,,,,,,,,,,,,,,,,,,,,,,,,,,,,,,,,,,,,,,,,,,,,,MET09001/09/23 12:54:02 METAR KLNK 091854Z 24009KT 10SM CLR 10/00 A2990 RMK AO2 SLP133 T01000000,,,,,,,,,,3/26/2007
USW00014939,2023-01-09T13:54:00,40.8508,-96.7475,362.7,"LINCOLN AIRPORT, NE US",FM-15,343,1012.2,-0.6,10.6,0,,,,46,CLR:00,1012.8,969.5,16.093,5.6,280,,4.6,,,,,,,,,,,,,,,,,,,,,,,,,,,,,,,,,,,,,,,,,,,,,,,,,,,,,,,,,,,,,,,,,,,,,,,,,,,,,,,,,,,,,,,,,,,MET09101/09/23 13:54:02 METAR KLNK 091954Z 28009KT 10SM CLR 11/M01 A2989 RMK AO2 SLP128 T01061006,,,,,,,,,,3/26/2007
USW00014939,2023-01-09T14:54:00,40.8508,-96.7475,362.7,"LINCOLN AIRPORT, NE US",FM-15,343,1011.9,0,11.7,0,,-1.8,6,45,CLR:00,1012.3,969.1,16.093,6.4,310,,3.6,,,,,,,,,,,,,,,,,,,,,,,,,,,,,,,,,,,,,,,,,,,,,,,,,,,,,,,,,,,,,,,,,,,,,,,,,,,,,,,,,,,,,,,,,,,MET09601/09/23 14:54:02 METAR KLNK 092054Z 31007KT 10SM CLR 12/00 A2988 RMK AO2 SLP123 T01170000 56018,,,,,,,,,,3/26/2007
USW00014939,2023-01-09T15:54:00,40.8508,-96.7475,362.7,"LINCOLN AIRPORT, NE US",FM-15,343,1011.9,-0.6,10.6,0,,,,46,CLR:00,1012.6,969.1,16.093,5.6,280,,3.1,,,,,,,,,,,,,,,,,,,,,,,,,,,,,,,,,,,,,,,,,,,,,,,,,,,,,,,,,,,,,,,,,,,,,,,,,,,,,,,,,,,,,,,,,,,MET09101/09/23 15:54:02 METAR KLNK 092154Z 28006KT 10SM CLR 11/M01 A2988 RMK AO2 SLP126 T01061006,,,,,,,,,,3/26/2007
USW00014939,2023-01-09T16:54:00,40.8508,-96.7475,362.7,"LINCOLN AIRPORT, NE US",FM-15,343,1012.2,-1.1,8.9,0,,,,50,CLR:00,1013,969.5,16.093,4.6,280,,2.6,,,,,,,,,,,,,,,,,,,,,,,,,,,,,,,,,,,,,,,,,,,,,,,,,,,,,,,,,,,,,,,,,,,,,,,,,,,,,,,,,,,,,,,,,,,MET09101/09/23 16:54:02 METAR KLNK 092254Z 28005KT 10SM CLR 09/M01 A2989 RMK AO2 SLP130 T00891011,,,,,,,,,,3/26/2007
USW00014939,2023-01-09T17:54:00,40.8508,-96.7475,362.7,"LINCOLN AIRPORT, NE US",FM-15,343,1012.9,-1.7,5.6,0,,1,3,60,CLR:00,1013.7,970.1,16.093,2.6,270,,2.1,,,,,,,,,,,,,,,,,,,,,,,,,,,,,,,,,,,,,,,,,,,,,,,,,,,,,,,,,,,,,,,,,,,,,,,,,,,,,,,,,,,,,,,,,,,MET10901/09/23 17:54:02 METAR KLNK 092354Z 27004KT 10SM CLR 06/M02 A2991 RMK AO2 SLP137 T00561017 10117 20056 53010,,,,,,,,,,3/26/2007
USW00014939,2023-01-09T18:00:00,40.8508,-96.7475,362.7,"LINCOLN AIRPORT, NE US",FM-12,223,,-1.7,5.6,,,1,3,60,,1013.7,969.9,,2.6,270,,2.1,,,,,,,,,,,,,,,,,,,,,,,,,,,,,,,,,,,,,,,,,,,,,,,,,,,,,,,,,,,,,,,,,,,,,,,,,,,,,,,,,,,,,,,,,,,SYN08072551 32966 02704 10056 21017 39699 40137 53010 92354 333 10117 21043 555 91000=,,,,,,,,,,3/26/2007
USW00014939,2023-01-09T18:54:00,40.8508,-96.7475,362.7,"LINCOLN AIRPORT, NE US",FM-15,343,1012.9,-3.9,0,0,,,,75,CLR:00,1013.9,970.1,16.093,-1.4,,,0,,,,,,,,,,,,,,,,,,,,,,,,,,,,,,,,,,,,,,,,,,,,,,,,,,,,,,,,,,,,,,,,,,,,,,,,,,,,,,,,,,,,,,,,,,,MET09101/09/23 18:54:01 METAR KLNK 100054Z 00000KT 10SM CLR 00/M04 A2991 RMK AO2 SLP139 T00001039,,,,,,,,,,3/26/2007
USW00014939,2023-01-09T19:54:00,40.8508,-96.7475,362.7,"LINCOLN AIRPORT, NE US",FM-15,343,1013.2,-5,-2.2,0,,,,81,CLR:00,1014.4,970.4,16.093,-3.2,,,0,,,,,,,,,,,,,,,,,,,,,,,,,,,,,,,,,,,,,,,,,,,,,,,,,,,,,,,,,,,,,,,,,,,,,,,,,,,,,,,,,,,,,,,,,,,MET09201/09/23 19:54:01 METAR KLNK 100154Z 00000KT 10SM CLR M02/M05 A2992 RMK AO2 SLP144 T10221050,,,,,,,,,,3/26/2007
USW00014939,2023-01-09T20:54:00,40.8508,-96.7475,362.7,"LINCOLN AIRPORT, NE US",FM-15,343,1013.2,-2.2,1.1,0,,0.2,0,79,CLR:00,1014.1,970.4,16.093,-0.2,290,,1.5,,,,,,,,,,,,,,,,,,,,,,,,,,,,,,,,,,,,,,,,,,,,,,,,,,,,,,,,,,,,,,,,,,,,,,,,,,,,,,,,,,,,,,,,,,,MET09701/09/23 20:54:01 METAR KLNK 100254Z 29003KT 10SM CLR 01/M02 A2992 RMK AO2 SLP141 T00111022 50002,,,,,,,,,,3/26/2007
USW00014939,2023-01-09T21:54:00,40.8508,-96.7475,362.7,"LINCOLN AIRPORT, NE US",FM-15,343,1013.2,-5,-2.2,0,,,,81,CLR:00,1014.4,970.4,16.093,-3.2,350,,2.6,,,,,,,,,,,,,,,,,,,,,,,,,,,,,,,,,,,,,,,,,,,,,,,,,,,,,,,,,,,,,,,,,,,,,,,,,,,,,,,,,,,,,,,,,,,MET09201/09/23 21:54:01 METAR KLNK 100354Z 35005KT 10SM CLR M02/M05 A2992 RMK AO2 SLP144 T10221050,,,,,,,,,,3/26/2007
USW00014939,2023-01-09T22:54:00,40.8508,-96.7475,362.7,"LINCOLN AIRPORT, NE US",FM-15,343,1013.9,-2.2,2.2,0,,,,73,CLR:00,1014.5,971.1,16.093,0.5,320,,3.1,,,,,,,,,,,,,,,,,,,,,,,,,,,,,,,,,,,,,,,,,,,,,,,,,,,,,,,,,,,,,,,,,,,,,,,,,,,,,,,,,,,,,,,,,,,MET09101/09/23 22:54:01 METAR KLNK 100454Z 32006KT 10SM CLR 02/M02 A2994 RMK AO2 SLP145 T00221022,,,,,,,,,,3/26/2007
USW00014939,2023-01-09T23:54:00,40.8508,-96.7475,362.7,"LINCOLN AIRPORT, NE US",FM-15,343,1013.2,-5.6,-3.3,0,,0.2,0,84,CLR:00,1014.2,970.4,16.093,-4.1,180,,2.6,,,,,,,,,,,,,,,,,,,,,,,,,,,,,,,,,,,,,,,,,,,,,,,,,,,,,,,,,,,,,,,,,,,,,,,,,,,,,,,,,,,,,,,,,,,MET12001/09/23 23:54:01 METAR KLNK 100554Z 18005KT 10SM CLR M03/M06 A2992 RMK AO2 SLP142 T10331056 10061 21044 401171044 50002,,,,,,,,,,3/26/2007
USW00014939,2023-01-10T00:00:00,40.8508,-96.7475,362.7,"LINCOLN AIRPORT, NE US",FM-12,223,,-5.6,-3.3,,,0.2,9,84,,1014.2,970.2,,-4.1,180,,2.6,,,,,,,,,,,,,,,,,,,,,,,,,,,,,,,,,,,,,,,,,,,,,,,,,,,,,,,,,,,,,,,,,,,,,,,,,,,,,,,,,,,,,,,,,,,SYN08072551 35966 01805 11033 21056 39702 40142 50002 90554 333 10061 21044 555 91006=,,,,,,,,,,3/26/2007
USW00014939,2023-01-10T00:00:00,40.8508,-96.7475,362.7,"LINCOLN AIRPORT, NE US",SOD,,,,,,,,,,,,,,,,,,751,1717,-2.8,4.2,71,1011.5,967.2,0,1.7,0,8.2,14.1,13.3,-4.9,,,T,0,0,130,4,,,,,,,,,,,,,,,,,,,,,,,,,,,,,,,,,,,,,,,,,,,,,,,,,,,,,,,,,,,,,,,,,,,,,,,,,,,,,,,,3/26/2007
USW00014939,2023-01-10T00:54:00,40.8508,-96.7475,362.7,"LINCOLN AIRPORT, NE US",FM-15,343,1013.2,-3.9,-1.7,0,,,,85,CLR:00,1013.9,970.4,16.093,-2.5,190,,1.5,,,,,,,,,,,,,,,,,,,,,,,,,,,,,,,,,,,,,,,,,,,,,,,,,,,,,,,,,,,,,,,,,,,,,,,,,,,,,,,,,,,,,,,,,,,MET09201/10/23 00:54:02 METAR KLNK 100654Z 19003KT 10SM CLR M02/M04 A2992 RMK AO2 SLP139 T10171039,,,,,,,,,,3/26/2007
USW00014939,2023-01-10T01:54:00,40.8508,-96.7475,362.7,"LINCOLN AIRPORT, NE US",FM-15,343,1012.9,-5,-3.3,0,,,,88,CLR:00,1013.4,970.1,16.093,-3.9,200,,2.1,,,,,,,,,,,,,,,,,,,,,,,,,,,,,,,,,,,,,,,,,,,,,,,,,,,,,,,,,,,,,,,,,,,,,,,,,,,,,,,,,,,,,,,,,,,MET09201/10/23 01:54:02 METAR KLNK 100754Z 20004KT 10SM CLR M03/M05 A2991 RMK AO2 SLP134 T10331050,,,,,,,,,,3/26/2007
USW00014939,2023-01-10T02:54:00,40.8508,-96.7475,362.7,"LINCOLN AIRPORT, NE US",FM-15,343,1013.5,-5.6,-3.9,0,,0,3,88,CLR:00,1014.1,970.8,16.093,-4.5,150,,2.1,,,,,,,,,,,,,,,,,,,,,,,,,,,,,,,,,,,,,,,,,,,,,,,,,,,,,,,,,,,,,,,,,,,,,,,,,,,,,,,,,,,,,,,,,,,MET09801/10/23 02:54:02 METAR KLNK 100854Z 15004KT 10SM CLR M04/M06 A2993 RMK AO2 SLP141 T10391056 53000,,,,,,,,,,3/26/2007
USW00014939,2023-01-10T03:54:00,40.8508,-96.7475,362.7,"LINCOLN AIRPORT, NE US",FM-15,343,1013.2,-5.6,-2.8,0,,,,81,CLR:00,1013.8,970.4,16.093,-3.7,120,,1.5,,,,,,,,,,,,,,,,,,,,,,,,,,,,,,,,,,,,,,,,,,,,,,,,,,,,,,,,,,,,,,,,,,,,,,,,,,,,,,,,,,,,,,,,,,,MET09201/10/23 03:54:02 METAR KLNK 100954Z 12003KT 10SM CLR M03/M06 A2992 RMK AO2 SLP138 T10281056,,,,,,,,,,3/26/2007
USW00014939,2023-01-10T04:54:00,40.8508,-96.7475,362.7,"LINCOLN AIRPORT, NE US",FM-15,343,1012.9,-5.6,-3.9,0,,,,88,CLR:00,1013.8,970.1,16.093,-4.5,170,,1.5,,,,,,,,,,,,,,,,,,,,,,,,,,,,,,,,,,,,,,,,,,,,,,,,,,,,,,,,,,,,,,,,,,,,,,,,,,,,,,,,,,,,,,,,,,,MET09201/10/23 04:54:02 METAR KLNK 101054Z 17003KT 10SM CLR M04/M06 A2991 RMK AO2 SLP138 T10391056,,,,,,,,,,3/26/2007
USW00014939,2023-01-10T05:54:00,40.8508,-96.7475,362.7,"LINCOLN AIRPORT, NE US",FM-15,343,1012.5,-5.6,-3.3,0,,-0.7,8,84,CLR:00,1013.6,969.8,16.093,-4.1,140,,2.1,,,,,,,,,,,,,,,,,,,,,,,,,,,,,,,,,,,,,,,,,,,,,,,,,,,,,,,,,,,,,,,,,,,,,,,,,,,,,,,,,,,,,,,,,,,MET11501/10/23 05:54:02 METAR KLNK 101154Z 14004KT 10SM CLR M03/M06 A2990 RMK AO2 SLP136 T10331056 11011 21044 58007 (RT),,,,,,,,,,3/26/2007
USW00014939,2023-01-10T06:00:00,40.8508,-96.7475,362.7,"LINCOLN AIRPORT, NE US",FM-12,223,,-5.6,-3.3,,,-0.7,8,84,,1013.6,969.5,,-4.1,140,,2.1,,,,,,,,,,,,,,,,,,,,,,,,,,,,,,,,,,,,,,,,,,,,,,,,,,,,,,,,,,,,,,,,,,,,,,,,,,,,,,,,,,,,,,,,,,,SYN08072551 32966 01404 11033 21056 39695 40136 58007 91154 333 10117 21044 555 91012=,,,,,,,,,,3/26/2007
USW00014939,2023-01-10T06:54:00,40.8508,-96.7475,362.7,"LINCOLN AIRPORT, NE US",FM-15,343,1012.5,-5.6,-3.3,0,,,,84,CLR:00,1013.9,969.8,16.093,-4.1,,,0,,,,,,,,,,,,,,,,,,,,,,,,,,,,,,,,,,,,,,,,,,,,,,,,,,,,,,,,,,,,,,,,,,,,,,,,,,,,,,,,,,,,,,,,,,,MET09701/10/23 06:54:02 METAR KLNK 101254Z 00000KT 10SM CLR M03/M06 A2990 RMK AO2 SLP139 T10331056 (RT),,,,,,,,,,3/26/2007
USW00014939,2023-01-10T07:54:00,40.8508,-96.7475,362.7,"LINCOLN AIRPORT, NE US",FM-15,343,1012.5,-6.7,-5,0,,,,88,CLR:00,1013.9,969.8,16.093,-5.5,,,0,,,,,,,,,,,,,,,,,,,,,,,,,,,,,,,,,,,,,,,,,,,,,,,,,,,,,,,,,,,,,,,,,,,,,,,,,,,,,,,,,,,,,,,,,,,MET09701/10/23 07:54:02 METAR KLNK 101354Z 00000KT 10SM CLR M05/M07 A2990 RMK AO2 SLP139 T10501067 (RT),,,,,,,,,,3/26/2007
USW00014939,2023-01-10T08:54:00,40.8508,-96.7475,362.7,"LINCOLN AIRPORT, NE US",FM-15,343,1012.2,-4.4,-2.2,0,,-0.5,8,85,CLR:00,1013.3,969.5,16.093,-3,140,,1.5,,,,,,,,,,,,,,,,,,,,,,,,,,,,,,,,,,,,,,,,,,,,,,,,,,,,,,,,,,,,,,,,,,,,,,,,,,,,,,,,,,,,,,,,,,,MET10301/10/23 08:54:02 METAR KLNK 101454Z 14003KT 10SM CLR M02/M04 A2989 RMK AO2 SLP133 T10221044 58005 (RT),,,,,,,,,,3/26/2007
USW00014939,2023-01-10T09:54:00,40.8508,-96.7475,362.7,"LINCOLN AIRPORT, NE US",FM-15,343,1012.5,-2.8,-0.6,0,,,,85,CLR:00,1013.6,969.8,16.093,-1.4,,,0,,,,,,,,,,,,,,,,,,,,,,,,,,,,,,,,,,,,,,,,,,,,,,,,,,,,,,,,,,,,,,,,,,,,,,,,,,,,,,,,,,,,,,,,,,,MET09701/10/23 09:54:02 METAR KLNK 101554Z 00000KT 10SM CLR M01/M03 A2990 RMK AO2 SLP136 T10061028 (JJ),,,,,,,,,,3/26/2007
USW00014939,2023-01-10T10:54:00,40.8508,-96.7475,362.7,"LINCOLN AIRPORT, NE US",FM-15,343,1012.2,-1.7,2.2,0,,,,76,CLR:00,1013,969.5,16.093,0.7,,,0,,,,,,,,,,,,,,,,,,,,,,,,,,,,,,,,,,,,,,,,,,,,,,,,,,,,,,,,,,,,,,,,,,,,,,,,,,,,,,,,,,,,,,,,,,,MET09101/10/23 10:54:02 METAR KLNK 101654Z 00000KT 10SM CLR 02/M02 A2989 RMK AO2 SLP130 T00221017,,,,,,,,,,3/26/2007
USW00014939,2023-01-10T11:54:00,40.8508,-96.7475,362.7,"LINCOLN AIRPORT, NE US",FM-15,343,1011.5,-1.1,4.4,0,,-0.5,8,68,CLR:00,1012.6,968.8,16.093,2.2,150,,2.1,,,,,,,,,,,,,,,,,,,,,,,,,,,,,,,,,,,,,,,,,,,,,,,,,,,,,,,,,,,,,,,,,,,,,,,,,,,,,,,,,,,,,,,,,,,MET10901/10/23 11:54:02 METAR KLNK 101754Z 15004KT 10SM CLR 04/M01 A2987 RMK AO2 SLP126 T00441011 10044 21050 58005,,,,,,,,,,3/26/2007
USW00014939,2023-01-10T12:00:00,40.8508,-96.7475,362.7,"LINCOLN AIRPORT, NE US",FM-12,223,,-1.1,4.4,,,-0.5,8,68,,1012.6,968.6,,2.2,150,,2.1,,,,,,,,,,,,,,,,,,,,,,,,,,,,,,,,,,,,,,,,,,,,,,,,,,,,,,,,,,,,,,,,,,,,,,,,,,,,,,,,,,,,,,,,,,,SYN08072551 32966 01504 10044 21011 39686 40126 58005 91754 333 10044 21050 555 91018=,,,,,,,,,,3/26/2007
USW00014939,2023-01-10T12:54:00,40.8508,-96.7475,362.7,"LINCOLN AIRPORT, NE US",FM-15,343,1010.2,-1.1,8.9,0,,,,50,CLR:00,1010.7,967.5,16.093,4.6,130,,2.1,,,,,,,,,,,,,,,,,,,,,,,,,,,,,,,,,,,,,,,,,,,,,,,,,,,,,,,,,,,,,,,,,,,,,,,,,,,,,,,,,,,,,,,,,,,MET09101/10/23 12:54:02 METAR KLNK 101854Z 13004KT 10SM CLR 09/M01 A2983 RMK AO2 SLP107 T00891011,,,,,,,,,,3/26/2007
USW00014939,2023-01-10T13:54:00,40.8508,-96.7475,362.7,"LINCOLN AIRPORT, NE US",FM-15,343,1008.5,-1.7,11.7,0,,,,40,CLR:00,1009.2,965.9,16.093,5.8,140,,3.1,,,,,,,,,,,,,,,,,,,,,,,,,,,,,,,,,,,,,,,,,,,,,,,,,,,,,,,,,,,,,,,,,,,,,,,,,,,,,,,,,,,,,,,,,,,MET09101/10/23 13:54:02 METAR KLNK 101954Z 14006KT 10SM CLR 12/M02 A2978 RMK AO2 SLP092 T01171017,,,,,,,,,,3/26/2007
USW00014939,2023-01-10T14:54:00,40.8508,-96.7475,362.7,"LINCOLN AIRPORT, NE US",FM-15,343,1008.1,-2.2,12.8,0,,-3.5,6,35,CLR:00,1008.6,965.5,16.093,6.2,160,,4.1,,,,,,,,,,,,,,,,,,,,,,,,,,,,,,,,,,,,,,,,,,,,,,,,,,,,,,,,,,,,,,,,,,,,,,,,,,,,,,,,,,,,,,,,,,,MET09701/10/23 14:54:02 METAR KLNK 102054Z 16008KT 10SM CLR 13/M02 A2977 RMK AO2 SLP086 T01281022 56035,,,,,,,,,,3/26/2007
USW00014939,2023-01-10T15:54:00,40.8508,-96.7475,362.7,"LINCOLN AIRPORT, NE US",FM-15,343,1007.8,-1.1,11.1,0,,,,43,CLR:00,1008.2,965.2,16.093,5.7,130,,4.1,,,,,,,,,,,,,,,,,,,,,,,,,,,,,,,,,,,,,,,,,,,,,,,,,,,,,,,,,,,,,,,,,,,,,,,,,,,,,,,,,,,,,,,,,,,MET09101/10/23 15:54:02 METAR KLNK 102154Z 13008KT 10SM CLR 11/M01 A2976 RMK AO2 SLP082 T01111011,,,,,,,,,,3/26/2007
USW00014939,2023-01-10T16:54:00,40.8508,-96.7475,362.7,"LINCOLN AIRPORT, NE US",FM-15,343,1008.1,-0.6,8.3,0,,,,54,CLR:00,1008.7,965.5,16.093,4.5,130,,2.6,,,,,,,,,,,,,,,,,,,,,,,,,,,,,,,,,,,,,,,,,,,,,,,,,,,,,,,,,,,,,,,,,,,,,,,,,,,,,,,,,,,,,,,,,,,MET09601/10/23 16:54:02 METAR KLNK 102254Z 13005KT 10SM CLR 08/M01 A2977 RMK AO2 SLP087 T00831006 (RC),,,,,,,,,,3/26/2007
USW00014939,2023-01-10T17:54:00,40.8508,-96.7475,362.7,"LINCOLN AIRPORT, NE US",FM-15,343,1008.1,0,6.7,0,,0.2,3,63,CLR:00,1009.1,965.5,16.093,3.8,,,0,,,,,,,,,,,,,,,,,,,,,,,,,,,,,,,,,,,,,,,,,,,,,,,,,,,,,,,,,,,,,,,,,,,,,,,,,,,,,,,,,,,,,,,,,,,MET11301/10/23 17:54:02 METAR KLNK 102354Z 00000KT 10SM CLR 07/00 A2977 RMK AO2 SLP091 T00670000 10133 20050 53002 (RC),,,,,,,,,,3/26/2007
USW00014939,2023-01-10T18:00:00,40.8508,-96.7475,362.7,"LINCOLN AIRPORT, NE US",FM-12,223,,0,6.7,,,0.2,3,63,,1009.1,965.3,,3.8,,,0,,,,,,,,,,,,,,,,,,,,,,,,,,,,,,,,,,,,,,,,,,,,,,,,,,,,,,,,,,,,,,,,,,,,,,,,,,,,,,,,,,,,,,,,,,,SYN08072551 32966 00000 10067 20000 39653 40091 53002 92354 333 10133 21043 555 91100=,,,,,,,,,,3/26/2007
USW00014939,2023-01-10T18:54:00,40.8508,-96.7475,362.7,"LINCOLN AIRPORT, NE US",FM-15,343,1008.5,-0.6,6.1,0,,,,63,FEW:02 33.53,1009.2,965.9,16.093,3.3,170,,2.1,,,,,,,,,,,,,,,,,,,,,,,,,,,,,,,,,,,,,,,,,,,,,,,,,,,,,,,,,,,,,,,,,,,,,,,,,,,,,,,,,,,,,,,,,,,MET09401/10/23 18:54:01 METAR KLNK 110054Z 17004KT 10SM FEW110 06/M01 A2978 RMK AO2 SLP092 T00611006,,,,,,,,,,3/26/2007
USW00014939,2023-01-10T19:54:00,40.8508,-96.7475,362.7,"LINCOLN AIRPORT, NE US",FM-15,343,1009.1,0,6.1,0,,,,65,OVC:08 30.48,1010.2,966.5,16.093,3.5,,,0,,,,,,,,,,,,,,,,,,,,,,,,,,,,,,,,,,,,,,,,,,,,,,,,,,,,,,,,,,,,,,,,,,,,,,,,,,,,,,,,,,,,,,,,,,,MET10001/10/23 19:54:01 METAR KLNK 110154Z 00000KT 10SM OVC100 06/00 A2980 RMK AO2 PRESRR SLP102 T00610000,,,,,,,,,,3/26/2007
USW00014939,2023-01-10T20:54:00,40.8508,-96.7475,362.7,"LINCOLN AIRPORT, NE US",FM-15,343,1008.1,0,5,T,,-0.2,8,70,CLR:00,1008.8,965.5,16.093,2.9,170,,2.6,,,,,,,,,,,,,,,,,,,,,,,,,,,,,,,,,,,,,,,,,,,,,,,,,,,,,,,,,,,,,,,,,,,,,,,,,,,,,,,,,,,,,,,,,,,MET11701/10/23 20:54:01 METAR KLNK 110254Z 17005KT 10SM CLR 05/00 A2977 RMK AO2 RAB14E23 SLP088 P0000 60000 T00500000 58002,,,,,,,,,,3/26/2007
USW00014939,2023-01-10T21:54:00,40.8508,-96.7475,362.7,"LINCOLN AIRPORT, NE US",FM-15,343,1008.1,-0.6,4.4,0,,,,70,CLR:00,1009,965.5,16.093,2.4,300,,1.5,,,,,,,,,,,,,,,,,,,,,,,,,,,,,,,,,,,,,,,,,,,,,,,,,,,,,,,,,,,,,,,,,,,,,,,,,,,,,,,,,,,,,,,,,,,MET09101/10/23 21:54:01 METAR KLNK 110354Z 30003KT 10SM CLR 04/M01 A2977 RMK AO2 SLP090 T00441006,,,,,,,,,,3/26/2007
USW00014939,2023-01-10T22:54:00,40.8508,-96.7475,362.7,"LINCOLN AIRPORT, NE US",FM-15,343,1008.1,-2.2,1.1,0,,,,79,CLR:00,1008.9,965.5,16.093,-0.2,280,,1.5,,,,,,,,,,,,,,,,,,,,,,,,,,,,,,,,,,,,,,,,,,,,,,,,,,,,,,,,,,,,,,,,,,,,,,,,,,,,,,,,,,,,,,,,,,,MET09101/10/23 22:54:01 METAR KLNK 110454Z 28003KT 10SM CLR 01/M02 A2977 RMK AO2 SLP089 T00111022,,,,,,,,,,3/26/2007
USW00014939,2023-01-10T23:54:00,40.8508,-96.7475,362.7,"LINCOLN AIRPORT, NE US",FM-15,343,1008.1,-5,-2.8,0,,0.1,1,85,CLR:00,1008.9,965.5,16.093,-3.6,170,,1.5,,,,,,,,,,,,,,,,,,,,,,,,,,,,,,,,,,,,,,,,,,,,,,,,,,,,,,,,,,,,,,,,,,,,,,,,,,,,,,,,,,,,,,,,,,,MET12601/10/23 23:54:01 METAR KLNK 110554Z 17003KT 10SM CLR M03/M05 A2977 RMK AO2 SLP089 60000 T10281050 10072 21028 401331050 51001,,,,,,,,,,3/26/2007
USW00014939,2023-01-11T00:00:00,40.8508,-96.7475,362.7,"LINCOLN AIRPORT, NE US",FM-12,223,,-5,-2.8,,,0.1,1,85,,1008.9,965.3,,-3.6,170,,1.5,,,,,,,,,,,,,,,,,,,,,,,,,,,,,,,,,,,,,,,,,,,,,,,,,,,,,,,,,,,,,,,,,,,,,,,,,,,,,,,,,,,,,,,,,,,SYN08672551 15966 01703 11028 21050 39653 40089 51001 69901 90554 333 10072 21044 555 91106=,,,,,,,,,,3/26/2007
USW00014939,2023-01-11T00:00:00,40.8508,-96.7475,362.7,"LINCOLN AIRPORT, NE US",SOD,,,,,,,,,,,,,,,,,,751,1718,-2.8,0.7,75,1012.5,969.9,-0.6,4.7,0,4.76,17.6,5.6,-4.3,10,15.2,0,0,0,360,11.6,,,,,,,,,,,,,,,,,,,,,,,,,,,,,,,,,,,,,,,,,,,,,,,,,,,,,,,,,,,,,,,,,,,,,,,,,,,,,,,,3/26/2007
USW00014939,2023-01-11T00:54:00,40.8508,-96.7475,362.7,"LINCOLN AIRPORT, NE US",FM-15,343,1007.8,-1.7,2.8,0,,,,73,CLR:00,1008,965.2,16.093,1,290,,2.1,,,,,,,,,,,,,,,,,,,,,,,,,,,,,,,,,,,,,,,,,,,,,,,,,,,,,,,,,,,,,,,,,,,,,,,,,,,,,,,,,,,,,,,,,,,MET09101/11/23 00:54:02 METAR KLNK 110654Z 29004KT 10SM CLR 03/M02 A2976 RMK AO2 SLP080 T00281017,,,,,,,,,,3/26/2007
USW00014939,2023-01-11T01:54:00,40.8508,-96.7475,362.7,"LINCOLN AIRPORT, NE US",FM-15,343,1007.8,-1.7,2.8,0,,,,73,CLR:00,1008.2,965.2,16.093,1,310,,2.6,,,,,,,,,,,,,,,,,,,,,,,,,,,,,,,,,,,,,,,,,,,,,,,,,,,,,,,,,,,,,,,,,,,,,,,,,,,,,,,,,,,,,,,,,,,MET09101/11/23 01:54:02 METAR KLNK 110754Z 31005KT 10SM CLR 03/M02 A2976 RMK AO2 SLP082 T00281017,,,,,,,,,,3/26/2007
USW00014939,2023-01-11T02:54:00,40.8508,-96.7475,362.7,"LINCOLN AIRPORT, NE US",FM-15,343,1007.8,-1.7,1.7,0,,-0.1,6,78,CLR:00,1008.2,965.2,16.093,0.4,320,,3.1,,,,,,,,,,,,,,,,,,,,,,,,,,,,,,,,,,,,,,,,,,,,,,,,,,,,,,,,,,,,,,,,,,,,,,,,,,,,,,,,,,,,,,,,,,,MET09701/11/23 02:54:02 METAR KLNK 110854Z 32006KT 10SM CLR 02/M02 A2976 RMK AO2 SLP082 T00171017 56001,,,,,,,,,,3/26/2007
USW00014939,2023-01-11T03:54:00,40.8508,-96.7475,362.7,"LINCOLN AIRPORT, NE US",FM-15,343,1008.1,-1.7,2.2,0,,,,76,CLR:00,1008.4,965.5,16.093,0.7,320,,5.1,,,,,,,,,,,,,,,,,,,,,,,,,,,,,,,,,,,,,,,,,,,,,,,,,,,,,,,,,,,,,,,,,,,,,,,,,,,,,,,,,,,,,,,,,,,MET09101/11/23 03:54:02 METAR KLNK 110954Z 32010KT 10SM CLR 02/M02 A2977 RMK AO2 SLP084 T00221017,,,,,,,,,,3/26/2007
USW00014939,2023-01-11T04:54:00,40.8508,-96.7475,362.7,"LINCOLN AIRPORT, NE US",FM-15,343,1008.1,-2.2,1.1,0,,,,79,CLR:00,1008.6,965.5,16.093,-0.2,340,,3.6,,,,,,,,,,,,,,,,,,,,,,,,,,,,,,,,,,,,,,,,,,,,,,,,,,,,,,,,,,,,,,,,,,,,,,,,,,,,,,,,,,,,,,,,,,,MET09101/11/23 04:54:02 METAR KLNK 111054Z 34007KT 10SM CLR 01/M02 A2977 RMK AO2 SLP086 T00111022,,,,,,,,,,3/26/2007
USW00014939,2023-01-11T05:54:00,40.8508,-96.7475,362.7,"LINCOLN AIRPORT, NE US",FM-15,343,1008.8,-4.4,-2.8,0,,0.8,3,89,CLR:00,1009.5,966.2,16.093,-3.4,,,0,,,,,,,,,,,,,,,,,,,,,,,,,,,,,,,,,,,,,,,,,,,,,,,,,,,,,,,,,,,,,,,,,,,,,,,,,,,,,,,,,,,,,,,,,,,MET11001/11/23 05:54:02 METAR KLNK 111154Z 00000KT 10SM CLR M03/M04 A2979 RMK AO2 SLP095 T10281044 10033 21039 53008,,,,,,,,,,3/26/2007
USW00014939,2023-01-11T06:00:00,40.8508,-96.7475,362.7,"LINCOLN AIRPORT, NE US",FM-12,223,,-4.4,-2.8,,,0.8,3,89,,1009.5,965.9,,-3.4,,,0,,,,,,,,,,,,,,,,,,,,,,,,,,,,,,,,,,,,,,,,,,,,,,,,,,,,,,,,,,,,,,,,,,,,,,,,,,,,,,,,,,,,,,,,,,,SYN08072551 35966 00000 11028 21044 39659 40095 53008 91154 333 10133 21039 555 91112=,,,,,,,,,,3/26/2007
USW00014939,2023-01-11T06:54:00,40.8508,-96.7475,362.7,"LINCOLN AIRPORT, NE US",FM-15,343,1009.1,-5.6,-3.9,0,,,,88,CLR:00,1010.2,966.5,16.093,-4.5,220,,3.1,,,,,,,,,,,,,,,,,,,,,,,,,,,,,,,,,,,,,,,,,,,,,,,,,,,,,,,,,,,,,,,,,,,,,,,,,,,,,,,,,,,,,,,,,,,MET09701/11/23 06:54:02 METAR KLNK 111254Z 22006KT 10SM CLR M04/M06 A2980 RMK AO2 SLP102 T10391056 (RC),,,,,,,,,,3/26/2007
USW00014939,2023-01-11T07:54:00,40.8508,-96.7475,362.7,"LINCOLN AIRPORT, NE US",FM-15,343,1009.8,-3.9,-1.1,0,,,,82,CLR:00,1010.7,967.2,16.093,-2.1,310,,1.5,,,,,,,,,,,,,,,,,,,,,,,,,,,,,,,,,,,,,,,,,,,,,,,,,,,,,,,,,,,,,,,,,,,,,,,,,,,,,,,,,,,,,,,,,,,MET09701/11/23 07:54:02 METAR KLNK 111354Z 31003KT 10SM CLR M01/M04 A2982 RMK AO2 SLP107 T10111039 (RC),,,,,,,,,,3/26/2007
USW00014939,2023-01-11T08:54:00,40.8508,-96.7475,362.7,"LINCOLN AIRPORT, NE US",FM-15,343,1010.5,-3.9,-1.1,0,,1.8,3,82,CLR:00,1011.4,967.8,16.093,-2.1,,,0,,,,,,,,,,,,,,,,,,,,,,,,,,,,,,,,,,,,,,,,,,,,,,,,,,,,,,,,,,,,,,,,,,,,,,,,,,,,,,,,,,,,,,,,,,,MET10301/11/23 08:54:02 METAR KLNK 111454Z 00000KT 10SM CLR M01/M04 A2984 RMK AO2 SLP114 T10111039 53018 (RC),,,,,,,,,,3/26/2007
USW00014939,2023-01-11T09:54:00,40.8508,-96.7475,362.7,"LINCOLN AIRPORT, NE US",FM-15,343,1011.2,-2.2,0.6,0,,,,82,CLR:00,1011.9,968.5,16.093,-0.5,,,0,,,,,,,,,,,,,,,,,,,,,,,,,,,,,,,,,,,,,,,,,,,,,,,,,,,,,,,,,,,,,,,,,,,,,,,,,,,,,,,,,,,,,,,,,,,MET09601/11/23 09:54:02 METAR KLNK 111554Z 00000KT 10SM CLR 01/M02 A2986 RMK AO2 SLP119 T00061022 (RC),,,,,,,,,,3/26/2007
USW00014939,2023-01-11T10:54:00,40.8508,-96.7475,362.7,"LINCOLN AIRPORT, NE US",FM-15,343,1010.8,-2.2,2.8,0,,,,70,CLR:00,1011.7,968.2,16.093,0.8,10,,3.6,,,,,,,,,,,,,,,,,,,,,,,,,,,,,,,,,,,,,,,,,,,,,,,,,,,,,,,,,,,,,,,,,,,,,,,,,,,,,,,,,,,,,,,,,,,MET09601/11/23 10:54:02 METAR KLNK 111654Z 01007KT 10SM CLR 03/M02 A2985 RMK AO2 SLP117 T00281022 (RC),,,,,,,,,,3/26/2007
USW00014939,2023-01-11T11:54:00,40.8508,-96.7475,362.7,"LINCOLN AIRPORT, NE US",FM-15,343,1010.5,-2.2,3.9,0,,0.1,0,65,CLR:00,1011.7,967.8,16.093,1.4,360,,5.1,,,,,,,,,,,,,,,,,,,,,,,,,,,,,,,,,,,,,,,,,,,,,,,,,,,,,,,,,,,,,,,,,,,,,,,,,,,,,,,,,,,,,,,,,,,MET11401/11/23 11:54:02 METAR KLNK 111754Z 36010KT 10SM CLR 04/M02 A2984 RMK AO2 SLP117 T00391022 10039 21044 50001 (RC),,,,,,,,,,3/26/2007
USW00014939,2023-01-11T12:00:00,40.8508,-96.7475,362.7,"LINCOLN AIRPORT, NE US",FM-12,223,,-2.2,3.9,,,0.1,9,65,,1011.7,967.6,,1.4,360,,5.1,,,,,,,,,,,,,,,,,,,,,,,,,,,,,,,,,,,,,,,,,,,,,,,,,,,,,,,,,,,,,,,,,,,,,,,,,,,,,,,,,,,,,,,,,,,SYN08072551 32966 03610 10039 21022 39676 40117 50001 91754 333 10039 21044 555 91118=,,,,,,,,,,3/26/2007
USW00014939,2023-01-11T12:54:00,40.8508,-96.7475,362.7,"LINCOLN AIRPORT, NE US",FM-15,343,1009.8,-2.2,5,0,,,,60,CLR:00,1010.4,967.2,16.093,2.1,20,,6.2,,,,,,,,,,,,,,,,,,,,,,,,,,,,,,,,,,,,,,,,,,,,,,,,,,,,,,,,,,,,,,,,,,,,,,,,,,,,,,,,,,,,,,,,,,,MET09601/11/23 12:54:02 METAR KLNK 111854Z 02012KT 10SM CLR 05/M02 A2982 RMK AO2 SLP104 T00501022 (RC),,,,,,,,,,3/26/2007
USW00014939,2023-01-11T13:54:00,40.8508,-96.7475,362.7,"LINCOLN AIRPORT, NE US",FM-15,343,1009.1,-1.7,5,0,,,,62,CLR:00,1009.8,966.5,16.093,2.3,20,,7.2,,,,,,,,,,,,,,,,,,,,,,,,,,,,,,,,,,,,,,,,,,,,,,,,,,,,,,,,,,,,,,,,,,,,,,,,,,,,,,,,,,,,,,,,,,,MET09601/11/23 13:54:02 METAR KLNK 111954Z 02014KT 10SM CLR 05/M02 A2980 RMK AO2 SLP098 T00501017 (RC),,,,,,,,,,3/26/2007
USW00014939,2023-01-11T14:54:00,40.8508,-96.7475,362.7,"LINCOLN AIRPORT, NE US",FM-15,343,1009.1,-1.7,5,0,,-1.6,6,62,CLR:00,1009.8,966.5,16.093,2.3,20,,8.2,,,,,,,,,,,,,,,,,,,,,,,,,,,,,,,,,,,,,,,,,,,,,,,,,,,,,,,,,,,,,,,,,,,,,,,,,,,,,,,,,,,,,,,,,,,MET12001/11/23 14:54:02 METAR KLNK 112054Z 02016KT 10SM CLR 05/M02 A2980 RMK AO2 PK WND 01026/2026 SLP098 T00501017 56016 (WC),,,,,,,,,,3/26/2007
USW00014939,2023-01-11T15:54:00,40.8508,-96.7475,362.7,"LINCOLN AIRPORT, NE US",FM-15,343,1010.5,-1.7,3.9,0,,,,67,CLR:00,1011.4,967.8,16.093,1.6,30,10.3,7.2,,,,,,,,,,,,,,,,,,,,,,,,,,,,,,,,,,,,,,,,,,,,,,,,,,,,,,,,,,,,,,,,,,,,,,,,,,,,,,,,,,,,,,,,,,,MET09901/11/23 15:54:02 METAR KLNK 112154Z 03014G20KT 10SM CLR 04/M02 A2984 RMK AO2 SLP114 T00391017 (WC),,,,,,,,,,3/26/2007
USW00014939,2023-01-11T16:54:00,40.8508,-96.7475,362.7,"LINCOLN AIRPORT, NE US",FM-15,343,1011.9,-1.7,2.8,0,,,,73,CLR:00,1012.8,969.1,16.093,1,20,,4.6,,,,,,,,,,,,,,,,,,,,,,,,,,,,,,,,,,,,,,,,,,,,,,,,,,,,,,,,,,,,,,,,,,,,,,,,,,,,,,,,,,,,,,,,,,,MET10301/11/23 16:54:02 METAR KLNK 112254Z 02009KT 10SM CLR 03/M02 A2988 RMK AO2 PRESRR SLP128 T00281017 (WC),,,,,,,,,,3/26/2007
USW00014939,2023-01-11T17:54:00,40.8508,-96.7475,362.7,"LINCOLN AIRPORT, NE US",FM-15,343,1013.2,-2.2,1.7,0,,4,1,76,CLR:00,1014.3,970.4,16.093,0.2,10,,5.7,,,,,,,,,,,,,,,,,,,,,,,,,,,,,,,,,,,,,,,,,,,,,,,,,,,,,,,,,,,,,,,,,,,,,,,,,,,,,,,,,,,,,,,,,,,MET11401/11/23 17:54:02 METAR KLNK 112354Z 01011KT 10SM CLR 02/M02 A2992 RMK AO2 SLP143 T00171022 10056 20017 51040 (WC),,,,,,,,,,3/26/2007
USW00014939,2023-01-11T18:00:00,40.8508,-96.7475,362.7,"LINCOLN AIRPORT, NE US",FM-12,223,,-2.2,1.7,,,4,1,76,,1014.3,970.2,,0.2,10,,5.7,,,,,,,,,,,,,,,,,,,,,,,,,,,,,,,,,,,,,,,,,,,,,,,,,,,,,,,,,,,,,,,,,,,,,,,,,,,,,,,,,,,,,,,,,,,SYN08072551 32966 00111 10017 21022 39702 40143 51040 92354 333 10056 21038 555 91200=,,,,,,,,,,3/26/2007
USW00014939,2023-01-11T18:54:00,40.8508,-96.7475,362.7,"LINCOLN AIRPORT, NE US",FM-15,343,1013.9,-3.3,1.1,0,,,,73,FEW:02 36.58,1015.1,971.1,16.093,-0.6,360,,6.7,,,,,,,,,,,,,,,,,,,,,,,,,,,,,,,,,,,,,,,,,,,,,,,,,,,,,,,,,,,,,,,,,,,,,,,,,,,,,,,,,,,,,,,,,,,MET09401/11/23 18:54:01 METAR KLNK 120054Z 36013KT 10SM FEW120 01/M03 A2994 RMK AO2 SLP151 T00111033,,,,,,,,,,3/26/2007
USW00014939,2023-01-11T19:54:00,40.8508,-96.7475,362.7,"LINCOLN AIRPORT, NE US",FM-15,343,1014.9,-3.3,0.6,0,,,,75,CLR:00,1015.9,972.1,16.093,-0.9,10,,5.7,,,,,,,,,,,,,,,,,,,,,,,,,,,,,,,,,,,,,,,,,,,,,,,,,,,,,,,,,,,,,,,,,,,,,,,,,,,,,,,,,,,,,,,,,,,MET09101/11/23 19:54:01 METAR KLNK 120154Z 01011KT 10SM CLR 01/M03 A2997 RMK AO2 SLP159 T00061033,,,,,,,,,,3/26/2007
USW00014939,2023-01-11T20:52:00,40.8508,-96.7475,362.7,"LINCOLN AIRPORT, NE US",FM-16,343,1015.9,-5,-2,,,,,80,BKN:07 4.57 BKN:07 36.58,,973.1,14.484,-3.2,10,11.8,7.7,,,,,,,,,,,,,,,,,,,,,,,,,,,,,,,,,,,,,,,,,,,,,,,,,,,,,,,,,,,,,,,,,,,,,,,,,,,,,,,,,,,,,,,,,,,MET11501/11/23 20:52:03 SPECI KLNK 120252Z 01015G23KT 9SM BKN015 BKN120 M02/M05 A3000 RMK AO2 PK WND 02027/0218 FIBI (WC),,,,,,,,,,3/26/2007
USW00014939,2023-01-11T20:54:00,40.8508,-96.7475,362.7,"LINCOLN AIRPORT, NE US",FM-15,343,1016.3,-5,-1.7,0,,2.9,3,78,BKN:07 4.57 BKN:07 36.58,1017.4,973.4,14.484,-2.8,10,11.8,7.2,,,,,,,,,,,,,,,,,,,,,,,,,,,,,,,,,,,,,,,,,,,,,,,,,,,,,,,,,,,,,,,,,,,,,,,,,,,,,,,,,,,,,,,,,,,MET12801/11/23 20:54:01 METAR KLNK 120254Z 01014G23KT 9SM BKN015 BKN120 M02/M05 A3001 RMK AO2 PK WND 02027/0218 SLP174 T10171050 53029,,,,,,,,,,3/26/2007
USW00014939,2023-01-11T21:05:00,40.8508,-96.7475,362.7,"LINCOLN AIRPORT, NE US",FM-16,343,1016.3,-5,-1.7,,,,,78,BKN:07 3.96,,973.4,12.875,-2.8,360,11.3,7.7,,,,,,,,,,,,,,,,,,,,,,,,,,,,,,,,,,,,,,,,,,,,,,,,,,,,,,,,,,,,,,,,,,,,,,,,,,,,,,,,,,,,,,,,,,,MET09001/11/23 21:05:01 SPECI KLNK 120305Z 36015G22KT 8SM BKN013 M02/M05 A3001 RMK AO2 T10171050,,,,,,,,,,3/26/2007
USW00014939,2023-01-11T21:54:00,40.8508,-96.7475,362.7,"LINCOLN AIRPORT, NE US",FM-15,343,1017.3,-4.4,-1.7,0,,,,82,OVC:08 3.05,1018.3,974.4,11.265,-2.7,360,13.4,8.8,,,,,,,,,,,,,,,,,,,,,,,,,,,,,,,,,,,,,,,,,,,,,,,,,,,,,,,,,,,,,,,,,,,,,,,,,,,,,,,,,,,,,,,,,,,MET11501/11/23 21:54:01 METAR KLNK 120354Z 36017G26KT 7SM OVC010 M02/M04 A3004 RMK AO2 PK WND 36026/0348 SLP183 T10171044,,,,,,,,,,3/26/2007
USW00014939,2023-01-11T22:54:00,40.8508,-96.7475,362.7,"LINCOLN AIRPORT, NE US",FM-15,343,1018.3,-5,-2.2,0,,,,81,OVC:08 3.35,1019.4,975.3,11.265,-3.2,10,12.9,7.2,,,,,,,,,,,,,,,,,,,,,,,,,,,,,,,,,,,,,,,,,,,,,,,,,,,,,,,,,,,,,,,,,,,,,,,,,,,,,,,,,,,,,,,,,,,MET11501/11/23 22:54:01 METAR KLNK 120454Z 01014G25KT 7SM OVC011 M02/M05 A3007 RMK AO2 PK WND 01030/0425 SLP194 T10221050,,,,,,,,,,3/26/2007
USW00014939,2023-01-11T23:54:00,40.8508,-96.7475,362.7,"LINCOLN AIRPORT, NE US",FM-15,343,1019,-5,-1.7,0,,2.7,1,78,OVC:08 3.35,1020,976,11.265,-2.8,360,12.9,7.7,,,,,,,,,,,,,,,,,,,,,,,,,,,,,,,,,,,,,,,,,,,,,,,,,,,,,,,,,,,,,,,,,,,,,,,,,,,,,,,,,,,,,,,,,,,MET14301/11/23 23:54:01 METAR KLNK 120554Z 36015G25KT 7SM OVC011 M02/M05 A3009 RMK AO2 PK WND 36027/0528 SLP200 T10171050 10017 21022 400561044 51027,,,,,,,,,,3/26/2007
USW00014939,2023-01-12T00:00:00,40.8508,-96.7475,362.7,"LINCOLN AIRPORT, NE US",FM-12,223,,-5,-1.7,,,2.7,1,78,,1020,975.8,,-2.8,360,,7.7,,,,,,,,,,,,,,,,,,,,,,,,,,,,,,,,,,,,,,,,,,,,,,,,,,,,,,,,,,,,,,,,,,,,,,,,,,,,,,,,,,,,,,,,,,,SYN08672551 32461 83615 11017 21050 39758 40200 51027 90554 333 10033 21039 91025 555 91206=,,,,,,,,,,3/26/2007
USW00014939,2023-01-12T00:00:00,40.8508,-96.7475,362.7,"LINCOLN AIRPORT, NE US",SOD,,,,,,,,,,,,,,,,,,751,1720,-7.2,-3.5,75,1028.4,985.4,-4.4,8.2,0,0.56,21.8,-1.6,-5.5,360,18.3,0,0,0,360,14.3,,,,,,,,,,,,,,,,,,,,,,,,,,,,,,,,,,,,,,,,,,,,,,,,,,,,,,,,,,,,,,,,,,,,,,,,,,,,,,,,3/26/2007
USW00014939,2023-01-12T00:31:00,40.8508,-96.7475,362.7,"LINCOLN AIRPORT, NE US",FM-16,343,1019.3,-5,-2.2,,,,,81,OVC:08 2.74,,976.3,11.265,-3.2,350,14.9,11.3,,,,,,,,,,,,,,,,,,,,,,,,,,,,,,,,,,,,,,,,,,,,,,,,,,,,,,,,,,,,,,,,,,,,,,,,,,,,,,,,,,,,,,,,,,,MET11301/12/23 00:31:02 SPECI KLNK 120631Z 35022G29KT 7SM OVC009 M02/M05 A3010 RMK AO2 PK WND 35029/0628 T10221050 (WC),,,,,,,,,,3/26/2007
USW00014939,2023-01-12T00:54:00,40.8508,-96.7475,362.7,"LINCOLN AIRPORT, NE US",FM-15,343,1019.3,-5,-2.2,0,,,,81,OVC:08 2.74,1020.5,976.3,11.265,-3.2,360,14.9,8.8,,,,,,,,,,,,,,,,,,,,,,,,,,,,,,,,,,,,,,,,,,,,,,,,,,,,,,,,,,,,,,,,,,,,,,,,,,,,,,,,,,,,,,,,,,,MET12001/12/23 00:54:02 METAR KLNK 120654Z 36017G29KT 7SM OVC009 M02/M05 A3010 RMK AO2 PK WND 35030/0632 SLP205 T10221050 (WC),,,,,,,,,,3/26/2007
USW00014939,2023-01-12T01:54:00,40.8508,-96.7475,362.7,"LINCOLN AIRPORT, NE US",FM-15,343,1020.3,-5.6,-2.8,0,,,,81,OVC:08 2.44,1021.2,977.3,11.265,-3.7,350,16,10.8,,,,,,,,,,,,,,,,,,,,,,,,,,,,,,,,,,,,,,,,,,,,,,,,,,,,,,,,,,,,,,,,,,,,,,,,,,,,,,,,,,,,,,,,,,,MET12001/12/23 01:54:02 METAR KLNK 120754Z 35021G31KT 7SM OVC008 M03/M06 A3013 RMK AO2 PK WND 35033/0726 SLP212 T10281056 (WC),,,,,,,,,,3/26/2007
USW00014939,2023-01-12T02:54:00,40.8508,-96.7475,362.7,"LINCOLN AIRPORT, NE US",FM-15,343,1021.3,-5,-2.2,0,,2.3,3,81,OVC:08 2.44,1022.4,978.3,14.484,-3.2,350,18,13.4,,,,,,,,,,,,,,,,,,,,,,,,,,,,,,,,,,,,,,,,,,,,,,,,,,,,,,,,,,,,,,,,,,,,,,,,,,,,,,,,,,,,,,,,,,,MET12601/12/23 02:54:02 METAR KLNK 120854Z 35026G35KT 9SM OVC008 M02/M05 A3016 RMK AO2 PK WND 34035/0845 SLP224 T10221050 53023 (WC),,,,,,,,,,3/26/2007
USW00014939,2023-01-12T03:21:00,40.8508,-96.7475,362.7,"LINCOLN AIRPORT, NE US",FM-16,343,1022,-5,-2.2,,,,,81,OVC:08 3.05,,978.9,16.093,-3.2,360,14.9,11.8,,,,,,,,,,,,,,,,,,,,,,,,,,,,,,,,,,,,,,,,,,,,,,,,,,,,,,,,,,,,,,,,,,,,,,,,,,,,,,,,,,,,,,,,,,,MET11401/12/23 03:21:02 SPECI KLNK 120921Z 36023G29KT 10SM OVC010 M02/M05 A3018 RMK AO2 PK WND 36035/0911 T10221050 (WC),,,,,,,,,,3/26/2007
USW00014939,2023-01-12T03:54:00,40.8508,-96.7475,362.7,"LINCOLN AIRPORT, NE US",FM-15,343,1022,-5,-2.2,0,,,,81,OVC:08 3.05,1022.9,978.9,16.093,-3.2,360,17,13.4,,,,,,,,,,,,,,,,,,,,,,,,,,,,,,,,,,,,,,,,,,,,,,,,,,,,,,,,,,,,,,,,,,,,,,,,,,,,,,,,,,,,,,,,,,,MET12101/12/23 03:54:02 METAR KLNK 120954Z 36026G33KT 10SM OVC010 M02/M05 A3018 RMK AO2 PK WND 36036/0928 SLP229 T10221050 (WC),,,,,,,,,,3/26/2007
USW00014939,2023-01-12T04:54:00,40.8508,-96.7475,362.7,"LINCOLN AIRPORT, NE US",FM-15,343,1022.7,-5.6,-2.2,0,,,,78,OVC:08 3.35,1023.8,979.6,16.093,-3.4,350,17.5,11.8,,,,,,,,,,,,,,,,,,,,,,,,,,,,,,,,,,,,,,,,,,,,,,,,,,,,,,,,,,,,,,,,,,,,,,,,,,,,,,,,,,,,,,,,,,,MET12101/12/23 04:54:02 METAR KLNK 121054Z 35023G34KT 10SM OVC011 M02/M06 A3020 RMK AO2 PK WND 35035/1040 SLP238 T10221056 (WC),,,,,,,,,,3/26/2007
USW00014939,2023-01-12T05:54:00,40.8508,-96.7475,362.7,"LINCOLN AIRPORT, NE US",FM-15,343,1024,-5.6,-2.2,0,,2.7,3,78,OVC:08 3.66,1025.3,980.9,16.093,-3.4,340,12.9,10.3,,,,,,,,,,,,,,,,,,,,,,,,,,,,,,,,,,,,,,,,,,,,,,,,,,,,,,,,,,,,,,,,,,,,,,,,,,,,,,,,,,,,,,,,,,,MET13901/12/23 05:54:02 METAR KLNK 121154Z 34020G25KT 10SM OVC012 M02/M06 A3024 RMK AO2 PK WND 36030/1058 SLP253 T10221056 11017 21028 53027 (WC),,,,,,,,,,3/26/2007
USW00014939,2023-01-12T06:00:00,40.8508,-96.7475,362.7,"LINCOLN AIRPORT, NE US",FM-12,223,,-5.6,-2.2,,,2.7,3,78,,1025.3,980.7,,-3.4,340,,10.3,,,,,,,,,,,,,,,,,,,,,,,,,,,,,,,,,,,,,,,,,,,,,,,,,,,,,,,,,,,,,,,,,,,,,,,,,,,,,,,,,,,,,,,,,,,SYN08672551 32466 83420 11022 21056 39807 40253 53027 91154 333 10056 21028 91025 555 91212=,,,,,,,,,,3/26/2007
USW00014939,2023-01-12T06:54:00,40.8508,-96.7475,362.7,"LINCOLN AIRPORT, NE US",FM-15,343,1025.1,-5.6,-2.2,0,,,,78,OVC:08 3.96,1026.4,981.9,14.484,-3.4,350,12.4,9.3,,,,,,,,,,,,,,,,,,,,,,,,,,,,,,,,,,,,,,,,,,,,,,,,,,,,,,,,,,,,,,,,,,,,,,,,,,,,,,,,,,,,,,,,,,,MET12001/12/23 06:54:02 METAR KLNK 121254Z 35018G24KT 9SM OVC013 M02/M06 A3027 RMK AO2 PK WND 35028/1158 SLP264 T10221056 (RC),,,,,,,,,,3/26/2007
USW00014939,2023-01-12T07:54:00,40.8508,-96.7475,362.7,"LINCOLN AIRPORT, NE US",FM-15,343,1026.1,-6.1,-3.3,0,,,,81,OVC:08 3.66,1027.5,982.9,14.484,-4.3,360,11.3,9.3,,,,,,,,,,,,,,,,,,,,,,,,,,,,,,,,,,,,,,,,,,,,,,,,,,,,,,,,,,,,,,,,,,,,,,,,,,,,,,,,,,,,,,,,,,,MET10201/12/23 07:54:02 METAR KLNK 121354Z 36018G22KT 9SM OVC012 M03/M06 A3030 RMK AO2 SLP275 T10331061 (RC),,,,,,,,,,3/26/2007
USW00014939,2023-01-12T08:54:00,40.8508,-96.7475,362.7,"LINCOLN AIRPORT, NE US",FM-15,343,1027.1,-7.8,-3.9,0,,2.7,2,75,OVC:08 4.27,1028.5,983.9,12.875,-5.1,350,14.4,11.8,,,,,,,,,,,,,,,,,,,,,,,,,,,,,,,,,,,,,,,,,,,,,,,,,,,,,,,,,,,,,,,,,,,,,,,,,,,,,,,,,,,,,,,,,,,MET12601/12/23 08:54:02 METAR KLNK 121454Z 35023G28KT 8SM OVC014 M04/M08 A3033 RMK AO2 PK WND 35030/1417 SLP285 T10391078 52027 (RC),,,,,,,,,,3/26/2007
USW00014939,2023-01-12T09:52:00,40.8508,-96.7475,362.7,"LINCOLN AIRPORT, NE US",FM-16,343,1028.4,-9,-4,,,,,69,OVC:08 4.88,,985.2,14.484,-5.4,340,14.4,10.3,,,,,,,,,,,,,,,,,,,,,,,,,,,,,,,,,,,,,,,,,,,,,,,,,,,,,,,,,,,,,,,,,,,,,,,,,,,,,,,,,,,,,,,,,,,MET10801/12/23 09:52:02 SPECI KLNK 121552Z 34020G28KT 9SM OVC016 M04/M09 A3037 RMK AO2 PK WND 34030/1523 FIBI (RC),,,,,,,,,,3/26/2007
USW00014939,2023-01-12T09:54:00,40.8508,-96.7475,362.7,"LINCOLN AIRPORT, NE US",FM-15,343,1028.4,-8.9,-4.4,0,,,,71,OVC:08 4.88,1029.9,985.2,14.484,-5.8,340,14.4,10.3,,,,,,,,,,,,,,,,,,,,,,,,,,,,,,,,,,,,,,,,,,,,,,,,,,,,,,,,,,,,,,,,,,,,,,,,,,,,,,,,,,,,,,,,,,,MET12001/12/23 09:54:02 METAR KLNK 121554Z 34020G28KT 9SM OVC016 M04/M09 A3037 RMK AO2 PK WND 34030/1523 SLP299 T10441089 (RC),,,,,,,,,,3/26/2007
USW00014939,2023-01-12T10:54:00,40.8508,-96.7475,362.7,"LINCOLN AIRPORT, NE US",FM-15,343,1029.5,-8.9,-3.9,0,,,,69,OVC:08 5.49,1031,986.1,16.093,-5.4,340,,8.2,,,,,,,,,,,,,,,,,,,,,,,,,,,,,,,,,,,,,,,,,,,,,,,,,,,,,,,,,,,,,,,,,,,,,,,,,,,,,,,,,,,,,,,,,,,MET11801/12/23 10:54:02 METAR KLNK 121654Z 34016KT 10SM OVC018 M04/M09 A3040 RMK AO2 PK WND 35029/1625 SLP310 T10391089 (RC),,,,,,,,,,3/26/2007
USW00014939,2023-01-12T11:54:00,40.8508,-96.7475,362.7,"LINCOLN AIRPORT, NE US",FM-15,343,1029.8,-8.9,-3.3,0,,2.6,1,66,OVC:08 5.49,1031.2,986.5,16.093,-5.1,330,,7.7,,,,,,,,,,,,,,,,,,,,,,,,,,,,,,,,,,,,,,,,,,,,,,,,,,,,,,,,,,,,,,,,,,,,,,,,,,,,,,,,,,,,,,,,,,,MET13601/12/23 11:54:02 METAR KLNK 121754Z 33015KT 10SM OVC018 M03/M09 A3041 RMK AO2 PK WND 35026/1702 SLP312 T10331089 11022 21044 51026 (RC),,,,,,,,,,3/26/2007
USW00014939,2023-01-12T12:00:00,40.8508,-96.7475,362.7,"LINCOLN AIRPORT, NE US",FM-12,223,,-8.9,-3.3,,,2.6,1,66,,1031.2,986.2,,-5.1,330,,7.7,,,,,,,,,,,,,,,,,,,,,,,,,,,,,,,,,,,,,,,,,,,,,,,,,,,,,,,,,,,,,,,,,,,,,,,,,,,,,,,,,,,,,,,,,,,SYN08072551 32466 83315 11033 21089 39862 40312 51026 91754 333 11017 21044 555 91218=,,,,,,,,,,3/26/2007
USW00014939,2023-01-12T12:54:00,40.8508,-96.7475,362.7,"LINCOLN AIRPORT, NE US",FM-15,343,1029.1,-7.8,-2.8,0,,,,69,OVC:08 5.18,1030.6,985.8,16.093,-4.4,320,,6.2,,,,,,,,,,,,,,,,,,,,,,,,,,,,,,,,,,,,,,,,,,,,,,,,,,,,,,,,,,,,,,,,,,,,,,,,,,,,,,,,,,,,,,,,,,,MET10001/12/23 12:54:02 METAR KLNK 121854Z 32012KT 10SM OVC017 M03/M08 A3039 RMK AO2 SLP306 T10281078 (RC),,,,,,,,,,3/26/2007
USW00014939,2023-01-12T13:54:00,40.8508,-96.7475,362.7,"LINCOLN AIRPORT, NE US",FM-15,343,1028.1,-7.2,-2.2,0,,,,69,OVC:08 4.88,1029.7,984.8,16.093,-3.9,340,,6.2,,,,,,,,,,,,,,,,,,,,,,,,,,,,,,,,,,,,,,,,,,,,,,,,,,,,,,,,,,,,,,,,,,,,,,,,,,,,,,,,,,,,,,,,,,,MET10001/12/23 13:54:02 METAR KLNK 121954Z 34012KT 10SM OVC016 M02/M07 A3036 RMK AO2 SLP297 T10221072 (RC),,,,,,,,,,3/26/2007
USW00014939,2023-01-12T14:54:00,40.8508,-96.7475,362.7,"LINCOLN AIRPORT, NE US",FM-15,343,1028.4,-7.2,-2.2,0,,-1.1,5,69,OVC:08 4.88,1030.1,985.2,16.093,-3.9,330,,5.7,,,,,,,,,,,,,,,,,,,,,,,,,,,,,,,,,,,,,,,,,,,,,,,,,,,,,,,,,,,,,,,,,,,,,,,,,,,,,,,,,,,,,,,,,,,MET10601/12/23 14:54:02 METAR KLNK 122054Z 33011KT 10SM OVC016 M02/M07 A3037 RMK AO2 SLP301 T10221072 55011 (CD),,,,,,,,,,3/26/2007
USW00014939,2023-01-12T15:54:00,40.8508,-96.7475,362.7,"LINCOLN AIRPORT, NE US",FM-15,343,1029.5,-7.8,-2.8,0,,,,69,OVC:08 4.57,1030.9,986.1,16.093,-4.4,330,,6.7,,,,,,,,,,,,,,,,,,,,,,,,,,,,,,,,,,,,,,,,,,,,,,,,,,,,,,,,,,,,,,,,,,,,,,,,,,,,,,,,,,,,,,,,,,,MET10001/12/23 15:54:02 METAR KLNK 122154Z 33013KT 10SM OVC015 M03/M08 A3040 RMK AO2 SLP309 T10281078 (CD),,,,,,,,,,3/26/2007
USW00014939,2023-01-12T16:54:00,40.8508,-96.7475,362.7,"LINCOLN AIRPORT, NE US",FM-15,343,1030.1,-7.8,-3.3,0,,,,71,OVC:08 4.57,1031.7,986.8,14.484,-4.8,330,,7.2,,,,,,,,,,,,,,,,,,,,,,,,,,,,,,,,,,,,,,,,,,,,,,,,,,,,,,,,,,,,,,,,,,,,,,,,,,,,,,,,,,,,,,,,,,,MET09901/12/23 16:54:02 METAR KLNK 122254Z 33014KT 9SM OVC015 M03/M08 A3042 RMK AO2 SLP317 T10331078 (CD),,,,,,,,,,3/26/2007
USW00014939,2023-01-12T17:54:00,40.8508,-96.7475,362.7,"LINCOLN AIRPORT, NE US",FM-15,343,1030.5,-7.8,-3.9,0,,1.9,1,75,OVC:08 4.57,1032,987.1,16.093,-5.1,340,,7.7,,,,,,,,,,,,,,,,,,,,,,,,,,,,,,,,,,,,,,,,,,,,,,,,,,,,,,,,,,,,,,,,,,,,,,,,,,,,,,,,,,,,,,,,,,,MET11801/12/23 17:54:02 METAR KLNK 122354Z 34015KT 10SM OVC015 M04/M08 A3043 RMK AO2 SLP320 T10391078 11022 21039 51019 (CD),,,,,,,,,,3/26/2007
USW00014939,2023-01-12T18:00:00,40.8508,-96.7475,362.7,"LINCOLN AIRPORT, NE US",FM-12,223,,-7.8,-3.9,,,1.9,1,75,,1032,986.9,,-5.1,340,,7.7,,,,,,,,,,,,,,,,,,,,,,,,,,,,,,,,,,,,,,,,,,,,,,,,,,,,,,,,,,,,,,,,,,,,,,,,,,,,,,,,,,,,,,,,,,,SYN08072551 32466 83415 11039 21078 39869 40320 51019 92354 333 11022 21039 555 91300=,,,,,,,,,,3/26/2007
USW00014939,2023-01-12T18:06:00,40.8508,-96.7475,362.7,"LINCOLN AIRPORT, NE US",FM-16,343,1030.8,-7.8,-3.9,,,,,75,OVC:08 4.27,,987.4,16.093,-5.1,340,,6.7,,,,,,,,,,,,,,,,,,,,,,,,,,,,,,,,,,,,,,,,,,,,,,,,,,,,,,,,,,,,,,,,,,,,,,,,,,,,,,,,,,,,,,,,,,,MET08801/12/23 18:06:01 SPECI KLNK 130006Z 34013KT 10SM OVC014 M04/M08 A3044 RMK AO2 T10391078,,,,,,,,,,3/26/2007
USW00014939,2023-01-12T18:54:00,40.8508,-96.7475,362.7,"LINCOLN AIRPORT, NE US",FM-15,343,1030.5,-7.8,-3.9,0,,,,75,OVC:08 4.27,1032.1,987.1,16.093,-5.1,350,,6.7,,,,,,,,,,,,,,,,,,,,,,,,,,,,,,,,,,,,,,,,,,,,,,,,,,,,,,,,,,,,,,,,,,,,,,,,,,,,,,,,,,,,,,,,,,,MET09501/12/23 18:54:01 METAR KLNK 130054Z 35013KT 10SM OVC014 M04/M08 A3043 RMK AO2 SLP321 T10391078,,,,,,,,,,3/26/2007
USW00014939,2023-01-12T19:54:00,40.8508,-96.7475,362.7,"LINCOLN AIRPORT, NE US",FM-15,343,1030.8,-8.3,-5,0,,,,78,OVC:08 3.96,1032.4,987.4,16.093,-6,350,,6.2,,,,,,,,,,,,,,,,,,,,,,,,,,,,,,,,,,,,,,,,,,,,,,,,,,,,,,,,,,,,,,,,,,,,,,,,,,,,,,,,,,,,,,,,,,,MET09501/12/23 19:54:01 METAR KLNK 130154Z 35012KT 10SM OVC013 M05/M08 A3044 RMK AO2 SLP324 T10501083,,,,,,,,,,3/26/2007
USW00014939,2023-01-12T20:54:00,40.8508,-96.7475,362.7,"LINCOLN AIRPORT, NE US",FM-15,343,1030.8,-7.8,-5,0,,0.3,3,81,OVC:08 3.66,1032.6,987.4,16.093,-5.9,340,,3.1,,,,,,,,,,,,,,,,,,,,,,,,,,,,,,,,,,,,,,,,,,,,,,,,,,,,,,,,,,,,,,,,,,,,,,,,,,,,,,,,,,,,,,,,,,,MET10101/12/23 20:54:01 METAR KLNK 130254Z 34006KT 10SM OVC012 M05/M08 A3044 RMK AO2 SLP326 T10501078 53003,,,,,,,,,,3/26/2007
USW00014939,2023-01-12T21:54:00,40.8508,-96.7475,362.7,"LINCOLN AIRPORT, NE US",FM-15,343,1031.5,-8.3,-5,0,,,,78,OVC:08 3.66,1033.1,988.1,16.093,-6,340,,6.2,,,,,,,,,,,,,,,,,,,,,,,,,,,,,,,,,,,,,,,,,,,,,,,,,,,,,,,,,,,,,,,,,,,,,,,,,,,,,,,,,,,,,,,,,,,MET09501/12/23 21:54:01 METAR KLNK 130354Z 34012KT 10SM OVC012 M05/M08 A3046 RMK AO2 SLP331 T10501083,,,,,,,,,,3/26/2007
USW00014939,2023-01-12T22:54:00,40.8508,-96.7475,362.7,"LINCOLN AIRPORT, NE US",FM-15,343,1031.2,-8.3,-5,0,,,,78,OVC:08 3.35,1033,987.8,16.093,-6,340,,5.1,,,,,,,,,,,,,,,,,,,,,,,,,,,,,,,,,,,,,,,,,,,,,,,,,,,,,,,,,,,,,,,,,,,,,,,,,,,,,,,,,,,,,,,,,,,MET09501/12/23 22:54:02 METAR KLNK 130454Z 34010KT 10SM OVC011 M05/M08 A3045 RMK AO2 SLP330 T10501083,,,,,,,,,,3/26/2007
USW00014939,2023-01-12T23:54:00,40.8508,-96.7475,362.7,"LINCOLN AIRPORT, NE US",FM-15,343,1031.5,-8.3,-5.6,0,,0.6,1,82,OVC:08 3.05,1033.2,988.1,14.484,-6.4,360,,5.1,,,,,,,,,,,,,,,,,,,,,,,,,,,,,,,,,,,,,,,,,,,,,,,,,,,,,,,,,,,,,,,,,,,,,,,,,,,,,,,,,,,,,,,,,,,MET12201/12/23 23:54:02 METAR KLNK 130554Z 36010KT 9SM OVC010 M06/M08 A3046 RMK AO2 SLP332 T10561083 11039 21056 410171056 51006,,,,,,,,,,3/26/2007
USW00014939,2023-01-13T00:00:00,40.8508,-96.7475,362.7,"LINCOLN AIRPORT, NE US",FM-12,223,,-8.3,-5.6,,,0.6,1,82,,1033.2,987.9,,-6.4,360,,5.1,,,,,,,,,,,,,,,,,,,,,,,,,,,,,,,,,,,,,,,,,,,,,,,,,,,,,,,,,,,,,,,,,,,,,,,,,,,,,,,,,,,,,,,,,,,SYN08072551 35464 83610 11056 21083 39879 40332 51006 90554 333 11017 21056 555 91306=,,,,,,,,,,3/26/2007
USW00014939,2023-01-13T00:00:00,40.8508,-96.7475,362.7,"LINCOLN AIRPORT, NE US",SOD,,,,,,,,,,,,,,,,,,751,1721,-8.3,-3.8,79,1030.1,984.8,-6.1,2.7,0,0.26,22.1,0,-7.7,360,8.1,0,0,T,340,6.3,BR HZ,,,,,,,,,,,,,,,,,,,,,,,,,,,,,,,,,,,,,,,,,,,,,,,,,,,,,,,,,,,,,,,,,,,,,,,,,,,,,,,3/26/2007
USW00014939,2023-01-13T00:52:00,40.8508,-96.7475,362.7,"LINCOLN AIRPORT, NE US",FM-16,343,1030.8,-9,-6,,,,,80,OVC:08 2.74,,987.4,14.484,-6.9,10,,5.1,,,,,,,,,,,,,,,,,,,,,,,,,,,,,,,,,,,,,,,,,,,,,,,,,,,,,,,,,,,,,,,,,,,,,,,,,,,,,,,,,,,,,,,,,,,MET08201/13/23 00:52:02 SPECI KLNK 130652Z 01010KT 9SM OVC009 M06/M09 A3044 RMK AO2 FIBI,,,,,,,,,,3/26/2007
USW00014939,2023-01-13T00:54:00,40.8508,-96.7475,362.7,"LINCOLN AIRPORT, NE US",FM-15,343,1030.8,-8.9,-6.1,0,,,,81,OVC:08 2.74,1032.4,987.4,14.484,-6.9,10,,5.7,,,,,,,,,,,,,,,,,,,,,,,,,,,,,,,,,,,,,,,,,,,,,,,,,,,,,,,,,,,,,,,,,,,,,,,,,,,,,,,,,,,,,,,,,,,MET09401/13/23 00:54:02 METAR KLNK 130654Z 01011KT 9SM OVC009 M06/M09 A3044 RMK AO2 SLP324 T10611089,,,,,,,,,,3/26/2007
USW00014939,2023-01-13T01:54:00,40.8508,-96.7475,362.7,"LINCOLN AIRPORT, NE US",FM-15,343,1030.8,-8.9,-6.1,0,,,,81,OVC:08 2.74,1032.4,987.4,14.484,-6.9,360,,3.6,,,,,,,,,,,,,,,,,,,,,,,,,,,,,,,,,,,,,,,,,,,,,,,,,,,,,,,,,,,,,,,,,,,,,,,,,,,,,,,,,,,,,,,,,,,MET09601/13/23 01:54:02 METAR KLNK 130754Z 36007KT 9SM OVC009 M06/M09 A3044 RMK AO2 SLP324 T10611089 $,,,,,,,,,,3/26/2007
USW00014939,2023-01-13T02:54:00,40.8508,-96.7475,362.7,"LINCOLN AIRPORT, NE US",FM-15,343,1031.2,-9.4,-7.2,0,,-0.3,5,84,OVC:08 2.44,1032.9,987.8,12.875,-7.9,40,,4.6,,,,,,,,,,,,,,,,,,,,,,,,,,,,,,,,,,,,,,,,,,,,,,,,,,,,,,,,,,,,,,,,,,,,,,,,,,,,,,,,,,,,,,,,,,,MET10201/13/23 02:54:02 METAR KLNK 130854Z 04009KT 8SM OVC008 M07/M09 A3045 RMK AO2 SLP329 T10721094 55003 $,,,,,,,,,,3/26/2007
USW00014939,2023-01-13T03:54:00,40.8508,-96.7475,362.7,"LINCOLN AIRPORT, NE US",FM-15,343,1031.5,-10,-7.8,0,,,,84,OVC:08 2.13,1033.4,988.1,11.265,-8.4,10,,4.6,,,,,,,,,,,,,,,,,,,,,,,,,,,,,,,,,,,,,,,,,,,,,,,,,,,,,,,,,,,,,,,,,,,,,,,,,,,,,,,,,,,,,,,,,,,MET09601/13/23 03:54:02 METAR KLNK 130954Z 01009KT 7SM OVC007 M08/M10 A3046 RMK AO2 SLP334 T10781100 $,,,,,,,,,,3/26/2007
USW00014939,2023-01-13T04:54:00,40.8508,-96.7475,362.7,"LINCOLN AIRPORT, NE US",FM-15,343,1031.5,-10,-7.8,0,,,,84,OVC:08 2.13,1033.4,988.1,11.265,-8.4,10,,3.1,,,,,,,,,,,,,,,,,,,,,,,,,,,,,,,,,,,,,,,,,,,,,,,,,,,,,,,,,,,,,,,,,,,,,,,,,,,,,,,,,,,,,,,,,,,MET09601/13/23 04:54:02 METAR KLNK 131054Z 01006KT 7SM OVC007 M08/M10 A3046 RMK AO2 SLP334 T10781100 $,,,,,,,,,,3/26/2007
USW00014939,2023-01-13T05:54:00,40.8508,-96.7475,362.7,"LINCOLN AIRPORT, NE US",FM-15,343,1031.2,-10,-7.8,0,,0,0,84,OVC:08 1.83,1033.1,987.8,11.265,-8.4,360,,2.6,,,,,,,,,,,,,,,,,,,,,,,,,,,,,,,,,,,,,,,,,,,,,,,,,,,,,,,,,,,,,,,,,,,,,,,,,,,,,,,,,,,,,,,,,,,MET11701/13/23 05:54:02 METAR KLNK 131154Z 36005KT 7SM OVC006 M08/M10 A3045 RMK AO2 SLP331 T10781100 11056 21078 50000 (DS),,,,,,,,,,3/26/2007
USW00014939,2023-01-13T06:00:00,40.8508,-96.7475,362.7,"LINCOLN AIRPORT, NE US",FM-12,223,,-10,-7.8,,,0,9,84,,1033.1,987.5,,-8.4,360,,2.6,,,,,,,,,,,,,,,,,,,,,,,,,,,,,,,,,,,,,,,,,,,,,,,,,,,,,,,,,,,,,,,,,,,,,,,,,,,,,,,,,,,,,,,,,,,SYN08072551 32261 83605 11078 21100 39875 40331 50000 91154 333 11017 21078 555 91312=,,,,,,,,,,3/26/2007
USW00014939,2023-01-13T06:54:00,40.8508,-96.7475,362.7,"LINCOLN AIRPORT, NE US",FM-15,343,1031.2,-9.4,-7.8,0,,,,88,OVC:08 1.52,1032.9,987.8,11.265,-8.3,20,,2.1,,,,,,,,,,,,,,,,,,,,,,,,,,,,,,,,,,,,,,,,,,,,,,,,,,,,,,,,,,,,,,,,,,,,,,,,,,,,,,,,,,,,,,,,,,,MET09901/13/23 06:54:02 METAR KLNK 131254Z 02004KT 7SM OVC005 M08/M09 A3045 RMK AO2 SLP329 T10781094 (DS),,,,,,,,,,3/26/2007
USW00014939,2023-01-13T07:52:00,40.8508,-96.7475,362.7,"LINCOLN AIRPORT, NE US",FM-16,343,1030.8,-9,-7,,BR:1 |BR |,,,86,OVC:08 1.22,,987.4,9.656,-7.7,,,2.1,,,,,,,,,,,,,,,,,,,,,,,,,,,,,,,,,,,,,,,,,,,,,,,,,,,,,,,,,,,,,,,,,,,,,,,,,,,,,,,,,,,,,,,,,,,MET09001/13/23 07:52:02 SPECI KLNK 131352Z VRB04KT 6SM BR OVC004 M07/M09 A3044 RMK AO2 FIBI (DS),,,,,,,,,,3/26/2007
USW00014939,2023-01-13T07:54:00,40.8508,-96.7475,362.7,"LINCOLN AIRPORT, NE US",FM-15,343,1030.8,-8.9,-7.8,0,BR:1 |BR |,,,92,OVC:08 1.22,1032.8,987.4,9.656,-8.1,80,,2.1,,,,,,,,,,,,,,,,,,,,,,,,,,,,,,,,,,,,,,,,,,,,,,,,,,,,,,,,,,,,,,,,,,,,,,,,,,,,,,,,,,,,,,,,,,,MET10201/13/23 07:54:02 METAR KLNK 131354Z 08004KT 6SM BR OVC004 M08/M09 A3044 RMK AO2 SLP328 T10781089 (DS),,,,,,,,,,3/26/2007
USW00014939,2023-01-13T08:54:00,40.8508,-96.7475,362.7,"LINCOLN AIRPORT, NE US",FM-15,343,1030.8,-8.9,-7.8,0,BR:1 |BR |,-0.1,5,92,OVC:08 0.91,1032.9,987.4,6.437,-8.1,,,0,,,,,,,,,,,,,,,,,,,,,,,,,,,,,,,,,,,,,,,,,,,,,,,,,,,,,,,,,,,,,,,,,,,,,,,,,,,,,,,,,,,,,,,,,,,MET10801/13/23 08:54:02 METAR KLNK 131454Z 00000KT 4SM BR OVC003 M08/M09 A3044 RMK AO2 SLP329 T10781089 55001 (DS),,,,,,,,,,3/26/2007
USW00014939,2023-01-13T09:54:00,40.8508,-96.7475,362.7,"LINCOLN AIRPORT, NE US",FM-15,343,1032.2,-8.9,-7.2,0,BR:1 |BR |,,,88,OVC:08 1.22,1034.2,988.8,4.828,-7.7,,,0,,,,,,,,,,,,,,,,,,,,,,,,,,,,,,,,,,,,,,,,,,,,,,,,,,,,,,,,,,,,,,,,,,,,,,,,,,,,,,,,,,,,,,,,,,,MET10201/13/23 09:54:02 METAR KLNK 131554Z 00000KT 3SM BR OVC004 M07/M09 A3048 RMK AO2 SLP342 T10721089 (DS),,,,,,,,,,3/26/2007
USW00014939,2023-01-13T10:52:00,40.8508,-96.7475,362.7,"LINCOLN AIRPORT, NE US",FM-16,343,1032.2,-8,-7,,BR:1 |BR |,,,93,OVC:08 1.83,,988.8,4.828,-7.4,260,,1.5,,,,,,,,,,,,,,,,,,,,,,,,,,,,,,,,,,,,,,,,,,,,,,,,,,,,,,,,,,,,,,,,,,,,,,,,,,,,,,,,,,,,,,,,,,,MET09001/13/23 10:52:02 SPECI KLNK 131652Z 26003KT 3SM BR OVC006 M07/M08 A3048 RMK AO2 FIBI (RC),,,,,,,,,,3/26/2007
USW00014939,2023-01-13T10:54:00,40.8508,-96.7475,362.7,"LINCOLN AIRPORT, NE US",FM-15,343,1032.2,-8.9,-6.7,0,BR:1 |BR |,,,85,OVC:08 1.83,1033.9,988.8,4.828,-7.3,270,,1.5,,,,,,,,,,,,,,,,,,,,,,,,,,,,,,,,,,,,,,,,,,,,,,,,,,,,,,,,,,,,,,,,,,,,,,,,,,,,,,,,,,,,,,,,,,,MET10201/13/23 10:54:02 METAR KLNK 131654Z 27003KT 3SM BR OVC006 M07/M09 A3048 RMK AO2 SLP339 T10671089 (RC),,,,,,,,,,3/26/2007
USW00014939,2023-01-13T11:54:00,40.8508,-96.7475,362.7,"LINCOLN AIRPORT, NE US",FM-15,343,1031.5,-8.3,-5.6,0,HZ:7 |FU |HZ,0.4,0,82,OVC:08 2.44,1033.3,988.1,4.828,-6.4,,,,,,,,,,,,,,,,,,,,,,,,,,,,,,,,,,,,,,,,,,,,,,,,,,,,,,,,,,,,,,,,,,,,,,,,,,,,,,,,,,,,,,,,,,,,,,MET12001/13/23 11:54:02 METAR KLNK 131754Z KT 3SM HZ OVC008 M06/M08 A3046 RMK AO2 SLP333 T10561083 11056 21078 50004 (WC),,,,,,,,,,3/26/2007
USW00014939,2023-01-13T12:00:00,40.8508,-96.7475,362.7,"LINCOLN AIRPORT, NE US",FM-12,223,,-8.3,-5.6,,||HZ,0.4,9,82,,1033.3,987.9,,-6.4,,,,,,,,,,,,,,,,,,,,,,,,,,,,,,,,,,,,,,,,,,,,,,,,,,,,,,,,,,,,,,,,,,,,,,,,,,,,,,,,,,,,,,,,,,,,,,SYN08672551 31348 8//// 11056 21083 39879 40333 50004 705// 91754 333 11056 21078 555 91318=,,,,,,,,,,3/26/2007
USW00014939,2023-01-13T12:42:00,40.8508,-96.7475,362.7,"LINCOLN AIRPORT, NE US",FM-16,343,1030.5,-7.8,-4.4,,,,,77,OVC:08 3.05,,987.1,11.265,-5.5,,,3.1,,,,,,,,,,,,,,,,,,,,,,,,,,,,,,,,,,,,,,,,,,,,,,,,,,,,,,,,,,,,,,,,,,,,,,,,,,,,,,,,,,,,,,,,,,,MET09201/13/23 12:42:02 SPECI KLNK 131842Z VRB06KT 7SM OVC010 M04/M08 A3043 RMK AO2 T10441078 (WC),,,,,,,,,,3/26/2007
USW00014939,2023-01-13T12:54:00,40.8508,-96.7475,362.7,"LINCOLN AIRPORT, NE US",FM-15,343,1030.1,-7.8,-3.9,0,,,,75,BKN:07 3.05,1031.8,986.8,12.875,-5.1,,,2.6,,,,,,,,,,,,,,,,,,,,,,,,,,,,,,,,,,,,,,,,,,,,,,,,,,,,,,,,,,,,,,,,,,,,,,,,,,,,,,,,,,,,,,,,,,,MET09901/13/23 12:54:02 METAR KLNK 131854Z VRB05KT 8SM BKN010 M04/M08 A3042 RMK AO2 SLP318 T10391078 (WC),,,,,,,,,,3/26/2007
USW00014939,2023-01-13T13:09:00,40.8508,-96.7475,362.7,"LINCOLN AIRPORT, NE US",FM-16,343,1029.5,-7.8,-3.3,,,,,71,SCT:04 3.35,,986.1,12.875,-4.8,210,,2.6,,,,,,,,,,,,,,,,,,,,,,,,,,,,,,,,,,,,,,,,,,,,,,,,,,,,,,,,,,,,,,,,,,,,,,,,,,,,,,,,,,,,,,,,,,,MET09201/13/23 13:09:02 SPECI KLNK 131909Z 21005KT 8SM SCT011 M03/M08 A3040 RMK AO2 T10331078 (WC),,,,,,,,,,3/26/2007
USW00014939,2023-01-13T13:54:00,40.8508,-96.7475,362.7,"LINCOLN AIRPORT, NE US",FM-15,343,1028.8,-7.2,-1.7,0,,,,66,CLR:00,1030.3,985.5,12.875,-3.5,240,,2.1,,,,,,,,,,,,,,,,,,,,,,,,,,,,,,,,,,,,,,,,,,,,,,,,,,,,,,,,,,,,,,,,,,,,,,,,,,,,,,,,,,,,,,,,,,,MET09601/13/23 13:54:02 METAR KLNK 131954Z 24004KT 8SM CLR M02/M07 A3038 RMK AO2 SLP303 T10171072 (WC),,,,,,,,,,3/26/2007
USW00014939,2023-01-13T14:54:00,40.8508,-96.7475,362.7,"LINCOLN AIRPORT, NE US",FM-15,343,1027.8,-7.2,-1.1,0,,-3.5,6,64,CLR:00,1029.4,984.5,12.875,-3.2,200,,2.1,,,,,,,,,,,,,,,,,,,,,,,,,,,,,,,,,,,,,,,,,,,,,,,,,,,,,,,,,,,,,,,,,,,,,,,,,,,,,,,,,,,,,,,,,,,MET10201/13/23 14:54:02 METAR KLNK 132054Z 20004KT 8SM CLR M01/M07 A3035 RMK AO2 SLP294 T10111072 56035 (CK),,,,,,,,,,3/26/2007
USW00014939,2023-01-13T15:54:00,40.8508,-96.7475,362.7,"LINCOLN AIRPORT, NE US",FM-15,343,1027.4,-7.2,0,0,,,,59,CLR:00,1029,984.2,12.875,-2.5,200,,2.1,,,,,,,,,,,,,,,,,,,,,,,,,,,,,,,,,,,,,,,,,,,,,,,,,,,,,,,,,,,,,,,,,,,,,,,,,,,,,,,,,,,,,,,,,,,MET09501/13/23 15:54:02 METAR KLNK 132154Z 20004KT 8SM CLR 00/M07 A3034 RMK AO2 SLP290 T00001072 (CK),,,,,,,,,,3/26/2007
USW00014939,2023-01-13T16:54:00,40.8508,-96.7475,362.7,"LINCOLN AIRPORT, NE US",FM-15,343,1027.1,-7.8,-1.1,0,HZ:7 |FU |HZ,,,61,CLR:00,1028.6,983.9,9.656,-3.3,180,,3.1,,,,,,,,,,,,,,,,,,,,,,,,,,,,,,,,,,,,,,,,,,,,,,,,,,,,,,,,,,,,,,,,,,,,,,,,,,,,,,,,,,,,,,,,,,,MET09901/13/23 16:54:02 METAR KLNK 132254Z 18006KT 6SM HZ CLR M01/M08 A3033 RMK AO2 SLP286 T10111078 (CK),,,,,,,,,,3/26/2007
USW00014939,2023-01-13T17:54:00,40.8508,-96.7475,362.7,"LINCOLN AIRPORT, NE US",FM-15,343,1026.4,-8.3,-3.3,0,,-1.3,8,69,CLR:00,1028.3,983.2,12.875,-4.9,150,,3.1,,,,,,,,,,,,,,,,,,,,,,,,,,,,,,,,,,,,,,,,,,,,,,,,,,,,,,,,,,,,,,,,,,,,,,,,,,,,,,,,,,,,,,,,,,,MET11401/13/23 17:54:02 METAR KLNK 132354Z 15006KT 8SM CLR M03/M08 A3031 RMK AO2 SLP283 T10331083 10000 21056 58013 (CK),,,,,,,,,,3/26/2007
USW00014939,2023-01-13T18:00:00,40.8508,-96.7475,362.7,"LINCOLN AIRPORT, NE US",FM-12,223,,-8.3,-3.3,,,-1.3,8,69,,1028.3,982.9,,-4.9,150,,3.1,,,,,,,,,,,,,,,,,,,,,,,,,,,,,,,,,,,,,,,,,,,,,,,,,,,,,,,,,,,,,,,,,,,,,,,,,,,,,,,,,,,,,,,,,,,SYN08072551 32962 01506 11033 21083 39829 40283 58013 92354 333 10000 21078 555 91400=,,,,,,,,,,3/26/2007
USW00014939,2023-01-13T18:54:00,40.8508,-96.7475,362.7,"LINCOLN AIRPORT, NE US",FM-15,343,1026.1,-8.3,-3.9,0,,,,72,CLR:00,1027.9,982.9,12.875,-5.3,180,,2.6,,,,,,,,,,,,,,,,,,,,,,,,,,,,,,,,,,,,,,,,,,,,,,,,,,,,,,,,,,,,,,,,,,,,,,,,,,,,,,,,,,,,,,,,,,,MET09101/13/23 18:54:01 METAR KLNK 140054Z 18005KT 8SM CLR M04/M08 A3030 RMK AO2 SLP279 T10391083,,,,,,,,,,3/26/2007
USW00014939,2023-01-13T19:54:00,40.8508,-96.7475,362.7,"LINCOLN AIRPORT, NE US",FM-15,343,1025.4,-7.8,-4.4,0,,,,77,CLR:00,1027.2,982.2,14.484,-5.5,160,,3.6,,,,,,,,,,,,,,,,,,,,,,,,,,,,,,,,,,,,,,,,,,,,,,,,,,,,,,,,,,,,,,,,,,,,,,,,,,,,,,,,,,,,,,,,,,,MET09101/13/23 19:54:01 METAR KLNK 140154Z 16007KT 9SM CLR M04/M08 A3028 RMK AO2 SLP272 T10441078,,,,,,,,,,3/26/2007
USW00014939,2023-01-13T20:54:00,40.8508,-96.7475,362.7,"LINCOLN AIRPORT, NE US",FM-15,343,1024.7,-8.3,-5.6,0,,-1.6,8,82,CLR:00,1026.7,981.6,14.484,-6.4,160,,3.1,,,,,,,,,,,,,,,,,,,,,,,,,,,,,,,,,,,,,,,,,,,,,,,,,,,,,,,,,,,,,,,,,,,,,,,,,,,,,,,,,,,,,,,,,,,MET09701/13/23 20:54:01 METAR KLNK 140254Z 16006KT 9SM CLR M06/M08 A3026 RMK AO2 SLP267 T10561083 58016,,,,,,,,,,3/26/2007
USW00014939,2023-01-13T21:54:00,40.8508,-96.7475,362.7,"LINCOLN AIRPORT, NE US",FM-15,343,1024.4,-7.8,-5,0,,,,81,CLR:00,1026.1,981.2,14.484,-5.9,150,,2.1,,,,,,,,,,,,,,,,,,,,,,,,,,,,,,,,,,,,,,,,,,,,,,,,,,,,,,,,,,,,,,,,,,,,,,,,,,,,,,,,,,,,,,,,,,,MET09101/13/23 21:54:01 METAR KLNK 140354Z 15004KT 9SM CLR M05/M08 A3025 RMK AO2 SLP261 T10501078,,,,,,,,,,3/26/2007
USW00014939,2023-01-13T22:54:00,40.8508,-96.7475,362.7,"LINCOLN AIRPORT, NE US",FM-15,343,1023.7,-7.8,-5.6,0,,,,85,CLR:00,1025.5,980.6,12.875,-6.2,150,,2.6,,,,,,,,,,,,,,,,,,,,,,,,,,,,,,,,,,,,,,,,,,,,,,,,,,,,,,,,,,,,,,,,,,,,,,,,,,,,,,,,,,,,,,,,,,,MET09301/13/23 22:54:02 METAR KLNK 140454Z 15005KT 8SM CLR M06/M08 A3023 RMK AO2 SLP255 T10561078 $,,,,,,,,,,3/26/2007
USW00014939,2023-01-13T23:54:00,40.8508,-96.7475,362.7,"LINCOLN AIRPORT, NE US",FM-15,343,1023.4,-7.2,-5,0,,-1.6,6,85,CLR:00,1024.9,980.3,12.875,-5.7,160,,3.1,,,,,,,,,,,,,,,,,,,,,,,,,,,,,,,,,,,,,,,,,,,,,,,,,,,,,,,,,,,,,,,,,,,,,,,,,,,,,,,,,,,,,,,,,,,MET12101/13/23 23:54:02 METAR KLNK 140554Z 16006KT 8SM CLR M05/M07 A3022 RMK AO2 SLP249 T10501072 11028 21061 400001078 56016 $,,,,,,,,,,3/26/2007
USW00014939,2023-01-14T00:00:00,40.8508,-96.7475,362.7,"LINCOLN AIRPORT, NE US",FM-12,223,,-7.2,-5,,,-1.6,6,85,,1024.9,980,,-5.7,160,,3.1,,,,,,,,,,,,,,,,,,,,,,,,,,,,,,,,,,,,,,,,,,,,,,,,,,,,,,,,,,,,,,,,,,,,,,,,,,,,,,,,,,,,,,,,,,,SYN08072551 35962 01606 11050 21072 39800 40249 56016 90554 333 11028 21078 555 91406=,,,,,,,,,,3/26/2007
USW00014939,2023-01-14T00:00:00,40.8508,-96.7475,362.7,"LINCOLN AIRPORT, NE US",SOD,,,,,,,,,,,,,,,,,,750,1722,-4.4,0.9,68,1016.6,972.2,-0.6,4.6,0,4.96,17.4,7.8,-6,170,12.1,0,0,0,170,9.4,,,,,,,,,,,,,,,,,,,,,,,,,,,,,,,,,,,,,,,,,,,,,,,,,,,,,,,,,,,,,,,,,,,,,,,,,,,,,,,,3/26/2007
USW00014939,2023-01-14T00:54:00,40.8508,-96.7475,362.7,"LINCOLN AIRPORT, NE US",FM-15,343,1022.7,-7.8,-5.6,0,,,,85,CLR:00,1024.2,979.6,11.265,-6.2,160,,2.6,,,,,,,,,,,,,,,,,,,,,,,,,,,,,,,,,,,,,,,,,,,,,,,,,,,,,,,,,,,,,,,,,,,,,,,,,,,,,,,,,,,,,,,,,,,MET09301/14/23 00:54:02 METAR KLNK 140654Z 16005KT 7SM CLR M06/M08 A3020 RMK AO2 SLP242 T10561078 $,,,,,,,,,,3/26/2007
USW00014939,2023-01-14T01:54:00,40.8508,-96.7475,362.7,"LINCOLN AIRPORT, NE US",FM-15,343,1021.7,-7.8,-5.6,0,,,,85,CLR:00,1023.1,978.6,11.265,-6.2,160,,3.6,,,,,,,,,,,,,,,,,,,,,,,,,,,,,,,,,,,,,,,,,,,,,,,,,,,,,,,,,,,,,,,,,,,,,,,,,,,,,,,,,,,,,,,,,,,MET09301/14/23 01:54:02 METAR KLNK 140754Z 16007KT 7SM CLR M06/M08 A3017 RMK AO2 SLP231 T10561078 $,,,,,,,,,,3/26/2007
USW00014939,2023-01-14T02:54:00,40.8508,-96.7475,362.7,"LINCOLN AIRPORT, NE US",FM-15,343,1021,-7.8,-5.6,0,,-2.1,6,85,CLR:00,1022.6,978,11.265,-6.2,160,,3.6,,,,,,,,,,,,,,,,,,,,,,,,,,,,,,,,,,,,,,,,,,,,,,,,,,,,,,,,,,,,,,,,,,,,,,,,,,,,,,,,,,,,,,,,,,,MET09901/14/23 02:54:02 METAR KLNK 140854Z 16007KT 7SM CLR M06/M08 A3015 RMK AO2 SLP226 T10561078 56021 $,,,,,,,,,,3/26/2007
USW00014939,2023-01-14T03:54:00,40.8508,-96.7475,362.7,"LINCOLN AIRPORT, NE US",FM-15,343,1020.3,-7.2,-5,0,,,,85,CLR:00,1021.6,977.3,12.875,-5.7,160,,3.6,,,,,,,,,,,,,,,,,,,,,,,,,,,,,,,,,,,,,,,,,,,,,,,,,,,,,,,,,,,,,,,,,,,,,,,,,,,,,,,,,,,,,,,,,,,MET09301/14/23 03:54:02 METAR KLNK 140954Z 16007KT 8SM CLR M05/M07 A3013 RMK AO2 SLP216 T10501072 $,,,,,,,,,,3/26/2007
USW00014939,2023-01-14T04:54:00,40.8508,-96.7475,362.7,"LINCOLN AIRPORT, NE US",FM-15,343,1019.6,-6.1,-3.9,0,,,,85,CLR:00,1020.9,976.7,14.484,-4.6,140,,2.1,,,,,,,,,,,,,,,,,,,,,,,,,,,,,,,,,,,,,,,,,,,,,,,,,,,,,,,,,,,,,,,,,,,,,,,,,,,,,,,,,,,,,,,,,,,MET09301/14/23 04:54:02 METAR KLNK 141054Z 14004KT 9SM CLR M04/M06 A3011 RMK AO2 SLP209 T10391061 $,,,,,,,,,,3/26/2007
USW00014939,2023-01-14T05:54:00,40.8508,-96.7475,362.7,"LINCOLN AIRPORT, NE US",FM-15,343,1019,-6.1,-3.9,0,,-1.9,6,85,CLR:00,1020.6,976,12.875,-4.6,160,,2.6,,,,,,,,,,,,,,,,,,,,,,,,,,,,,,,,,,,,,,,,,,,,,,,,,,,,,,,,,,,,,,,,,,,,,,,,,,,,,,,,,,,,,,,,,,,MET11101/14/23 05:54:02 METAR KLNK 141154Z 16005KT 8SM CLR M04/M06 A3009 RMK AO2 SLP206 T10391061 11033 21061 56019 $,,,,,,,,,,3/26/2007
USW00014939,2023-01-14T06:00:00,40.8508,-96.7475,362.7,"LINCOLN AIRPORT, NE US",FM-12,223,,-6.1,-3.9,,,-1.9,6,85,,1020.6,975.8,,-4.6,160,,2.6,,,,,,,,,,,,,,,,,,,,,,,,,,,,,,,,,,,,,,,,,,,,,,,,,,,,,,,,,,,,,,,,,,,,,,,,,,,,,,,,,,,,,,,,,,,SYN08072551 35962 01605 11039 21061 39758 40206 56019 91154 333 10000 21061 555 91412=,,,,,,,,,,3/26/2007
USW00014939,2023-01-14T06:54:00,40.8508,-96.7475,362.7,"LINCOLN AIRPORT, NE US",FM-15,343,1018.6,-6.7,-4.4,0,,,,84,CLR:00,1020.1,975.7,12.875,-5.2,170,,3.1,,,,,,,,,,,,,,,,,,,,,,,,,,,,,,,,,,,,,,,,,,,,,,,,,,,,,,,,,,,,,,,,,,,,,,,,,,,,,,,,,,,,,,,,,,,MET09801/14/23 06:54:02 METAR KLNK 141254Z 17006KT 8SM CLR M04/M07 A3008 RMK AO2 SLP201 T10441067 $ (HN),,,,,,,,,,3/26/2007
USW00014939,2023-01-14T07:54:00,40.8508,-96.7475,362.7,"LINCOLN AIRPORT, NE US",FM-15,343,1017.6,-5.6,-2.8,0,,,,81,CLR:00,1019,974.7,12.875,-3.7,170,,4.6,,,,,,,,,,,,,,,,,,,,,,,,,,,,,,,,,,,,,,,,,,,,,,,,,,,,,,,,,,,,,,,,,,,,,,,,,,,,,,,,,,,,,,,,,,,MET09801/14/23 07:54:02 METAR KLNK 141354Z 17009KT 8SM CLR M03/M06 A3005 RMK AO2 SLP190 T10281056 $ (HN),,,,,,,,,,3/26/2007
USW00014939,2023-01-14T08:54:00,40.8508,-96.7475,362.7,"LINCOLN AIRPORT, NE US",FM-15,343,1017.6,-5,-1.1,0,,-1.4,5,75,CLR:00,1019.1,974.7,14.484,-2.5,180,,3.6,,,,,,,,,,,,,,,,,,,,,,,,,,,,,,,,,,,,,,,,,,,,,,,,,,,,,,,,,,,,,,,,,,,,,,,,,,,,,,,,,,,,,,,,,,,MET10401/14/23 08:54:02 METAR KLNK 141454Z 18007KT 9SM CLR M01/M05 A3005 RMK AO2 SLP191 T10111050 55014 $ (HN),,,,,,,,,,3/26/2007
USW00014939,2023-01-14T09:54:00,40.8508,-96.7475,362.7,"LINCOLN AIRPORT, NE US",FM-15,343,1017.6,-4.4,0.6,0,,,,70,CLR:00,1018.9,974.7,16.093,-1.3,180,,5.7,,,,,,,,,,,,,,,,,,,,,,,,,,,,,,,,,,,,,,,,,,,,,,,,,,,,,,,,,,,,,,,,,,,,,,,,,,,,,,,,,,,,,,,,,,,MET09801/14/23 09:54:02 METAR KLNK 141554Z 18011KT 10SM CLR 01/M04 A3005 RMK AO2 SLP189 T00061044 $ (HN),,,,,,,,,,3/26/2007
USW00014939,2023-01-14T10:54:00,40.8508,-96.7475,362.7,"LINCOLN AIRPORT, NE US",FM-15,343,1016.9,-3.9,2.8,0,,,,62,CLR:00,1018.1,974,16.093,0.2,190,,5.7,,,,,,,,,,,,,,,,,,,,,,,,,,,,,,,,,,,,,,,,,,,,,,,,,,,,,,,,,,,,,,,,,,,,,,,,,,,,,,,,,,,,,,,,,,,MET09601/14/23 10:54:02 METAR KLNK 141654Z 19011KT 10SM CLR 03/M04 A3003 RMK AO2 SLP181 T00281039 (HN),,,,,,,,,,3/26/2007
USW00014939,2023-01-14T11:54:00,40.8508,-96.7475,362.7,"LINCOLN AIRPORT, NE US",FM-15,343,1015.6,-3.3,4.4,0,,-2.1,8,58,CLR:00,1016.5,972.7,16.093,1.4,190,,6.2,,,,,,,,,,,,,,,,,,,,,,,,,,,,,,,,,,,,,,,,,,,,,,,,,,,,,,,,,,,,,,,,,,,,,,,,,,,,,,,,,,,,,,,,,,,MET11401/14/23 11:54:02 METAR KLNK 141754Z 19012KT 10SM CLR 04/M03 A2999 RMK AO2 SLP165 T00441033 10044 21044 58021 (HN),,,,,,,,,,3/26/2007
USW00014939,2023-01-14T12:00:00,40.8508,-96.7475,362.7,"LINCOLN AIRPORT, NE US",FM-12,223,,-3.3,4.4,,,-2.1,8,58,,1016.5,972.5,,1.4,190,,6.2,,,,,,,,,,,,,,,,,,,,,,,,,,,,,,,,,,,,,,,,,,,,,,,,,,,,,,,,,,,,,,,,,,,,,,,,,,,,,,,,,,,,,,,,,,,SYN08072551 32966 01912 10044 21033 39725 40165 58021 91754 333 10044 21056 555 91418=,,,,,,,,,,3/26/2007
USW00014939,2023-01-14T12:54:00,40.8508,-96.7475,362.7,"LINCOLN AIRPORT, NE US",FM-15,343,1013.9,-2.8,6.7,0,,,,51,CLR:00,1015,971.1,16.093,2.8,190,11.8,6.7,,,,,,,,,,,,,,,,,,,,,,,,,,,,,,,,,,,,,,,,,,,,,,,,,,,,,,,,,,,,,,,,,,,,,,,,,,,,,,,,,,,,,,,,,,,MET09901/14/23 12:54:02 METAR KLNK 141854Z 19013G23KT 10SM CLR 07/M03 A2994 RMK AO2 SLP150 T00671028 (BV),,,,,,,,,,3/26/2007
USW00014939,2023-01-14T13:54:00,40.8508,-96.7475,362.7,"LINCOLN AIRPORT, NE US",FM-15,343,1012.9,-2.8,6.7,0,,,,51,CLR:00,1013.9,970.1,16.093,2.8,190,10.8,7.2,,,,,,,,,,,,,,,,,,,,,,,,,,,,,,,,,,,,,,,,,,,,,,,,,,,,,,,,,,,,,,,,,,,,,,,,,,,,,,,,,,,,,,,,,,,MET09401/14/23 13:54:02 METAR KLNK 141954Z 19014G21KT 10SM CLR 07/M03 A2991 RMK AO2 SLP139 T00671028,,,,,,,,,,3/26/2007
USW00014939,2023-01-14T14:54:00,40.8508,-96.7475,362.7,"LINCOLN AIRPORT, NE US",FM-15,343,1011.9,-2.8,7.2,0,,-3.6,6,49,CLR:00,1012.7,969.1,16.093,3.1,170,,6.7,,,,,,,,,,,,,,,,,,,,,,,,,,,,,,,,,,,,,,,,,,,,,,,,,,,,,,,,,,,,,,,,,,,,,,,,,,,,,,,,,,,,,,,,,,,MET09701/14/23 14:54:02 METAR KLNK 142054Z 17013KT 10SM CLR 07/M03 A2988 RMK AO2 SLP127 T00721028 56036,,,,,,,,,,3/26/2007
USW00014939,2023-01-14T15:54:00,40.8508,-96.7475,362.7,"LINCOLN AIRPORT, NE US",FM-15,343,1011.5,-2.2,7.8,0,,,,50,CLR:00,1012.4,968.8,16.093,3.6,180,,6.2,,,,,,,,,,,,,,,,,,,,,,,,,,,,,,,,,,,,,,,,,,,,,,,,,,,,,,,,,,,,,,,,,,,,,,,,,,,,,,,,,,,,,,,,,,,MET09101/14/23 15:54:02 METAR KLNK 142154Z 18012KT 10SM CLR 08/M02 A2987 RMK AO2 SLP124 T00781022,,,,,,,,,,3/26/2007
USW00014939,2023-01-14T16:54:00,40.8508,-96.7475,362.7,"LINCOLN AIRPORT, NE US",FM-15,343,1011.2,-2.2,6.1,0,,,,56,CLR:00,1012.2,968.5,16.093,2.7,170,,4.1,,,,,,,,,,,,,,,,,,,,,,,,,,,,,,,,,,,,,,,,,,,,,,,,,,,,,,,,,,,,,,,,,,,,,,,,,,,,,,,,,,,,,,,,,,,MET09101/14/23 16:54:02 METAR KLNK 142254Z 17008KT 10SM CLR 06/M02 A2986 RMK AO2 SLP122 T00611022,,,,,,,,,,3/26/2007
USW00014939,2023-01-14T17:54:00,40.8508,-96.7475,362.7,"LINCOLN AIRPORT, NE US",FM-15,343,1011.5,-2.2,5,0,,-0.3,5,60,CLR:00,1012.5,968.8,16.093,2.1,160,,4.1,,,,,,,,,,,,,,,,,,,,,,,,,,,,,,,,,,,,,,,,,,,,,,,,,,,,,,,,,,,,,,,,,,,,,,,,,,,,,,,,,,,,,,,,,,,MET10901/14/23 17:54:02 METAR KLNK 142354Z 16008KT 10SM CLR 05/M02 A2987 RMK AO2 SLP125 T00501022 10078 20039 55003,,,,,,,,,,3/26/2007
USW00014939,2023-01-14T18:00:00,40.8508,-96.7475,362.7,"LINCOLN AIRPORT, NE US",FM-12,223,,-2.2,5,,,-0.3,5,60,,1012.5,968.6,,2.1,160,,4.1,,,,,,,,,,,,,,,,,,,,,,,,,,,,,,,,,,,,,,,,,,,,,,,,,,,,,,,,,,,,,,,,,,,,,,,,,,,,,,,,,,,,,,,,,,,SYN08072551 32966 01608 10050 21022 39686 40125 55003 92354 333 10078 21060 555 91500=,,,,,,,,,,3/26/2007
USW00014939,2023-01-14T18:54:00,40.8508,-96.7475,362.7,"LINCOLN AIRPORT, NE US",FM-15,343,1011.2,-2.2,3.9,0,,,,65,CLR:00,1012.1,968.5,16.093,1.4,170,,4.1,,,,,,,,,,,,,,,,,,,,,,,,,,,,,,,,,,,,,,,,,,,,,,,,,,,,,,,,,,,,,,,,,,,,,,,,,,,,,,,,,,,,,,,,,,,MET09101/14/23 18:54:01 METAR KLNK 150054Z 17008KT 10SM CLR 04/M02 A2986 RMK AO2 SLP121 T00391022,,,,,,,,,,3/26/2007
USW00014939,2023-01-14T19:54:00,40.8508,-96.7475,362.7,"LINCOLN AIRPORT, NE US",FM-15,343,1011.2,-2.2,3.3,0,,,,68,CLR:00,1012.2,968.5,16.093,1.1,150,,3.6,,,,,,,,,,,,,,,,,,,,,,,,,,,,,,,,,,,,,,,,,,,,,,,,,,,,,,,,,,,,,,,,,,,,,,,,,,,,,,,,,,,,,,,,,,,MET09301/14/23 19:54:01 METAR KLNK 150154Z 15007KT 10SM CLR 03/M02 A2986 RMK AO2 SLP122 T00331022 $,,,,,,,,,,3/26/2007
USW00014939,2023-01-14T20:54:00,40.8508,-96.7475,362.7,"LINCOLN AIRPORT, NE US",FM-15,343,1010.5,-2.2,3.9,0,,-1.1,8,65,CLR:00,1011.3,967.8,16.093,1.4,160,,4.1,,,,,,,,,,,,,,,,,,,,,,,,,,,,,,,,,,,,,,,,,,,,,,,,,,,,,,,,,,,,,,,,,,,,,,,,,,,,,,,,,,,,,,,,,,,MET09901/14/23 20:54:01 METAR KLNK 150254Z 16008KT 10SM CLR 04/M02 A2984 RMK AO2 SLP113 T00391022 58011 $,,,,,,,,,,3/26/2007
USW00014939,2023-01-14T21:54:00,40.8508,-96.7475,362.7,"LINCOLN AIRPORT, NE US",FM-15,343,1009.8,-2.2,3.9,0,,,,65,CLR:00,1010.6,967.2,16.093,1.4,160,,5.7,,,,,,,,,,,,,,,,,,,,,,,,,,,,,,,,,,,,,,,,,,,,,,,,,,,,,,,,,,,,,,,,,,,,,,,,,,,,,,,,,,,,,,,,,,,MET09301/14/23 21:54:01 METAR KLNK 150354Z 16011KT 10SM CLR 04/M02 A2982 RMK AO2 SLP106 T00391022 $,,,,,,,,,,3/26/2007
USW00014939,2023-01-14T22:54:00,40.8508,-96.7475,362.7,"LINCOLN AIRPORT, NE US",FM-15,343,1009.1,-2.2,4.4,0,,,,63,CLR:00,1009.9,966.5,16.093,1.8,170,,5.1,,,,,,,,,,,,,,,,,,,,,,,,,,,,,,,,,,,,,,,,,,,,,,,,,,,,,,,,,,,,,,,,,,,,,,,,,,,,,,,,,,,,,,,,,,,MET09301/14/23 22:54:02 METAR KLNK 150454Z 17010KT 10SM CLR 04/M02 A2980 RMK AO2 SLP099 T00441022 $,,,,,,,,,,3/26/2007
USW00014939,2023-01-14T23:54:00,40.8508,-96.7475,362.7,"LINCOLN AIRPORT, NE US",FM-15,343,1009.1,-2.2,3.9,0,,-1.3,6,65,CLR:00,1009.7,966.5,16.093,1.4,170,,5.1,,,,,,,,,,,,,,,,,,,,,,,,,,,,,,,,,,,,,,,,,,,,,,,,,,,,,,,,,,,,,,,,,,,,,,,,,,,,,,,,,,,,,,,,,,,MET12101/14/23 23:54:02 METAR KLNK 150554Z 17010KT 10SM CLR 04/M02 A2980 RMK AO2 SLP097 T00391022 10050 20017 400781061 56013 $,,,,,,,,,,3/26/2007
USW00014939,2023-01-15T00:00:00,40.8508,-96.7475,362.7,"LINCOLN AIRPORT, NE US",FM-12,223,,-2.2,3.9,,,-1.3,6,65,,1009.7,966.3,,1.4,170,,5.1,,,,,,,,,,,,,,,,,,,,,,,,,,,,,,,,,,,,,,,,,,,,,,,,,,,,,,,,,,,,,,,,,,,,,,,,,,,,,,,,,,,,,,,,,,,SYN08072551 35966 01710 10039 21022 39663 40097 56013 90554 333 10050 21060 555 91506=,,,,,,,,,,3/26/2007
USW00014939,2023-01-15T00:00:00,40.8508,-96.7475,362.7,"LINCOLN AIRPORT, NE US",SOD,,,,,,,,,,,,,,,,,,750,1723,-1.1,2.9,68,1003.4,960,1.7,3.3,0,6.96,15.4,8.9,-3.2,150,10.3,0,0,0,160,8.1,,,,,,,,,,,,,,,,,,,,,,,,,,,,,,,,,,,,,,,,,,,,,,,,,,,,,,,,,,,,,,,,,,,,,,,,,,,,,,,,3/26/2007
USW00014939,2023-01-15T00:54:00,40.8508,-96.7475,362.7,"LINCOLN AIRPORT, NE US",FM-15,343,1008.5,-2.2,3.3,0,,,,68,CLR:00,1009,965.9,16.093,1.1,170,,4.6,,,,,,,,,,,,,,,,,,,,,,,,,,,,,,,,,,,,,,,,,,,,,,,,,,,,,,,,,,,,,,,,,,,,,,,,,,,,,,,,,,,,,,,,,,,MET09301/15/23 00:54:02 METAR KLNK 150654Z 17009KT 10SM CLR 03/M02 A2978 RMK AO2 SLP090 T00331022 $,,,,,,,,,,3/26/2007
USW00014939,2023-01-15T01:54:00,40.8508,-96.7475,362.7,"LINCOLN AIRPORT, NE US",FM-15,343,1007.8,-2.2,3.3,0,,,,68,CLR:00,1008.2,965.2,16.093,1.1,170,,6.7,,,,,,,,,,,,,,,,,,,,,,,,,,,,,,,,,,,,,,,,,,,,,,,,,,,,,,,,,,,,,,,,,,,,,,,,,,,,,,,,,,,,,,,,,,,MET09301/15/23 01:54:02 METAR KLNK 150754Z 17013KT 10SM CLR 03/M02 A2976 RMK AO2 SLP082 T00331022 $,,,,,,,,,,3/26/2007
USW00014939,2023-01-15T02:54:00,40.8508,-96.7475,362.7,"LINCOLN AIRPORT, NE US",FM-15,343,1007.5,-2.8,2.2,0,,-1.7,6,70,CLR:00,1007.8,964.9,16.093,0.3,170,,4.6,,,,,,,,,,,,,,,,,,,,,,,,,,,,,,,,,,,,,,,,,,,,,,,,,,,,,,,,,,,,,,,,,,,,,,,,,,,,,,,,,,,,,,,,,,,MET09901/15/23 02:54:02 METAR KLNK 150854Z 17009KT 10SM CLR 02/M03 A2975 RMK AO2 SLP078 T00221028 56017 $,,,,,,,,,,3/26/2007
USW00014939,2023-01-15T03:54:00,40.8508,-96.7475,362.7,"LINCOLN AIRPORT, NE US",FM-15,343,1006.8,-3.3,0.6,0,,,,75,CLR:00,1007.4,964.2,16.093,-0.9,170,,3.1,,,,,,,,,,,,,,,,,,,,,,,,,,,,,,,,,,,,,,,,,,,,,,,,,,,,,,,,,,,,,,,,,,,,,,,,,,,,,,,,,,,,,,,,,,,MET09301/15/23 03:54:02 METAR KLNK 150954Z 17006KT 10SM CLR 01/M03 A2973 RMK AO2 SLP074 T00061033 $,,,,,,,,,,3/26/2007
USW00014939,2023-01-15T04:54:00,40.8508,-96.7475,362.7,"LINCOLN AIRPORT, NE US",FM-15,343,1006.4,-3.9,-0.6,0,,,,79,CLR:00,1007.1,963.9,16.093,-1.8,170,,3.1,,,,,,,,,,,,,,,,,,,,,,,,,,,,,,,,,,,,,,,,,,,,,,,,,,,,,,,,,,,,,,,,,,,,,,,,,,,,,,,,,,,,,,,,,,,MET09401/15/23 04:54:02 METAR KLNK 151054Z 17006KT 10SM CLR M01/M04 A2972 RMK AO2 SLP071 T10061039 $,,,,,,,,,,3/26/2007
USW00014939,2023-01-15T05:54:00,40.8508,-96.7475,362.7,"LINCOLN AIRPORT, NE US",FM-15,343,1005.8,-3.3,0,0,,-1.5,6,79,CLR:00,1006.6,963.2,16.093,-1.2,160,,2.1,,,,,,,,,,,,,,,,,,,,,,,,,,,,,,,,,,,,,,,,,,,,,,,,,,,,,,,,,,,,,,,,,,,,,,,,,,,,,,,,,,,,,,,,,,,MET11101/15/23 05:54:02 METAR KLNK 151154Z 16004KT 10SM CLR 00/M03 A2970 RMK AO2 SLP066 T00001033 10039 21011 56015 $,,,,,,,,,,3/26/2007
USW00014939,2023-01-15T06:00:00,40.8508,-96.7475,362.7,"LINCOLN AIRPORT, NE US",FM-12,223,,-3.3,0,,,-1.5,6,79,,1006.6,963,,-1.2,160,,2.1,,,,,,,,,,,,,,,,,,,,,,,,,,,,,,,,,,,,,,,,,,,,,,,,,,,,,,,,,,,,,,,,,,,,,,,,,,,,,,,,,,,,,,,,,,,SYN08072551 35966 01604 10000 21033 39630 40066 56015 91154 333 10078 21011 555 91512=,,,,,,,,,,3/26/2007
USW00014939,2023-01-15T06:54:00,40.8508,-96.7475,362.7,"LINCOLN AIRPORT, NE US",FM-15,343,1005.8,-3.9,0,0,,,,75,CLR:00,1006.4,963.2,16.093,-1.4,180,,1.5,,,,,,,,,,,,,,,,,,,,,,,,,,,,,,,,,,,,,,,,,,,,,,,,,,,,,,,,,,,,,,,,,,,,,,,,,,,,,,,,,,,,,,,,,,,MET09301/15/23 06:54:02 METAR KLNK 151254Z 18003KT 10SM CLR 00/M04 A2970 RMK AO2 SLP064 T00001039 $,,,,,,,,,,3/26/2007
USW00014939,2023-01-15T07:54:00,40.8508,-96.7475,362.7,"LINCOLN AIRPORT, NE US",FM-15,343,1005.1,-3.9,-2.2,0,,,,88,CLR:00,1006.1,962.6,16.093,-2.8,150,,3.6,,,,,,,,,,,,,,,,,,,,,,,,,,,,,,,,,,,,,,,,,,,,,,,,,,,,,,,,,,,,,,,,,,,,,,,,,,,,,,,,,,,,,,,,,,,MET09401/15/23 07:54:02 METAR KLNK 151354Z 15007KT 10SM CLR M02/M04 A2968 RMK AO2 SLP061 T10221039 $,,,,,,,,,,3/26/2007
USW00014939,2023-01-15T08:54:00,40.8508,-96.7475,362.7,"LINCOLN AIRPORT, NE US",FM-15,343,1004.7,-2.8,0.6,0,,-0.9,8,78,CLR:00,1005.7,962.3,16.093,-0.7,140,,2.1,,,,,,,,,,,,,,,,,,,,,,,,,,,,,,,,,,,,,,,,,,,,,,,,,,,,,,,,,,,,,,,,,,,,,,,,,,,,,,,,,,,,,,,,,,,MET09901/15/23 08:54:02 METAR KLNK 151454Z 14004KT 10SM CLR 01/M03 A2967 RMK AO2 SLP057 T00061028 58009 $,,,,,,,,,,3/26/2007
USW00014939,2023-01-15T09:54:00,40.8508,-96.7475,362.7,"LINCOLN AIRPORT, NE US",FM-15,343,1004.4,-1.1,3.3,0,,,,73,CLR:00,1005,961.9,16.093,1.5,130,,3.6,,,,,,,,,,,,,,,,,,,,,,,,,,,,,,,,,,,,,,,,,,,,,,,,,,,,,,,,,,,,,,,,,,,,,,,,,,,,,,,,,,,,,,,,,,,MET09101/15/23 09:54:02 METAR KLNK 151554Z 13007KT 10SM CLR 03/M01 A2966 RMK AO2 SLP050 T00331011,,,,,,,,,,3/26/2007
USW00014939,2023-01-15T10:54:00,40.8508,-96.7475,362.7,"LINCOLN AIRPORT, NE US",FM-15,343,1004.1,-1.1,5.6,0,,,,62,CLR:00,1004.4,961.6,16.093,2.8,140,,5.1,,,,,,,,,,,,,,,,,,,,,,,,,,,,,,,,,,,,,,,,,,,,,,,,,,,,,,,,,,,,,,,,,,,,,,,,,,,,,,,,,,,,,,,,,,,MET09101/15/23 10:54:02 METAR KLNK 151654Z 14010KT 10SM CLR 06/M01 A2965 RMK AO2 SLP044 T00561011,,,,,,,,,,3/26/2007
USW00014939,2023-01-15T11:54:00,40.8508,-96.7475,362.7,"LINCOLN AIRPORT, NE US",FM-15,343,1002.7,-1.1,7.2,0,,-2,8,56,CLR:00,1003.3,960.3,16.093,3.7,180,,5.1,,,,,,,,,,,,,,,,,,,,,,,,,,,,,,,,,,,,,,,,,,,,,,,,,,,,,,,,,,,,,,,,,,,,,,,,,,,,,,,,,,,,,,,,,,,MET10901/15/23 11:54:02 METAR KLNK 151754Z 18010KT 10SM CLR 07/M01 A2961 RMK AO2 SLP033 T00721011 10072 21033 58020,,,,,,,,,,3/26/2007
USW00014939,2023-01-15T12:00:00,40.8508,-96.7475,362.7,"LINCOLN AIRPORT, NE US",FM-12,223,,-1.1,7.2,,,-2,8,56,,1003.3,960.1,,3.7,180,,5.1,,,,,,,,,,,,,,,,,,,,,,,,,,,,,,,,,,,,,,,,,,,,,,,,,,,,,,,,,,,,,,,,,,,,,,,,,,,,,,,,,,,,,,,,,,,SYN08072551 32966 01810 10072 21011 39601 40033 58020 91754 333 10072 21033 555 91518=,,,,,,,,,,3/26/2007
USW00014939,2023-01-15T12:54:00,40.8508,-96.7475,362.7,"LINCOLN AIRPORT, NE US",FM-15,343,1001.4,-0.6,8.3,0,,,,54,CLR:00,1001.7,959,16.093,4.5,160,8.2,6.2,,,,,,,,,,,,,,,,,,,,,,,,,,,,,,,,,,,,,,,,,,,,,,,,,,,,,,,,,,,,,,,,,,,,,,,,,,,,,,,,,,,,,,,,,,,MET09401/15/23 12:54:02 METAR KLNK 151854Z 16012G16KT 10SM CLR 08/M01 A2957 RMK AO2 SLP017 T00831006,,,,,,,,,,3/26/2007
USW00014939,2023-01-15T13:54:00,40.8508,-96.7475,362.7,"LINCOLN AIRPORT, NE US",FM-15,343,1000,-1.1,8.3,0,,,,52,CLR:00,1000.4,957.7,16.093,4.3,160,,5.7,,,,,,,,,,,,,,,,,,,,,,,,,,,,,,,,,,,,,,,,,,,,,,,,,,,,,,,,,,,,,,,,,,,,,,,,,,,,,,,,,,,,,,,,,,,MET09101/15/23 13:54:02 METAR KLNK 151954Z 16011KT 10SM CLR 08/M01 A2953 RMK AO2 SLP004 T00831011,,,,,,,,,,3/26/2007
USW00014939,2023-01-15T14:54:00,40.8508,-96.7475,362.7,"LINCOLN AIRPORT, NE US",FM-15,343,999.7,-1.1,8.9,0,,-3,6,50,CLR:00,1000.1,957.4,16.093,4.6,150,,3.6,,,,,,,,,,,,,,,,,,,,,,,,,,,,,,,,,,,,,,,,,,,,,,,,,,,,,,,,,,,,,,,,,,,,,,,,,,,,,,,,,,,,,,,,,,,MET09701/15/23 14:54:02 METAR KLNK 152054Z 15007KT 10SM CLR 09/M01 A2952 RMK AO2 SLP001 T00891011 56030,,,,,,,,,,3/26/2007
USW00014939,2023-01-15T15:54:00,40.8508,-96.7475,362.7,"LINCOLN AIRPORT, NE US",FM-15,343,999.3,0,8.9,0,,,,54,BKN:07 33.53,999.6,957,16.093,5,120,,4.1,,,,,,,,,,,,,,,,,,,,,,,,,,,,,,,,,,,,,,,,,,,,,,,,,,,,,,,,,,,,,,,,,,,,,,,,,,,,,,,,,,,,,,,,,,,MET09301/15/23 15:54:02 METAR KLNK 152154Z 12008KT 10SM BKN110 09/00 A2951 RMK AO2 SLP996 T00890000,,,,,,,,,,3/26/2007
USW00014939,2023-01-15T16:54:00,40.8508,-96.7475,362.7,"LINCOLN AIRPORT, NE US",FM-15,343,998.3,0.6,8.9,0,,,,56,BKN:07 36.58,998.8,956.1,16.093,5.2,100,,3.1,,,,,,,,,,,,,,,,,,,,,,,,,,,,,,,,,,,,,,,,,,,,,,,,,,,,,,,,,,,,,,,,,,,,,,,,,,,,,,,,,,,,,,,,,,,MET09301/15/23 16:54:02 METAR KLNK 152254Z 10006KT 10SM BKN120 09/01 A2948 RMK AO2 SLP988 T00890006,,,,,,,,,,3/26/2007
USW00014939,2023-01-15T17:54:00,40.8508,-96.7475,362.7,"LINCOLN AIRPORT, NE US",FM-15,343,999,0.6,7.8,0,,-0.8,5,61,CLR:00,999.4,956.7,16.093,4.6,120,,2.6,,,,,,,,,,,,,,,,,,,,,,,,,,,,,,,,,,,,,,,,,,,,,,,,,,,,,,,,,,,,,,,,,,,,,,,,,,,,,,,,,,,,,,,,,,,MET10801/15/23 17:54:02 METAR KLNK 152354Z 12005KT 10SM CLR 08/01 A2950 RMK AO2 SLP994 T00780006 10089 20072 55008,,,,,,,,,,3/26/2007
USW00014939,2023-01-15T18:00:00,40.8508,-96.7475,362.7,"LINCOLN AIRPORT, NE US",FM-12,223,,0.6,7.8,,,-0.8,5,61,,999.4,956.5,,4.6,120,,2.6,,,,,,,,,,,,,,,,,,,,,,,,,,,,,,,,,,,,,,,,,,,,,,,,,,,,,,,,,,,,,,,,,,,,,,,,,,,,,,,,,,,,,,,,,,,SYN08072551 32966 01205 10078 20006 39565 49994 55008 92354 333 10089 21010 555 91600=,,,,,,,,,,3/26/2007
USW00014939,2023-01-15T18:54:00,40.8508,-96.7475,362.7,"LINCOLN AIRPORT, NE US",FM-15,343,998.6,-0.6,3.9,0,,,,73,CLR:00,999.5,956.4,16.093,2,90,,2.1,,,,,,,,,,,,,,,,,,,,,,,,,,,,,,,,,,,,,,,,,,,,,,,,,,,,,,,,,,,,,,,,,,,,,,,,,,,,,,,,,,,,,,,,,,,MET09101/15/23 18:54:01 METAR KLNK 160054Z 09004KT 10SM CLR 04/M01 A2949 RMK AO2 SLP995 T00391006,,,,,,,,,,3/26/2007
USW00014939,2023-01-15T19:54:00,40.8508,-96.7475,362.7,"LINCOLN AIRPORT, NE US",FM-15,343,998.6,-1.7,2.2,0,,,,76,CLR:00,999.5,956.4,16.093,0.7,,,0,,,,,,,,,,,,,,,,,,,,,,,,,,,,,,,,,,,,,,,,,,,,,,,,,,,,,,,,,,,,,,,,,,,,,,,,,,,,,,,,,,,,,,,,,,,MET09101/15/23 19:54:01 METAR KLNK 160154Z 00000KT 10SM CLR 02/M02 A2949 RMK AO2 SLP995 T00221017,,,,,,,,,,3/26/2007
USW00014939,2023-01-15T20:54:00,40.8508,-96.7475,362.7,"LINCOLN AIRPORT, NE US",FM-15,343,998.3,1.1,5.6,0,,-0.7,8,73,CLR:00,998.7,956.1,16.093,3.6,160,,2.1,,,,,,,,,,,,,,,,,,,,,,,,,,,,,,,,,,,,,,,,,,,,,,,,,,,,,,,,,,,,,,,,,,,,,,,,,,,,,,,,,,,,,,,,,,,MET09601/15/23 20:54:01 METAR KLNK 160254Z 16004KT 10SM CLR 06/01 A2948 RMK AO2 SLP987 T00560011 58007,,,,,,,,,,3/26/2007
USW00014939,2023-01-15T21:54:00,40.8508,-96.7475,362.7,"LINCOLN AIRPORT, NE US",FM-15,343,997.6,3.3,8.3,0,,,,71,CLR:00,997.9,955.4,16.093,6,120,,3.1,,,,,,,,,,,,,,,,,,,,,,,,,,,,,,,,,,,,,,,,,,,,,,,,,,,,,,,,,,,,,,,,,,,,,,,,,,,,,,,,,,,,,,,,,,,MET09001/15/23 21:54:01 METAR KLNK 160354Z 12006KT 10SM CLR 08/03 A2946 RMK AO2 SLP979 T00830033,,,,,,,,,,3/26/2007
USW00014939,2023-01-15T22:54:00,40.8508,-96.7475,362.7,"LINCOLN AIRPORT, NE US",FM-15,343,997.3,3.3,7.8,0,,,,73,OVC:08 30.48,997.4,955.1,16.093,5.7,100,,2.1,,,,,,,,,,,,,,,,,,,,,,,,,,,,,,,,,,,,,,,,,,,,,,,,,,,,,,,,,,,,,,,,,,,,,,,,,,,,,,,,,,,,,,,,,,,MET09301/15/23 22:54:02 METAR KLNK 160454Z 10004KT 10SM OVC100 08/03 A2945 RMK AO2 SLP974 T00780033,,,,,,,,,,3/26/2007
USW00014939,2023-01-15T23:54:00,40.8508,-96.7475,362.7,"LINCOLN AIRPORT, NE US",FM-15,343,996.3,2.8,6.7,0,,-1.8,8,76,SCT:04 33.53,996.5,954.1,16.093,4.9,,,0,,,,,,,,,,,,,,,,,,,,,,,,,,,,,,,,,,,,,,,,,,,,,,,,,,,,,,,,,,,,,,,,,,,,,,,,,,,,,,,,,,,,,,,,,,,MET12101/15/23 23:54:02 METAR KLNK 160554Z 00000KT 10SM SCT110 07/03 A2942 RMK AO2 SLP965 T00670028 10089 20022 400891033 58018,,,,,,,,,,3/26/2007
USW00014939,2023-01-16T00:00:00,40.8508,-96.7475,362.7,"LINCOLN AIRPORT, NE US",FM-12,223,,2.8,6.7,,,-1.8,8,76,,996.5,953.9,,4.9,,,0,,,,,,,,,,,,,,,,,,,,,,,,,,,,,,,,,,,,,,,,,,,,,,,,,,,,,,,,,,,,,,,,,,,,,,,,,,,,,,,,,,,,,,,,,,,SYN08072551 35966 40000 10067 20028 39539 49965 58018 90554 333 10089 21010 555 91606=,,,,,,,,,,3/26/2007
USW00014939,2023-01-16T00:00:00,40.8508,-96.7475,362.7,"LINCOLN AIRPORT, NE US",SOD,,,,,,,,,,,,,,,,,,750,1724,1.7,5,80,999.7,956,3.3,4.3,0,9.06,13.3,8.9,1.1,290,13.4,T,0,0,290,9.4,BR RA,,,,,,,,,,,,,,,,,,,,,,,,,,,,,,,,,,,,,,,,,,,,,,,,,,,,,,,,,,,,,,,,,,,,,,,,,,,,,,,3/26/2007
USW00014939,2023-01-16T00:54:00,40.8508,-96.7475,362.7,"LINCOLN AIRPORT, NE US",FM-15,343,995.3,3.3,6.1,0,,,,82,FEW:02 8.84 SCT:04 10.36,995.6,953.1,16.093,4.8,,,0,,,,,,,,,,,,,,,,,,,,,,,,,,,,,,,,,,,,,,,,,,,,,,,,,,,,,,,,,,,,,,,,,,,,,,,,,,,,,,,,,,,,,,,,,,,MET10001/16/23 00:54:02 METAR KLNK 160654Z 00000KT 10SM FEW029 SCT034 06/03 A2939 RMK AO2 SLP956 T00610033,,,,,,,,,,3/26/2007
USW00014939,2023-01-16T01:19:00,40.8508,-96.7475,362.7,"LINCOLN AIRPORT, NE US",FM-16,343,994.9,3.3,5.6,,,,,85,BKN:07 8.23 OVC:08 10.36,,952.8,16.093,4.5,,,0,,,,,,,,,,,,,,,,,,,,,,,,,,,,,,,,,,,,,,,,,,,,,,,,,,,,,,,,,,,,,,,,,,,,,,,,,,,,,,,,,,,,,,,,,,,MET09301/16/23 01:19:02 SPECI KLNK 160719Z 00000KT 10SM BKN027 OVC034 06/03 A2938 RMK AO2 T00560033,,,,,,,,,,3/26/2007
USW00014939,2023-01-16T01:54:00,40.8508,-96.7475,362.7,"LINCOLN AIRPORT, NE US",FM-15,343,994.6,5,7.2,0,,,,86,OVC:08 8.53,994.7,952.5,16.093,6.2,,,0,,,,,,,,,,,,,,,,,,,,,,,,,,,,,,,,,,,,,,,,,,,,,,,,,,,,,,,,,,,,,,,,,,,,,,,,,,,,,,,,,,,,,,,,,,,MET09301/16/23 01:54:02 METAR KLNK 160754Z 00000KT 10SM OVC028 07/05 A2937 RMK AO2 SLP947 T00720050,,,,,,,,,,3/26/2007
USW00014939,2023-01-16T02:11:00,40.8508,-96.7475,362.7,"LINCOLN AIRPORT, NE US",FM-16,343,994.6,5,7.2,,,,,86,SCT:04 9.14 BKN:07 30.48 OVC:08 36.58,,952.5,16.093,6.2,100,,1.5,,,,,,,,,,,,,,,,,,,,,,,,,,,,,,,,,,,,,,,,,,,,,,,,,,,,,,,,,,,,,,,,,,,,,,,,,,,,,,,,,,,,,,,,,,,MET10001/16/23 02:11:02 SPECI KLNK 160811Z 10003KT 10SM SCT030 BKN100 OVC120 07/05 A2937 RMK AO2 T00720050,,,,,,,,,,3/26/2007
USW00014939,2023-01-16T02:27:00,40.8508,-96.7475,362.7,"LINCOLN AIRPORT, NE US",FM-16,343,994.6,5.6,7.8,,,,,86,BKN:07 8.53 OVC:08 28.96,,952.5,16.093,6.7,100,,2.1,,,,,,,,,,,,,,,,,,,,,,,,,,,,,,,,,,,,,,,,,,,,,,,,,,,,,,,,,,,,,,,,,,,,,,,,,,,,,,,,,,,,,,,,,,,MET09301/16/23 02:27:02 SPECI KLNK 160827Z 10004KT 10SM BKN028 OVC095 08/06 A2937 RMK AO2 T00780056,,,,,,,,,,3/26/2007
USW00014939,2023-01-16T02:52:00,40.8508,-96.7475,362.7,"LINCOLN AIRPORT, NE US",FM-16,343,994.2,6,8,,,,,87,SCT:04 7.32 BKN:07 27.43 OVC:08 30.48,,952.1,16.093,7,110,,2.1,,,,,,,,,,,,,,,,,,,,,,,,,,,,,,,,,,,,,,,,,,,,,,,,,,,,,,,,,,,,,,,,,,,,,,,,,,,,,,,,,,,,,,,,,,,MET09501/16/23 02:52:02 SPECI KLNK 160852Z 11004KT 10SM SCT024 BKN090 OVC100 08/06 A2936 RMK AO2 FIBI,,,,,,,,,,3/26/2007
USW00014939,2023-01-16T02:54:00,40.8508,-96.7475,362.7,"LINCOLN AIRPORT, NE US",FM-15,343,994.2,5.6,7.8,0,,-2.2,6,86,SCT:04 7.32 BKN:07 27.43 BKN:07 30.48,994.2,952.1,16.093,6.7,100,,1.5,,,,,,,,,,,,,,,,,,,,,,,,,,,,,,,,,,,,,,,,,,,,,,,,,,,,,,,,,,,,,,,,,,,,,,,,,,,,,,,,,,,,,,,,,,,MET11301/16/23 02:54:02 METAR KLNK 160854Z 10003KT 10SM SCT024 BKN090 BKN100 08/06 A2936 RMK AO2 SLP942 T00780056 56022,,,,,,,,,,3/26/2007
USW00014939,2023-01-16T03:41:00,40.8508,-96.7475,362.7,"LINCOLN AIRPORT, NE US",FM-16,343,993.6,6.1,8.3,T,-RA:02 |RA |RA,,,86,BKN:07 6.4 BKN:07 24.38 OVC:08 28.96,,951.5,16.093,7.2,70,,1.5,,,,,,,,,,,,,,,,,,,,,,,,,,,,,,,,,,,,,,,,,,,,,,,,,,,,,,,,,,,,,,,,,,,,,,,,,,,,,,,,,,,,,,,,,,,MET11601/16/23 03:41:02 SPECI KLNK 160941Z 07003KT 10SM -RA BKN021 BKN080 OVC095 08/06 A2934 RMK AO2 RAB27 P0000 T00830061,,,,,,,,,,3/26/2007
USW00014939,2023-01-16T03:54:00,40.8508,-96.7475,362.7,"LINCOLN AIRPORT, NE US",FM-15,343,993.2,6.1,8.3,T,,,,86,OVC:08 6.4,993.3,951.2,16.093,7.2,80,,2.6,,,,,,,,,,,,,,,,,,,,,,,,,,,,,,,,,,,,,,,,,,,,,,,,,,,,,,,,,,,,,,,,,,,,,,,,,,,,,,,,,,,,,,,,,,,MET10801/16/23 03:54:02 METAR KLNK 160954Z 08005KT 10SM OVC021 08/06 A2933 RMK AO2 RAB27E46 SLP933 P0000 T00830061,,,,,,,,,,3/26/2007
USW00014939,2023-01-16T04:39:00,40.8508,-96.7475,362.7,"LINCOLN AIRPORT, NE US",FM-16,343,992.9,6.7,7.8,,,,,93,FEW:02 6.71 SCT:04 9.45 BKN:07 14.02,,950.8,16.093,7.2,,,0,,,,,,,,,,,,,,,,,,,,,,,,,,,,,,,,,,,,,,,,,,,,,,,,,,,,,,,,,,,,,,,,,,,,,,,,,,,,,,,,,,,,,,,,,,,MET10001/16/23 04:39:02 SPECI KLNK 161039Z 00000KT 10SM FEW022 SCT031 BKN046 08/07 A2932 RMK AO2 T00780067,,,,,,,,,,3/26/2007
USW00014939,2023-01-16T04:54:00,40.8508,-96.7475,362.7,"LINCOLN AIRPORT, NE US",FM-15,343,992.6,5.6,7.2,0,,,,90,FEW:02 13.72 SCT:04 16.76,992.6,950.5,16.093,6.4,,,0,,,,,,,,,,,,,,,,,,,,,,,,,,,,,,,,,,,,,,,,,,,,,,,,,,,,,,,,,,,,,,,,,,,,,,,,,,,,,,,,,,,,,,,,,,,MET10001/16/23 04:54:01 METAR KLNK 161054Z 00000KT 10SM FEW045 SCT055 07/06 A2931 RMK AO2 SLP926 T00720056,,,,,,,,,,3/26/2007
USW00014939,2023-01-16T05:54:00,40.8508,-96.7475,362.7,"LINCOLN AIRPORT, NE US",FM-15,343,992.6,4.4,5,0,BR:1 |BR |,-1.6,6,96,BKN:07 9.75,992.7,950.5,6.437,4.7,350,,3.1,,,,,,,,,,,,,,,,,,,,,,,,,,,,,,,,,,,,,,,,,,,,,,,,,,,,,,,,,,,,,,,,,,,,,,,,,,,,,,,,,,,,,,,,,,,MET11901/16/23 05:54:02 METAR KLNK 161154Z 35006KT 4SM BR BKN032 05/04 A2931 RMK AO2 SLP927 60000 T00500044 10089 20050 56016,,,,,,,,,,3/26/2007
USW00014939,2023-01-16T06:00:00,40.8508,-96.7475,362.7,"LINCOLN AIRPORT, NE US",FM-12,223,,4.4,5,,||BR,-1.6,6,96,,992.7,950.3,,4.7,350,,3.1,,,,,,,,,,,,,,,,,,,,,,,,,,,,,,,,,,,,,,,,,,,,,,,,,,,,,,,,,,,,,,,,,,,,,,,,,,,,,,,,,,,,,,,,,,,SYN09272551 11556 63506 10050 20044 39503 49927 56016 69901 710// 91154 333 10089 20022 555 91612=,,,,,,,,,,3/26/2007
USW00014939,2023-01-16T06:47:00,40.8508,-96.7475,362.7,"LINCOLN AIRPORT, NE US",FM-16,343,992.9,6.1,7.8,,,,,89,BKN:07 3.35 OVC:08 8.53,,950.8,14.484,7,310,,5.1,,,,,,,,,,,,,,,,,,,,,,,,,,,,,,,,,,,,,,,,,,,,,,,,,,,,,,,,,,,,,,,,,,,,,,,,,,,,,,,,,,,,,,,,,,,MET09201/16/23 06:47:02 SPECI KLNK 161247Z 31010KT 9SM BKN011 OVC028 08/06 A2932 RMK AO2 T00780061,,,,,,,,,,3/26/2007
USW00014939,2023-01-16T06:52:00,40.8508,-96.7475,362.7,"LINCOLN AIRPORT, NE US",FM-16,343,992.9,6,8,,,,,87,BKN:07 2.74 OVC:08 9.14,,950.8,16.093,7,310,,4.6,,,,,,,,,,,,,,,,,,,,,,,,,,,,,,,,,,,,,,,,,,,,,,,,,,,,,,,,,,,,,,,,,,,,,,,,,,,,,,,,,,,,,,,,,,,MET10501/16/23 06:52:02 SPECI KLNK 161252Z 31009KT 10SM BKN009 OVC030 08/06 A2932 RMK AO2 CIG 008V012 FIBI (CD),,,,,,,,,,3/26/2007
USW00014939,2023-01-16T06:54:00,40.8508,-96.7475,362.7,"LINCOLN AIRPORT, NE US",FM-15,343,992.9,6.1,7.8,0,,,,89,BKN:07 2.74 OVC:08 9.14,993.3,950.8,16.093,7,320,,5.1,,,,,,,,,,,,,,,,,,,,,,,,,,,,,,,,,,,,,,,,,,,,,,,,,,,,,,,,,,,,,,,,,,,,,,,,,,,,,,,,,,,,,,,,,,,MET11201/16/23 06:54:02 METAR KLNK 161254Z 32010KT 10SM BKN009 OVC030 08/06 A2932 RMK AO2 CIG 008V012 SLP933 T00780061,,,,,,,,,,3/26/2007
USW00014939,2023-01-16T07:04:00,40.8508,-96.7475,362.7,"LINCOLN AIRPORT, NE US",FM-16,343,993.2,6.1,7.8,,,,,89,OVC:08 3.05,,951.2,16.093,7,320,,5.1,,,,,,,,,,,,,,,,,,,,,,,,,,,,,,,,,,,,,,,,,,,,,,,,,,,,,,,,,,,,,,,,,,,,,,,,,,,,,,,,,,,,,,,,,,,MET09801/16/23 07:04:02 SPECI KLNK 161304Z 32010KT 10SM OVC010 08/06 A2933 RMK AO2 CIG 008V012 T00780061,,,,,,,,,,3/26/2007
USW00014939,2023-01-16T07:54:00,40.8508,-96.7475,362.7,"LINCOLN AIRPORT, NE US",FM-15,343,993.6,4.4,6.1,0,,,,89,OVC:08 3.05,993.9,951.5,14.484,5.3,330,,7.2,,,,,,,,,,,,,,,,,,,,,,,,,,,,,,,,,,,,,,,,,,,,,,,,,,,,,,,,,,,,,,,,,,,,,,,,,,,,,,,,,,,,,,,,,,,MET09201/16/23 07:54:02 METAR KLNK 161354Z 33014KT 9SM OVC010 06/04 A2934 RMK AO2 SLP939 T00610044,,,,,,,,,,3/26/2007
USW00014939,2023-01-16T08:22:00,40.8508,-96.7475,362.7,"LINCOLN AIRPORT, NE US",FM-16,343,994.2,3.3,5,,BR:1 |BR |,,,89,SCT:04 1.83 OVC:08 3.05,,952.1,8.047,4.2,330,,7.2,,,,,,,,,,,,,,,,,,,,,,,,,,,,,,,,,,,,,,,,,,,,,,,,,,,,,,,,,,,,,,,,,,,,,,,,,,,,,,,,,,,,,,,,,,,MET10201/16/23 08:22:02 SPECI KLNK 161422Z 33014KT 5SM BR SCT006 OVC010 05/03 A2936 RMK AO2 PRESRR T00500033,,,,,,,,,,3/26/2007
USW00014939,2023-01-16T08:30:00,40.8508,-96.7475,362.7,"LINCOLN AIRPORT, NE US",FM-16,343,994.6,3.3,5,,BR:1 |BR |,,,89,BKN:07 1.83 OVC:08 3.35,,952.5,8.047,4.2,310,,6.2,,,,,,,,,,,,,,,,,,,,,,,,,,,,,,,,,,,,,,,,,,,,,,,,,,,,,,,,,,,,,,,,,,,,,,,,,,,,,,,,,,,,,,,,,,,MET10201/16/23 08:30:02 SPECI KLNK 161430Z 31012KT 5SM BR BKN006 OVC011 05/03 A2937 RMK AO2 PRESRR T00500033,,,,,,,,,,3/26/2007
USW00014939,2023-01-16T08:54:00,40.8508,-96.7475,362.7,"LINCOLN AIRPORT, NE US",FM-15,343,995.6,2.2,4.4,0,,3,3,86,OVC:08 2.13,996,953.4,11.265,3.5,310,,6.2,,,,,,,,,,,,,,,,,,,,,,,,,,,,,,,,,,,,,,,,,,,,,,,,,,,,,,,,,,,,,,,,,,,,,,,,,,,,,,,,,,,,,,,,,,,MET11701/16/23 08:54:02 METAR KLNK 161454Z 31012KT 7SM OVC007 04/02 A2940 RMK AO2 CIG 006V009 PRESRR SLP960 T00440022 53030,,,,,,,,,,3/26/2007
USW00014939,2023-01-16T09:20:00,40.8508,-96.7475,362.7,"LINCOLN AIRPORT, NE US",FM-16,343,996.3,1.1,3.9,,,,,82,OVC:08 3.35,,954.1,12.875,2.7,310,,6.7,,,,,,,,,,,,,,,,,,,,,,,,,,,,,,,,,,,,,,,,,,,,,,,,,,,,,,,,,,,,,,,,,,,,,,,,,,,,,,,,,,,,,,,,,,,MET08501/16/23 09:20:02 SPECI KLNK 161520Z 31013KT 8SM OVC011 04/01 A2942 RMK AO2 T00390011,,,,,,,,,,3/26/2007
USW00014939,2023-01-16T09:54:00,40.8508,-96.7475,362.7,"LINCOLN AIRPORT, NE US",FM-15,343,996.6,0.6,3.9,0,,,,79,OVC:08 3.66,997.1,954.4,14.484,2.5,310,,8.2,,,,,,,,,,,,,,,,,,,,,,,,,,,,,,,,,,,,,,,,,,,,,,,,,,,,,,,,,,,,,,,,,,,,,,,,,,,,,,,,,,,,,,,,,,,MET09201/16/23 09:54:02 METAR KLNK 161554Z 31016KT 9SM OVC012 04/01 A2943 RMK AO2 SLP971 T00390006,,,,,,,,,,3/26/2007
USW00014939,2023-01-16T10:44:00,40.8508,-96.7475,362.7,"LINCOLN AIRPORT, NE US",FM-16,343,997.6,0.6,4.4,,,,,77,OVC:08 4.57,,955.4,14.484,2.8,310,,8.2,,,,,,,,,,,,,,,,,,,,,,,,,,,,,,,,,,,,,,,,,,,,,,,,,,,,,,,,,,,,,,,,,,,,,,,,,,,,,,,,,,,,,,,,,,,MET08501/16/23 10:44:02 SPECI KLNK 161644Z 31016KT 9SM OVC015 04/01 A2946 RMK AO2 T00440006,,,,,,,,,,3/26/2007
USW00014939,2023-01-16T10:54:00,40.8508,-96.7475,362.7,"LINCOLN AIRPORT, NE US",FM-15,343,997.6,0,4.4,0,,,,73,OVC:08 4.57,998,955.4,16.093,2.6,310,11.3,6.2,,,,,,,,,,,,,,,,,,,,,,,,,,,,,,,,,,,,,,,,,,,,,,,,,,,,,,,,,,,,,,,,,,,,,,,,,,,,,,,,,,,,,,,,,,,MET09601/16/23 10:54:02 METAR KLNK 161654Z 31012G22KT 10SM OVC015 04/00 A2946 RMK AO2 SLP980 T00440000,,,,,,,,,,3/26/2007
USW00014939,2023-01-16T11:54:00,40.8508,-96.7475,362.7,"LINCOLN AIRPORT, NE US",FM-15,343,998.3,0.6,5,0,,2.8,1,73,OVC:08 4.57,998.8,956.1,14.484,3.1,300,11.3,6.7,,,,,,,,,,,,,,,,,,,,,,,,,,,,,,,,,,,,,,,,,,,,,,,,,,,,,,,,,,,,,,,,,,,,,,,,,,,,,,,,,,,,,,,,,,,MET11301/16/23 11:54:02 METAR KLNK 161754Z 30013G22KT 9SM OVC015 05/01 A2948 RMK AO2 SLP988 T00500006 10078 20039 51028,,,,,,,,,,3/26/2007
USW00014939,2023-01-16T12:00:00,40.8508,-96.7475,362.7,"LINCOLN AIRPORT, NE US",FM-12,223,,0.6,5,,,2.8,1,73,,998.8,955.8,,3.1,300,,6.7,,,,,,,,,,,,,,,,,,,,,,,,,,,,,,,,,,,,,,,,,,,,,,,,,,,,,,,,,,,,,,,,,,,,,,,,,,,,,,,,,,,,,,,,,,,SYN08672551 32464 83013 10050 20006 39558 49988 51028 91754 333 10089 20039 91022 555 91618=,,,,,,,,,,3/26/2007
USW00014939,2023-01-16T12:02:00,40.8508,-96.7475,362.7,"LINCOLN AIRPORT, NE US",FM-16,343,998.3,0.6,5,,,,,73,OVC:08 3.96,,956.1,14.484,3.1,300,11.3,8.2,,,,,,,,,,,,,,,,,,,,,,,,,,,,,,,,,,,,,,,,,,,,,,,,,,,,,,,,,,,,,,,,,,,,,,,,,,,,,,,,,,,,,,,,,,,MET08801/16/23 12:02:02 SPECI KLNK 161802Z 30016G22KT 9SM OVC013 05/01 A2948 RMK AO2 T00500006,,,,,,,,,,3/26/2007
USW00014939,2023-01-16T12:54:00,40.8508,-96.7475,362.7,"LINCOLN AIRPORT, NE US",FM-15,343,998.6,0.6,5.6,0,,,,71,OVC:08 3.96,998.9,956.4,16.093,3.4,280,11.8,8.8,,,,,,,,,,,,,,,,,,,,,,,,,,,,,,,,,,,,,,,,,,,,,,,,,,,,,,,,,,,,,,,,,,,,,,,,,,,,,,,,,,,,,,,,,,,MET09601/16/23 12:54:02 METAR KLNK 161854Z 28017G23KT 10SM OVC013 06/01 A2949 RMK AO2 SLP989 T00560006,,,,,,,,,,3/26/2007
USW00014939,2023-01-16T13:54:00,40.8508,-96.7475,362.7,"LINCOLN AIRPORT, NE US",FM-15,343,999,0.6,6.1,0,,,,68,OVC:08 3.96,999.4,956.7,16.093,3.7,300,11.3,8.8,,,,,,,,,,,,,,,,,,,,,,,,,,,,,,,,,,,,,,,,,,,,,,,,,,,,,,,,,,,,,,,,,,,,,,,,,,,,,,,,,,,,,,,,,,,MET09601/16/23 13:54:02 METAR KLNK 161954Z 30017G22KT 10SM OVC013 06/01 A2950 RMK AO2 SLP994 T00610006,,,,,,,,,,3/26/2007
USW00014939,2023-01-16T14:01:00,40.8508,-96.7475,362.7,"LINCOLN AIRPORT, NE US",FM-16,343,999.3,0.6,6.1,,,,,68,OVC:08 5.79,,957,16.093,3.7,280,11.3,7.7,,,,,,,,,,,,,,,,,,,,,,,,,,,,,,,,,,,,,,,,,,,,,,,,,,,,,,,,,,,,,,,,,,,,,,,,,,,,,,,,,,,,,,,,,,,MET08901/16/23 14:01:02 SPECI KLNK 162001Z 28015G22KT 10SM OVC019 06/01 A2951 RMK AO2 T00610006,,,,,,,,,,3/26/2007
USW00014939,2023-01-16T14:40:00,40.8508,-96.7475,362.7,"LINCOLN AIRPORT, NE US",FM-16,343,999.3,0.6,5.6,,,,,71,OVC:08 5.49,,957,16.093,3.4,310,11.3,8.8,,,,,,,,,,,,,,,,,,,,,,,,,,,,,,,,,,,,,,,,,,,,,,,,,,,,,,,,,,,,,,,,,,,,,,,,,,,,,,,,,,,,,,,,,,,MET08901/16/23 14:40:02 SPECI KLNK 162040Z 31017G22KT 10SM OVC018 06/01 A2951 RMK AO2 T00560006,,,,,,,,,,3/26/2007
USW00014939,2023-01-16T14:54:00,40.8508,-96.7475,362.7,"LINCOLN AIRPORT, NE US",FM-15,343,999.7,0.6,5.6,0,,1.2,3,71,OVC:08 5.49,1000,957.4,16.093,3.4,300,10.8,7.2,,,,,,,,,,,,,,,,,,,,,,,,,,,,,,,,,,,,,,,,,,,,,,,,,,,,,,,,,,,,,,,,,,,,,,,,,,,,,,,,,,,,,,,,,,,MET10201/16/23 14:54:02 METAR KLNK 162054Z 30014G21KT 10SM OVC018 06/01 A2952 RMK AO2 SLP000 T00560006 53012,,,,,,,,,,3/26/2007
USW00014939,2023-01-16T15:20:00,40.8508,-96.7475,362.7,"LINCOLN AIRPORT, NE US",FM-16,343,1000.3,0.6,6.1,,,,,68,OVC:08 5.79,,958,16.093,3.7,290,10.8,8.2,,,,,,,,,,,,,,,,,,,,,,,,,,,,,,,,,,,,,,,,,,,,,,,,,,,,,,,,,,,,,,,,,,,,,,,,,,,,,,,,,,,,,,,,,,,MET08901/16/23 15:20:02 SPECI KLNK 162120Z 29016G21KT 10SM OVC019 06/01 A2954 RMK AO2 T00610006,,,,,,,,,,3/26/2007
USW00014939,2023-01-16T15:54:00,40.8508,-96.7475,362.7,"LINCOLN AIRPORT, NE US",FM-15,343,1000.7,0.6,5.6,0,,,,71,OVC:08 6.1,1000.8,958.3,16.093,3.4,300,13.4,8.2,,,,,,,,,,,,,,,,,,,,,,,,,,,,,,,,,,,,,,,,,,,,,,,,,,,,,,,,,,,,,,,,,,,,,,,,,,,,,,,,,,,,,,,,,,,MET11401/16/23 15:54:02 METAR KLNK 162154Z 30016G26KT 10SM OVC020 06/01 A2955 RMK AO2 PK WND 29026/2151 SLP008 T00560006,,,,,,,,,,3/26/2007
USW00014939,2023-01-16T16:29:00,40.8508,-96.7475,362.7,"LINCOLN AIRPORT, NE US",FM-16,343,1001,0,5.6,,,,,68,SCT:04 6.1 SCT:04 11.28,,958.7,16.093,3.2,310,,5.1,,,,,,,,,,,,,,,,,,,,,,,,,,,,,,,,,,,,,,,,,,,,,,,,,,,,,,,,,,,,,,,,,,,,,,,,,,,,,,,,,,,,,,,,,,,MET09301/16/23 16:29:02 SPECI KLNK 162229Z 31010KT 10SM SCT020 SCT037 06/00 A2956 RMK AO2 T00560000,,,,,,,,,,3/26/2007
USW00014939,2023-01-16T16:54:00,40.8508,-96.7475,362.7,"LINCOLN AIRPORT, NE US",FM-15,343,1001.7,0,5,0,,,,70,FEW:02 6.1 SCT:04 11.28,1001.9,959.3,16.093,2.9,300,,4.1,,,,,,,,,,,,,,,,,,,,,,,,,,,,,,,,,,,,,,,,,,,,,,,,,,,,,,,,,,,,,,,,,,,,,,,,,,,,,,,,,,,,,,,,,,,MET10001/16/23 16:54:02 METAR KLNK 162254Z 30008KT 10SM FEW020 SCT037 05/00 A2958 RMK AO2 SLP019 T00500000,,,,,,,,,,3/26/2007
USW00014939,2023-01-16T17:33:00,40.8508,-96.7475,362.7,"LINCOLN AIRPORT, NE US",FM-16,343,1002,0,4.4,,,,,73,BKN:07 6.1 OVC:08 12.19,,959.7,16.093,2.6,300,,4.1,,,,,,,,,,,,,,,,,,,,,,,,,,,,,,,,,,,,,,,,,,,,,,,,,,,,,,,,,,,,,,,,,,,,,,,,,,,,,,,,,,,,,,,,,,,MET09301/16/23 17:33:02 SPECI KLNK 162333Z 30008KT 10SM BKN020 OVC040 04/00 A2959 RMK AO2 T00440000,,,,,,,,,,3/26/2007
USW00014939,2023-01-16T17:54:00,40.8508,-96.7475,362.7,"LINCOLN AIRPORT, NE US",FM-15,343,1002.7,0,3.9,0,,3,3,76,OVC:08 6.1,1003.4,960.3,16.093,2.3,290,,3.6,,,,,,,,,,,,,,,,,,,,,,,,,,,,,,,,,,,,,,,,,,,,,,,,,,,,,,,,,,,,,,,,,,,,,,,,,,,,,,,,,,,,,,,,,,,MET11101/16/23 17:54:02 METAR KLNK 162354Z 29007KT 10SM OVC020 04/00 A2961 RMK AO2 SLP034 T00390000 10061 20039 53030,,,,,,,,,,3/26/2007
USW00014939,2023-01-16T18:00:00,40.8508,-96.7475,362.7,"LINCOLN AIRPORT, NE US",FM-12,223,,0,3.9,,,3,3,76,,1003.4,960.1,,2.3,290,,3.6,,,,,,,,,,,,,,,,,,,,,,,,,,,,,,,,,,,,,,,,,,,,,,,,,,,,,,,,,,,,,,,,,,,,,,,,,,,,,,,,,,,,,,,,,,,SYN08072551 32566 82907 10039 20000 39601 40034 53030 92354 333 10078 20039 555 91700=,,,,,,,,,,3/26/2007
USW00014939,2023-01-16T18:40:00,40.8508,-96.7475,362.7,"LINCOLN AIRPORT, NE US",FM-16,343,1003.7,-1.1,2.8,,,,,76,SCT:04 5.79 BKN:07 13.11,,961.3,16.093,1.2,300,,3.1,,,,,,,,,,,,,,,,,,,,,,,,,,,,,,,,,,,,,,,,,,,,,,,,,,,,,,,,,,,,,,,,,,,,,,,,,,,,,,,,,,,,,,,,,,,MET09401/16/23 18:40:01 SPECI KLNK 170040Z 30006KT 10SM SCT019 BKN043 03/M01 A2964 RMK AO2 T00281011,,,,,,,,,,3/26/2007
USW00014939,2023-01-16T18:54:00,40.8508,-96.7475,362.7,"LINCOLN AIRPORT, NE US",FM-15,343,1003.7,-1.1,2.8,0,,,,76,BKN:07 13.11,1004.3,961.3,16.093,1.2,280,,2.1,,,,,,,,,,,,,,,,,,,,,,,,,,,,,,,,,,,,,,,,,,,,,,,,,,,,,,,,,,,,,,,,,,,,,,,,,,,,,,,,,,,,,,,,,,,MET09401/16/23 18:54:01 METAR KLNK 170054Z 28004KT 10SM BKN043 03/M01 A2964 RMK AO2 SLP043 T00281011,,,,,,,,,,3/26/2007
USW00014939,2023-01-16T19:35:00,40.8508,-96.7475,362.7,"LINCOLN AIRPORT, NE US",FM-16,343,1004.4,-1.1,2.8,,,,,76,BKN:07 6.1 OVC:08 12.19,,961.9,16.093,1.2,300,,2.6,,,,,,,,,,,,,,,,,,,,,,,,,,,,,,,,,,,,,,,,,,,,,,,,,,,,,,,,,,,,,,,,,,,,,,,,,,,,,,,,,,,,,,,,,,,MET09401/16/23 19:35:01 SPECI KLNK 170135Z 30005KT 10SM BKN020 OVC040 03/M01 A2966 RMK AO2 T00281011,,,,,,,,,,3/26/2007
USW00014939,2023-01-16T19:54:00,40.8508,-96.7475,362.7,"LINCOLN AIRPORT, NE US",FM-15,343,1004.4,-0.6,2.8,0,,,,79,OVC:08 6.1,1005,961.9,16.093,1.4,300,,1.5,,,,,,,,,,,,,,,,,,,,,,,,,,,,,,,,,,,,,,,,,,,,,,,,,,,,,,,,,,,,,,,,,,,,,,,,,,,,,,,,,,,,,,,,,,,MET09401/16/23 19:54:01 METAR KLNK 170154Z 30003KT 10SM OVC020 03/M01 A2966 RMK AO2 SLP050 T00281006,,,,,,,,,,3/26/2007
USW00014939,2023-01-16T20:22:00,40.8508,-96.7475,362.7,"LINCOLN AIRPORT, NE US",FM-16,343,1004.4,-1.1,2.8,,,,,76,SCT:04 5.79,,961.9,16.093,1.2,310,,3.6,,,,,,,,,,,,,,,,,,,,,,,,,,,,,,,,,,,,,,,,,,,,,,,,,,,,,,,,,,,,,,,,,,,,,,,,,,,,,,,,,,,,,,,,,,,MET08701/16/23 20:22:01 SPECI KLNK 170222Z 31007KT 10SM SCT019 03/M01 A2966 RMK AO2 T00281011,,,,,,,,,,3/26/2007
USW00014939,2023-01-16T20:54:00,40.8508,-96.7475,362.7,"LINCOLN AIRPORT, NE US",FM-15,343,1004.4,-1.1,2.2,0,,1.6,1,79,CLR:00,1005.2,961.9,16.093,0.9,310,,3.1,,,,,,,,,,,,,,,,,,,,,,,,,,,,,,,,,,,,,,,,,,,,,,,,,,,,,,,,,,,,,,,,,,,,,,,,,,,,,,,,,,,,,,,,,,,MET09701/16/23 20:54:01 METAR KLNK 170254Z 31006KT 10SM CLR 02/M01 A2966 RMK AO2 SLP052 T00221011 51016,,,,,,,,,,3/26/2007
USW00014939,2023-01-16T21:54:00,40.8508,-96.7475,362.7,"LINCOLN AIRPORT, NE US",FM-15,343,1005.1,-1.1,1.7,0,,,,82,FEW:02 6.71,1005.7,962.6,16.093,0.6,290,,3.1,,,,,,,,,,,,,,,,,,,,,,,,,,,,,,,,,,,,,,,,,,,,,,,,,,,,,,,,,,,,,,,,,,,,,,,,,,,,,,,,,,,,,,,,,,,MET09401/16/23 21:54:01 METAR KLNK 170354Z 29006KT 10SM FEW022 02/M01 A2968 RMK AO2 SLP057 T00171011,,,,,,,,,,3/26/2007
USW00014939,2023-01-16T22:08:00,40.8508,-96.7475,362.7,"LINCOLN AIRPORT, NE US",FM-16,343,1005.1,-1.1,1.7,,,,,82,BKN:07 6.71,,962.6,16.093,0.6,300,,3.1,,,,,,,,,,,,,,,,,,,,,,,,,,,,,,,,,,,,,,,,,,,,,,,,,,,,,,,,,,,,,,,,,,,,,,,,,,,,,,,,,,,,,,,,,,,MET08701/16/23 22:08:01 SPECI KLNK 170408Z 30006KT 10SM BKN022 02/M01 A2968 RMK AO2 T00171011,,,,,,,,,,3/26/2007
USW00014939,2023-01-16T22:15:00,40.8508,-96.7475,362.7,"LINCOLN AIRPORT, NE US",FM-16,343,1005.1,-1.1,1.7,,,,,82,SCT:04 6.71 SCT:04 27.43,,962.6,16.093,0.6,300,,3.6,,,,,,,,,,,,,,,,,,,,,,,,,,,,,,,,,,,,,,,,,,,,,,,,,,,,,,,,,,,,,,,,,,,,,,,,,,,,,,,,,,,,,,,,,,,MET09401/16/23 22:15:01 SPECI KLNK 170415Z 30007KT 10SM SCT022 SCT090 02/M01 A2968 RMK AO2 T00171011,,,,,,,,,,3/26/2007
USW00014939,2023-01-16T22:54:00,40.8508,-96.7475,362.7,"LINCOLN AIRPORT, NE US",FM-15,343,1005.4,-1.1,2.2,0,,,,79,OVC:08 28.96,1006,962.9,16.093,0.9,300,,4.1,,,,,,,,,,,,,,,,,,,,,,,,,,,,,,,,,,,,,,,,,,,,,,,,,,,,,,,,,,,,,,,,,,,,,,,,,,,,,,,,,,,,,,,,,,,MET09401/16/23 22:54:01 METAR KLNK 170454Z 30008KT 10SM OVC095 02/M01 A2969 RMK AO2 SLP060 T00221011,,,,,,,,,,3/26/2007
USW00014939,2023-01-16T23:54:00,40.8508,-96.7475,362.7,"LINCOLN AIRPORT, NE US",FM-15,343,1006.1,-1.7,1.1,0,,1.5,3,82,BKN:07 4.57 BKN:07 6.1 BKN:07 27.43,1006.7,963.6,16.093,0,330,,2.1,,,,,,,,,,,,,,,,,,,,,,,,,,,,,,,,,,,,,,,,,,,,,,,,,,,,,,,,,,,,,,,,,,,,,,,,,,,,,,,,,,,,,,,,,,,MET13601/16/23 23:54:01 METAR KLNK 170554Z 33004KT 10SM BKN015 BKN020 BKN090 01/M02 A2971 RMK AO2 SLP067 T00111017 10039 20011 400890011 53015,,,,,,,,,,3/26/2007
USW00014939,2023-01-17T00:00:00,40.8508,-96.7475,362.7,"LINCOLN AIRPORT, NE US",FM-12,223,,-1.7,1.1,,,1.5,3,82,,1006.7,963.3,,0,330,,2.1,,,,,,,,,,,,,,,,,,,,,,,,,,,,,,,,,,,,,,,,,,,,,,,,,,,,,,,,,,,,,,,,,,,,,,,,,,,,,,,,,,,,,,,,,,,SYN08072551 35466 63304 10011 21017 39633 40067 53015 90554 333 10089 20011 555 91706=,,,,,,,,,,3/26/2007
USW00014939,2023-01-17T00:00:00,40.8508,-96.7475,362.7,"LINCOLN AIRPORT, NE US",SOD,,,,,,,,,,,,,,,,,,749,1725,-1.7,2.6,74,1010.8,968.2,1.1,3.9,0,6.66,15.7,6.7,-1.6,310,9.8,0,0,0,310,8.1,,,,,,,,,,,,,,,,,,,,,,,,,,,,,,,,,,,,,,,,,,,,,,,,,,,,,,,,,,,,,,,,,,,,,,,,,,,,,,,,3/26/2007
USW00014939,2023-01-17T00:03:00,40.8508,-96.7475,362.7,"LINCOLN AIRPORT, NE US",FM-16,343,1006.1,-1.7,1.7,,,,,78,BKN:07 3.96 BKN:07 6.1,,963.6,16.093,0.4,320,,4.1,,,,,,,,,,,,,,,,,,,,,,,,,,,,,,,,,,,,,,,,,,,,,,,,,,,,,,,,,,,,,,,,,,,,,,,,,,,,,,,,,,,,,,,,,,,MET09401/17/23 00:03:01 SPECI KLNK 170603Z 32008KT 10SM BKN013 BKN020 02/M02 A2971 RMK AO2 T00171017,,,,,,,,,,3/26/2007
USW00014939,2023-01-17T00:54:00,40.8508,-96.7475,362.7,"LINCOLN AIRPORT, NE US",FM-15,343,1005.8,-1.7,1.7,0,,,,78,OVC:08 3.66,1006.2,963.2,16.093,0.4,320,,6.7,,,,,,,,,,,,,,,,,,,,,,,,,,,,,,,,,,,,,,,,,,,,,,,,,,,,,,,,,,,,,,,,,,,,,,,,,,,,,,,,,,,,,,,,,,,MET09401/17/23 00:54:01 METAR KLNK 170654Z 32013KT 10SM OVC012 02/M02 A2970 RMK AO2 SLP062 T00171017,,,,,,,,,,3/26/2007
USW00014939,2023-01-17T01:54:00,40.8508,-96.7475,362.7,"LINCOLN AIRPORT, NE US",FM-15,343,1006.1,-2.2,1.1,0,,,,79,OVC:08 4.27,1006.6,963.6,16.093,-0.2,320,,4.1,,,,,,,,,,,,,,,,,,,,,,,,,,,,,,,,,,,,,,,,,,,,,,,,,,,,,,,,,,,,,,,,,,,,,,,,,,,,,,,,,,,,,,,,,,,MET09401/17/23 01:54:01 METAR KLNK 170754Z 32008KT 10SM OVC014 01/M02 A2971 RMK AO2 SLP066 T00111022,,,,,,,,,,3/26/2007
USW00014939,2023-01-17T02:54:00,40.8508,-96.7475,362.7,"LINCOLN AIRPORT, NE US",FM-15,343,1007.1,-2.2,1.1,0,,1,3,79,OVC:08 3.96,1007.8,964.6,16.093,-0.2,330,,4.6,,,,,,,,,,,,,,,,,,,,,,,,,,,,,,,,,,,,,,,,,,,,,,,,,,,,,,,,,,,,,,,,,,,,,,,,,,,,,,,,,,,,,,,,,,,MET10001/17/23 02:54:02 METAR KLNK 170854Z 33009KT 10SM OVC013 01/M02 A2974 RMK AO2 SLP078 T00111022 53010,,,,,,,,,,3/26/2007
USW00014939,2023-01-17T03:54:00,40.8508,-96.7475,362.7,"LINCOLN AIRPORT, NE US",FM-15,343,1007.8,-2.2,1.1,0,,,,79,OVC:08 3.35,1008.5,965.2,16.093,-0.2,320,,3.1,,,,,,,,,,,,,,,,,,,,,,,,,,,,,,,,,,,,,,,,,,,,,,,,,,,,,,,,,,,,,,,,,,,,,,,,,,,,,,,,,,,,,,,,,,,MET09401/17/23 03:54:02 METAR KLNK 170954Z 32006KT 10SM OVC011 01/M02 A2976 RMK AO2 SLP085 T00111022,,,,,,,,,,3/26/2007
USW00014939,2023-01-17T04:54:00,40.8508,-96.7475,362.7,"LINCOLN AIRPORT, NE US",FM-15,343,1007.8,-1.7,1.1,0,,,,82,OVC:08 3.35,1008.6,965.2,16.093,0,330,,3.1,,,,,,,,,,,,,,,,,,,,,,,,,,,,,,,,,,,,,,,,,,,,,,,,,,,,,,,,,,,,,,,,,,,,,,,,,,,,,,,,,,,,,,,,,,,MET09401/17/23 04:54:02 METAR KLNK 171054Z 33006KT 10SM OVC011 01/M02 A2976 RMK AO2 SLP086 T00111017,,,,,,,,,,3/26/2007
USW00014939,2023-01-17T05:54:00,40.8508,-96.7475,362.7,"LINCOLN AIRPORT, NE US",FM-15,343,1008.8,-1.7,1.7,0,,1.5,2,78,OVC:08 3.35,1009.4,966.2,16.093,0.4,310,,5.7,,,,,,,,,,,,,,,,,,,,,,,,,,,,,,,,,,,,,,,,,,,,,,,,,,,,,,,,,,,,,,,,,,,,,,,,,,,,,,,,,,,,,,,,,,,MET11201/17/23 05:54:02 METAR KLNK 171154Z 31011KT 10SM OVC011 02/M02 A2979 RMK AO2 SLP094 T00171017 10017 20011 52015,,,,,,,,,,3/26/2007
USW00014939,2023-01-17T06:00:00,40.8508,-96.7475,362.7,"LINCOLN AIRPORT, NE US",FM-12,223,,-1.7,1.7,,,1.5,2,78,,1009.4,965.9,,0.4,310,,5.7,,,,,,,,,,,,,,,,,,,,,,,,,,,,,,,,,,,,,,,,,,,,,,,,,,,,,,,,,,,,,,,,,,,,,,,,,,,,,,,,,,,,,,,,,,,SYN08072551 32466 83111 10017 21017 39659 40094 52015 91154 333 10089 20011 555 91712=,,,,,,,,,,3/26/2007
USW00014939,2023-01-17T06:54:00,40.8508,-96.7475,362.7,"LINCOLN AIRPORT, NE US",FM-15,343,1009.1,-1.7,1.7,0,,,,78,OVC:08 3.66,1009.8,966.5,16.093,0.4,330,,4.6,,,,,,,,,,,,,,,,,,,,,,,,,,,,,,,,,,,,,,,,,,,,,,,,,,,,,,,,,,,,,,,,,,,,,,,,,,,,,,,,,,,,,,,,,,,MET09401/17/23 06:54:02 METAR KLNK 171254Z 33009KT 10SM OVC012 02/M02 A2980 RMK AO2 SLP098 T00171017,,,,,,,,,,3/26/2007
USW00014939,2023-01-17T07:54:00,40.8508,-96.7475,362.7,"LINCOLN AIRPORT, NE US",FM-15,343,1009.8,-2.2,0.6,0,,,,82,OVC:08 4.57,1010.6,967.2,16.093,-0.5,320,,3.1,,,,,,,,,,,,,,,,,,,,,,,,,,,,,,,,,,,,,,,,,,,,,,,,,,,,,,,,,,,,,,,,,,,,,,,,,,,,,,,,,,,,,,,,,,,MET09401/17/23 07:54:02 METAR KLNK 171354Z 32006KT 10SM OVC015 01/M02 A2982 RMK AO2 SLP106 T00061022,,,,,,,,,,3/26/2007
USW00014939,2023-01-17T08:14:00,40.8508,-96.7475,362.7,"LINCOLN AIRPORT, NE US",FM-16,343,1010.2,-2.8,0,,,,,82,SCT:04 5.18,,967.5,16.093,-1,300,,2.6,,,,,,,,,,,,,,,,,,,,,,,,,,,,,,,,,,,,,,,,,,,,,,,,,,,,,,,,,,,,,,,,,,,,,,,,,,,,,,,,,,,,,,,,,,,MET08701/17/23 08:14:02 SPECI KLNK 171414Z 30005KT 10SM SCT017 00/M03 A2983 RMK AO2 T00001028,,,,,,,,,,3/26/2007
USW00014939,2023-01-17T08:54:00,40.8508,-96.7475,362.7,"LINCOLN AIRPORT, NE US",FM-15,343,1010.5,-2.2,0.6,0,,1.7,3,82,SCT:04 4.27,1011.3,967.8,16.093,-0.5,330,,3.1,,,,,,,,,,,,,,,,,,,,,,,,,,,,,,,,,,,,,,,,,,,,,,,,,,,,,,,,,,,,,,,,,,,,,,,,,,,,,,,,,,,,,,,,,,,MET10001/17/23 08:54:02 METAR KLNK 171454Z 33006KT 10SM SCT014 01/M02 A2984 RMK AO2 SLP113 T00061022 53017,,,,,,,,,,3/26/2007
USW00014939,2023-01-17T09:04:00,40.8508,-96.7475,362.7,"LINCOLN AIRPORT, NE US",FM-16,343,1010.5,-2.2,1.1,,,,,79,BKN:07 4.27,,967.8,16.093,-0.2,340,,3.6,,,,,,,,,,,,,,,,,,,,,,,,,,,,,,,,,,,,,,,,,,,,,,,,,,,,,,,,,,,,,,,,,,,,,,,,,,,,,,,,,,,,,,,,,,,MET08701/17/23 09:04:02 SPECI KLNK 171504Z 34007KT 10SM BKN014 01/M02 A2984 RMK AO2 T00111022,,,,,,,,,,3/26/2007
USW00014939,2023-01-17T09:54:00,40.8508,-96.7475,362.7,"LINCOLN AIRPORT, NE US",FM-15,343,1010.5,-1.7,2.2,0,,,,76,OVC:08 3.35,1011.4,967.8,16.093,0.7,360,,5.1,,,,,,,,,,,,,,,,,,,,,,,,,,,,,,,,,,,,,,,,,,,,,,,,,,,,,,,,,,,,,,,,,,,,,,,,,,,,,,,,,,,,,,,,,,,MET09401/17/23 09:54:02 METAR KLNK 171554Z 36010KT 10SM OVC011 02/M02 A2984 RMK AO2 SLP114 T00221017,,,,,,,,,,3/26/2007
USW00014939,2023-01-17T10:54:00,40.8508,-96.7475,362.7,"LINCOLN AIRPORT, NE US",FM-15,343,1011.5,-1.7,2.8,0,,,,73,OVC:08 4.27,1012.3,968.8,16.093,1,330,,4.1,,,,,,,,,,,,,,,,,,,,,,,,,,,,,,,,,,,,,,,,,,,,,,,,,,,,,,,,,,,,,,,,,,,,,,,,,,,,,,,,,,,,,,,,,,,MET09401/17/23 10:54:02 METAR KLNK 171654Z 33008KT 10SM OVC014 03/M02 A2987 RMK AO2 SLP123 T00281017,,,,,,,,,,3/26/2007
USW00014939,2023-01-17T11:54:00,40.8508,-96.7475,362.7,"LINCOLN AIRPORT, NE US",FM-15,343,1011.2,-1.1,4.4,0,,0.7,0,68,OVC:08 4.27,1011.9,968.5,16.093,2.2,350,,3.1,,,,,,,,,,,,,,,,,,,,,,,,,,,,,,,,,,,,,,,,,,,,,,,,,,,,,,,,,,,,,,,,,,,,,,,,,,,,,,,,,,,,,,,,,,,MET11201/17/23 11:54:02 METAR KLNK 171754Z 35006KT 10SM OVC014 04/M01 A2986 RMK AO2 SLP119 T00441011 10044 20000 50007,,,,,,,,,,3/26/2007
USW00014939,2023-01-17T12:00:00,40.8508,-96.7475,362.7,"LINCOLN AIRPORT, NE US",FM-12,223,,-1.1,4.4,,,0.7,9,68,,1011.9,968.2,,2.2,350,,3.1,,,,,,,,,,,,,,,,,,,,,,,,,,,,,,,,,,,,,,,,,,,,,,,,,,,,,,,,,,,,,,,,,,,,,,,,,,,,,,,,,,,,,,,,,,,SYN08072551 32466 83506 10044 21011 39682 40119 50007 91754 333 10044 20000 555 91718=,,,,,,,,,,3/26/2007
USW00014939,2023-01-17T12:01:00,40.8508,-96.7475,362.7,"LINCOLN AIRPORT, NE US",FM-16,343,1010.8,-1.1,4.4,,,,,68,OVC:08 5.18,,968.2,16.093,2.2,340,,4.1,,,,,,,,,,,,,,,,,,,,,,,,,,,,,,,,,,,,,,,,,,,,,,,,,,,,,,,,,,,,,,,,,,,,,,,,,,,,,,,,,,,,,,,,,,,MET08701/17/23 12:01:02 SPECI KLNK 171801Z 34008KT 10SM OVC017 04/M01 A2985 RMK AO2 T00441011,,,,,,,,,,3/26/2007
USW00014939,2023-01-17T12:28:00,40.8508,-96.7475,362.7,"LINCOLN AIRPORT, NE US",FM-16,343,1011.2,-0.6,5.6,,,,,65,SCT:04 5.79,,968.5,16.093,3,350,,3.1,,,,,,,,,,,,,,,,,,,,,,,,,,,,,,,,,,,,,,,,,,,,,,,,,,,,,,,,,,,,,,,,,,,,,,,,,,,,,,,,,,,,,,,,,,,MET08701/17/23 12:28:02 SPECI KLNK 171828Z 35006KT 10SM SCT019 06/M01 A2986 RMK AO2 T00561006,,,,,,,,,,3/26/2007
USW00014939,2023-01-17T12:54:00,40.8508,-96.7475,362.7,"LINCOLN AIRPORT, NE US",FM-15,343,1010.8,-1.1,6.1,0,,,,60,CLR:00,1011.6,968.2,16.093,3.1,,,3.1,,,,,,,,,,,,,,,,,,,,,,,,,,,,,,,,,,,,,,,,,,,,,,,,,,,,,,,,,,,,,,,,,,,,,,,,,,,,,,,,,,,,,,,,,,,MET09101/17/23 12:54:02 METAR KLNK 171854Z VRB06KT 10SM CLR 06/M01 A2985 RMK AO2 SLP116 T00611011,,,,,,,,,,3/26/2007
USW00014939,2023-01-17T13:14:00,40.8508,-96.7475,362.7,"LINCOLN AIRPORT, NE US",FM-16,343,1011.2,-0.6,6.1,,,,,63,BKN:07 7.32,,968.5,16.093,3.3,310,,1.5,,,,,,,,,,,,,,,,,,,,,,,,,,,,,,,,,,,,,,,,,,,,,,,,,,,,,,,,,,,,,,,,,,,,,,,,,,,,,,,,,,,,,,,,,,,MET08701/17/23 13:14:02 SPECI KLNK 171914Z 31003KT 10SM BKN024 06/M01 A2986 RMK AO2 T00611006,,,,,,,,,,3/26/2007
USW00014939,2023-01-17T13:54:00,40.8508,-96.7475,362.7,"LINCOLN AIRPORT, NE US",FM-15,343,1011.2,-1.1,6.1,0,,,,60,OVC:08 7.32,1011.9,968.5,16.093,3.1,280,,1.5,,,,,,,,,,,,,,,,,,,,,,,,,,,,,,,,,,,,,,,,,,,,,,,,,,,,,,,,,,,,,,,,,,,,,,,,,,,,,,,,,,,,,,,,,,,MET09401/17/23 13:54:02 METAR KLNK 171954Z 28003KT 10SM OVC024 06/M01 A2986 RMK AO2 SLP119 T00611011,,,,,,,,,,3/26/2007
USW00014939,2023-01-17T14:54:00,40.8508,-96.7475,362.7,"LINCOLN AIRPORT, NE US",FM-15,343,1010.8,-1.1,6.1,0,,-0.4,8,60,OVC:08 8.23,1011.3,968.2,16.093,3.1,340,,3.1,,,,,,,,,,,,,,,,,,,,,,,,,,,,,,,,,,,,,,,,,,,,,,,,,,,,,,,,,,,,,,,,,,,,,,,,,,,,,,,,,,,,,,,,,,,MET10001/17/23 14:54:02 METAR KLNK 172054Z 34006KT 10SM OVC027 06/M01 A2985 RMK AO2 SLP113 T00611011 58004,,,,,,,,,,3/26/2007
USW00014939,2023-01-17T15:54:00,40.8508,-96.7475,362.7,"LINCOLN AIRPORT, NE US",FM-15,343,1011.2,-1.1,6.1,0,,,,60,OVC:08 8.23,1011.8,968.5,16.093,3.1,360,,5.1,,,,,,,,,,,,,,,,,,,,,,,,,,,,,,,,,,,,,,,,,,,,,,,,,,,,,,,,,,,,,,,,,,,,,,,,,,,,,,,,,,,,,,,,,,,MET09401/17/23 15:54:02 METAR KLNK 172154Z 36010KT 10SM OVC027 06/M01 A2986 RMK AO2 SLP118 T00611011,,,,,,,,,,3/26/2007
USW00014939,2023-01-17T16:54:00,40.8508,-96.7475,362.7,"LINCOLN AIRPORT, NE US",FM-15,343,1012.5,-1.1,5,0,,,,65,OVC:08 7.92,1013.2,969.8,16.093,2.5,10,,2.6,,,,,,,,,,,,,,,,,,,,,,,,,,,,,,,,,,,,,,,,,,,,,,,,,,,,,,,,,,,,,,,,,,,,,,,,,,,,,,,,,,,,,,,,,,,MET09401/17/23 16:54:02 METAR KLNK 172254Z 01005KT 10SM OVC026 05/M01 A2990 RMK AO2 SLP132 T00501011,,,,,,,,,,3/26/2007
USW00014939,2023-01-17T17:54:00,40.8508,-96.7475,362.7,"LINCOLN AIRPORT, NE US",FM-15,343,1012.5,-2.2,2.2,0,,1.7,0,73,OVC:08 7.32,1013.2,969.8,16.093,0.5,360,,3.6,,,,,,,,,,,,,,,,,,,,,,,,,,,,,,,,,,,,,,,,,,,,,,,,,,,,,,,,,,,,,,,,,,,,,,,,,,,,,,,,,,,,,,,,,,,MET11201/17/23 17:54:02 METAR KLNK 172354Z 36007KT 10SM OVC024 02/M02 A2990 RMK AO2 SLP132 T00221022 10067 20022 50017,,,,,,,,,,3/26/2007
USW00014939,2023-01-17T18:00:00,40.8508,-96.7475,362.7,"LINCOLN AIRPORT, NE US",FM-12,223,,-2.2,2.2,,,1.7,9,73,,1013.2,969.5,,0.5,360,,3.6,,,,,,,,,,,,,,,,,,,,,,,,,,,,,,,,,,,,,,,,,,,,,,,,,,,,,,,,,,,,,,,,,,,,,,,,,,,,,,,,,,,,,,,,,,,SYN08072551 32566 83607 10022 21022 39695 40132 50017 92354 333 10067 20011 555 91800=,,,,,,,,,,3/26/2007
USW00014939,2023-01-17T18:54:00,40.8508,-96.7475,362.7,"LINCOLN AIRPORT, NE US",FM-15,343,1013.2,-1.7,2.8,0,,,,73,OVC:08 7.01,1014,970.4,16.093,1,350,,3.6,,,,,,,,,,,,,,,,,,,,,,,,,,,,,,,,,,,,,,,,,,,,,,,,,,,,,,,,,,,,,,,,,,,,,,,,,,,,,,,,,,,,,,,,,,,MET09401/17/23 18:54:01 METAR KLNK 180054Z 35007KT 10SM OVC023 03/M02 A2992 RMK AO2 SLP140 T00281017,,,,,,,,,,3/26/2007
USW00014939,2023-01-17T19:54:00,40.8508,-96.7475,362.7,"LINCOLN AIRPORT, NE US",FM-15,343,1013.5,-2.2,1.7,0,,,,76,OVC:08 6.4,1014.3,970.8,16.093,0.2,20,,2.6,,,,,,,,,,,,,,,,,,,,,,,,,,,,,,,,,,,,,,,,,,,,,,,,,,,,,,,,,,,,,,,,,,,,,,,,,,,,,,,,,,,,,,,,,,,MET09401/17/23 19:54:01 METAR KLNK 180154Z 02005KT 10SM OVC021 02/M02 A2993 RMK AO2 SLP143 T00171022,,,,,,,,,,3/26/2007
USW00014939,2023-01-17T20:29:00,40.8508,-96.7475,362.7,"LINCOLN AIRPORT, NE US",FM-16,343,1013.2,-2.2,1.7,,,,,76,SCT:04 6.4,,970.4,16.093,0.2,30,,5.7,,,,,,,,,,,,,,,,,,,,,,,,,,,,,,,,,,,,,,,,,,,,,,,,,,,,,,,,,,,,,,,,,,,,,,,,,,,,,,,,,,,,,,,,,,,MET09201/17/23 20:29:03 SPECI KLNK 180229Z 03011KT 10SM SCT021 02/M02 A2992 RMK AO2 T00171022 (HN),,,,,,,,,,3/26/2007
USW00014939,2023-01-17T20:54:00,40.8508,-96.7475,362.7,"LINCOLN AIRPORT, NE US",FM-15,343,1013.5,-2.8,0.6,0,,1,1,78,CLR:00,1014.5,970.8,16.093,-0.7,30,,4.6,,,,,,,,,,,,,,,,,,,,,,,,,,,,,,,,,,,,,,,,,,,,,,,,,,,,,,,,,,,,,,,,,,,,,,,,,,,,,,,,,,,,,,,,,,,MET09701/17/23 20:54:01 METAR KLNK 180254Z 03009KT 10SM CLR 01/M03 A2993 RMK AO2 SLP145 T00061028 51010,,,,,,,,,,3/26/2007
USW00014939,2023-01-17T21:54:00,40.8508,-96.7475,362.7,"LINCOLN AIRPORT, NE US",FM-15,343,1013.9,-3.3,0,0,,,,79,CLR:00,1014.7,971.1,16.093,-1.2,20,,4.1,,,,,,,,,,,,,,,,,,,,,,,,,,,,,,,,,,,,,,,,,,,,,,,,,,,,,,,,,,,,,,,,,,,,,,,,,,,,,,,,,,,,,,,,,,,MET09101/17/23 21:54:02 METAR KLNK 180354Z 02008KT 10SM CLR 00/M03 A2994 RMK AO2 SLP147 T00001033,,,,,,,,,,3/26/2007
USW00014939,2023-01-17T22:54:00,40.8508,-96.7475,362.7,"LINCOLN AIRPORT, NE US",FM-15,343,1013.9,-3.9,-0.6,0,,,,79,CLR:00,1014.8,971.1,16.093,-1.8,30,,5.1,,,,,,,,,,,,,,,,,,,,,,,,,,,,,,,,,,,,,,,,,,,,,,,,,,,,,,,,,,,,,,,,,,,,,,,,,,,,,,,,,,,,,,,,,,,MET09201/17/23 22:54:02 METAR KLNK 180454Z 03010KT 10SM CLR M01/M04 A2994 RMK AO2 SLP148 T10061039,,,,,,,,,,3/26/2007
USW00014939,2023-01-17T23:54:00,40.8508,-96.7475,362.7,"LINCOLN AIRPORT, NE US",FM-15,343,1014.2,-4.4,-1.7,0,,0.9,3,82,CLR:00,1015.3,971.4,16.093,-2.7,40,,5.1,,,,,,,,,,,,,,,,,,,,,,,,,,,,,,,,,,,,,,,,,,,,,,,,,,,,,,,,,,,,,,,,,,,,,,,,,,,,,,,,,,,,,,,,,,,MET12001/17/23 23:54:02 METAR KLNK 180554Z 04010KT 10SM CLR M02/M04 A2995 RMK AO2 SLP153 T10171044 10033 21017 400671017 53009,,,,,,,,,,3/26/2007
USW00014939,2023-01-18T00:00:00,40.8508,-96.7475,362.7,"LINCOLN AIRPORT, NE US",FM-12,223,,-4.4,-1.7,,,0.9,3,82,,1015.3,971.2,,-2.7,40,,5.1,,,,,,,,,,,,,,,,,,,,,,,,,,,,,,,,,,,,,,,,,,,,,,,,,,,,,,,,,,,,,,,,,,,,,,,,,,,,,,,,,,,,,,,,,,,SYN08072551 35966 00410 11017 21044 39712 40153 53009 90554 333 10033 21017 555 91806=,,,,,,,,,,3/26/2007
USW00014939,2023-01-18T00:00:00,40.8508,-96.7475,362.7,"LINCOLN AIRPORT, NE US",SOD,,,,,,,,,,,,,,,,,,749,1726,-1.7,-0.8,90,1008.1,963.1,-1.1,5.5,0,3.26,19.1,1.1,-2.7,50,14.3,20.8,30,30,60,10.3,BR FZRA SN RA,,,,,,,,,,,,,,,,,,,,,,,,,,,,,,,,,,,,,,,,,,,,,,,,,,,,,,,,,,,,,,,,,,,,,,,,,,,,,,,3/26/2007
USW00014939,2023-01-18T00:54:00,40.8508,-96.7475,362.7,"LINCOLN AIRPORT, NE US",FM-15,343,1013.9,-5,-2.2,0,,,,81,CLR:00,1014.8,971.1,16.093,-3.2,40,,4.1,,,,,,,,,,,,,,,,,,,,,,,,,,,,,,,,,,,,,,,,,,,,,,,,,,,,,,,,,,,,,,,,,,,,,,,,,,,,,,,,,,,,,,,,,,,MET09201/18/23 00:54:02 METAR KLNK 180654Z 04008KT 10SM CLR M02/M05 A2994 RMK AO2 SLP148 T10221050,,,,,,,,,,3/26/2007
USW00014939,2023-01-18T01:54:00,40.8508,-96.7475,362.7,"LINCOLN AIRPORT, NE US",FM-15,343,1013.9,-5,-2.8,0,,,,85,CLR:00,1014.7,971.1,16.093,-3.5,30,,4.6,,,,,,,,,,,,,,,,,,,,,,,,,,,,,,,,,,,,,,,,,,,,,,,,,,,,,,,,,,,,,,,,,,,,,,,,,,,,,,,,,,,,,,,,,,,MET09201/18/23 01:54:02 METAR KLNK 180754Z 03009KT 10SM CLR M03/M05 A2994 RMK AO2 SLP147 T10281050,,,,,,,,,,3/26/2007
USW00014939,2023-01-18T02:22:00,40.8508,-96.7475,362.7,"LINCOLN AIRPORT, NE US",FM-16,343,1013.9,-5,-2.8,,,,,85,SCT:04 2.74,,971.1,16.093,-3.5,40,,4.1,,,,,,,,,,,,,,,,,,,,,,,,,,,,,,,,,,,,,,,,,,,,,,,,,,,,,,,,,,,,,,,,,,,,,,,,,,,,,,,,,,,,,,,,,,,MET08801/18/23 02:22:02 SPECI KLNK 180822Z 04008KT 10SM SCT009 M03/M05 A2994 RMK AO2 T10281050,,,,,,,,,,3/26/2007
USW00014939,2023-01-18T02:31:00,40.8508,-96.7475,362.7,"LINCOLN AIRPORT, NE US",FM-16,343,1013.5,-5,-2.8,,,,,85,BKN:07 2.74,,970.8,16.093,-3.5,40,,4.1,,,,,,,,,,,,,,,,,,,,,,,,,,,,,,,,,,,,,,,,,,,,,,,,,,,,,,,,,,,,,,,,,,,,,,,,,,,,,,,,,,,,,,,,,,,MET08801/18/23 02:31:02 SPECI KLNK 180831Z 04008KT 10SM BKN009 M03/M05 A2993 RMK AO2 T10281050,,,,,,,,,,3/26/2007
USW00014939,2023-01-18T02:54:00,40.8508,-96.7475,362.7,"LINCOLN AIRPORT, NE US",FM-15,343,1013.5,-5,-2.8,0,,-0.6,6,85,OVC:08 2.74,1014.7,970.8,16.093,-3.5,50,,3.6,,,,,,,,,,,,,,,,,,,,,,,,,,,,,,,,,,,,,,,,,,,,,,,,,,,,,,,,,,,,,,,,,,,,,,,,,,,,,,,,,,,,,,,,,,,MET10101/18/23 02:54:02 METAR KLNK 180854Z 05007KT 10SM OVC009 M03/M05 A2993 RMK AO2 SLP147 T10281050 56006,,,,,,,,,,3/26/2007
USW00014939,2023-01-18T03:54:00,40.8508,-96.7475,362.7,"LINCOLN AIRPORT, NE US",FM-15,343,1013.2,-4.4,-2.2,0,,,,85,OVC:08 1.83,1014.1,970.4,12.875,-3,50,,4.6,,,,,,,,,,,,,,,,,,,,,,,,,,,,,,,,,,,,,,,,,,,,,,,,,,,,,,,,,,,,,,,,,,,,,,,,,,,,,,,,,,,,,,,,,,,MET09401/18/23 03:54:02 METAR KLNK 180954Z 05009KT 8SM OVC006 M02/M04 A2992 RMK AO2 SLP141 T10221044,,,,,,,,,,3/26/2007
USW00014939,2023-01-18T04:54:00,40.8508,-96.7475,362.7,"LINCOLN AIRPORT, NE US",FM-15,343,1012.5,-3.3,-1.7,0,BR:1 |BR |,,,89,OVC:08 1.52,1013.4,969.8,8.047,-2.3,50,,5.1,,,,,,,,,,,,,,,,,,,,,,,,,,,,,,,,,,,,,,,,,,,,,,,,,,,,,,,,,,,,,,,,,,,,,,,,,,,,,,,,,,,,,,,,,,,MET09701/18/23 04:54:02 METAR KLNK 181054Z 05010KT 5SM BR OVC005 M02/M03 A2990 RMK AO2 SLP134 T10171033,,,,,,,,,,3/26/2007
USW00014939,2023-01-18T05:54:00,40.8508,-96.7475,362.7,"LINCOLN AIRPORT, NE US",FM-15,343,1011.9,-3.3,-1.7,0,,-1.9,8,89,OVC:08 1.52,1012.8,969.1,11.265,-2.3,50,,5.1,,,,,,,,,,,,,,,,,,,,,,,,,,,,,,,,,,,,,,,,,,,,,,,,,,,,,,,,,,,,,,,,,,,,,,,,,,,,,,,,,,,,,,,,,,,MET11201/18/23 05:54:02 METAR KLNK 181154Z 05010KT 7SM OVC005 M02/M03 A2988 RMK AO2 SLP128 T10171033 11017 21028 58019,,,,,,,,,,3/26/2007
USW00014939,2023-01-18T06:00:00,40.8508,-96.7475,362.7,"LINCOLN AIRPORT, NE US",FM-12,223,,-3.3,-1.7,,,-1.9,8,89,,1012.8,968.9,,-2.3,50,,5.1,,,,,,,,,,,,,,,,,,,,,,,,,,,,,,,,,,,,,,,,,,,,,,,,,,,,,,,,,,,,,,,,,,,,,,,,,,,,,,,,,,,,,,,,,,,SYN08072551 32261 80510 11017 21033 39689 40128 58019 91154 333 10067 21028 555 91812=,,,,,,,,,,3/26/2007
USW00014939,2023-01-18T06:54:00,40.8508,-96.7475,362.7,"LINCOLN AIRPORT, NE US",FM-15,343,1011.2,-3.3,-1.7,0,BR:1 |BR |,,,89,OVC:08 1.52,1012.2,968.5,9.656,-2.3,50,,7.2,,,,,,,,,,,,,,,,,,,,,,,,,,,,,,,,,,,,,,,,,,,,,,,,,,,,,,,,,,,,,,,,,,,,,,,,,,,,,,,,,,,,,,,,,,,MET09701/18/23 06:54:02 METAR KLNK 181254Z 05014KT 6SM BR OVC005 M02/M03 A2986 RMK AO2 SLP122 T10171033,,,,,,,,,,3/26/2007
USW00014939,2023-01-18T07:10:00,40.8508,-96.7475,362.7,"LINCOLN AIRPORT, NE US",FM-16,343,1011.5,-3.3,-1.7,,BR:1 |BR |,,,89,OVC:08 1.22,,968.8,8.047,-2.3,50,,6.7,,,,,,,,,,,,,,,,,,,,,,,,,,,,,,,,,,,,,,,,,,,,,,,,,,,,,,,,,,,,,,,,,,,,,,,,,,,,,,,,,,,,,,,,,,,MET09001/18/23 07:10:02 SPECI KLNK 181310Z 05013KT 5SM BR OVC004 M02/M03 A2987 RMK AO2 T10171033,,,,,,,,,,3/26/2007
USW00014939,2023-01-18T07:54:00,40.8508,-96.7475,362.7,"LINCOLN AIRPORT, NE US",FM-15,343,1010.5,-2.8,-1.7,0,BR:1 |BR |,,,92,OVC:08 1.22,1011.4,967.8,8.047,-2.1,60,10.8,7.7,,,,,,,,,,,,,,,,,,,,,,,,,,,,,,,,,,,,,,,,,,,,,,,,,,,,,,,,,,,,,,,,,,,,,,,,,,,,,,,,,,,,,,,,,,,MET10001/18/23 07:54:02 METAR KLNK 181354Z 06015G21KT 5SM BR OVC004 M02/M03 A2984 RMK AO2 SLP114 T10171028,,,,,,,,,,3/26/2007
USW00014939,2023-01-18T08:54:00,40.8508,-96.7475,362.7,"LINCOLN AIRPORT, NE US",FM-15,343,1010.8,-2.8,-1.1,0,BR:1 |BR |,-0.8,5,88,OVC:08 1.22,1012,968.2,6.437,-1.7,70,9.3,7.2,,,,,,,,,,,,,,,,,,,,,,,,,,,,,,,,,,,,,,,,,,,,,,,,,,,,,,,,,,,,,,,,,,,,,,,,,,,,,,,,,,,,,,,,,,,MET10601/18/23 08:54:02 METAR KLNK 181454Z 07014G18KT 4SM BR OVC004 M01/M03 A2985 RMK AO2 SLP120 T10111028 55008,,,,,,,,,,3/26/2007
USW00014939,2023-01-18T09:32:00,40.8508,-96.7475,362.7,"LINCOLN AIRPORT, NE US",FM-16,343,1010.5,-2.2,-1.1,0.5,-FZRA:02 BR:1 |FZRA BR |,,,92,OVC:08 1.22,,967.8,4.828,-1.5,60,10.3,6.2,,,,,,,,,,,,,,,,,,,,,,,,,,,,,,,,,,,,,,,,,,,,,,,,,,,,,,,,,,,,,,,,,,,,,,,,,,,,,,,,,,,,,,,,,,,MET12701/18/23 09:32:02 SPECI KLNK 181532Z 06012G20KT 3SM -FZRA BR OVC004 M01/M02 A2984 RMK AO2 UPB14E26FZRAB26 P0002 I1001 T10111022,,,,,,,,,,3/26/2007
USW00014939,2023-01-18T09:52:00,40.8508,-96.7475,362.7,"LINCOLN AIRPORT, NE US",FM-16,343,1010.2,-2,-1,,-FZRA:02 BR:1 |FZRA BR |,,,93,OVC:08 1.52,,967.5,4.828,-1.5,60,10.8,5.7,,,,,,,,,,,,,,,,,,,,,,,,,,,,,,,,,,,,,,,,,,,,,,,,,,,,,,,,,,,,,,,,,,,,,,,,,,,,,,,,,,,,,,,,,,,MET12701/18/23 09:52:02 SPECI KLNK 181552Z 06011G21KT 3SM -FZRA BR OVC005 M01/M02 A2983 RMK AO2 UPB14E26FZRAB26 P0003 I1002 FIBI (NU),,,,,,,,,,3/26/2007
USW00014939,2023-01-18T09:54:00,40.8508,-96.7475,362.7,"LINCOLN AIRPORT, NE US",FM-15,343,1010.2,-2.2,-0.6,1,-FZRA:02 BR:1 |FZRA BR |,,,89,OVC:08 1.52,1011.3,967.5,4.828,-1.2,60,10.8,7.7,,,,,,,,,,,,,,,,,,,,,,,,,,,,,,,,,,,,,,,,,,,,,,,,,,,,,,,,,,,,,,,,,,,,,,,,,,,,,,,,,,,,,,,,,,,MET13401/18/23 09:54:02 METAR KLNK 181554Z 06015G21KT 3SM -FZRA BR OVC005 M01/M02 A2983 RMK AO2 UPB14E26FZRAB26 SLP113 P0004 I1002 T10061022,,,,,,,,,,3/26/2007
USW00014939,2023-01-18T10:54:00,40.8508,-96.7475,362.7,"LINCOLN AIRPORT, NE US",FM-15,343,1009.1,-2.2,-0.6,1.5,-FZRA:02 BR:1 |FZRA BR |,,,89,OVC:08 1.52,1010.3,966.5,6.437,-1.2,60,,6.7,,,,,,,,,,,,,,,,,,,,,,,,,,,,,,,,,,,,,,,,,,,,,,,,,,,,,,,,,,,,,,,,,,,,,,,,,,,,,,,,,,,,,,,,,,,MET11501/18/23 10:54:02 METAR KLNK 181654Z 06013KT 4SM -FZRA BR OVC005 M01/M02 A2980 RMK AO2 SLP103 P0005 I1004 T10061022,,,,,,,,,,3/26/2007
USW00014939,2023-01-18T11:24:00,40.8508,-96.7475,362.7,"LINCOLN AIRPORT, NE US",FM-16,343,1008.5,-1.7,-0.6,1,FZRA:02 BR:1 |FZRA BR |,,,92,OVC:08 1.83,,965.9,4.828,-1,60,10.8,6.7,,,,,,,,,,,,,,,,,,,,,,,,,,,,,,,,,,,,,,,,,,,,,,,,,,,,,,,,,,,,,,,,,,,,,,,,,,,,,,,,,,,,,,,,,,,MET11001/18/23 11:24:02 SPECI KLNK 181724Z 06013G21KT 3SM FZRA BR OVC006 M01/M02 A2978 RMK AO2 P0004 I1004 T10061017,,,,,,,,,,3/26/2007
USW00014939,2023-01-18T11:54:00,40.8508,-96.7475,362.7,"LINCOLN AIRPORT, NE US",FM-15,343,1007.8,-1.7,0,2.5,FZRA:02 BR:1 |FZRA BR |,-3.1,8,88,OVC:08 1.83,1008.8,965.2,4.828,-0.6,70,11.8,7.2,,,,,,,,,,,,,,,,,,,,,,,,,,,,,,,,,,,,,,,,,,,,,,,,,,,,,,,,,,,,,,,,,,,,,,,,,,,,,,,,,,,,,,,,,,,MET15801/18/23 11:54:02 METAR KLNK 181754Z 07014G23KT 3SM FZRA BR OVC006 00/M02 A2976 RMK AO2 CIG 005V010 SLP088 P0010 60019 I1008 I6014 T00001017 10000 21017 58031,,,,,,,,,,3/26/2007
USW00014939,2023-01-18T12:00:00,40.8508,-96.7475,362.7,"LINCOLN AIRPORT, NE US",FM-12,223,,-1.7,0,,||FZRA,-3.1,8,88,,1008.8,965,,-0.6,70,,7.2,,,,,,,,,,,,,,,,,,,,,,,,,,,,,,,,,,,,,,,,,,,,,,,,,,,,,,,,,,,,,,,,,,,,,,,,,,,,,,,,,,,,,,,,,,,SYN10472551 11248 80714 10000 21017 39650 40088 58031 60051 767// 91754 333 10000 21017 91023 96010 555 91818=,,,,,,,,,,3/26/2007
USW00014939,2023-01-18T12:19:00,40.8508,-96.7475,362.7,"LINCOLN AIRPORT, NE US",FM-16,343,1007.5,-1.7,0,1.2,FZRA:02 BR:1 |FZRA BR |,,,88,OVC:08 2.13,,964.9,4.023,-0.6,70,10.8,6.2,,,,,,,,,,,,,,,,,,,,,,,,,,,,,,,,,,,,,,,,,,,,,,,,,,,,,,,,,,,,,,,,,,,,,,,,,,,,,,,,,,,,,,,,,,,MET12501/18/23 12:19:02 SPECI KLNK 181819Z 07012G21KT 2 1/2SM FZRA BR OVC007 00/M02 A2975 RMK AO2 CIG 006V011 P0005 I1003 T00001017,,,,,,,,,,3/26/2007
USW00014939,2023-01-18T12:40:00,40.8508,-96.7475,362.7,"LINCOLN AIRPORT, NE US",FM-16,343,1006.1,-1.1,0,2.7,FZRA:02 BR:1 |FZRA BR |,,,92,OVC:08 2.13,,963.6,4.828,-0.4,70,12.4,8.2,,,,,,,,,,,,,,,,,,,,,,,,,,,,,,,,,,,,,,,,,,,,,,,,,,,,,,,,,,,,,,,,,,,,,,,,,,,,,,,,,,,,,,,,,,,MET12801/18/23 12:40:02 SPECI KLNK 181840Z 07016G24KT 3SM FZRA BR OVC007 00/M01 A2971 RMK AO2 CIG 006V011 PRESFR P0011 I1006 T00001011,,,,,,,,,,3/26/2007
USW00014939,2023-01-18T12:54:00,40.8508,-96.7475,362.7,"LINCOLN AIRPORT, NE US",FM-15,343,1005.8,-1.1,0,3.3,FZRA:02 BR:1 |FZRA BR |,,,92,OVC:08 2.44,1006.9,963.2,4.828,-0.4,70,12.4,8.2,,,,,,,,,,,,,,,,,,,,,,,,,,,,,,,,,,,,,,,,,,,,,,,,,,,,,,,,,,,,,,,,,,,,,,,,,,,,,,,,,,,,,,,,,,,MET13501/18/23 12:54:02 METAR KLNK 181854Z 07016G24KT 3SM FZRA BR OVC008 00/M01 A2970 RMK AO2 CIG 006V011 PRESFR SLP069 P0013 I1008 T00001011,,,,,,,,,,3/26/2007
USW00014939,2023-01-18T13:50:00,40.8508,-96.7475,362.7,"LINCOLN AIRPORT, NE US",FM-16,343,1002.4,-1,0,2.7,-SN:03 BR:1 |SN BR |SN,,,93,BKN:07 2.13 OVC:08 3.35,,960,4.023,-0.4,60,14.4,10.3,,,,,,,,,,,,,,,,,,,,,,,,,,,,,,,,,,,,,,,,,,,,,,,,,,,,,,,,,,,,,,,,,,,,,,,,,,,,,,,,,,,,,,,,,,,MET15901/18/23 13:50:02 SPECI KLNK 181950Z 06020G28KT 2 1/2SM -SN BR BKN007 OVC011 00/M01 A2960 RMK AO2 PK WND 05028/1949 FZRAE48SNB48 CIG 005V009 PRESFR P0011 I1005,,,,,,,,,,3/26/2007
USW00014939,2023-01-18T13:54:00,40.8508,-96.7475,362.7,"LINCOLN AIRPORT, NE US",FM-15,343,1002.4,-1.1,0,3.6,-SN:03 BR:1 |SN BR |SN,,,92,OVC:08 2.13,1003.6,960,2.816,-0.4,60,14.4,9.3,,,,,,,,,,,,,,,,,,,,,,,,,,,,,,,,,,,,,,,,,,,,,,,,,,,,,,,,,,,,,,,,,,,,,,,,,,,,,,,,,,,,,,,,,,,MET16201/18/23 13:54:02 METAR KLNK 181954Z 06018G28KT 1 3/4SM -SN BR OVC007 00/M01 A2960 RMK AO2 PK WND 05028/1949 FZRAE48SNB48 CIG 005V009 SLP036 P0012 I1005 T00001011,,,,,,,,,,3/26/2007
USW00014939,2023-01-18T14:03:00,40.8508,-96.7475,362.7,"LINCOLN AIRPORT, NE US",FM-16,343,1003,-1.1,0.6,1,-SN:03 BR:1 |SN BR |SN,,,89,BKN:07 2.13 OVC:08 3.35,,960.6,4.828,-0.1,70,14.4,8.2,,,,,,,,,,,,,,,,,,,,,,,,,,,,,,,,,,,,,,,,,,,,,,,,,,,,,,,,,,,,,,,,,,,,,,,,,,,,,,,,,,,,,,,,,,,MET14501/18/23 14:03:02 SPECI KLNK 182003Z 07016G28KT 3SM -SN BR BKN007 OVC011 01/M01 A2962 RMK AO2 PK WND 07028/1955 CIG 005V009 P0004 I1000 T00061011,,,,,,,,,,3/26/2007
USW00014939,2023-01-18T14:26:00,40.8508,-96.7475,362.7,"LINCOLN AIRPORT, NE US",FM-16,343,1002.7,-1.1,0.6,2.2,FZRA:02 BR:1 |FZRA BR |,,,89,OVC:08 2.13,,960.3,4.828,-0.1,80,11.3,6.2,,,,,,,,,,,,,,,,,,,,,,,,,,,,,,,,,,,,,,,,,,,,,,,,,,,,,,,,,,,,,,,,,,,,,,,,,,,,,,,,,,,,,,,,,,,MET15601/18/23 14:26:02 SPECI KLNK 182026Z 08012G22KT 3SM FZRA BR OVC007 01/M01 A2961 RMK AO2 PK WND 07028/1955 UPB04E10RAB10E20FZRAB20SNE04 P0009 I1002 T00061011,,,,,,,,,,3/26/2007
USW00014939,2023-01-18T14:33:00,40.8508,-96.7475,362.7,"LINCOLN AIRPORT, NE US",FM-16,343,1002.7,-1.1,0.6,2.7,-SN:03 BR:1 |SN BR |SN,,,89,OVC:08 2.13,,960.3,4.828,-0.1,70,11.3,6.7,,,,,,,,,,,,,,,,,,,,,,,,,,,,,,,,,,,,,,,,,,,,,,,,,,,,,,,,,,,,,,,,,,,,,,,,,,,,,,,,,,,,,,,,,,,MET16101/18/23 14:33:02 SPECI KLNK 182033Z 07013G22KT 3SM -SN BR OVC007 01/M01 A2961 RMK AO2 PK WND 07028/1955 UPB04E10RAB10E20FZRAB20E33SNE04B33 P0011 I1002 T00061011,,,,,,,,,,3/26/2007
USW00014939,2023-01-18T14:42:00,40.8508,-96.7475,362.7,"LINCOLN AIRPORT, NE US",FM-16,343,1002.4,-1.1,0.6,2.7,-SN:03 BR:1 |SN BR |SN,,,89,OVC:08 2.13,,960,2.816,-0.1,70,,7.2,,,,,,,,,,,,,,,,,,,,,,,,,,,,,,,,,,,,,,,,,,,,,,,,,,,,,,,,,,,,,,,,,,,,,,,,,,,,,,,,,,,,,,,,,,,MET17401/18/23 14:42:02 SPECI KLNK 182042Z 07014KT 1 3/4SM -SN BR OVC007 01/M01 A2960 RMK AO2 PK WND 07028/1955 UPB04E10RAB10E20FZRAB20E33SNE04B33 CIG 006V012 P0011 I1002 T00061011,,,,,,,,,,3/26/2007
USW00014939,2023-01-18T14:52:00,40.8508,-96.7475,362.7,"LINCOLN AIRPORT, NE US",FM-16,343,1002.4,-1,1,,RA:02 BR:1 |RA BR |RA,,,87,BKN:07 2.74 OVC:08 4.27,,960,4.023,0.2,80,,5.1,,,,,,,,,,,,,,,,,,,,,,,,,,,,,,,,,,,,,,,,,,,,,,,,,,,,,,,,,,,,,,,,,,,,,,,,,,,,,,,,,,,,,,,,,,,MET18601/18/23 14:52:02 SPECI KLNK 182052Z 08010KT 2 1/2SM RA BR BKN009 OVC014 01/M01 A2960 RMK AO2 PK WND 07028/1955 UPB04E10RAB10E20B50FZRAB20E33SNE04B33E50 CIG 006V010 P0014 I1002 FIBI (NU),,,,,,,,,,3/26/2007
USW00014939,2023-01-18T14:54:00,40.8508,-96.7475,362.7,"LINCOLN AIRPORT, NE US",FM-15,343,1002.4,-1,0.6,2.8,-RA:02 BR:1 |RA BR |RA,-5.2,6,89,BKN:07 2.74 OVC:08 3.96,1003.5,960,6.437,-0.1,80,,5.1,,,,,,,,,,,,,,,,,,,,,,,,,,,,,,,,,,,,,,,,,,,,,,,,,,,,,,,,,,,,,,,,,,,,,,,,,,,,,,,,,,,,,,,,,,,MET20801/18/23 14:54:02 METAR KLNK 182054Z 08010KT 4SM -RA BR BKN009 OVC013 01/M01 A2960 RMK AO2 PK WND 07028/1955 UPB04E10RAB10E20B50FZRAB20E33SNE04B33E50 CIG 006V010 SLP035 P0014 60039 I1002 I3015 T,,,,,,,,,,3/26/2007
USW00014939,2023-01-18T15:04:00,40.8508,-96.7475,362.7,"LINCOLN AIRPORT, NE US",FM-16,343,1002.7,-0.6,0.6,T,-RA:02 BR:1 |RA BR |RA,,,92,BKN:07 2.44 OVC:08 3.96,,960.3,2.414,0.1,80,,4.1,,,,,,,,,,,,,,,,,,,,,,,,,,,,,,,,,,,,,,,,,,,,,,,,,,,,,,,,,,,,,,,,,,,,,,,,,,,,,,,,,,,,,,,,,,,MET13901/18/23 15:04:02 SPECI KLNK 182104Z 08008KT 1 1/2SM R36/4500VP6000FT -RA BR BKN008 OVC013 01/M01 A2961 RMK AO2 CIG 006V010 P0000 T00061006,,,,,,,,,,3/26/2007
USW00014939,2023-01-18T15:16:00,40.8508,-96.7475,362.7,"LINCOLN AIRPORT, NE US",FM-16,343,1002.7,-0.6,0.6,0.5,-RA:02 BR:1 |RA BR |RA,,,92,OVC:08 2.44,,960.3,4.828,0.1,80,,5.7,,,,,,,,,,,,,,,,,,,,,,,,,,,,,,,,,,,,,,,,,,,,,,,,,,,,,,,,,,,,,,,,,,,,,,,,,,,,,,,,,,,,,,,,,,,MET11701/18/23 15:16:02 SPECI KLNK 182116Z 08011KT 3SM -RA BR OVC008 01/M01 A2961 RMK AO2 CIG 005V012 P0002 I1001 T00061006,,,,,,,,,,3/26/2007
USW00014939,2023-01-18T15:52:00,40.8508,-96.7475,362.7,"LINCOLN AIRPORT, NE US",FM-16,343,1003,-1,1,,RA:02 BR:1 |RA BR |RA,,,87,OVC:08 2.44,,960.6,4.023,0.2,80,,4.6,,,,,,,,,,,,,,,,,,,,,,,,,,,,,,,,,,,,,,,,,,,,,,,,,,,,,,,,,,,,,,,,,,,,,,,,,,,,,,,,,,,,,,,,,,,MET10801/18/23 15:52:02 SPECI KLNK 182152Z 08009KT 2 1/2SM RA BR OVC008 01/M01 A2962 RMK AO2 P0005 I1001 FIBI (SD),,,,,,,,,,3/26/2007
USW00014939,2023-01-18T15:54:00,40.8508,-96.7475,362.7,"LINCOLN AIRPORT, NE US",FM-15,343,1003,-0.6,0.6,1.8,+RA:02 BR:1 |RA BR |RA,,,92,OVC:08 2.44,1004.1,960.6,4.023V,0.1,90,,4.6,,,,,,,,,,,,,,,,,,,,,,,,,,,,,,,,,,,,,,,,,,,,,,,,,,,,,,,,,,,,,,,,,,,,,,,,,,,,,,,,,,,,,,,,,,,MET12801/18/23 15:54:02 METAR KLNK 182154Z 09009KT 2 1/2SM +RA BR OVC008 01/M01 A2962 RMK AO2 VIS 1 1/4V5 SLP041 P0005 I1001 T00061006,,,,,,,,,,3/26/2007
USW00014939,2023-01-18T16:26:00,40.8508,-96.7475,362.7,"LINCOLN AIRPORT, NE US",FM-16,343,1003.4,-0.6,0.6,1.2,-SN:03 BR:1 |SN BR |SN,,,92,BKN:07 2.44 OVC:08 3.35,,961,1.207,0.1,70,,2.6,,,,,,,,,,,,,,,,,,,,,,,,,,,,,,,,,,,,,,,,,,,,,,,,,,,,,,,,,,,,,,,,,,,,,,,,,,,,,,,,,,,,,,,,,,,MET14801/18/23 16:26:02 SPECI KLNK 182226Z 07005KT 3/4SM R36/4000VP6000FT -SN BR BKN008 OVC011 01/M01 A2963 RMK AO2 RAE13SNB13 CIG 005V009 P0005 T00061006,,,,,,,,,,3/26/2007
USW00014939,2023-01-18T16:40:00,40.8508,-96.7475,362.7,"LINCOLN AIRPORT, NE US",FM-16,343,1003.4,-0.6,0.6,2,-SN:03 BR:1 |SN BR |SN,,,92,BKN:07 2.44 OVC:08 3.35,,961,2.816,0.1,60,,1.5,,,,,,,,,,,,,,,,,,,,,,,,,,,,,,,,,,,,,,,,,,,,,,,,,,,,,,,,,,,,,,,,,,,,,,,,,,,,,,,,,,,,,,,,,,,MET13301/18/23 16:40:02 SPECI KLNK 182240Z 06003KT 1 3/4SM -SN BR BKN008 OVC011 01/M01 A2963 RMK AO2 RAE13SNB13 CIG 005V009 P0008 T00061006,,,,,,,,,,3/26/2007
USW00014939,2023-01-18T16:47:00,40.8508,-96.7475,362.7,"LINCOLN AIRPORT, NE US",FM-16,343,1003.4,-0.6,0.6,2,-SN:03 BR:1 |SN BR |SN,,,92,BKN:07 2.44 OVC:08 3.96,,961,4.828,0.1,50,,2.1,,,,,,,,,,,,,,,,,,,,,,,,,,,,,,,,,,,,,,,,,,,,,,,,,,,,,,,,,,,,,,,,,,,,,,,,,,,,,,,,,,,,,,,,,,,MET12901/18/23 16:47:02 SPECI KLNK 182247Z 05004KT 3SM -SN BR BKN008 OVC013 01/M01 A2963 RMK AO2 RAE13SNB13 CIG 005V011 P0008 T00061006,,,,,,,,,,3/26/2007
USW00014939,2023-01-18T16:54:00,40.8508,-96.7475,362.7,"LINCOLN AIRPORT, NE US",FM-15,343,1003.7,-0.6,0.6,1.5,BR:1 |BR |,,,92,BKN:07 2.44 OVC:08 3.96,1004.7,961.3,6.437,0.1,70,,2.1,,,,,,,,,,,,,,,,,,,,,,,,,,,,,,,,,,,,,,,,,,,,,,,,,,,,,,,,,,,,,,,,,,,,,,,,,,,,,,,,,,,,,,,,,,,MET13501/18/23 16:54:02 METAR KLNK 182254Z 07004KT 4SM BR BKN008 OVC013 01/M01 A2964 RMK AO2 RAE13SNB13E51 CIG 005V011 SLP047 P0008 T00061006,,,,,,,,,,3/26/2007
USW00014939,2023-01-18T17:02:00,40.8508,-96.7475,362.7,"LINCOLN AIRPORT, NE US",FM-16,343,1003.7,0,0.6,T,-SN:03 BR:1 |SN BR |SN,,,96,BKN:07 2.44 OVC:08 3.66,,961.3,2.816,0.3,60,,1.5,,,,,,,,,,,,,,,,,,,,,,,,,,,,,,,,,,,,,,,,,,,,,,,,,,,,,,,,,,,,,,,,,,,,,,,,,,,,,,,,,,,,,,,,,,,MET12901/18/23 17:02:02 SPECI KLNK 182302Z 06003KT 1 3/4SM -SN BR BKN008 OVC012 01/00 A2964 RMK AO2 SNB2258 CIG 005V010 P0000 T00060000,,,,,,,,,,3/26/2007
USW00014939,2023-01-18T17:20:00,40.8508,-96.7475,362.7,"LINCOLN AIRPORT, NE US",FM-16,343,1003.4,-0.6,0.6,0.2,-SN:03 BR:1 |SN BR |SN,,,92,BKN:07 1.83 OVC:08 3.66,,961,1.207,0.1,30,,2.6,,,,,,,,,,,,,,,,,,,,,,,,,,,,,,,,,,,,,,,,,,,,,,,,,,,,,,,,,,,,,,,,,,,,,,,,,,,,,,,,,,,,,,,,,,,MET12801/18/23 17:20:02 SPECI KLNK 182320Z 03005KT 3/4SM R36/P6000FT -SN BR BKN006 OVC012 01/M01 A2963 RMK AO2 SNB2258 P0001 T00061006,,,,,,,,,,3/26/2007
USW00014939,2023-01-18T17:33:00,40.8508,-96.7475,362.7,"LINCOLN AIRPORT, NE US",FM-16,343,1003.7,-0.6,0.6,0.5,-SN:03 BR:1 |SN BR |SN,,,92,BKN:07 1.83 OVC:08 3.66,,961.3,3.219,0.1,50,,2.6,,,,,,,,,,,,,,,,,,,,,,,,,,,,,,,,,,,,,,,,,,,,,,,,,,,,,,,,,,,,,,,,,,,,,,,,,,,,,,,,,,,,,,,,,,,MET12601/18/23 17:33:02 SPECI KLNK 182333Z 05005KT 2SM -SN BR BKN006 OVC012 01/M01 A2964 RMK AO2 LTG DSNT NE SNB2258 P0002 T00061006,,,,,,,,,,3/26/2007
USW00014939,2023-01-18T17:54:00,40.8508,-96.7475,362.7,"LINCOLN AIRPORT, NE US",FM-15,343,1003.4,-0.6,0.6,0.5,BR:1 |BR |,1.1,0,92,BKN:07 1.52 OVC:08 3.66,1004.5,961,4.023,0.1,50,,3.1,,,,,,,,,,,,,,,,,,,,,,,,,,,,,,,,,,,,,,,,,,,,,,,,,,,,,,,,,,,,,,,,,,,,,,,,,,,,,,,,,,,,,,,,,,,MET15401/18/23 17:54:02 METAR KLNK 182354Z 05006KT 2 1/2SM BR BKN005 OVC012 01/M01 A2963 RMK AO2 SNB2258E37 SLP045 P0002 60054 I6016 T00061006 10006 20000 50011,,,,,,,,,,3/26/2007
USW00014939,2023-01-18T18:00:00,40.8508,-96.7475,362.7,"LINCOLN AIRPORT, NE US",FM-12,223,,-0.6,0.6,,||BR,1.1,9,92,,1004.5,960.7,,0.1,50,,3.1,,,,,,,,,,,,,,,,,,,,,,,,,,,,,,,,,,,,,,,,,,,,,,,,,,,,,,,,,,,,,,,,,,,,,,,,,,,,,,,,,,,,,,,,,,,SYN09272551 11240 80506 10006 21006 39607 40045 50011 60141 710// 92354 333 10006 21027 555 91900=,,,,,,,,,,3/26/2007
USW00014939,2023-01-18T18:13:00,40.8508,-96.7475,362.7,"LINCOLN AIRPORT, NE US",FM-16,343,1003.7,-0.6,0.6,,BR:1 |BR |,,,92,BKN:07 1.83 OVC:08 3.35,,961.3,4.828,0.1,50,,3.1,,,,,,,,,,,,,,,,,,,,,,,,,,,,,,,,,,,,,,,,,,,,,,,,,,,,,,,,,,,,,,,,,,,,,,,,,,,,,,,,,,,,,,,,,,,MET09601/18/23 18:13:01 SPECI KLNK 190013Z 05006KT 3SM BR BKN006 OVC011 01/M01 A2964 RMK AO2 T00061006,,,,,,,,,,3/26/2007
USW00014939,2023-01-18T18:20:00,40.8508,-96.7475,362.7,"LINCOLN AIRPORT, NE US",FM-16,343,1003.7,-0.6,0.6,,BR:1 |BR |,,,92,BKN:07 1.22 OVC:08 3.35,,961.3,4.023,0.1,50,,3.1,,,,,,,,,,,,,,,,,,,,,,,,,,,,,,,,,,,,,,,,,,,,,,,,,,,,,,,,,,,,,,,,,,,,,,,,,,,,,,,,,,,,,,,,,,,MET10001/18/23 18:20:01 SPECI KLNK 190020Z 05006KT 2 1/2SM BR BKN004 OVC011 01/M01 A2964 RMK AO2 T00061006,,,,,,,,,,3/26/2007
USW00014939,2023-01-18T18:54:00,40.8508,-96.7475,362.7,"LINCOLN AIRPORT, NE US",FM-15,343,1003,-0.6,0.6,0,BR:1 |BR |,,,92,OVC:08 1.22,1004.2,960.6,4.023,0.1,50,,3.6,,,,,,,,,,,,,,,,,,,,,,,,,,,,,,,,,,,,,,,,,,,,,,,,,,,,,,,,,,,,,,,,,,,,,,,,,,,,,,,,,,,,,,,,,,,MET11801/18/23 18:54:01 METAR KLNK 190054Z 05007KT 2 1/2SM BR OVC004 01/M01 A2962 RMK AO2 CIG 003V008 SLP042 I1000 T00061006,,,,,,,,,,3/26/2007
USW00014939,2023-01-18T19:04:00,40.8508,-96.7475,362.7,"LINCOLN AIRPORT, NE US",FM-16,343,1003,-0.6,0.6,,BR:1 |BR |,,,92,OVC:08 1.22,,960.6,4.828,0.1,40,,5.1,,,,,,,,,,,,,,,,,,,,,,,,,,,,,,,,,,,,,,,,,,,,,,,,,,,,,,,,,,,,,,,,,,,,,,,,,,,,,,,,,,,,,,,,,,,MET10101/18/23 19:04:01 SPECI KLNK 190104Z 04010KT 3SM BR OVC004 01/M01 A2962 RMK AO2 CIG 003V008 T00061006,,,,,,,,,,3/26/2007
USW00014939,2023-01-18T19:17:00,40.8508,-96.7475,362.7,"LINCOLN AIRPORT, NE US",FM-16,343,1003,-0.6,0.6,,BR:1 |BR |,,,92,OVC:08 1.83,,960.6,6.437,0.1,40,,4.6,,,,,,,,,,,,,,,,,,,,,,,,,,,,,,,,,,,,,,,,,,,,,,,,,,,,,,,,,,,,,,,,,,,,,,,,,,,,,,,,,,,,,,,,,,,MET10101/18/23 19:17:01 SPECI KLNK 190117Z 04009KT 4SM BR OVC006 01/M01 A2962 RMK AO2 CIG 003V009 T00061006,,,,,,,,,,3/26/2007
USW00014939,2023-01-18T19:35:00,40.8508,-96.7475,362.7,"LINCOLN AIRPORT, NE US",FM-16,343,1003,-0.6,0.6,0.2,-SN:03 BR:1 |SN BR |SN,,,92,OVC:08 1.52,,960.6,2.816,0.1,30,,4.1,,,,,,,,,,,,,,,,,,,,,,,,,,,,,,,,,,,,,,,,,,,,,,,,,,,,,,,,,,,,,,,,,,,,,,,,,,,,,,,,,,,,,,,,,,,MET12901/18/23 19:35:01 SPECI KLNK 190135Z 03008KT 1 3/4SM -SN BR OVC005 01/M01 A2962 RMK AO2 UPB25E27SNB27 CIG 003V009 P0001 T00061006,,,,,,,,,,3/26/2007
USW00014939,2023-01-18T19:49:00,40.8508,-96.7475,362.7,"LINCOLN AIRPORT, NE US",FM-16,343,1003,-1,1,0.2,-SN:03 BR:1 |SN BR |SN,,,87,OVC:08 1.22,,960.6,3.219,0.2,40,,4.6,,,,,,,,,,,,,,,,,,,,,,,,,,,,,,,,,,,,,,,,,,,,,,,,,,,,,,,,,,,,,,,,,,,,,,,,,,,,,,,,,,,,,,,,,,,MET11501/18/23 19:49:01 SPECI KLNK 190149Z 04009KT 2SM -SN BR OVC004 01/M01 A2962 RMK AO2 UPB25E27SNB27 CIG 003V009 P0001,,,,,,,,,,3/26/2007
USW00014939,2023-01-18T19:52:00,40.8508,-96.7475,362.7,"LINCOLN AIRPORT, NE US",FM-16,343,1003,-1,1,,-SN:03 BR:1 |SN BR |SN,,,87,OVC:08 1.22,,960.6,2.816,0.2,30,,4.6,,,,,,,,,,,,,,,,,,,,,,,,,,,,,,,,,,,,,,,,,,,,,,,,,,,,,,,,,,,,,,,,,,,,,,,,,,,,,,,,,,,,,,,,,,,MET11701/18/23 19:52:03 SPECI KLNK 190152Z 03009KT 1 3/4SM -SN BR OVC004 01/M01 A2962 RMK AO2 UPB25E27SNB27 P0001 FIBI (SD),,,,,,,,,,3/26/2007
USW00014939,2023-01-18T19:54:00,40.8508,-96.7475,362.7,"LINCOLN AIRPORT, NE US",FM-15,343,1003,-0.6,0.6,0.3,-SN:03 BR:1 |SN BR |SN,,,92,OVC:08 1.22,1004.2,960.6,2.816,0.1,40,,4.1,,,,,,,,,,,,,,,,,,,,,,,,,,,,,,,,,,,,,,,,,,,,,,,,,,,,,,,,,,,,,,,,,,,,,,,,,,,,,,,,,,,,,,,,,,,MET12401/18/23 19:54:01 METAR KLNK 190154Z 04008KT 1 3/4SM -SN BR OVC004 01/M01 A2962 RMK AO2 UPB25E27SNB27 SLP042 P0001 T00061006,,,,,,,,,,3/26/2007
USW00014939,2023-01-18T20:27:00,40.8508,-96.7475,362.7,"LINCOLN AIRPORT, NE US",FM-16,343,1003,-0.6,0.6,0.2,-SN:03 BR:1 |SN BR |SN,,,92,BKN:07 1.83 OVC:08 3.35,,960.6,2.414,0.1,30,,5.1,,,,,,,,,,,,,,,,,,,,,,,,,,,,,,,,,,,,,,,,,,,,,,,,,,,,,,,,,,,,,,,,,,,,,,,,,,,,,,,,,,,,,,,,,,,MET11001/18/23 20:27:01 SPECI KLNK 190227Z 03010KT 1 1/2SM -SN BR BKN006 OVC011 01/M01 A2962 RMK AO2 P0001 T00061006,,,,,,,,,,3/26/2007
USW00014939,2023-01-18T20:52:00,40.8508,-96.7475,362.7,"LINCOLN AIRPORT, NE US",FM-16,343,1003,-1,1,,-SN:03 BR:1 |SN BR |SN,,,87,BKN:07 1.83 OVC:08 3.96,,960.6,3.219,0.2,30,,4.6,,,,,,,,,,,,,,,,,,,,,,,,,,,,,,,,,,,,,,,,,,,,,,,,,,,,,,,,,,,,,,,,,,,,,,,,,,,,,,,,,,,,,,,,,,,MET12301/18/23 20:52:03 SPECI KLNK 190252Z 03009KT 2SM -SN BR BKN006 OVC013 01/M01 A2962 RMK AO2 UPB46E52SNE46B52 P0002 FIBI (SD),,,,,,,,,,3/26/2007
USW00014939,2023-01-18T20:54:00,40.8508,-96.7475,362.7,"LINCOLN AIRPORT, NE US",FM-15,343,1003,-0.6,0.6,0.5,-SN:03 BR:1 |SN BR |SN,-0.2,7,92,BKN:07 1.83 OVC:08 4.57,1003.9,960.6,3.219,0.1,30,,4.6,,,,,,,,,,,,,,,,,,,,,,,,,,,,,,,,,,,,,,,,,,,,,,,,,,,,,,,,,,,,,,,,,,,,,,,,,,,,,,,,,,,,,,,,,,,MET14801/18/23 20:54:01 METAR KLNK 190254Z 03009KT 2SM -SN BR BKN006 OVC015 01/M01 A2962 RMK AO2 UPB46E52SNE46B52 SLP039 P0002 60003 I3000 T00061006 57002,,,,,,,,,,3/26/2007
USW00014939,2023-01-18T21:06:00,40.8508,-96.7475,362.7,"LINCOLN AIRPORT, NE US",FM-16,343,1003,-0.6,0.6,T,-SN:03 BR:1 |SN BR |SN,,,92,BKN:07 1.52 OVC:08 4.57,,960.6,2.816,0.1,40,,4.6,,,,,,,,,,,,,,,,,,,,,,,,,,,,,,,,,,,,,,,,,,,,,,,,,,,,,,,,,,,,,,,,,,,,,,,,,,,,,,,,,,,,,,,,,,,MET11001/18/23 21:06:02 SPECI KLNK 190306Z 04009KT 1 3/4SM -SN BR BKN005 OVC015 01/M01 A2962 RMK AO2 P0000 T00061006,,,,,,,,,,3/26/2007
USW00014939,2023-01-18T21:39:00,40.8508,-96.7475,362.7,"LINCOLN AIRPORT, NE US",FM-16,343,1003,-0.6,0.6,0.2,-SN:03 BR:1 |SN BR |SN,,,92,BKN:07 1.22 OVC:08 4.57,,960.6,3.219,0.1,30,,4.6,,,,,,,,,,,,,,,,,,,,,,,,,,,,,,,,,,,,,,,,,,,,,,,,,,,,,,,,,,,,,,,,,,,,,,,,,,,,,,,,,,,,,,,,,,,MET10601/18/23 21:39:02 SPECI KLNK 190339Z 03009KT 2SM -SN BR BKN004 OVC015 01/M01 A2962 RMK AO2 P0001 T00061006,,,,,,,,,,3/26/2007
USW00014939,2023-01-18T21:52:00,40.8508,-96.7475,362.7,"LINCOLN AIRPORT, NE US",FM-16,343,1003,-1,1,0.5,-SN:03 BR:1 |SN BR |SN,,,87,BKN:07 1.83 OVC:08 4.57,,960.6,2.816,0.2,30,,4.6,,,,,,,,,,,,,,,,,,,,,,,,,,,,,,,,,,,,,,,,,,,,,,,,,,,,,,,,,,,,,,,,,,,,,,,,,,,,,,,,,,,,,,,,,,,MET10001/18/23 21:52:02 SPECI KLNK 190352Z 03009KT 1 3/4SM -SN BR BKN006 OVC015 01/M01 A2962 RMK AO2 P0002,,,,,,,,,,3/26/2007
USW00014939,2023-01-18T21:54:00,40.8508,-96.7475,362.7,"LINCOLN AIRPORT, NE US",FM-15,343,1003,-0.6,0.6,0.5,-SN:03 BR:1 |SN BR |SN,,,92,BKN:07 1.83 OVC:08 4.57,1003.9,960.6,2.816,0.1,20,,4.1,,,,,,,,,,,,,,,,,,,,,,,,,,,,,,,,,,,,,,,,,,,,,,,,,,,,,,,,,,,,,,,,,,,,,,,,,,,,,,,,,,,,,,,,,,,MET11701/18/23 21:54:02 METAR KLNK 190354Z 02008KT 1 3/4SM -SN BR BKN006 OVC015 01/M01 A2962 RMK AO2 SLP039 P0002 T00061006,,,,,,,,,,3/26/2007
USW00014939,2023-01-18T22:43:00,40.8508,-96.7475,362.7,"LINCOLN AIRPORT, NE US",FM-16,343,1002.4,-0.6,0.6,0.2,-SN:03 BR:1 |SN BR |SN,,,92,OVC:08 1.52,,960,3.219,0.1,20,,4.6,,,,,,,,,,,,,,,,,,,,,,,,,,,,,,,,,,,,,,,,,,,,,,,,,,,,,,,,,,,,,,,,,,,,,,,,,,,,,,,,,,,,,,,,,,,MET09901/18/23 22:43:02 SPECI KLNK 190443Z 02009KT 2SM -SN BR OVC005 01/M01 A2960 RMK AO2 P0001 T00061006,,,,,,,,,,3/26/2007
USW00014939,2023-01-18T22:54:00,40.8508,-96.7475,362.7,"LINCOLN AIRPORT, NE US",FM-15,343,1002.4,-0.6,0.6,0.5,-SN:03 BR:1 |SN BR |SN,,,92,OVC:08 1.52,1003.3,960,2.816,0.1,20,,4.6,,,,,,,,,,,,,,,,,,,,,,,,,,,,,,,,,,,,,,,,,,,,,,,,,,,,,,,,,,,,,,,,,,,,,,,,,,,,,,,,,,,,,,,,,,,MET11001/18/23 22:54:02 METAR KLNK 190454Z 02009KT 1 3/4SM -SN BR OVC005 01/M01 A2960 RMK AO2 SLP033 P0002 T00061006,,,,,,,,,,3/26/2007
USW00014939,2023-01-18T23:11:00,40.8508,-96.7475,362.7,"LINCOLN AIRPORT, NE US",FM-16,343,1002.4,-0.6,0.6,T,-SN:03 BR:1 |SN BR |SN,,,92,OVC:08 1.52,,960,3.219,0.1,10,,5.1,,,,,,,,,,,,,,,,,,,,,,,,,,,,,,,,,,,,,,,,,,,,,,,,,,,,,,,,,,,,,,,,,,,,,,,,,,,,,,,,,,,,,,,,,,,MET11101/18/23 23:11:02 SPECI KLNK 190511Z 01010KT 2SM -SN BR OVC005 01/M01 A2960 RMK AO2 CIG 004V008 P0000 T00061006,,,,,,,,,,3/26/2007
USW00014939,2023-01-18T23:35:00,40.8508,-96.7475,362.7,"LINCOLN AIRPORT, NE US",FM-16,343,1002,-0.6,0.6,0.2,-SN:03 BR:1 |SN BR |SN,,,92,OVC:08 1.52,,959.7,4.828,0.1,10,,5.7,,,,,,,,,,,,,,,,,,,,,,,,,,,,,,,,,,,,,,,,,,,,,,,,,,,,,,,,,,,,,,,,,,,,,,,,,,,,,,,,,,,,,,,,,,,MET09901/18/23 23:35:02 SPECI KLNK 190535Z 01011KT 3SM -SN BR OVC005 01/M01 A2959 RMK AO2 P0001 T00061006,,,,,,,,,,3/26/2007
USW00014939,2023-01-18T23:54:00,40.8508,-96.7475,362.7,"LINCOLN AIRPORT, NE US",FM-15,343,1002.4,-0.6,0.6,0.5,-SN:03 BR:1 |SN BR |SN,-0.6,8,92,OVC:08 1.83,1003.2,960,4.828,0.1,10,,5.1,,,,,,,,,,,,,,,,,,,,,,,,,,,,,,,,,,,,,,,,,,,,,,,,,,,,,,,,,,,,,,,,,,,,,,,,,,,,,,,,,,,,,,,,,,,MET14601/18/23 23:54:02 METAR KLNK 190554Z 01010KT 3SM -SN BR OVC006 01/M01 A2960 RMK AO2 SLP032 P0002 60009 I6000 T00061006 10011 20006 400111028 58006,,,,,,,,,,3/26/2007
USW00014939,2023-01-19T00:00:00,40.8508,-96.7475,362.7,"LINCOLN AIRPORT, NE US",FM-12,223,,-0.6,0.6,,|SN |,-0.6,8,92,,1003.2,959.7,,0.1,10,,5.1,,,,,,,,,,,,,,,,,,,,,,,,,,,,,,,,,,,,,,,,,,,,,,,,,,,,,,,,,,,,,,,,,,,,,,,,,,,,,,,,,,,,,,,,,,,SYN09872551 17248 80110 10006 21006 39597 40032 58006 60021 771// 90554 333 10011 21027 96010 555 91906=,,,,,,,,,,3/26/2007
USW00014939,2023-01-19T00:00:00,40.8508,-96.7475,362.7,"LINCOLN AIRPORT, NE US",SOD,,,,,,,,,,,,,,,,,,748,1727,-4.4,-1.3,82,1014.2,969.9,-2.2,6.1,0,2.76,19.6,0.6,-3.2,320,13,0.5,30,8,330,9.4,BR HZ SN,,,,,,,,,,,,,,,,,,,,,,,,,,,,,,,,,,,,,,,,,,,,,,,,,,,,,,,,,,,,,,,,,,,,,,,,,,,,,,,3/26/2007
USW00014939,2023-01-19T00:54:00,40.8508,-96.7475,362.7,"LINCOLN AIRPORT, NE US",FM-15,343,1002,-1.7,0,T,,,,88,OVC:08 2.44,1003,959.7,16.093,-0.6,360,,7.7,,,,,,,,,,,,,,,,,,,,,,,,,,,,,,,,,,,,,,,,,,,,,,,,,,,,,,,,,,,,,,,,,,,,,,,,,,,,,,,,,,,,,,,,,,,MET10601/19/23 00:54:02 METAR KLNK 190654Z 36015KT 10SM OVC008 00/M02 A2959 RMK AO2 SNE28 SLP030 P0000 T00001017,,,,,,,,,,3/26/2007
USW00014939,2023-01-19T01:54:00,40.8508,-96.7475,362.7,"LINCOLN AIRPORT, NE US",FM-15,343,1002.7,-1.7,-0.6,0,,,,92,OVC:08 2.44,1003.5,960.3,12.875,-1,360,,7.2,,,,,,,,,,,,,,,,,,,,,,,,,,,,,,,,,,,,,,,,,,,,,,,,,,,,,,,,,,,,,,,,,,,,,,,,,,,,,,,,,,,,,,,,,,,MET09401/19/23 01:54:02 METAR KLNK 190754Z 36014KT 8SM OVC008 M01/M02 A2961 RMK AO2 SLP035 T10061017,,,,,,,,,,3/26/2007
USW00014939,2023-01-19T02:54:00,40.8508,-96.7475,362.7,"LINCOLN AIRPORT, NE US",FM-15,343,1003.4,-1.7,-0.6,T,BR:1 |BR |,0.9,3,92,OVC:08 2.74,1004.2,961,9.656,-1,350,,7.7,,,,,,,,,,,,,,,,,,,,,,,,,,,,,,,,,,,,,,,,,,,,,,,,,,,,,,,,,,,,,,,,,,,,,,,,,,,,,,,,,,,,,,,,,,,MET10901/19/23 02:54:02 METAR KLNK 190854Z 35015KT 6SM BR OVC009 M01/M02 A2963 RMK AO2 SLP042 60000 T10061017 53009,,,,,,,,,,3/26/2007
USW00014939,2023-01-19T03:52:00,40.8508,-96.7475,362.7,"LINCOLN AIRPORT, NE US",FM-16,343,1003.7,-2,-1,,,,,93,OVC:08 3.05,,961.3,12.875,-1.5,340,,8.2,,,,,,,,,,,,,,,,,,,,,,,,,,,,,,,,,,,,,,,,,,,,,,,,,,,,,,,,,,,,,,,,,,,,,,,,,,,,,,,,,,,,,,,,,,,MET09901/19/23 03:52:02 SPECI KLNK 190952Z 34016KT 8SM OVC010 M01/M02 A2964 RMK AO2 SNB0856E07 P0000 FIBI,,,,,,,,,,3/26/2007
USW00014939,2023-01-19T03:54:00,40.8508,-96.7475,362.7,"LINCOLN AIRPORT, NE US",FM-15,343,1004.1,-2.2,-0.6,T,,,,89,OVC:08 3.05,1004.9,961.6,12.875,-1.2,340,,8.8,,,,,,,,,,,,,,,,,,,,,,,,,,,,,,,,,,,,,,,,,,,,,,,,,,,,,,,,,,,,,,,,,,,,,,,,,,,,,,,,,,,,,,,,,,,MET11101/19/23 03:54:02 METAR KLNK 190954Z 34017KT 8SM OVC010 M01/M02 A2965 RMK AO2 SNB0856E07 SLP049 P0000 T10061022,,,,,,,,,,3/26/2007
USW00014939,2023-01-19T04:54:00,40.8508,-96.7475,362.7,"LINCOLN AIRPORT, NE US",FM-15,343,1005.1,-2.8,-0.6,T,,,,85,OVC:08 3.66,1006,962.6,14.484,-1.4,330,,7.7,,,,,,,,,,,,,,,,,,,,,,,,,,,,,,,,,,,,,,,,,,,,,,,,,,,,,,,,,,,,,,,,,,,,,,,,,,,,,,,,,,,,,,,,,,,MET11701/19/23 04:54:01 METAR KLNK 191054Z 33015KT 9SM OVC012 M01/M03 A2968 RMK AO2 UPB42E46SNB36E42 SLP060 P0000 T10061028,,,,,,,,,,3/26/2007
USW00014939,2023-01-19T05:54:00,40.8508,-96.7475,362.7,"LINCOLN AIRPORT, NE US",FM-15,343,1006.1,-3.3,-1.1,T,-SN:03 BR:1 |SN BR |SN,2.8,3,85,OVC:08 4.27,1007.2,963.6,6.437,-1.9,330,,6.7,,,,,,,,,,,,,,,,,,,,,,,,,,,,,,,,,,,,,,,,,,,,,,,,,,,,,,,,,,,,,,,,,,,,,,,,,,,,,,,,,,,,,,,,,,,MET14901/19/23 05:54:02 METAR KLNK 191154Z 33013KT 4SM -SN BR OVC014 M01/M03 A2971 RMK AO2 SNB16E21B40 SLP072 P0000 60000 70082 T10111033 10006 21011 53028,,,,,,,,,,3/26/2007
USW00014939,2023-01-19T06:54:00,40.8508,-96.7475,362.7,"LINCOLN AIRPORT, NE US",FM-15,343,1007.8,-4.4,-2.2,T,,,,85,OVC:08 3.96,1009,965.2,16.093,-3,320,,7.2,,,,,,,,,,,,,,,,,,,,,,,,,,,,,,,,,,,,,,,,,,,,,,,,,,,,,,,,,,,,,,,,,,,,,,,,,,,,,,,,,,,,,,,,,,,MET11501/19/23 06:54:02 METAR KLNK 191254Z 32014KT 10SM OVC013 M02/M04 A2976 RMK AO2 SNE1158B19E33 SLP090 P0000 T10221044,,,,,,,,,,3/26/2007
USW00014939,2023-01-19T07:18:00,40.8508,-96.7475,362.7,"LINCOLN AIRPORT, NE US",FM-16,343,1008.5,-5,-2.8,T,-SN:03 BR:1 |SN BR |SN,,,85,SCT:04 3.96 BKN:07 8.53 OVC:08 10.36,,965.9,4.023,-3.6,320,11.8,6.7,,,,,,,,,,,,,,,,,,,,,,,,,,,,,,,,,,,,,,,,,,,,,,,,,,,,,,,,,,,,,,,,,,,,,,,,,,,,,,,,,,,,,,,,,,,MET12701/19/23 07:18:02 SPECI KLNK 191318Z 32013G23KT 2 1/2SM -SN BR SCT013 BKN028 OVC034 M03/M05 A2978 RMK AO2 SNB09 P0000 T10281050,,,,,,,,,,3/26/2007
USW00014939,2023-01-19T07:29:00,40.8508,-96.7475,362.7,"LINCOLN AIRPORT, NE US",FM-16,343,1008.8,-5,-2.8,T,-SN:03 BR:1 |SN BR |SN,,,85,FEW:02 3.66 SCT:04 8.84 OVC:08 10.36,,966.2,4.828,-3.6,320,11.3,8.2,,,,,,,,,,,,,,,,,,,,,,,,,,,,,,,,,,,,,,,,,,,,,,,,,,,,,,,,,,,,,,,,,,,,,,,,,,,,,,,,,,,,,,,,,,,MET12301/19/23 07:29:02 SPECI KLNK 191329Z 32016G22KT 3SM -SN BR FEW012 SCT029 OVC034 M03/M05 A2979 RMK AO2 SNB09 P0000 T10281050,,,,,,,,,,3/26/2007
USW00014939,2023-01-19T07:54:00,40.8508,-96.7475,362.7,"LINCOLN AIRPORT, NE US",FM-15,343,1009.5,-5.6,-3.3,0.5,-SN:03 BR:1 |SN BR |SN,,,84,OVC:08 11.89,1010.5,966.8,4.828,-4.1,320,11.3,8.2,,,,,,,,,,,,,,,,,,,,,,,,,,,,,,,,,,,,,,,,,,,,,,,,,,,,,,,,,,,,,,,,,,,,,,,,,,,,,,,,,,,,,,,,,,,MET11601/19/23 07:54:02 METAR KLNK 191354Z 32016G22KT 3SM -SN BR OVC039 M03/M06 A2981 RMK AO2 SNB09 SLP105 P0000 T10331056,,,,,,,,,,3/26/2007
USW00014939,2023-01-19T08:02:00,40.8508,-96.7475,362.7,"LINCOLN AIRPORT, NE US",FM-16,343,1009.5,-5.6,-3.3,T,-SN:03 BR:1 |SN BR |SN,,,84,SCT:04 10.97 OVC:08 13.11,,966.8,4.023,-4.1,310,11.3,7.2,,,,,,,,,,,,,,,,,,,,,,,,,,,,,,,,,,,,,,,,,,,,,,,,,,,,,,,,,,,,,,,,,,,,,,,,,,,,,,,,,,,,,,,,,,,MET11401/19/23 08:02:02 SPECI KLNK 191402Z 31014G22KT 2 1/2SM -SN BR SCT036 OVC043 M03/M06 A2981 RMK AO2 P0000 T10331056,,,,,,,,,,3/26/2007
USW00014939,2023-01-19T08:32:00,40.8508,-96.7475,362.7,"LINCOLN AIRPORT, NE US",FM-16,343,1009.8,-5.6,-2.8,T,HZ:7 |FU |HZ,,,81,OVC:08 10.97,,967.2,8.047,-3.7,320,,7.2,,,,,,,,,,,,,,,,,,,,,,,,,,,,,,,,,,,,,,,,,,,,,,,,,,,,,,,,,,,,,,,,,,,,,,,,,,,,,,,,,,,,,,,,,,,MET10201/19/23 08:32:02 SPECI KLNK 191432Z 32014KT 5SM HZ OVC036 M03/M06 A2982 RMK AO2 SNE32 P0000 T10281056,,,,,,,,,,3/26/2007
USW00014939,2023-01-19T08:51:00,40.8508,-96.7475,362.7,"LINCOLN AIRPORT, NE US",FM-16,343,1010.2,-5,-3,T,,,,86,FEW:02 3.66 OVC:08 8.84,,967.5,16.093,-3.5,320,,6.2,,,,,,,,,,,,,,,,,,,,,,,,,,,,,,,,,,,,,,,,,,,,,,,,,,,,,,,,,,,,,,,,,,,,,,,,,,,,,,,,,,,,,,,,,,,MET09701/19/23 08:51:02 SPECI KLNK 191451Z 32012KT 10SM FEW012 OVC029 M03/M05 A2983 RMK AO2 SNE32 P0000,,,,,,,,,,3/26/2007
USW00014939,2023-01-19T08:54:00,40.8508,-96.7475,362.7,"LINCOLN AIRPORT, NE US",FM-15,343,1010.2,-5,-2.8,T,,2.1,1,85,FEW:02 3.66 OVC:08 8.84,1011.3,967.5,16.093,-3.5,320,,7.2,,,,,,,,,,,,,,,,,,,,,,,,,,,,,,,,,,,,,,,,,,,,,,,,,,,,,,,,,,,,,,,,,,,,,,,,,,,,,,,,,,,,,,,,,,,MET12601/19/23 08:54:02 METAR KLNK 191454Z 32014KT 10SM FEW012 OVC029 M03/M05 A2983 RMK AO2 SNE32 SLP113 P0000 60000 T10281050 51021,,,,,,,,,,3/26/2007
USW00014939,2023-01-19T09:05:00,40.8508,-96.7475,362.7,"LINCOLN AIRPORT, NE US",FM-16,343,1010.2,-5,-2.2,,,,,81,OVC:08 9.14,,967.5,16.093,-3.2,330,12.9,8.8,,,,,,,,,,,,,,,,,,,,,,,,,,,,,,,,,,,,,,,,,,,,,,,,,,,,,,,,,,,,,,,,,,,,,,,,,,,,,,,,,,,,,,,,,,,MET09101/19/23 09:05:02 SPECI KLNK 191505Z 33017G25KT 10SM OVC030 M02/M05 A2983 RMK AO2 T10221050,,,,,,,,,,3/26/2007
USW00014939,2023-01-19T09:54:00,40.8508,-96.7475,362.7,"LINCOLN AIRPORT, NE US",FM-15,343,1011.2,-5,-2.2,0,,,,81,CLR:00,1012.4,968.5,16.093,-3.2,320,,6.2,,,,,,,,,,,,,,,,,,,,,,,,,,,,,,,,,,,,,,,,,,,,,,,,,,,,,,,,,,,,,,,,,,,,,,,,,,,,,,,,,,,,,,,,,,,MET09201/19/23 09:54:02 METAR KLNK 191554Z 32012KT 10SM CLR M02/M05 A2986 RMK AO2 SLP124 T10221050,,,,,,,,,,3/26/2007
USW00014939,2023-01-19T10:33:00,40.8508,-96.7475,362.7,"LINCOLN AIRPORT, NE US",FM-16,343,1011.9,-5,-2.2,,,,,81,SCT:04 4.27 BKN:07 7.32 OVC:08 8.84,,969.1,16.093,-3.2,310,11.3,6.7,,,,,,,,,,,,,,,,,,,,,,,,,,,,,,,,,,,,,,,,,,,,,,,,,,,,,,,,,,,,,,,,,,,,,,,,,,,,,,,,,,,,,,,,,,,MET10501/19/23 10:33:02 SPECI KLNK 191633Z 31013G22KT 10SM SCT014 BKN024 OVC029 M02/M05 A2988 RMK AO2 T10221050,,,,,,,,,,3/26/2007
USW00014939,2023-01-19T10:54:00,40.8508,-96.7475,362.7,"LINCOLN AIRPORT, NE US",FM-15,343,1012.5,-4.4,-1.7,0,,,,82,SCT:04 4.27 BKN:07 7.01 OVC:08 10.97,1013.7,969.8,16.093,-2.7,310,,6.2,,,,,,,,,,,,,,,,,,,,,,,,,,,,,,,,,,,,,,,,,,,,,,,,,,,,,,,,,,,,,,,,,,,,,,,,,,,,,,,,,,,,,,,,,,,MET10901/19/23 10:54:02 METAR KLNK 191654Z 31012KT 10SM SCT014 BKN023 OVC036 M02/M04 A2990 RMK AO2 SLP137 T10171044,,,,,,,,,,3/26/2007
USW00014939,2023-01-19T11:11:00,40.8508,-96.7475,362.7,"LINCOLN AIRPORT, NE US",FM-16,343,1012.9,-5,-1.7,,,,,78,BKN:07 4.57 BKN:07 10.97,,970.1,16.093,-2.8,310,,6.7,,,,,,,,,,,,,,,,,,,,,,,,,,,,,,,,,,,,,,,,,,,,,,,,,,,,,,,,,,,,,,,,,,,,,,,,,,,,,,,,,,,,,,,,,,,MET09501/19/23 11:11:02 SPECI KLNK 191711Z 31013KT 10SM BKN015 BKN036 M02/M05 A2991 RMK AO2 T10171050,,,,,,,,,,3/26/2007
USW00014939,2023-01-19T11:50:00,40.8508,-96.7475,362.7,"LINCOLN AIRPORT, NE US",FM-16,343,1012.9,-5,-1,,,,,75,SCT:04 4.88 SCT:04 9.14,,970.1,16.093,-2.5,310,,6.2,,,,,,,,,,,,,,,,,,,,,,,,,,,,,,,,,,,,,,,,,,,,,,,,,,,,,,,,,,,,,,,,,,,,,,,,,,,,,,,,,,,,,,,,,,,MET08501/19/23 11:50:02 SPECI KLNK 191750Z 31012KT 10SM SCT016 SCT030 M01/M05 A2991 RMK AO2,,,,,,,,,,3/26/2007
USW00014939,2023-01-19T11:54:00,40.8508,-96.7475,362.7,"LINCOLN AIRPORT, NE US",FM-15,343,1012.9,-5,-1.1,0,,1.5,1,75,FEW:02 4.57,1013.9,970.1,16.093,-2.5,320,,7.7,,,,,,,,,,,,,,,,,,,,,,,,,,,,,,,,,,,,,,,,,,,,,,,,,,,,,,,,,,,,,,,,,,,,,,,,,,,,,,,,,,,,,,,,,,,MET11901/19/23 11:54:02 METAR KLNK 191754Z 32015KT 10SM FEW015 M01/M05 A2991 RMK AO2 SLP139 60000 T10111050 11011 21033 51015,,,,,,,,,,3/26/2007
USW00014939,2023-01-19T12:00:00,40.8508,-96.7475,362.7,"LINCOLN AIRPORT, NE US",FM-12,223,,-5,-1.1,,,1.5,1,75,,1013.9,969.9,,-2.5,320,,7.7,,,,,,,,,,,,,,,,,,,,,,,,,,,,,,,,,,,,,,,,,,,,,,,,,,,,,,,,,,,,,,,,,,,,,,,,,,,,,,,,,,,,,,,,,,,SYN08072551 12466 23215 11011 21050 39699 40139 51015 69901 91754 333 21033 555 91918=,,,,,,,,,,3/26/2007
USW00014939,2023-01-19T12:54:00,40.8508,-96.7475,362.7,"LINCOLN AIRPORT, NE US",FM-15,343,1013.2,-5,-1.1,0,,,,75,SCT:04 5.79,1014.3,970.4,16.093,-2.5,320,10.8,7.2,,,,,,,,,,,,,,,,,,,,,,,,,,,,,,,,,,,,,,,,,,,,,,,,,,,,,,,,,,,,,,,,,,,,,,,,,,,,,,,,,,,,,,,,,,,MET09801/19/23 12:54:02 METAR KLNK 191854Z 32014G21KT 10SM SCT019 M01/M05 A2992 RMK AO2 SLP143 T10111050,,,,,,,,,,3/26/2007
USW00014939,2023-01-19T13:48:00,40.8508,-96.7475,362.7,"LINCOLN AIRPORT, NE US",FM-16,343,1013.9,-4,-1,,,,,80,BKN:07 5.18 BKN:07 6.71,,971.1,16.093,-2.1,300,,6.2,,,,,,,,,,,,,,,,,,,,,,,,,,,,,,,,,,,,,,,,,,,,,,,,,,,,,,,,,,,,,,,,,,,,,,,,,,,,,,,,,,,,,,,,,,,MET08501/19/23 13:48:02 SPECI KLNK 191948Z 30012KT 10SM BKN017 BKN022 M01/M04 A2994 RMK AO2,,,,,,,,,,3/26/2007
USW00014939,2023-01-19T13:54:00,40.8508,-96.7475,362.7,"LINCOLN AIRPORT, NE US",FM-15,343,1013.9,-4.4,-0.6,0,,,,76,BKN:07 5.18,1015,971.1,16.093,-2,310,10.3,7.7,,,,,,,,,,,,,,,,,,,,,,,,,,,,,,,,,,,,,,,,,,,,,,,,,,,,,,,,,,,,,,,,,,,,,,,,,,,,,,,,,,,,,,,,,,,MET09801/19/23 13:54:02 METAR KLNK 191954Z 31015G20KT 10SM BKN017 M01/M04 A2994 RMK AO2 SLP150 T10061044,,,,,,,,,,3/26/2007
USW00014939,2023-01-19T14:09:00,40.8508,-96.7475,362.7,"LINCOLN AIRPORT, NE US",FM-16,343,1013.9,-5,-1.1,,,,,75,SCT:04 5.49,,971.1,16.093,-2.5,310,,7.2,,,,,,,,,,,,,,,,,,,,,,,,,,,,,,,,,,,,,,,,,,,,,,,,,,,,,,,,,,,,,,,,,,,,,,,,,,,,,,,,,,,,,,,,,,,MET08801/19/23 14:09:02 SPECI KLNK 192009Z 31014KT 10SM SCT018 M01/M05 A2994 RMK AO2 T10111050,,,,,,,,,,3/26/2007
USW00014939,2023-01-19T14:54:00,40.8508,-96.7475,362.7,"LINCOLN AIRPORT, NE US",FM-15,343,1014.9,-5,-1.1,0,,1.9,3,75,SCT:04 4.88,1016,972.1,16.093,-2.5,310,,7.2,,,,,,,,,,,,,,,,,,,,,,,,,,,,,,,,,,,,,,,,,,,,,,,,,,,,,,,,,,,,,,,,,,,,,,,,,,,,,,,,,,,,,,,,,,,MET10101/19/23 14:54:02 METAR KLNK 192054Z 31014KT 10SM SCT016 M01/M05 A2997 RMK AO2 SLP160 T10111050 53019,,,,,,,,,,3/26/2007
USW00014939,2023-01-19T15:06:00,40.8508,-96.7475,362.7,"LINCOLN AIRPORT, NE US",FM-16,343,1015.2,-5,-1.1,,,,,75,BKN:07 5.49,,972.4,16.093,-2.5,310,,8.2,,,,,,,,,,,,,,,,,,,,,,,,,,,,,,,,,,,,,,,,,,,,,,,,,,,,,,,,,,,,,,,,,,,,,,,,,,,,,,,,,,,,,,,,,,,MET08801/19/23 15:06:02 SPECI KLNK 192106Z 31016KT 10SM BKN018 M01/M05 A2998 RMK AO2 T10111050,,,,,,,,,,3/26/2007
USW00014939,2023-01-19T15:54:00,40.8508,-96.7475,362.7,"LINCOLN AIRPORT, NE US",FM-15,343,1016.3,-5,-1.1,0,,,,75,BKN:07 5.18,1017.3,973.4,16.093,-2.5,310,,5.1,,,,,,,,,,,,,,,,,,,,,,,,,,,,,,,,,,,,,,,,,,,,,,,,,,,,,,,,,,,,,,,,,,,,,,,,,,,,,,,,,,,,,,,,,,,MET09501/19/23 15:54:02 METAR KLNK 192154Z 31010KT 10SM BKN017 M01/M05 A3001 RMK AO2 SLP173 T10111050,,,,,,,,,,3/26/2007
USW00014939,2023-01-19T16:09:00,40.8508,-96.7475,362.7,"LINCOLN AIRPORT, NE US",FM-16,343,1016.3,-5,-1.1,,,,,75,SCT:04 5.18,,973.4,16.093,-2.5,300,,6.2,,,,,,,,,,,,,,,,,,,,,,,,,,,,,,,,,,,,,,,,,,,,,,,,,,,,,,,,,,,,,,,,,,,,,,,,,,,,,,,,,,,,,,,,,,,MET08801/19/23 16:09:02 SPECI KLNK 192209Z 30012KT 10SM SCT017 M01/M05 A3001 RMK AO2 T10111050,,,,,,,,,,3/26/2007
USW00014939,2023-01-19T16:42:00,40.8508,-96.7475,362.7,"LINCOLN AIRPORT, NE US",FM-16,343,1017.3,-5,-1.7,,,,,78,BKN:07 5.18,,974.4,16.093,-2.8,300,,6.7,,,,,,,,,,,,,,,,,,,,,,,,,,,,,,,,,,,,,,,,,,,,,,,,,,,,,,,,,,,,,,,,,,,,,,,,,,,,,,,,,,,,,,,,,,,MET08801/19/23 16:42:02 SPECI KLNK 192242Z 30013KT 10SM BKN017 M02/M05 A3004 RMK AO2 T10171050,,,,,,,,,,3/26/2007
USW00014939,2023-01-19T16:54:00,40.8508,-96.7475,362.7,"LINCOLN AIRPORT, NE US",FM-15,343,1017.3,-5,-1.7,0,,,,78,BKN:07 5.18,1018.7,974.4,16.093,-2.8,300,,5.7,,,,,,,,,,,,,,,,,,,,,,,,,,,,,,,,,,,,,,,,,,,,,,,,,,,,,,,,,,,,,,,,,,,,,,,,,,,,,,,,,,,,,,,,,,,MET09501/19/23 16:54:02 METAR KLNK 192254Z 30011KT 10SM BKN017 M02/M05 A3004 RMK AO2 SLP187 T10171050,,,,,,,,,,3/26/2007
USW00014939,2023-01-19T17:54:00,40.8508,-96.7475,362.7,"LINCOLN AIRPORT, NE US",FM-15,343,1018.3,-5.6,-2.8,0,,3.3,1,81,BKN:07 5.18,1019.5,975.3,16.093,-3.7,280,,3.1,,,,,,,,,,,,,,,,,,,,,,,,,,,,,,,,,,,,,,,,,,,,,,,,,,,,,,,,,,,,,,,,,,,,,,,,,,,,,,,,,,,,,,,,,,,MET11801/19/23 17:54:02 METAR KLNK 192354Z 28006KT 10SM BKN017 M03/M06 A3007 RMK AO2 SLP195 T10281056 11006 21028 51033 (RC),,,,,,,,,,3/26/2007
USW00014939,2023-01-19T18:00:00,40.8508,-96.7475,362.7,"LINCOLN AIRPORT, NE US",FM-12,223,,-5.6,-2.8,,,3.3,1,81,,1019.5,975.1,,-3.7,280,,3.1,,,,,,,,,,,,,,,,,,,,,,,,,,,,,,,,,,,,,,,,,,,,,,,,,,,,,,,,,,,,,,,,,,,,,,,,,,,,,,,,,,,,,,,,,,,SYN08072551 32466 62806 11028 21056 39751 40195 51033 92354 333 11006 21033 555 92000=,,,,,,,,,,3/26/2007
USW00014939,2023-01-19T18:01:00,40.8508,-96.7475,362.7,"LINCOLN AIRPORT, NE US",FM-16,343,1018.3,-5.6,-2.8,,,,,81,BKN:07 7.92,,975.3,16.093,-3.7,280,,2.6,,,,,,,,,,,,,,,,,,,,,,,,,,,,,,,,,,,,,,,,,,,,,,,,,,,,,,,,,,,,,,,,,,,,,,,,,,,,,,,,,,,,,,,,,,,MET08801/19/23 18:01:01 SPECI KLNK 200001Z 28005KT 10SM BKN026 M03/M06 A3007 RMK AO2 T10281056,,,,,,,,,,3/26/2007
USW00014939,2023-01-19T18:54:00,40.8508,-96.7475,362.7,"LINCOLN AIRPORT, NE US",FM-15,343,1018.6,-5,-1.7,0,,,,78,OVC:08 6.71,1019.9,975.7,16.093,-2.8,320,,5.1,,,,,,,,,,,,,,,,,,,,,,,,,,,,,,,,,,,,,,,,,,,,,,,,,,,,,,,,,,,,,,,,,,,,,,,,,,,,,,,,,,,,,,,,,,,MET09501/19/23 18:54:01 METAR KLNK 200054Z 32010KT 10SM OVC022 M02/M05 A3008 RMK AO2 SLP199 T10171050,,,,,,,,,,3/26/2007
USW00014939,2023-01-19T19:31:00,40.8508,-96.7475,362.7,"LINCOLN AIRPORT, NE US",FM-16,343,1019,-5,-1.7,,,,,78,OVC:08 5.49,,976,16.093,-2.8,310,,3.6,,,,,,,,,,,,,,,,,,,,,,,,,,,,,,,,,,,,,,,,,,,,,,,,,,,,,,,,,,,,,,,,,,,,,,,,,,,,,,,,,,,,,,,,,,,MET08801/19/23 19:31:01 SPECI KLNK 200131Z 31007KT 10SM OVC018 M02/M05 A3009 RMK AO2 T10171050,,,,,,,,,,3/26/2007
USW00014939,2023-01-19T19:54:00,40.8508,-96.7475,362.7,"LINCOLN AIRPORT, NE US",FM-15,343,1019,-5,-1.7,0,,,,78,OVC:08 5.49,1020.5,976,16.093,-2.8,330,,3.1,,,,,,,,,,,,,,,,,,,,,,,,,,,,,,,,,,,,,,,,,,,,,,,,,,,,,,,,,,,,,,,,,,,,,,,,,,,,,,,,,,,,,,,,,,,MET09501/19/23 19:54:01 METAR KLNK 200154Z 33006KT 10SM OVC018 M02/M05 A3009 RMK AO2 SLP205 T10171050,,,,,,,,,,3/26/2007
USW00014939,2023-01-19T20:54:00,40.8508,-96.7475,362.7,"LINCOLN AIRPORT, NE US",FM-15,343,1019.6,-5,-1.7,0,,1.5,3,78,OVC:08 5.18,1021.1,976.7,16.093,-2.8,310,,2.6,,,,,,,,,,,,,,,,,,,,,,,,,,,,,,,,,,,,,,,,,,,,,,,,,,,,,,,,,,,,,,,,,,,,,,,,,,,,,,,,,,,,,,,,,,,MET10101/19/23 20:54:01 METAR KLNK 200254Z 31005KT 10SM OVC017 M02/M05 A3011 RMK AO2 SLP211 T10171050 53015,,,,,,,,,,3/26/2007
USW00014939,2023-01-19T21:54:00,40.8508,-96.7475,362.7,"LINCOLN AIRPORT, NE US",FM-15,343,1020.3,-4.4,-1.7,0,,,,82,OVC:08 4.88,1021.6,977.3,16.093,-2.7,330,,2.6,,,,,,,,,,,,,,,,,,,,,,,,,,,,,,,,,,,,,,,,,,,,,,,,,,,,,,,,,,,,,,,,,,,,,,,,,,,,,,,,,,,,,,,,,,,MET09501/19/23 21:54:01 METAR KLNK 200354Z 33005KT 10SM OVC016 M02/M04 A3013 RMK AO2 SLP216 T10171044,,,,,,,,,,3/26/2007
USW00014939,2023-01-19T22:54:00,40.8508,-96.7475,362.7,"LINCOLN AIRPORT, NE US",FM-15,343,1020.7,-3.9,-1.1,0,,,,82,OVC:08 4.57,1021.9,977.6,16.093,-2.1,330,,3.6,,,,,,,,,,,,,,,,,,,,,,,,,,,,,,,,,,,,,,,,,,,,,,,,,,,,,,,,,,,,,,,,,,,,,,,,,,,,,,,,,,,,,,,,,,,MET09501/19/23 22:54:02 METAR KLNK 200454Z 33007KT 10SM OVC015 M01/M04 A3014 RMK AO2 SLP219 T10111039,,,,,,,,,,3/26/2007
USW00014939,2023-01-19T23:10:00,40.8508,-96.7475,362.7,"LINCOLN AIRPORT, NE US",FM-16,343,1020.7,-3.9,-1.1,,,,,82,OVC:08 4.27,,977.6,16.093,-2.1,340,,3.6,,,,,,,,,,,,,,,,,,,,,,,,,,,,,,,,,,,,,,,,,,,,,,,,,,,,,,,,,,,,,,,,,,,,,,,,,,,,,,,,,,,,,,,,,,,MET08801/19/23 23:10:02 SPECI KLNK 200510Z 34007KT 10SM OVC014 M01/M04 A3014 RMK AO2 T10111039,,,,,,,,,,3/26/2007
USW00014939,2023-01-19T23:54:00,40.8508,-96.7475,362.7,"LINCOLN AIRPORT, NE US",FM-15,343,1021,-3.9,-1.1,0,,1.2,1,82,OVC:08 3.96,1022.2,978,16.093,-2.1,330,,4.1,,,,,,,,,,,,,,,,,,,,,,,,,,,,,,,,,,,,,,,,,,,,,,,,,,,,,,,,,,,,,,,,,,,,,,,,,,,,,,,,,,,,,,,,,,,MET12301/19/23 23:54:02 METAR KLNK 200554Z 33008KT 10SM OVC013 M01/M04 A3015 RMK AO2 SLP222 T10111039 11011 21028 400061033 51012,,,,,,,,,,3/26/2007
USW00014939,2023-01-20T00:00:00,40.8508,-96.7475,362.7,"LINCOLN AIRPORT, NE US",FM-12,223,,-3.9,-1.1,,,1.2,1,82,,1022.2,977.7,,-2.1,330,,4.1,,,,,,,,,,,,,,,,,,,,,,,,,,,,,,,,,,,,,,,,,,,,,,,,,,,,,,,,,,,,,,,,,,,,,,,,,,,,,,,,,,,,,,,,,,,SYN08072551 35466 83308 11011 21039 39777 40222 51012 90554 333 11011 21033 555 92006=,,,,,,,,,,3/26/2007
USW00014939,2023-01-20T00:00:00,40.8508,-96.7475,362.7,"LINCOLN AIRPORT, NE US",SOD,,,,,,,,,,,,,,,,,,748,1728,-3.9,-2.4,84,1024,980.7,-2.8,1.9,0,1.6,20.7,1.1,-6,340,6.3,0,30,0,330,5.8,BR FG HZ FZFG,,,,,,,,,,,,,,,,,,,,,,,,,,,,,,,,,,,,,,,,,,,,,,,,,,,,,,,,,,,,,,,,,,,,,,,,,,,,,,,3/26/2007
USW00014939,2023-01-20T00:54:00,40.8508,-96.7475,362.7,"LINCOLN AIRPORT, NE US",FM-15,343,1021.3,-3.9,-1.1,0,,,,82,OVC:08 3.66,1022.7,978.3,16.093,-2.1,310,,2.6,,,,,,,,,,,,,,,,,,,,,,,,,,,,,,,,,,,,,,,,,,,,,,,,,,,,,,,,,,,,,,,,,,,,,,,,,,,,,,,,,,,,,,,,,,,MET09501/20/23 00:54:02 METAR KLNK 200654Z 31005KT 10SM OVC012 M01/M04 A3016 RMK AO2 SLP227 T10111039,,,,,,,,,,3/26/2007
USW00014939,2023-01-20T01:54:00,40.8508,-96.7475,362.7,"LINCOLN AIRPORT, NE US",FM-15,343,1022,-3.9,-1.1,0,,,,82,OVC:08 3.35,1023.1,978.9,16.093,-2.1,290,,2.1,,,,,,,,,,,,,,,,,,,,,,,,,,,,,,,,,,,,,,,,,,,,,,,,,,,,,,,,,,,,,,,,,,,,,,,,,,,,,,,,,,,,,,,,,,,MET09501/20/23 01:54:02 METAR KLNK 200754Z 29004KT 10SM OVC011 M01/M04 A3018 RMK AO2 SLP231 T10111039,,,,,,,,,,3/26/2007
USW00014939,2023-01-20T02:54:00,40.8508,-96.7475,362.7,"LINCOLN AIRPORT, NE US",FM-15,343,1022,-3.3,-1.1,0,,1.2,1,85,OVC:08 3.35,1023.5,978.9,16.093,-1.9,350,,2.6,,,,,,,,,,,,,,,,,,,,,,,,,,,,,,,,,,,,,,,,,,,,,,,,,,,,,,,,,,,,,,,,,,,,,,,,,,,,,,,,,,,,,,,,,,,MET10101/20/23 02:54:02 METAR KLNK 200854Z 35005KT 10SM OVC011 M01/M03 A3018 RMK AO2 SLP235 T10111033 51012,,,,,,,,,,3/26/2007
USW00014939,2023-01-20T03:54:00,40.8508,-96.7475,362.7,"LINCOLN AIRPORT, NE US",FM-15,343,1022.4,-3.3,-0.6,0,,,,82,OVC:08 3.35,1023.6,979.3,16.093,-1.6,330,,3.6,,,,,,,,,,,,,,,,,,,,,,,,,,,,,,,,,,,,,,,,,,,,,,,,,,,,,,,,,,,,,,,,,,,,,,,,,,,,,,,,,,,,,,,,,,,MET09501/20/23 03:54:02 METAR KLNK 200954Z 33007KT 10SM OVC011 M01/M03 A3019 RMK AO2 SLP236 T10061033,,,,,,,,,,3/26/2007
USW00014939,2023-01-20T04:54:00,40.8508,-96.7475,362.7,"LINCOLN AIRPORT, NE US",FM-15,343,1023,-3.3,-1.1,0,,,,85,OVC:08 3.35,1024.2,979.9,16.093,-1.9,10,,2.1,,,,,,,,,,,,,,,,,,,,,,,,,,,,,,,,,,,,,,,,,,,,,,,,,,,,,,,,,,,,,,,,,,,,,,,,,,,,,,,,,,,,,,,,,,,MET09501/20/23 04:54:02 METAR KLNK 201054Z 01004KT 10SM OVC011 M01/M03 A3021 RMK AO2 SLP242 T10111033,,,,,,,,,,3/26/2007
USW00014939,2023-01-20T05:54:00,40.8508,-96.7475,362.7,"LINCOLN AIRPORT, NE US",FM-15,343,1023.4,-3.3,-1.1,0,,1,3,85,OVC:08 3.66,1024.6,980.3,16.093,-1.9,30,,1.5,,,,,,,,,,,,,,,,,,,,,,,,,,,,,,,,,,,,,,,,,,,,,,,,,,,,,,,,,,,,,,,,,,,,,,,,,,,,,,,,,,,,,,,,,,,MET11801/20/23 05:54:02 METAR KLNK 201154Z 03003KT 10SM OVC012 M01/M03 A3022 RMK AO2 SLP246 T10111033 11006 21011 53010 (AC),,,,,,,,,,3/26/2007
USW00014939,2023-01-20T06:00:00,40.8508,-96.7475,362.7,"LINCOLN AIRPORT, NE US",FM-12,223,,-3.3,-1.1,,,1,3,85,,1024.6,980,,-1.9,30,,1.5,,,,,,,,,,,,,,,,,,,,,,,,,,,,,,,,,,,,,,,,,,,,,,,,,,,,,,,,,,,,,,,,,,,,,,,,,,,,,,,,,,,,,,,,,,,SYN08072551 32466 80303 11011 21033 39800 40246 53010 91154 333 10006 21028 555 92012=,,,,,,,,,,3/26/2007
USW00014939,2023-01-20T06:54:00,40.8508,-96.7475,362.7,"LINCOLN AIRPORT, NE US",FM-15,343,1023.7,-3.3,-1.1,0,,,,85,OVC:08 3.35,1025.1,980.6,16.093,-1.9,250,,2.6,,,,,,,,,,,,,,,,,,,,,,,,,,,,,,,,,,,,,,,,,,,,,,,,,,,,,,,,,,,,,,,,,,,,,,,,,,,,,,,,,,,,,,,,,,,MET10001/20/23 06:54:02 METAR KLNK 201254Z 25005KT 10SM OVC011 M01/M03 A3023 RMK AO2 SLP251 T10111033 (AC),,,,,,,,,,3/26/2007
USW00014939,2023-01-20T07:54:00,40.8508,-96.7475,362.7,"LINCOLN AIRPORT, NE US",FM-15,343,1024,-3.9,-1.7,0,,,,85,OVC:08 3.05,1025.5,980.9,12.875,-2.5,260,,2.1,,,,,,,,,,,,,,,,,,,,,,,,,,,,,,,,,,,,,,,,,,,,,,,,,,,,,,,,,,,,,,,,,,,,,,,,,,,,,,,,,,,,,,,,,,,MET09901/20/23 07:54:02 METAR KLNK 201354Z 26004KT 8SM OVC010 M02/M04 A3024 RMK AO2 SLP255 T10171039 (AC),,,,,,,,,,3/26/2007
USW00014939,2023-01-20T08:20:00,40.8508,-96.7475,362.7,"LINCOLN AIRPORT, NE US",FM-16,343,1024.4,-3.9,-1.7,,BR:1 |BR |,,,85,OVC:08 2.74,,981.2,9.656,-2.5,250,,2.1,,,,,,,,,,,,,,,,,,,,,,,,,,,,,,,,,,,,,,,,,,,,,,,,,,,,,,,,,,,,,,,,,,,,,,,,,,,,,,,,,,,,,,,,,,,MET09501/20/23 08:20:02 SPECI KLNK 201420Z 25004KT 6SM BR OVC009 M02/M04 A3025 RMK AO2 T10171039 (AC),,,,,,,,,,3/26/2007
USW00014939,2023-01-20T08:54:00,40.8508,-96.7475,362.7,"LINCOLN AIRPORT, NE US",FM-15,343,1024.7,-3.9,-2.2,0,,1.4,1,88,OVC:08 2.44,1026,981.6,11.265,-2.8,250,,2.6,,,,,,,,,,,,,,,,,,,,,,,,,,,,,,,,,,,,,,,,,,,,,,,,,,,,,,,,,,,,,,,,,,,,,,,,,,,,,,,,,,,,,,,,,,,MET10501/20/23 08:54:02 METAR KLNK 201454Z 25005KT 7SM OVC008 M02/M04 A3026 RMK AO2 SLP260 T10221039 51014 (AC),,,,,,,,,,3/26/2007
USW00014939,2023-01-20T09:49:00,40.8508,-96.7475,362.7,"LINCOLN AIRPORT, NE US",FM-16,343,1025.1,-6,-4,,BR:1 |BR |,,,86,OVC:08 0.91,,981.9,4.023,-4.6,250,,3.1,,,,,,,,,,,,,,,,,,,,,,,,,,,,,,,,,,,,,,,,,,,,,,,,,,,,,,,,,,,,,,,,,,,,,,,,,,,,,,,,,,,,,,,,,,,MET08901/20/23 09:49:02 SPECI KLNK 201549Z 25006KT 2 1/2SM BR OVC003 M04/M06 A3027 RMK AO2 (AC),,,,,,,,,,3/26/2007
USW00014939,2023-01-20T09:54:00,40.8508,-96.7475,362.7,"LINCOLN AIRPORT, NE US",FM-15,343,1025.1,-5.6,-3.9,0,BR:1 |BR |,,,88,OVC:08 0.91,1026.5,981.9,3.219,-4.4,260,,3.6,,,,,,,,,,,,,,,,,,,,,,,,,,,,,,,,,,,,,,,,,,,,,,,,,,,,,,,,,,,,,,,,,,,,,,,,,,,,,,,,,,,,,,,,,,,MET10201/20/23 09:54:02 METAR KLNK 201554Z 26007KT 2SM BR OVC003 M04/M06 A3027 RMK AO2 SLP265 T10391056 (AC),,,,,,,,,,3/26/2007
USW00014939,2023-01-20T10:01:00,40.8508,-96.7475,362.7,"LINCOLN AIRPORT, NE US",FM-16,343,1025.1,-5.6,-3.9,,BR:1 |BR |,,,88,OVC:08 0.91,,981.9,2.012,-4.4,250,,3.6,,,,,,,,,,,,,,,,,,,,,,,,,,,,,,,,,,,,,,,,,,,,,,,,,,,,,,,,,,,,,,,,,,,,,,,,,,,,,,,,,,,,,,,,,,,MET09901/20/23 10:01:02 SPECI KLNK 201601Z 25007KT 1 1/4SM BR OVC003 M04/M06 A3027 RMK AO2 T10391056 (AC),,,,,,,,,,3/26/2007
USW00014939,2023-01-20T10:11:00,40.8508,-96.7475,362.7,"LINCOLN AIRPORT, NE US",FM-16,343,1025.4,-5.6,-4.4,,FZFG:2 |FG |,,,91,OVC:08 0.91,,982.2,0.805,-4.8,240,,3.6,,,,,,,,,,,,,,,,,,,,,,,,,,,,,,,,,,,,,,,,,,,,,,,,,,,,,,,,,,,,,,,,,,,,,,,,,,,,,,,,,,,,,,,,,,,MET11101/20/23 10:11:02 SPECI KLNK 201611Z 24007KT 1/2SM R36/P6000FT FZFG OVC003 M04/M06 A3028 RMK AO2 T10441056 (AC),,,,,,,,,,3/26/2007
USW00014939,2023-01-20T10:38:00,40.8508,-96.7475,362.7,"LINCOLN AIRPORT, NE US",FM-16,343,1025.4,-4.4,-3.9,,FZFG:2 |FG |,,,96,VV:09 0.61,,982.2,0.402,-4.1,220,,3.1,,,,,,,,,,,,,,,,,,,,,,,,,,,,,,,,,,,,,,,,,,,,,,,,,,,,,,,,,,,,,,,,,,,,,,,,,,,,,,,,,,,,,,,,,,,MET11501/20/23 10:38:02 SPECI KLNK 201638Z 22006KT 1/4SM R36/3000VP6000FT FZFG VV002 M04/M04 A3028 RMK AO2 T10391044 (AC),,,,,,,,,,3/26/2007
USW00014939,2023-01-20T10:54:00,40.8508,-96.7475,362.7,"LINCOLN AIRPORT, NE US",FM-15,343,1025.4,-3.9,-3.3,0,FZFG:2 |FG |,,,96,VV:09 0.61,1026.8,982.2,0.402,-3.5,220,,3.1,,,,,,,,,,,,,,,,,,,,,,,,,,,,,,,,,,,,,,,,,,,,,,,,,,,,,,,,,,,,,,,,,,,,,,,,,,,,,,,,,,,,,,,,,,,MET12101/20/23 10:54:02 METAR KLNK 201654Z 22006KT 1/4SM R36/1600V2200FT FZFG VV002 M03/M04 A3028 RMK AO2 SLP268 T10331039 (AC),,,,,,,,,,3/26/2007
USW00014939,2023-01-20T11:37:00,40.8508,-96.7475,362.7,"LINCOLN AIRPORT, NE US",FM-16,343,1025.1,-3.9,-3.3,,FZFG:2 |FG |,,,96,VV:09 0.61,,981.9,0.402,-3.5,210,,3.1,,,,,,,,,,,,,,,,,,,,,,,,,,,,,,,,,,,,,,,,,,,,,,,,,,,,,,,,,,,,,,,,,,,,,,,,,,,,,,,,,,,,,,,,,,,MET12001/20/23 11:37:02 SPECI KLNK 201737Z 21006KT 1/4SM R36/1800V6000FT FZFG VV002 M03/M04 A3027 RMK AO2 I1000 T10331039 (AC),,,,,,,,,,3/26/2007
USW00014939,2023-01-20T11:52:00,40.8508,-96.7475,362.7,"LINCOLN AIRPORT, NE US",FM-16,343,1024.7,-4,-3,,FZFG:2 |FG |,,,93,VV:09 0.61,,981.6,0.805,-3.2,200,,2.6,,,,,,,,,,,,,,,,,,,,,,,,,,,,,,,,,,,,,,,,,,,,,,,,,,,,,,,,,,,,,,,,,,,,,,,,,,,,,,,,,,,,,,,,,,,MET11601/20/23 11:52:02 SPECI KLNK 201752Z 20005KT 1/2SM R36/6000VP6000FT FZFG VV002 M03/M04 A3026 RMK AO2 I1000 FIBI (AC),,,,,,,,,,3/26/2007
USW00014939,2023-01-20T11:54:00,40.8508,-96.7475,362.7,"LINCOLN AIRPORT, NE US",FM-15,343,1024.7,-3.9,-3.3,0,BR:1 |BR |,0.2,0,96,VV:09 0.61,1026.3,981.6,1.207,-3.5,200,,2.6,,,,,,,,,,,,,,,,,,,,,,,,,,,,,,,,,,,,,,,,,,,,,,,,,,,,,,,,,,,,,,,,,,,,,,,,,,,,,,,,,,,,,,,,,,,MET15001/20/23 11:54:02 METAR KLNK 201754Z 20005KT 3/4SM R36/6000VP6000FT BR VV002 M03/M04 A3026 RMK AO2 SLP263 I1000 I6000 T10331039 11011 21044 50002 (AC),,,,,,,,,,3/26/2007
USW00014939,2023-01-20T12:00:00,40.8508,-96.7475,362.7,"LINCOLN AIRPORT, NE US",FM-12,223,,-3.9,-3.3,,||BR,0.2,9,96,,1026.3,981.3,,-3.5,200,,2.6,,,,,,,,,,,,,,,,,,,,,,,,,,,,,,,,,,,,,,,,,,,,,,,,,,,,,,,,,,,,,,,,,,,,,,,,,,,,,,,,,,,,,,,,,,,SYN08672551 31112 92005 11033 21039 39813 40263 50002 710// 91754 333 11006 21044 555 92018=,,,,,,,,,,3/26/2007
USW00014939,2023-01-20T12:03:00,40.8508,-96.7475,362.7,"LINCOLN AIRPORT, NE US",FM-16,343,1024.7,-3.9,-2.8,,BR:1 |BR |,,,92,OVC:08 0.61,,981.6,2.816,-3.2,200,,3.6,,,,,,,,,,,,,,,,,,,,,,,,,,,,,,,,,,,,,,,,,,,,,,,,,,,,,,,,,,,,,,,,,,,,,,,,,,,,,,,,,,,,,,,,,,,MET09901/20/23 12:03:02 SPECI KLNK 201803Z 20007KT 1 3/4SM BR OVC002 M03/M04 A3026 RMK AO2 T10281039 (AC),,,,,,,,,,3/26/2007
USW00014939,2023-01-20T12:12:00,40.8508,-96.7475,362.7,"LINCOLN AIRPORT, NE US",FM-16,343,1024.7,-3.3,-2.8,,BR:1 |BR |,,,96,OVC:08 0.61,,981.6,3.219,-3,180,,2.6,,,,,,,,,,,,,,,,,,,,,,,,,,,,,,,,,,,,,,,,,,,,,,,,,,,,,,,,,,,,,,,,,,,,,,,,,,,,,,,,,,,,,,,,,,,MET09501/20/23 12:12:02 SPECI KLNK 201812Z 18005KT 2SM BR OVC002 M03/M03 A3026 RMK AO2 T10281033 (HN),,,,,,,,,,3/26/2007
USW00014939,2023-01-20T12:30:00,40.8508,-96.7475,362.7,"LINCOLN AIRPORT, NE US",FM-16,343,1024.4,-3.3,-2.2,,BR:1 |BR |,,,92,OVC:08 0.91,,981.2,4.828,-2.6,180,,3.1,,,,,,,,,,,,,,,,,,,,,,,,,,,,,,,,,,,,,,,,,,,,,,,,,,,,,,,,,,,,,,,,,,,,,,,,,,,,,,,,,,,,,,,,,,,MET09501/20/23 12:30:02 SPECI KLNK 201830Z 18006KT 3SM BR OVC003 M02/M03 A3025 RMK AO2 T10221033 (HN),,,,,,,,,,3/26/2007
USW00014939,2023-01-20T12:51:00,40.8508,-96.7475,362.7,"LINCOLN AIRPORT, NE US",FM-16,343,1024,-3,-2,,BR:1 |BR |,,,93,SCT:04 1.22,,980.9,6.437,-2.4,190,,2.1,,,,,,,,,,,,,,,,,,,,,,,,,,,,,,,,,,,,,,,,,,,,,,,,,,,,,,,,,,,,,,,,,,,,,,,,,,,,,,,,,,,,,,,,,,,MET08501/20/23 12:51:02 SPECI KLNK 201851Z 19004KT 4SM BR SCT004 M02/M03 A3024 RMK AO2 (HN),,,,,,,,,,3/26/2007
USW00014939,2023-01-20T12:54:00,40.8508,-96.7475,362.7,"LINCOLN AIRPORT, NE US",FM-15,343,1024,-2.8,-1.7,0,BR:1 |BR |,,,92,FEW:02 1.22,1025.5,980.9,6.437,-2.1,180,,2.6,,,,,,,,,,,,,,,,,,,,,,,,,,,,,,,,,,,,,,,,,,,,,,,,,,,,,,,,,,,,,,,,,,,,,,,,,,,,,,,,,,,,,,,,,,,MET10201/20/23 12:54:02 METAR KLNK 201854Z 18005KT 4SM BR FEW004 M02/M03 A3024 RMK AO2 SLP255 T10171028 (HN),,,,,,,,,,3/26/2007
USW00014939,2023-01-20T13:54:00,40.8508,-96.7475,362.7,"LINCOLN AIRPORT, NE US",FM-15,343,1023.4,-2.8,-0.6,0,BR:1 |BR |,,,85,CLR:00,1024.7,980.3,9.656,-1.4,220,,2.1,,,,,,,,,,,,,,,,,,,,,,,,,,,,,,,,,,,,,,,,,,,,,,,,,,,,,,,,,,,,,,,,,,,,,,,,,,,,,,,,,,,,,,,,,,,MET09901/20/23 13:54:02 METAR KLNK 201954Z 22004KT 6SM BR CLR M01/M03 A3022 RMK AO2 SLP247 T10061028 (HN),,,,,,,,,,3/26/2007
USW00014939,2023-01-20T14:54:00,40.8508,-96.7475,362.7,"LINCOLN AIRPORT, NE US",FM-15,343,1023.4,-3.3,1.1,0,,-0.7,8,73,CLR:00,1024.5,980.3,12.875,-0.6,260,,3.1,,,,,,,,,,,,,,,,,,,,,,,,,,,,,,,,,,,,,,,,,,,,,,,,,,,,,,,,,,,,,,,,,,,,,,,,,,,,,,,,,,,,,,,,,,,MET10101/20/23 14:54:02 METAR KLNK 202054Z 26006KT 8SM CLR 01/M03 A3022 RMK AO2 SLP245 T00111033 58007 (HN),,,,,,,,,,3/26/2007
USW00014939,2023-01-20T15:54:00,40.8508,-96.7475,362.7,"LINCOLN AIRPORT, NE US",FM-15,343,1023.4,-3.3,1.1,0,,,,73,CLR:00,1024.5,980.3,12.875,-0.6,250,,2.6,,,,,,,,,,,,,,,,,,,,,,,,,,,,,,,,,,,,,,,,,,,,,,,,,,,,,,,,,,,,,,,,,,,,,,,,,,,,,,,,,,,,,,,,,,,MET09501/20/23 15:54:02 METAR KLNK 202154Z 25005KT 8SM CLR 01/M03 A3022 RMK AO2 SLP245 T00111033 (HN),,,,,,,,,,3/26/2007
USW00014939,2023-01-20T16:54:00,40.8508,-96.7475,362.7,"LINCOLN AIRPORT, NE US",FM-15,343,1023,-3.3,0.6,0,,,,75,CLR:00,1024.3,979.9,14.484,-0.9,200,,2.1,,,,,,,,,,,,,,,,,,,,,,,,,,,,,,,,,,,,,,,,,,,,,,,,,,,,,,,,,,,,,,,,,,,,,,,,,,,,,,,,,,,,,,,,,,,MET09501/20/23 16:54:02 METAR KLNK 202254Z 20004KT 9SM CLR 01/M03 A3021 RMK AO2 SLP243 T00061033 (HN),,,,,,,,,,3/26/2007
USW00014939,2023-01-20T17:54:00,40.8508,-96.7475,362.7,"LINCOLN AIRPORT, NE US",FM-15,343,1023,-3.9,0,0,,-0.2,8,75,CLR:00,1024.3,979.9,12.875,-1.4,220,,1.5,,,,,,,,,,,,,,,,,,,,,,,,,,,,,,,,,,,,,,,,,,,,,,,,,,,,,,,,,,,,,,,,,,,,,,,,,,,,,,,,,,,,,,,,,,,MET11301/20/23 17:54:02 METAR KLNK 202354Z 22003KT 8SM CLR 00/M04 A3021 RMK AO2 SLP243 T00001039 10011 21033 58002 (HN),,,,,,,,,,3/26/2007
USW00014939,2023-01-20T18:00:00,40.8508,-96.7475,362.7,"LINCOLN AIRPORT, NE US",FM-12,223,,-3.9,0,,,-0.2,8,75,,1024.3,979.7,,-1.4,220,,1.5,,,,,,,,,,,,,,,,,,,,,,,,,,,,,,,,,,,,,,,,,,,,,,,,,,,,,,,,,,,,,,,,,,,,,,,,,,,,,,,,,,,,,,,,,,,SYN08072551 32962 02203 10000 21039 39797 40243 58002 92354 333 10011 21033 555 92100=,,,,,,,,,,3/26/2007
USW00014939,2023-01-20T18:54:00,40.8508,-96.7475,362.7,"LINCOLN AIRPORT, NE US",FM-15,343,1023,-4.4,-1.1,0,,,,79,CLR:00,1024.5,979.9,11.265,-2.3,,,0,,,,,,,,,,,,,,,,,,,,,,,,,,,,,,,,,,,,,,,,,,,,,,,,,,,,,,,,,,,,,,,,,,,,,,,,,,,,,,,,,,,,,,,,,,,MET09601/20/23 18:54:03 METAR KLNK 210054Z 00000KT 7SM CLR M01/M04 A3021 RMK AO2 SLP245 T10111044 (HN),,,,,,,,,,3/26/2007
USW00014939,2023-01-20T19:54:00,40.8508,-96.7475,362.7,"LINCOLN AIRPORT, NE US",FM-15,343,1023,-5,-2.2,0,HZ:7 |FU |HZ,,,81,CLR:00,1024.5,979.9,9.656,-3.2,,,0,,,,,,,,,,,,,,,,,,,,,,,,,,,,,,,,,,,,,,,,,,,,,,,,,,,,,,,,,,,,,,,,,,,,,,,,,,,,,,,,,,,,,,,,,,,MET09901/20/23 19:54:03 METAR KLNK 210154Z 00000KT 6SM HZ CLR M02/M05 A3021 RMK AO2 SLP245 T10221050 (HN),,,,,,,,,,3/26/2007
USW00014939,2023-01-20T20:54:00,40.8508,-96.7475,362.7,"LINCOLN AIRPORT, NE US",FM-15,343,1023,-7.8,-6.1,0,BR:1 |BR |,0,0,88,CLR:00,1024.6,979.9,8.047,-6.6,,,0,,,,,,,,,,,,,,,,,,,,,,,,,,,,,,,,,,,,,,,,,,,,,,,,,,,,,,,,,,,,,,,,,,,,,,,,,,,,,,,,,,,,,,,,,,,MET10501/20/23 20:54:03 METAR KLNK 210254Z 00000KT 5SM BR CLR M06/M08 A3021 RMK AO2 SLP246 T10611078 50000 (HN),,,,,,,,,,3/26/2007
USW00014939,2023-01-20T21:54:00,40.8508,-96.7475,362.7,"LINCOLN AIRPORT, NE US",FM-15,343,1023.4,-6.1,-4.4,0,BR:1 |BR |,,,88,CLR:00,1024.9,980.3,4.828,-5,260,,1.5,,,,,,,,,,,,,,,,,,,,,,,,,,,,,,,,,,,,,,,,,,,,,,,,,,,,,,,,,,,,,,,,,,,,,,,,,,,,,,,,,,,,,,,,,,,MET09401/20/23 21:54:03 METAR KLNK 210354Z 26003KT 3SM BR CLR M04/M06 A3022 RMK AO2 SLP249 T10441061,,,,,,,,,,3/26/2007
USW00014939,2023-01-20T22:54:00,40.8508,-96.7475,362.7,"LINCOLN AIRPORT, NE US",FM-15,343,1024,-6.1,-4.4,0,BR:1 |BR |,,,88,CLR:00,1025.4,980.9,8.047,-5,,,0,,,,,,,,,,,,,,,,,,,,,,,,,,,,,,,,,,,,,,,,,,,,,,,,,,,,,,,,,,,,,,,,,,,,,,,,,,,,,,,,,,,,,,,,,,,MET09401/20/23 22:54:03 METAR KLNK 210454Z 00000KT 5SM BR CLR M04/M06 A3024 RMK AO2 SLP254 T10441061,,,,,,,,,,3/26/2007
USW00014939,2023-01-20T23:54:00,40.8508,-96.7475,362.7,"LINCOLN AIRPORT, NE US",FM-15,343,1023.7,-6.7,-5,0,BR:1 |BR |,0.6,0,88,CLR:00,1025.2,980.6,8.047,-5.5,,,0,,,,,,,,,,,,,,,,,,,,,,,,,,,,,,,,,,,,,,,,,,,,,,,,,,,,,,,,,,,,,,,,,,,,,,,,,,,,,,,,,,,,,,,,,,,MET12201/20/23 23:54:03 METAR KLNK 210554Z 00000KT 5SM BR CLR M05/M07 A3023 RMK AO2 SLP252 T10501067 10000 21061 400111061 50006,,,,,,,,,,3/26/2007
USW00014939,2023-01-21T00:00:00,40.8508,-96.7475,362.7,"LINCOLN AIRPORT, NE US",FM-12,223,,-6.7,-5,,|BR |,0.6,9,88,,1025.2,980.3,,-5.5,,,0,,,,,,,,,,,,,,,,,,,,,,,,,,,,,,,,,,,,,,,,,,,,,,,,,,,,,,,,,,,,,,,,,,,,,,,,,,,,,,,,,,,,,,,,,,,SYN08672551 37958 00000 11050 21067 39803 40252 50006 710// 90554 333 10000 21061 555 92106=,,,,,,,,,,3/26/2007
USW00014939,2023-01-21T00:00:00,40.8508,-96.7475,362.7,"LINCOLN AIRPORT, NE US",SOD,,,,,,,,,,,,,,,,,,747,1730,-4.4,-3.5,86,1020.7,976,-3.3,0.7,0,0.5,21.8,-0.5,-6.6,180,3.6,1.8,30,13,190,3.1,BR FG FZFG SN,,,,,,,,,,,,,,,,,,,,,,,,,,,,,,,,,,,,,,,,,,,,,,,,,,,,,,,,,,,,,,,,,,,,,,,,,,,,,,,3/26/2007
USW00014939,2023-01-21T00:54:00,40.8508,-96.7475,362.7,"LINCOLN AIRPORT, NE US",FM-15,343,1023.4,-6.7,-4.4,0,BR:1 |BR |,,,84,CLR:00,1024.8,980.3,8.047,-5.2,,,0,,,,,,,,,,,,,,,,,,,,,,,,,,,,,,,,,,,,,,,,,,,,,,,,,,,,,,,,,,,,,,,,,,,,,,,,,,,,,,,,,,,,,,,,,,,MET09401/21/23 00:54:02 METAR KLNK 210654Z 00000KT 5SM BR CLR M04/M07 A3022 RMK AO2 SLP248 T10441067,,,,,,,,,,3/26/2007
USW00014939,2023-01-21T01:54:00,40.8508,-96.7475,362.7,"LINCOLN AIRPORT, NE US",FM-15,343,1023.4,-6.1,-4.4,0,BR:1 |BR |,,,88,CLR:00,1024.7,980.3,8.047,-5,,,0,,,,,,,,,,,,,,,,,,,,,,,,,,,,,,,,,,,,,,,,,,,,,,,,,,,,,,,,,,,,,,,,,,,,,,,,,,,,,,,,,,,,,,,,,,,MET09401/21/23 01:54:02 METAR KLNK 210754Z 00000KT 5SM BR CLR M04/M06 A3022 RMK AO2 SLP247 T10441061,,,,,,,,,,3/26/2007
USW00014939,2023-01-21T02:54:00,40.8508,-96.7475,362.7,"LINCOLN AIRPORT, NE US",FM-15,343,1023,-6.1,-3.9,0,,-0.7,6,85,OVC:08 33.53,1024.3,979.9,11.265,-4.6,,,0,,,,,,,,,,,,,,,,,,,,,,,,,,,,,,,,,,,,,,,,,,,,,,,,,,,,,,,,,,,,,,,,,,,,,,,,,,,,,,,,,,,,,,,,,,,MET10001/21/23 02:54:02 METAR KLNK 210854Z 00000KT 7SM OVC110 M04/M06 A3021 RMK AO2 SLP243 T10391061 56007,,,,,,,,,,3/26/2007
USW00014939,2023-01-21T03:54:00,40.8508,-96.7475,362.7,"LINCOLN AIRPORT, NE US",FM-15,343,1022,-6.7,-4.4,0,BR:1 |BR |,,,84,CLR:00,1023.3,978.9,9.656,-5.2,,,0,,,,,,,,,,,,,,,,,,,,,,,,,,,,,,,,,,,,,,,,,,,,,,,,,,,,,,,,,,,,,,,,,,,,,,,,,,,,,,,,,,,,,,,,,,,MET09401/21/23 03:54:02 METAR KLNK 210954Z 00000KT 6SM BR CLR M04/M07 A3018 RMK AO2 SLP233 T10441067,,,,,,,,,,3/26/2007
USW00014939,2023-01-21T04:54:00,40.8508,-96.7475,362.7,"LINCOLN AIRPORT, NE US",FM-15,343,1022,-7.2,-5.6,0,BR:1 |BR |,,,89,CLR:00,1023.3,978.9,9.656,-6.1,,,0,,,,,,,,,,,,,,,,,,,,,,,,,,,,,,,,,,,,,,,,,,,,,,,,,,,,,,,,,,,,,,,,,,,,,,,,,,,,,,,,,,,,,,,,,,,MET09401/21/23 04:54:02 METAR KLNK 211054Z 00000KT 6SM BR CLR M06/M07 A3018 RMK AO2 SLP233 T10561072,,,,,,,,,,3/26/2007
USW00014939,2023-01-21T05:54:00,40.8508,-96.7475,362.7,"LINCOLN AIRPORT, NE US",FM-15,343,1022,-6.7,-5,0,BR:1 |BR |,-1.1,6,88,FEW:02 28.96 BKN:07 36.58,1023.3,978.9,6.437,-5.5,,,0,,,,,,,,,,,,,,,,,,,,,,,,,,,,,,,,,,,,,,,,,,,,,,,,,,,,,,,,,,,,,,,,,,,,,,,,,,,,,,,,,,,,,,,,,,,MET12201/21/23 05:54:02 METAR KLNK 211154Z 00000KT 4SM BR FEW095 BKN120 M05/M07 A3018 RMK AO2 SLP233 T10501067 11039 21067 56011,,,,,,,,,,3/26/2007
USW00014939,2023-01-21T06:00:00,40.8508,-96.7475,362.7,"LINCOLN AIRPORT, NE US",FM-12,223,,-6.7,-5,,|BR |,-1.1,6,88,,1023.3,978.7,,-5.5,,,0,,,,,,,,,,,,,,,,,,,,,,,,,,,,,,,,,,,,,,,,,,,,,,,,,,,,,,,,,,,,,,,,,,,,,,,,,,,,,,,,,,,,,,,,,,,SYN08672551 37956 60000 11050 21067 39787 40233 56011 710// 91154 333 10011 21067 555 92112=,,,,,,,,,,3/26/2007
USW00014939,2023-01-21T06:54:00,40.8508,-96.7475,362.7,"LINCOLN AIRPORT, NE US",FM-15,343,1021.7,-6.7,-5.6,0,BR:1 |BR |,,,92,OVC:08 33.53,1023.3,978.6,8.047,-5.9,170,,2.1,,,,,,,,,,,,,,,,,,,,,,,,,,,,,,,,,,,,,,,,,,,,,,,,,,,,,,,,,,,,,,,,,,,,,,,,,,,,,,,,,,,,,,,,,,,MET10201/21/23 06:54:02 METAR KLNK 211254Z 17004KT 5SM BR OVC110 M06/M07 A3017 RMK AO2 SLP233 T10561067 (HN),,,,,,,,,,3/26/2007
USW00014939,2023-01-21T07:54:00,40.8508,-96.7475,362.7,"LINCOLN AIRPORT, NE US",FM-15,343,1021,-7.2,-5,0,BR:1 |BR |,,,85,CLR:00,1022.6,978,9.656,-5.7,,,0,,,,,,,,,,,,,,,,,,,,,,,,,,,,,,,,,,,,,,,,,,,,,,,,,,,,,,,,,,,,,,,,,,,,,,,,,,,,,,,,,,,,,,,,,,,MET09901/21/23 07:54:02 METAR KLNK 211354Z 00000KT 6SM BR CLR M05/M07 A3015 RMK AO2 SLP226 T10501072 (HN),,,,,,,,,,3/26/2007
USW00014939,2023-01-21T08:54:00,40.8508,-96.7475,362.7,"LINCOLN AIRPORT, NE US",FM-15,343,1021,-6.1,-4.4,0,BR:1 |BR |,-0.9,7,88,CLR:00,1022.6,978,6.437,-5,200,,1.5,,,,,,,,,,,,,,,,,,,,,,,,,,,,,,,,,,,,,,,,,,,,,,,,,,,,,,,,,,,,,,,,,,,,,,,,,,,,,,,,,,,,,,,,,,,MET10501/21/23 08:54:02 METAR KLNK 211454Z 20003KT 4SM BR CLR M04/M06 A3015 RMK AO2 SLP226 T10441061 57009 (HN),,,,,,,,,,3/26/2007
USW00014939,2023-01-21T09:54:00,40.8508,-96.7475,362.7,"LINCOLN AIRPORT, NE US",FM-15,343,1021,-5.6,-3.3,0,,,,84,CLR:00,1022.5,978,11.265,-4.1,,,0,,,,,,,,,,,,,,,,,,,,,,,,,,,,,,,,,,,,,,,,,,,,,,,,,,,,,,,,,,,,,,,,,,,,,,,,,,,,,,,,,,,,,,,,,,,MET09601/21/23 09:54:02 METAR KLNK 211554Z 00000KT 7SM CLR M03/M06 A3015 RMK AO2 SLP225 T10331056 (HN),,,,,,,,,,3/26/2007
USW00014939,2023-01-21T10:54:00,40.8508,-96.7475,362.7,"LINCOLN AIRPORT, NE US",FM-15,343,1020.7,-5,-2.2,0,,,,81,FEW:02 28.96,1022.2,977.6,12.875,-3.2,200,,2.6,,,,,,,,,,,,,,,,,,,,,,,,,,,,,,,,,,,,,,,,,,,,,,,,,,,,,,,,,,,,,,,,,,,,,,,,,,,,,,,,,,,,,,,,,,,MET09901/21/23 10:54:02 METAR KLNK 211654Z 20005KT 8SM FEW095 M02/M05 A3014 RMK AO2 SLP222 T10221050 (HN),,,,,,,,,,3/26/2007
USW00014939,2023-01-21T11:54:00,40.8508,-96.7475,362.7,"LINCOLN AIRPORT, NE US",FM-15,343,1020.7,-4.4,-1.7,0,,-0.4,8,82,BKN:07 24.38 OVC:08 27.43,1022,977.6,14.484,-2.7,240,,2.1,,,,,,,,,,,,,,,,,,,,,,,,,,,,,,,,,,,,,,,,,,,,,,,,,,,,,,,,,,,,,,,,,,,,,,,,,,,,,,,,,,,,,,,,,,,MET12401/21/23 11:54:02 METAR KLNK 211754Z 24004KT 9SM BKN080 OVC090 M02/M04 A3014 RMK AO2 SLP220 T10171044 11017 21056 58004 (HN),,,,,,,,,,3/26/2007
USW00014939,2023-01-21T12:00:00,40.8508,-96.7475,362.7,"LINCOLN AIRPORT, NE US",FM-12,223,,-4.4,-1.7,,,-0.4,8,82,,1022,977.4,,-2.7,240,,2.1,,,,,,,,,,,,,,,,,,,,,,,,,,,,,,,,,,,,,,,,,,,,,,,,,,,,,,,,,,,,,,,,,,,,,,,,,,,,,,,,,,,,,,,,,,,SYN08072551 32864 82404 11017 21044 39774 40220 58004 91754 333 11017 21056 555 92118=,,,,,,,,,,3/26/2007
USW00014939,2023-01-21T12:54:00,40.8508,-96.7475,362.7,"LINCOLN AIRPORT, NE US",FM-15,343,1019.3,-3.9,-0.6,0,,,,79,BKN:07 14.94 OVC:08 18.29,1020.5,976.3,12.875,-1.8,,,0,,,,,,,,,,,,,,,,,,,,,,,,,,,,,,,,,,,,,,,,,,,,,,,,,,,,,,,,,,,,,,,,,,,,,,,,,,,,,,,,,,,,,,,,,,,MET10601/21/23 12:54:02 METAR KLNK 211854Z 00000KT 8SM BKN049 OVC060 M01/M04 A3010 RMK AO2 SLP205 T10061039 (BV),,,,,,,,,,3/26/2007
USW00014939,2023-01-21T13:42:00,40.8508,-96.7475,362.7,"LINCOLN AIRPORT, NE US",FM-16,343,1018.3,-3.3,-0.6,T,-SN:03 |SN |SN,,,82,BKN:07 9.45 BKN:07 11.28 OVC:08 14.94,,975.3,2.816,-1.6,220,,1.5,,,,,,,,,,,,,,,,,,,,,,,,,,,,,,,,,,,,,,,,,,,,,,,,,,,,,,,,,,,,,,,,,,,,,,,,,,,,,,,,,,,,,,,,,,,MET12601/21/23 13:42:02 SPECI KLNK 211942Z 22003KT 1 3/4SM -SN BKN031 BKN037 OVC049 M01/M03 A3007 RMK AO2 SNB33 P0000 T10061033 (BV),,,,,,,,,,3/26/2007
USW00014939,2023-01-21T13:49:00,40.8508,-96.7475,362.7,"LINCOLN AIRPORT, NE US",FM-16,343,1018.3,-3,-1,T,-SN:03 BR:1 |SN BR |SN,,,86,BKN:07 7.62 OVC:08 11.28,,975.3,1.609,-1.7,220,,2.1,,,,,,,,,,,,,,,,,,,,,,,,,,,,,,,,,,,,,,,,,,,,,,,,,,,,,,,,,,,,,,,,,,,,,,,,,,,,,,,,,,,,,,,,,,,MET12501/21/23 13:49:02 SPECI KLNK 211949Z 22004KT 1SM R36/5500VP6000FT -SN BR BKN025 OVC037 M01/M03 A3007 RMK AO2 SNB33 P0000 (BV),,,,,,,,,,3/26/2007
USW00014939,2023-01-21T13:54:00,40.8508,-96.7475,362.7,"LINCOLN AIRPORT, NE US",FM-15,343,1017.9,-2.8,-0.6,T,-SN:03 BR:1 |SN BR |SN,,,85,OVC:08 7.01,1019.5,975,1.609,-1.4,220,,2.6,,,,,,,,,,,,,,,,,,,,,,,,,,,,,,,,,,,,,,,,,,,,,,,,,,,,,,,,,,,,,,,,,,,,,,,,,,,,,,,,,,,,,,,,,,,MET13501/21/23 13:54:02 METAR KLNK 211954Z 22005KT 1SM R36/5000VP6000FT -SN BR OVC023 M01/M03 A3006 RMK AO2 SNB33 SLP195 P0000 T10061028 (BV),,,,,,,,,,3/26/2007
USW00014939,2023-01-21T14:43:00,40.8508,-96.7475,362.7,"LINCOLN AIRPORT, NE US",FM-16,343,1017.9,-2.8,-1.1,0.5,-SN:03 BR:1 |SN BR |SN,,,88,OVC:08 6.71,,975,1.207,-1.7,,,0,,,,,,,,,,,,,,,,,,,,,,,,,,,,,,,,,,,,,,,,,,,,,,,,,,,,,,,,,,,,,,,,,,,,,,,,,,,,,,,,,,,,,,,,,,,MET12301/21/23 14:43:02 SPECI KLNK 212043Z 00000KT 3/4SM R36/4000V5000FT -SN BR OVC022 M01/M03 A3006 RMK AO2 P0002 T10111028 (BV),,,,,,,,,,3/26/2007
USW00014939,2023-01-21T14:54:00,40.8508,-96.7475,362.7,"LINCOLN AIRPORT, NE US",FM-15,343,1017.9,-2.8,-0.6,0.5,-SN:03 BR:1 |SN BR |SN,-1.3,6,85,FEW:02 1.83 OVC:08 6.1,1019.2,975,1.207,-1.4,280,,1.5,,,,,,,,,,,,,,,,,,,,,,,,,,,,,,,,,,,,,,,,,,,,,,,,,,,,,,,,,,,,,,,,,,,,,,,,,,,,,,,,,,,,,,,,,,,MET14901/21/23 14:54:02 METAR KLNK 212054Z 28003KT 3/4SM R36/4000V4500FT -SN BR FEW006 OVC020 M01/M03 A3006 RMK AO2 SLP192 P0002 60002 T10061028 56013 (BV),,,,,,,,,,3/26/2007
USW00014939,2023-01-21T15:05:00,40.8508,-96.7475,362.7,"LINCOLN AIRPORT, NE US",FM-16,343,1017.9,-2.2,-0.6,0.2,-SN:03 BR:1 |SN BR |SN,,,89,FEW:02 1.22 OVC:08 4.88,,975,1.207,-1.2,290,,2.1,,,,,,,,,,,,,,,,,,,,,,,,,,,,,,,,,,,,,,,,,,,,,,,,,,,,,,,,,,,,,,,,,,,,,,,,,,,,,,,,,,,,,,,,,,,MET12501/21/23 15:05:02 SPECI KLNK 212105Z 29004KT 3/4SM R36/4000FT -SN BR FEW004 OVC016 M01/M02 A3006 RMK AO2 P0001 T10061022 (BV),,,,,,,,,,3/26/2007
USW00014939,2023-01-21T15:33:00,40.8508,-96.7475,362.7,"LINCOLN AIRPORT, NE US",FM-16,343,1017.6,-2.2,-0.6,0.5,-SN:03 BR:1 |SN BR |SN,,,89,VV:09 5.79,,974.7,1.207,-1.2,240,,1.5,,,,,,,,,,,,,,,,,,,,,,,,,,,,,,,,,,,,,,,,,,,,,,,,,,,,,,,,,,,,,,,,,,,,,,,,,,,,,,,,,,,,,,,,,,,MET12201/21/23 15:33:02 SPECI KLNK 212133Z 24003KT 3/4SM R36/4000V4500FT -SN BR VV019 M01/M02 A3005 RMK AO2 P0002 T10061022 (BV),,,,,,,,,,3/26/2007
USW00014939,2023-01-21T15:47:00,40.8508,-96.7475,362.7,"LINCOLN AIRPORT, NE US",FM-16,343,1017.6,-2.2,-1.1,0.5,SN:03 FZFG:2 |SN FG |SN,,,92,VV:09 5.18,,974.7,0.805,-1.5,,,0,,,,,,,,,,,,,,,,,,,,,,,,,,,,,,,,,,,,,,,,,,,,,,,,,,,,,,,,,,,,,,,,,,,,,,,,,,,,,,,,,,,,,,,,,,,MET12301/21/23 15:47:02 SPECI KLNK 212147Z 00000KT 1/2SM R36/4500V5000FT SN FZFG VV017 M01/M02 A3005 RMK AO2 P0002 T10111022 (BV),,,,,,,,,,3/26/2007
USW00014939,2023-01-21T15:52:00,40.8508,-96.7475,362.7,"LINCOLN AIRPORT, NE US",FM-16,343,1017.6,-2,-1,,SN:03 FZFG:2 |SN FG |SN,,,93,FEW:02 1.22 OVC:08 5.18,,974.7,0.805,-1.5,,,0,,,,,,,,,,,,,,,,,,,,,,,,,,,,,,,,,,,,,,,,,,,,,,,,,,,,,,,,,,,,,,,,,,,,,,,,,,,,,,,,,,,,,,,,,,,MET12601/21/23 15:52:02 SPECI KLNK 212152Z 00000KT 1/2SM R36/4500V5500FT SN FZFG FEW004 OVC017 M01/M02 A3005 RMK AO2 P0002 FIBI (BV),,,,,,,,,,3/26/2007
USW00014939,2023-01-21T15:54:00,40.8508,-96.7475,362.7,"LINCOLN AIRPORT, NE US",FM-15,343,1017.6,-1.7,-0.6,0.8,SN:03 FZFG:2 |SN FG |SN,,,92,FEW:02 1.22 OVC:08 4.57,1018.9,974.7,0.805,-1,,,0,,,,,,,,,,,,,,,,,,,,,,,,,,,,,,,,,,,,,,,,,,,,,,,,,,,,,,,,,,,,,,,,,,,,,,,,,,,,,,,,,,,,,,,,,,,MET13801/21/23 15:54:02 METAR KLNK 212154Z 00000KT 1/2SM R36/4500V5500FT SN FZFG FEW004 OVC015 M01/M02 A3005 RMK AO2 SLP189 P0002 T10061017 (BV),,,,,,,,,,3/26/2007
USW00014939,2023-01-21T16:45:00,40.8508,-96.7475,362.7,"LINCOLN AIRPORT, NE US",FM-16,343,1017.3,-2.2,-0.6,,-SN:03 BR:1 |SN BR |SN,,,89,OVC:08 6.4,,974.4,1.207,-1.2,290,,1.5,,,,,,,,,,,,,,,,,,,,,,,,,,,,,,,,,,,,,,,,,,,,,,,,,,,,,,,,,,,,,,,,,,,,,,,,,,,,,,,,,,,,,,,,,,,MET12301/21/23 16:45:02 SPECI KLNK 212245Z 29003KT 3/4SM R36/4000V5000FT -SN BR OVC021 M01/M02 A3004 RMK AO2 P0003 T10061022 (BV),,,,,,,,,,3/26/2007
USW00014939,2023-01-21T16:52:00,40.8508,-96.7475,362.7,"LINCOLN AIRPORT, NE US",FM-16,343,1017.3,-2,-1,0.7,-SN:03 BR:1 |SN BR |SN,,,93,OVC:08 7.92,,974.4,2.012,-1.5,280,,1.5,,,,,,,,,,,,,,,,,,,,,,,,,,,,,,,,,,,,,,,,,,,,,,,,,,,,,,,,,,,,,,,,,,,,,,,,,,,,,,,,,,,,,,,,,,,MET11501/21/23 16:52:02 SPECI KLNK 212252Z 28003KT 1 1/4SM R36/4500V6000FT -SN BR OVC026 M01/M02 A3004 RMK AO2 P0003 (BV),,,,,,,,,,3/26/2007
USW00014939,2023-01-21T16:54:00,40.8508,-96.7475,362.7,"LINCOLN AIRPORT, NE US",FM-15,343,1017.3,-2.2,-0.6,0.5,-SN:03 BR:1 |SN BR |SN,,,89,OVC:08 8.53,1018.6,974.4,2.414,-1.2,280,,1.5,,,,,,,,,,,,,,,,,,,,,,,,,,,,,,,,,,,,,,,,,,,,,,,,,,,,,,,,,,,,,,,,,,,,,,,,,,,,,,,,,,,,,,,,,,,MET13301/21/23 16:54:02 METAR KLNK 212254Z 28003KT 1 1/2SM R36/4500VP6000FT -SN BR OVC028 M01/M02 A3004 RMK AO2 SLP186 P0003 T10061022 (BV),,,,,,,,,,3/26/2007
USW00014939,2023-01-21T17:01:00,40.8508,-96.7475,362.7,"LINCOLN AIRPORT, NE US",FM-16,343,1017.3,-2.2,-0.6,T,-SN:03 BR:1 |SN BR |SN,,,89,BKN:07 10.97 OVC:08 18.29,,974.4,3.219,-1.2,,,0,,,,,,,,,,,,,,,,,,,,,,,,,,,,,,,,,,,,,,,,,,,,,,,,,,,,,,,,,,,,,,,,,,,,,,,,,,,,,,,,,,,,,,,,,,,MET12901/21/23 17:01:02 SPECI KLNK 212301Z 00000KT 2SM R36/6000VP6000FT -SN BR BKN036 OVC060 M01/M02 A3004 RMK AO2 P0000 T10061022 (BV),,,,,,,,,,3/26/2007
USW00014939,2023-01-21T17:16:00,40.8508,-96.7475,362.7,"LINCOLN AIRPORT, NE US",FM-16,343,1017.3,-2.2,-0.6,T,BR:1 |BR |,,,89,OVC:08 16.76,,974.4,4.828,-1.2,,,0,,,,,,,,,,,,,,,,,,,,,,,,,,,,,,,,,,,,,,,,,,,,,,,,,,,,,,,,,,,,,,,,,,,,,,,,,,,,,,,,,,,,,,,,,,,MET10701/21/23 17:16:02 SPECI KLNK 212316Z 00000KT 3SM BR OVC055 M01/M02 A3004 RMK AO2 SNE07 P0000 T10061022 (BV),,,,,,,,,,3/26/2007
USW00014939,2023-01-21T17:54:00,40.8508,-96.7475,362.7,"LINCOLN AIRPORT, NE US",FM-15,343,1016.9,-2.2,-0.6,T,BR:1 |BR |,-0.4,7,89,OVC:08 14.63,1018.4,974,8.047,-1.2,,,0,,,,,,,,,,,,,,,,,,,,,,,,,,,,,,,,,,,,,,,,,,,,,,,,,,,,,,,,,,,,,,,,,,,,,,,,,,,,,,,,,,,,,,,,,,,MET13801/21/23 17:54:02 METAR KLNK 212354Z 00000KT 5SM BR OVC048 M01/M02 A3003 RMK AO2 SNE07 SLP184 P0000 60007 T10061022 11006 21017 57004 (BV),,,,,,,,,,3/26/2007
USW00014939,2023-01-21T18:00:00,40.8508,-96.7475,362.7,"LINCOLN AIRPORT, NE US",FM-12,223,,-2.2,-0.6,,||BR,-0.4,7,89,,1018.4,973.8,,-1.2,,,0,,,,,,,,,,,,,,,,,,,,,,,,,,,,,,,,,,,,,,,,,,,,,,,,,,,,,,,,,,,,,,,,,,,,,,,,,,,,,,,,,,,,,,,,,,,SYN09272551 11658 80000 11006 21022 39738 40184 57004 60021 710// 92354 333 11006 21067 555 92200=,,,,,,,,,,3/26/2007
USW00014939,2023-01-21T18:54:00,40.8508,-96.7475,362.7,"LINCOLN AIRPORT, NE US",FM-15,343,1016.6,-2.8,-0.6,0,BR:1 |BR |,,,85,OVC:08 15.24,1018,973.7,8.047,-1.4,310,,1.5,,,,,,,,,,,,,,,,,,,,,,,,,,,,,,,,,,,,,,,,,,,,,,,,,,,,,,,,,,,,,,,,,,,,,,,,,,,,,,,,,,,,,,,,,,,MET09701/21/23 18:54:01 METAR KLNK 220054Z 31003KT 5SM BR OVC050 M01/M03 A3002 RMK AO2 SLP180 T10061028,,,,,,,,,,3/26/2007
USW00014939,2023-01-21T19:54:00,40.8508,-96.7475,362.7,"LINCOLN AIRPORT, NE US",FM-15,343,1016.3,-3.3,-1.1,0,,,,85,OVC:08 12.8,1017.5,973.4,12.875,-1.9,,,0,,,,,,,,,,,,,,,,,,,,,,,,,,,,,,,,,,,,,,,,,,,,,,,,,,,,,,,,,,,,,,,,,,,,,,,,,,,,,,,,,,,,,,,,,,,MET09401/21/23 19:54:01 METAR KLNK 220154Z 00000KT 8SM OVC042 M01/M03 A3001 RMK AO2 SLP175 T10111033,,,,,,,,,,3/26/2007
USW00014939,2023-01-21T20:54:00,40.8508,-96.7475,362.7,"LINCOLN AIRPORT, NE US",FM-15,343,1015.9,-3.3,-1.1,0,BR:1 |BR |,-1,6,85,OVC:08 18.29,1017.3,973.1,9.656,-1.9,,,0,,,,,,,,,,,,,,,,,,,,,,,,,,,,,,,,,,,,,,,,,,,,,,,,,,,,,,,,,,,,,,,,,,,,,,,,,,,,,,,,,,,,,,,,,,,MET10301/21/23 20:54:01 METAR KLNK 220254Z 00000KT 6SM BR OVC060 M01/M03 A3000 RMK AO2 SLP173 T10111033 56010,,,,,,,,,,3/26/2007
USW00014939,2023-01-21T21:54:00,40.8508,-96.7475,362.7,"LINCOLN AIRPORT, NE US",FM-15,343,1015.6,-4.4,-2.8,0,BR:1 |BR |,,,89,BKN:07 25.91 OVC:08 30.48,1016.9,972.7,8.047,-3.4,180,,1.5,,,,,,,,,,,,,,,,,,,,,,,,,,,,,,,,,,,,,,,,,,,,,,,,,,,,,,,,,,,,,,,,,,,,,,,,,,,,,,,,,,,,,,,,,,,MET10401/21/23 21:54:01 METAR KLNK 220354Z 18003KT 5SM BR BKN085 OVC100 M03/M04 A2999 RMK AO2 SLP169 T10281044,,,,,,,,,,3/26/2007
USW00014939,2023-01-21T22:54:00,40.8508,-96.7475,362.7,"LINCOLN AIRPORT, NE US",FM-15,343,1015.6,-3.9,-1.7,0,BR:1 |BR |,,,85,FEW:02 21.34 OVC:08 25.91,1016.8,972.7,8.047,-2.5,,,0,,,,,,,,,,,,,,,,,,,,,,,,,,,,,,,,,,,,,,,,,,,,,,,,,,,,,,,,,,,,,,,,,,,,,,,,,,,,,,,,,,,,,,,,,,,MET10401/21/23 22:54:01 METAR KLNK 220454Z 00000KT 5SM BR FEW070 OVC085 M02/M04 A2999 RMK AO2 SLP168 T10171039,,,,,,,,,,3/26/2007
USW00014939,2023-01-21T23:54:00,40.8508,-96.7475,362.7,"LINCOLN AIRPORT, NE US",FM-15,343,1015.2,-4.4,-3.3,0,BR:1 |BR |,-0.9,7,92,SCT:04 19.81 BKN:07 24.38 OVC:08 33.53,1016.4,972.4,4.828,-3.7,,,0,,,,,,,,,,,,,,,,,,,,,,,,,,,,,,,,,,,,,,,,,,,,,,,,,,,,,,,,,,,,,,,,,,,,,,,,,,,,,,,,,,,,,,,,,,,MET13901/21/23 23:54:01 METAR KLNK 220554Z 00000KT 3SM BR SCT065 BKN080 OVC110 M03/M04 A2998 RMK AO2 SLP164 T10331044 11006 21033 410061067 57009,,,,,,,,,,3/26/2007
USW00014939,2023-01-22T00:00:00,40.8508,-96.7475,362.7,"LINCOLN AIRPORT, NE US",FM-12,223,,-4.4,-3.3,,||BR,-0.9,7,92,,1016.4,972.2,,-3.7,,,0,,,,,,,,,,,,,,,,,,,,,,,,,,,,,,,,,,,,,,,,,,,,,,,,,,,,,,,,,,,,,,,,,,,,,,,,,,,,,,,,,,,,,,,,,,,SYN08672551 31748 80000 11033 21044 39722 40164 57009 710// 90554 333 11006 21067 555 92206=,,,,,,,,,,3/26/2007
USW00014939,2023-01-22T00:00:00,40.8508,-96.7475,362.7,"LINCOLN AIRPORT, NE US",SOD,,,,,,,,,,,,,,,,,,746,1731,-8.3,-5.7,83,1017.6,972.2,-6.7,1.4,0,-1.76,24,-1,-10.5,350,5.8,0,30,0,360,4,BR FG FZFG,,,,,,,,,,,,,,,,,,,,,,,,,,,,,,,,,,,,,,,,,,,,,,,,,,,,,,,,,,,,,,,,,,,,,,,,,,,,,,,3/26/2007
USW00014939,2023-01-22T00:54:00,40.8508,-96.7475,362.7,"LINCOLN AIRPORT, NE US",FM-15,343,1014.6,-5.6,-5,0,BR:1 |BR |,,,96,BKN:07 18.29 OVC:08 21.34,1015.9,971.8,6.437,-5.2,,,0,,,,,,,,,,,,,,,,,,,,,,,,,,,,,,,,,,,,,,,,,,,,,,,,,,,,,,,,,,,,,,,,,,,,,,,,,,,,,,,,,,,,,,,,,,,MET10401/22/23 00:54:01 METAR KLNK 220654Z 00000KT 4SM BR BKN060 OVC070 M05/M06 A2996 RMK AO2 SLP159 T10501056,,,,,,,,,,3/26/2007
USW00014939,2023-01-22T00:59:00,40.8508,-96.7475,362.7,"LINCOLN AIRPORT, NE US",FM-16,343,1014.6,-6.7,-6.1,,BR:1 |BR |,,,96,BKN:07 18.29,,971.8,2.816,-6.3,,,0,,,,,,,,,,,,,,,,,,,,,,,,,,,,,,,,,,,,,,,,,,,,,,,,,,,,,,,,,,,,,,,,,,,,,,,,,,,,,,,,,,,,,,,,,,,MET09401/22/23 00:59:01 SPECI KLNK 220659Z 00000KT 1 3/4SM BR BKN060 M06/M07 A2996 RMK AO2 T10611067,,,,,,,,,,3/26/2007
USW00014939,2023-01-22T01:15:00,40.8508,-96.7475,362.7,"LINCOLN AIRPORT, NE US",FM-16,343,1014.2,-7.8,-6.7,,FZFG:2 |FG |,,,92,SCT:04 13.41,,971.4,0.805,-7,10,,1.5,,,,,,,,,,,,,,,,,,,,,,,,,,,,,,,,,,,,,,,,,,,,,,,,,,,,,,,,,,,,,,,,,,,,,,,,,,,,,,,,,,,,,,,,,,,MET10601/22/23 01:15:01 SPECI KLNK 220715Z 01003KT 1/2SM R36/P6000FT FZFG SCT044 M07/M08 A2995 RMK AO2 T10671078,,,,,,,,,,3/26/2007
USW00014939,2023-01-22T01:28:00,40.8508,-96.7475,362.7,"LINCOLN AIRPORT, NE US",FM-16,343,1014.2,-7.8,-6.7,,FZFG:2 |FG |,,,92,CLR:00,,971.4,0.402,-7,360,,1.5,,,,,,,,,,,,,,,,,,,,,,,,,,,,,,,,,,,,,,,,,,,,,,,,,,,,,,,,,,,,,,,,,,,,,,,,,,,,,,,,,,,,,,,,,,,MET10701/22/23 01:28:01 SPECI KLNK 220728Z 36003KT 1/4SM R36/1000V3000FT FZFG CLR M07/M08 A2995 RMK AO2 T10671078,,,,,,,,,,3/26/2007
USW00014939,2023-01-22T01:33:00,40.8508,-96.7475,362.7,"LINCOLN AIRPORT, NE US",FM-16,343,1014.2,-7.8,-6.1,,FZFG:2 |FG |,,,88,VV:09 1.22,,971.4,0.402,-6.6,350,,1.5,,,,,,,,,,,,,,,,,,,,,,,,,,,,,,,,,,,,,,,,,,,,,,,,,,,,,,,,,,,,,,,,,,,,,,,,,,,,,,,,,,,,,,,,,,,MET10901/22/23 01:33:01 SPECI KLNK 220733Z 35003KT 1/4SM R36/1000V2600FT FZFG VV004 M06/M08 A2995 RMK AO2 T10611078,,,,,,,,,,3/26/2007
USW00014939,2023-01-22T01:36:00,40.8508,-96.7475,362.7,"LINCOLN AIRPORT, NE US",FM-16,343,1014.2,-7.2,-6.7,,FZFG:2 |FG |,,,96,FEW:02 1.22 FEW:02 18.29,,971.4,0.402,-6.8,350,,1.5,,,,,,,,,,,,,,,,,,,,,,,,,,,,,,,,,,,,,,,,,,,,,,,,,,,,,,,,,,,,,,,,,,,,,,,,,,,,,,,,,,,,,,,,,,,MET11701/22/23 01:36:01 SPECI KLNK 220736Z 35003KT 1/4SM R36/1000V1800FT FZFG FEW004 FEW060 M07/M07 A2995 RMK AO2 T10671072,,,,,,,,,,3/26/2007
USW00014939,2023-01-22T01:49:00,40.8508,-96.7475,362.7,"LINCOLN AIRPORT, NE US",FM-16,343,1014.2,-8,-7,,FZFG:2 |FG |,,,93,BKN:07 16.76,,971.4,0.805,-7.4,,,0,,,,,,,,,,,,,,,,,,,,,,,,,,,,,,,,,,,,,,,,,,,,,,,,,,,,,,,,,,,,,,,,,,,,,,,,,,,,,,,,,,,,,,,,,,,MET10101/22/23 01:49:01 SPECI KLNK 220749Z 00000KT 1/2SM R36/1000VP6000FT FZFG BKN055 M07/M08 A2995 RMK AO2,,,,,,,,,,3/26/2007
USW00014939,2023-01-22T01:54:00,40.8508,-96.7475,362.7,"LINCOLN AIRPORT, NE US",FM-15,343,1014.2,-6.7,-5.6,0,BR:1 |BR |,,,92,BKN:07 16.76,1015.5,971.4,2.012,-5.9,,,0,,,,,,,,,,,,,,,,,,,,,,,,,,,,,,,,,,,,,,,,,,,,,,,,,,,,,,,,,,,,,,,,,,,,,,,,,,,,,,,,,,,,,,,,,,,MET10101/22/23 01:54:01 METAR KLNK 220754Z 00000KT 1 1/4SM BR BKN055 M06/M07 A2995 RMK AO2 SLP155 T10561067,,,,,,,,,,3/26/2007
USW00014939,2023-01-22T02:06:00,40.8508,-96.7475,362.7,"LINCOLN AIRPORT, NE US",FM-16,343,1014.2,-6.7,-6.1,,BR:1 |BR |,,,96,OVC:08 16.76,,971.4,3.219,-6.3,,,0,,,,,,,,,,,,,,,,,,,,,,,,,,,,,,,,,,,,,,,,,,,,,,,,,,,,,,,,,,,,,,,,,,,,,,,,,,,,,,,,,,,,,,,,,,,MET09001/22/23 02:06:01 SPECI KLNK 220806Z 00000KT 2SM BR OVC055 M06/M07 A2995 RMK AO2 T10611067,,,,,,,,,,3/26/2007
USW00014939,2023-01-22T02:33:00,40.8508,-96.7475,362.7,"LINCOLN AIRPORT, NE US",FM-16,343,1013.9,-7.2,-6.1,,BR:1 |BR |,,,92,OVC:08 15.24,,971.1,4.828,-6.5,,,0,,,,,,,,,,,,,,,,,,,,,,,,,,,,,,,,,,,,,,,,,,,,,,,,,,,,,,,,,,,,,,,,,,,,,,,,,,,,,,,,,,,,,,,,,,,MET10601/22/23 02:33:01 SPECI KLNK 220833Z 00000KT 3SM R36/1400V4500FT BR OVC050 M06/M07 A2994 RMK AO2 T10611072,,,,,,,,,,3/26/2007
USW00014939,2023-01-22T02:54:00,40.8508,-96.7475,362.7,"LINCOLN AIRPORT, NE US",FM-15,343,1013.9,-6.7,-5.6,0,BR:1 |BR |,-0.5,6,92,OVC:08 15.24,1015.4,971.1,6.437,-5.9,,,0,,,,,,,,,,,,,,,,,,,,,,,,,,,,,,,,,,,,,,,,,,,,,,,,,,,,,,,,,,,,,,,,,,,,,,,,,,,,,,,,,,,,,,,,,,,MET13201/22/23 02:54:01 METAR KLNK 220854Z 00000KT 4SM R36/2800VP6000FT BR OVC050 M06/M07 A2994 RMK AO2 SLP154 I1000 I3000 T10561067 56005,,,,,,,,,,3/26/2007
USW00014939,2023-01-22T03:54:00,40.8508,-96.7475,362.7,"LINCOLN AIRPORT, NE US",FM-15,343,1013.5,-6.7,-5.6,0,BR:1 |BR |,,,92,SCT:04 14.94,1014.9,970.8,8.047,-5.9,,,0,,,,,,,,,,,,,,,,,,,,,,,,,,,,,,,,,,,,,,,,,,,,,,,,,,,,,,,,,,,,,,,,,,,,,,,,,,,,,,,,,,,,,,,,,,,MET09701/22/23 03:54:01 METAR KLNK 220954Z 00000KT 5SM BR SCT049 M06/M07 A2993 RMK AO2 SLP149 T10561067,,,,,,,,,,3/26/2007
USW00014939,2023-01-22T04:54:00,40.8508,-96.7475,362.7,"LINCOLN AIRPORT, NE US",FM-15,343,1013.5,-7.8,-6.7,0,BR:1 |BR |,,,92,CLR:00,1015.1,970.8,4.828,-7,,,0,,,,,,,,,,,,,,,,,,,,,,,,,,,,,,,,,,,,,,,,,,,,,,,,,,,,,,,,,,,,,,,,,,,,,,,,,,,,,,,,,,,,,,,,,,,MET11701/22/23 04:54:01 METAR KLNK 221054Z 00000KT 3SM R36/2200VP6000FT BR CLR M07/M08 A2993 RMK AO2 SLP151 I1000 T10671078,,,,,,,,,,3/26/2007
USW00014939,2023-01-22T05:02:00,40.8508,-96.7475,362.7,"LINCOLN AIRPORT, NE US",FM-16,343,1013.5,-8.3,-7.8,,BR:1 |BR |,,,96,CLR:00,,970.8,2.816,-7.9,340,,1.5,,,,,,,,,,,,,,,,,,,,,,,,,,,,,,,,,,,,,,,,,,,,,,,,,,,,,,,,,,,,,,,,,,,,,,,,,,,,,,,,,,,,,,,,,,,MET10701/22/23 05:02:02 SPECI KLNK 221102Z 34003KT 1 3/4SM R36/1600V3500FT BR CLR M08/M08 A2993 RMK AO2 T10781083,,,,,,,,,,3/26/2007
USW00014939,2023-01-22T05:10:00,40.8508,-96.7475,362.7,"LINCOLN AIRPORT, NE US",FM-16,343,1013.5,-10,-9.4,,BR:1 |BR |,,,95,CLR:00,,970.8,3.219,-9.6,340,,3.1,,,,,,,,,,,,,,,,,,,,,,,,,,,,,,,,,,,,,,,,,,,,,,,,,,,,,,,,,,,,,,,,,,,,,,,,,,,,,,,,,,,,,,,,,,,MET10301/22/23 05:10:02 SPECI KLNK 221110Z 34006KT 2SM R36/1400V1800FT BR CLR M09/M10 A2993 RMK AO2 T10941100,,,,,,,,,,3/26/2007
USW00014939,2023-01-22T05:20:00,40.8508,-96.7475,362.7,"LINCOLN AIRPORT, NE US",FM-16,343,1013.5,-10.6,-8.3,,BR:1 |BR |,,,84,CLR:00,,970.8,8.047,-9,350,,2.6,,,,,,,,,,,,,,,,,,,,,,,,,,,,,,,,,,,,,,,,,,,,,,,,,,,,,,,,,,,,,,,,,,,,,,,,,,,,,,,,,,,,,,,,,,,MET10301/22/23 05:20:02 SPECI KLNK 221120Z 35005KT 5SM R36/1600V2200FT BR CLR M08/M11 A2993 RMK AO2 T10831106,,,,,,,,,,3/26/2007
USW00014939,2023-01-22T05:29:00,40.8508,-96.7475,362.7,"LINCOLN AIRPORT, NE US",FM-16,343,1013.5,-10,-8.9,,BR:1 |BR |,,,92,CLR:00,,970.8,9.656,-9.2,350,,3.1,,,,,,,,,,,,,,,,,,,,,,,,,,,,,,,,,,,,,,,,,,,,,,,,,,,,,,,,,,,,,,,,,,,,,,,,,,,,,,,,,,,,,,,,,,,MET10401/22/23 05:29:02 SPECI KLNK 221129Z 35006KT 6SM R36/1600VP6000FT BR CLR M09/M10 A2993 RMK AO2 T10891100,,,,,,,,,,3/26/2007
USW00014939,2023-01-22T05:54:00,40.8508,-96.7475,362.7,"LINCOLN AIRPORT, NE US",FM-15,343,1013.5,-9.4,-8.3,0,BR:1 |BR |,-0.5,6,92,CLR:00,1015,970.8,8.047,-8.7,350,,2.1,,,,,,,,,,,,,,,,,,,,,,,,,,,,,,,,,,,,,,,,,,,,,,,,,,,,,,,,,,,,,,,,,,,,,,,,,,,,,,,,,,,,,,,,,,,MET14701/22/23 05:54:02 METAR KLNK 221154Z 35004KT 5SM R36/4500VP6000FT BR CLR M08/M09 A2993 RMK AO2 SLP150 70007 I1000 I6000 T10831094 11022 21094 56005,,,,,,,,,,3/26/2007
USW00014939,2023-01-22T06:00:00,40.8508,-96.7475,362.7,"LINCOLN AIRPORT, NE US",FM-12,223,,-9.4,-8.3,,||BR,-0.5,6,92,,1015,970.5,,-8.7,350,,2.1,,,,,,,,,,,,,,,,,,,,,,,,,,,,,,,,,,,,,,,,,,,,,,,,,,,,,,,,,,,,,,,,,,,,,,,,,,,,,,,,,,,,,,,,,,,SYN09272551 31958 03504 11083 21094 39705 40150 56005 710// 91154 333 11006 21094 70018 555 92212=,,,,,,,,,,3/26/2007
USW00014939,2023-01-22T06:47:00,40.8508,-96.7475,362.7,"LINCOLN AIRPORT, NE US",FM-16,343,1013.5,-10.6,-8.9,,BR:1 |BR |,,,88,CLR:00,,970.8,2.414,-9.3,,,0,,,,,,,,,,,,,,,,,,,,,,,,,,,,,,,,,,,,,,,,,,,,,,,,,,,,,,,,,,,,,,,,,,,,,,,,,,,,,,,,,,,,,,,,,,,MET09701/22/23 06:47:02 SPECI KLNK 221247Z 00000KT 1 1/2SM BR CLR M09/M11 A2993 RMK AO2 I1000 T10891106,,,,,,,,,,3/26/2007
USW00014939,2023-01-22T06:52:00,40.8508,-96.7475,362.7,"LINCOLN AIRPORT, NE US",FM-16,343,1013.9,-11,-9,,BR:1 |BR |,,,86,CLR:00,,971.1,1.207,-9.5,,,0,,,,,,,,,,,,,,,,,,,,,,,,,,,,,,,,,,,,,,,,,,,,,,,,,,,,,,,,,,,,,,,,,,,,,,,,,,,,,,,,,,,,,,,,,,,MET10701/22/23 06:52:02 SPECI KLNK 221252Z 00000KT 3/4SM R36/P6000FT BR CLR M09/M11 A2994 RMK AO2 I1000 FIBI (SD),,,,,,,,,,3/26/2007
USW00014939,2023-01-22T06:54:00,40.8508,-96.7475,362.7,"LINCOLN AIRPORT, NE US",FM-15,343,1013.9,-10.6,-8.9,0,FZFG:2 |FG |,,,88,CLR:00,1015.3,971.1,0.805,-9.3,,,0,,,,,,,,,,,,,,,,,,,,,,,,,,,,,,,,,,,,,,,,,,,,,,,,,,,,,,,,,,,,,,,,,,,,,,,,,,,,,,,,,,,,,,,,,,,MET11601/22/23 06:54:02 METAR KLNK 221254Z 00000KT 1/2SM R36/P6000FT FZFG CLR M09/M11 A2994 RMK AO2 SLP153 I1000 T10891106,,,,,,,,,,3/26/2007
USW00014939,2023-01-22T07:13:00,40.8508,-96.7475,362.7,"LINCOLN AIRPORT, NE US",FM-16,343,1013.9,-11.1,-9.4,,BR:1 |BR |,,,88,CLR:00,,971.1,2.414,-9.9,,,0,,,,,,,,,,,,,,,,,,,,,,,,,,,,,,,,,,,,,,,,,,,,,,,,,,,,,,,,,,,,,,,,,,,,,,,,,,,,,,,,,,,,,,,,,,,MET09101/22/23 07:13:02 SPECI KLNK 221313Z 00000KT 1 1/2SM BR CLR M09/M11 A2994 RMK AO2 T10941111,,,,,,,,,,3/26/2007
USW00014939,2023-01-22T07:31:00,40.8508,-96.7475,362.7,"LINCOLN AIRPORT, NE US",FM-16,343,1013.9,-11.1,-10,,BR:1 |BR |,,,92,CLR:00,,971.1,1.207,-10.3,,,0,,,,,,,,,,,,,,,,,,,,,,,,,,,,,,,,,,,,,,,,,,,,,,,,,,,,,,,,,,,,,,,,,,,,,,,,,,,,,,,,,,,,,,,,,,,MET10101/22/23 07:31:02 SPECI KLNK 221331Z 00000KT 3/4SM R36/P6000FT BR CLR M10/M11 A2994 RMK AO2 T11001111,,,,,,,,,,3/26/2007
USW00014939,2023-01-22T07:36:00,40.8508,-96.7475,362.7,"LINCOLN AIRPORT, NE US",FM-16,343,1013.9,-10.6,-8.3,,BR:1 |BR |,,,84,CLR:00,,971.1,4.023,-9,280,,1.5,,,,,,,,,,,,,,,,,,,,,,,,,,,,,,,,,,,,,,,,,,,,,,,,,,,,,,,,,,,,,,,,,,,,,,,,,,,,,,,,,,,,,,,,,,,MET09701/22/23 07:36:02 SPECI KLNK 221336Z 28003KT 2 1/2SM BR CLR M08/M11 A2994 RMK AO2 I1000 T10831106,,,,,,,,,,3/26/2007
USW00014939,2023-01-22T07:43:00,40.8508,-96.7475,362.7,"LINCOLN AIRPORT, NE US",FM-16,343,1014.2,-9.4,-8.3,,,,,92,CLR:00,,971.4,11.265,-8.7,290,,2.1,,,,,,,,,,,,,,,,,,,,,,,,,,,,,,,,,,,,,,,,,,,,,,,,,,,,,,,,,,,,,,,,,,,,,,,,,,,,,,,,,,,,,,,,,,,MET09001/22/23 07:43:02 SPECI KLNK 221343Z 29004KT 7SM CLR M08/M09 A2995 RMK AO2 I1000 T10831094,,,,,,,,,,3/26/2007
USW00014939,2023-01-22T07:54:00,40.8508,-96.7475,362.7,"LINCOLN AIRPORT, NE US",FM-15,343,1014.2,-9.4,-8.3,0,,,,92,CLR:00,1015.8,971.4,11.265,-8.7,310,,1.5,,,,,,,,,,,,,,,,,,,,,,,,,,,,,,,,,,,,,,,,,,,,,,,,,,,,,,,,,,,,,,,,,,,,,,,,,,,,,,,,,,,,,,,,,,,MET09701/22/23 07:54:02 METAR KLNK 221354Z 31003KT 7SM CLR M08/M09 A2995 RMK AO2 SLP158 I1000 T10831094,,,,,,,,,,3/26/2007
USW00014939,2023-01-22T08:54:00,40.8508,-96.7475,362.7,"LINCOLN AIRPORT, NE US",FM-15,343,1014.9,-10,-7.8,0,,1.3,3,84,CLR:00,1016.4,972.1,12.875,-8.4,350,,1.5,,,,,,,,,,,,,,,,,,,,,,,,,,,,,,,,,,,,,,,,,,,,,,,,,,,,,,,,,,,,,,,,,,,,,,,,,,,,,,,,,,,,,,,,,,,MET10301/22/23 08:54:02 METAR KLNK 221454Z 35003KT 8SM CLR M08/M10 A2997 RMK AO2 SLP164 I3000 T10781100 53013,,,,,,,,,,3/26/2007
USW00014939,2023-01-22T09:54:00,40.8508,-96.7475,362.7,"LINCOLN AIRPORT, NE US",FM-15,343,1015.2,-8.9,-6.7,0,,,,85,CLR:00,1016.8,972.4,16.093,-7.3,340,,3.6,,,,,,,,,,,,,,,,,,,,,,,,,,,,,,,,,,,,,,,,,,,,,,,,,,,,,,,,,,,,,,,,,,,,,,,,,,,,,,,,,,,,,,,,,,,MET09201/22/23 09:54:02 METAR KLNK 221554Z 34007KT 10SM CLR M07/M09 A2998 RMK AO2 SLP168 T10671089,,,,,,,,,,3/26/2007
USW00014939,2023-01-22T10:54:00,40.8508,-96.7475,362.7,"LINCOLN AIRPORT, NE US",FM-15,343,1015.6,-7.8,-4.4,0,,,,77,CLR:00,1016.9,972.7,16.093,-5.5,340,,3.1,,,,,,,,,,,,,,,,,,,,,,,,,,,,,,,,,,,,,,,,,,,,,,,,,,,,,,,,,,,,,,,,,,,,,,,,,,,,,,,,,,,,,,,,,,,MET09201/22/23 10:54:02 METAR KLNK 221654Z 34006KT 10SM CLR M04/M08 A2999 RMK AO2 SLP169 T10441078,,,,,,,,,,3/26/2007
USW00014939,2023-01-22T11:54:00,40.8508,-96.7475,362.7,"LINCOLN AIRPORT, NE US",FM-15,343,1015.6,-7.2,-3.3,0,,0.8,1,75,CLR:00,1017.2,972.7,14.484,-4.6,10,,2.6,,,,,,,,,,,,,,,,,,,,,,,,,,,,,,,,,,,,,,,,,,,,,,,,,,,,,,,,,,,,,,,,,,,,,,,,,,,,,,,,,,,,,,,,,,,MET11501/22/23 11:54:02 METAR KLNK 221754Z 01005KT 9SM CLR M03/M07 A2999 RMK AO2 SLP172 I6000 T10331072 11033 21106 51008,,,,,,,,,,3/26/2007
USW00014939,2023-01-22T12:00:00,40.8508,-96.7475,362.7,"LINCOLN AIRPORT, NE US",FM-12,223,,-7.2,-3.3,,,0.8,1,75,,1017.2,972.5,,-4.6,10,,2.6,,,,,,,,,,,,,,,,,,,,,,,,,,,,,,,,,,,,,,,,,,,,,,,,,,,,,,,,,,,,,,,,,,,,,,,,,,,,,,,,,,,,,,,,,,,SYN08072551 32964 00105 11033 21072 39725 40172 51008 91754 333 11022 21106 555 92218=,,,,,,,,,,3/26/2007
USW00014939,2023-01-22T12:54:00,40.8508,-96.7475,362.7,"LINCOLN AIRPORT, NE US",FM-15,343,1014.9,-6.1,-2.2,0,,,,75,CLR:00,1016.3,972.1,14.484,-3.5,360,,3.1,,,,,,,,,,,,,,,,,,,,,,,,,,,,,,,,,,,,,,,,,,,,,,,,,,,,,,,,,,,,,,,,,,,,,,,,,,,,,,,,,,,,,,,,,,,MET09101/22/23 12:54:02 METAR KLNK 221854Z 36006KT 9SM CLR M02/M06 A2997 RMK AO2 SLP163 T10221061,,,,,,,,,,3/26/2007
USW00014939,2023-01-22T13:54:00,40.8508,-96.7475,362.7,"LINCOLN AIRPORT, NE US",FM-15,343,1014.9,-5.6,-1.7,0,,,,75,CLR:00,1016.2,972.1,14.484,-3,350,,3.1,,,,,,,,,,,,,,,,,,,,,,,,,,,,,,,,,,,,,,,,,,,,,,,,,,,,,,,,,,,,,,,,,,,,,,,,,,,,,,,,,,,,,,,,,,,MET09101/22/23 13:54:02 METAR KLNK 221954Z 35006KT 9SM CLR M02/M06 A2997 RMK AO2 SLP162 T10171056,,,,,,,,,,3/26/2007
USW00014939,2023-01-22T14:54:00,40.8508,-96.7475,362.7,"LINCOLN AIRPORT, NE US",FM-15,343,1014.9,-5.6,-1.1,0,,-0.6,5,72,CLR:00,1016.5,972.1,12.875,-2.7,10,,3.1,,,,,,,,,,,,,,,,,,,,,,,,,,,,,,,,,,,,,,,,,,,,,,,,,,,,,,,,,,,,,,,,,,,,,,,,,,,,,,,,,,,,,,,,,,,MET09701/22/23 14:54:02 METAR KLNK 222054Z 01006KT 8SM CLR M01/M06 A2997 RMK AO2 SLP165 T10111056 55006,,,,,,,,,,3/26/2007
USW00014939,2023-01-22T15:54:00,40.8508,-96.7475,362.7,"LINCOLN AIRPORT, NE US",FM-15,343,1015.6,-6.1,-1.7,0,,,,72,CLR:00,1017,972.7,14.484,-3.2,350,,3.1,,,,,,,,,,,,,,,,,,,,,,,,,,,,,,,,,,,,,,,,,,,,,,,,,,,,,,,,,,,,,,,,,,,,,,,,,,,,,,,,,,,,,,,,,,,MET09101/22/23 15:54:02 METAR KLNK 222154Z 35006KT 9SM CLR M02/M06 A2999 RMK AO2 SLP170 T10171061,,,,,,,,,,3/26/2007
USW00014939,2023-01-22T16:54:00,40.8508,-96.7475,362.7,"LINCOLN AIRPORT, NE US",FM-15,343,1015.9,-6.1,-2.2,0,,,,75,CLR:00,1017.5,973.1,14.484,-3.5,360,,2.1,,,,,,,,,,,,,,,,,,,,,,,,,,,,,,,,,,,,,,,,,,,,,,,,,,,,,,,,,,,,,,,,,,,,,,,,,,,,,,,,,,,,,,,,,,,MET09101/22/23 16:54:02 METAR KLNK 222254Z 36004KT 9SM CLR M02/M06 A3000 RMK AO2 SLP175 T10221061,,,,,,,,,,3/26/2007
USW00014939,2023-01-22T17:54:00,40.8508,-96.7475,362.7,"LINCOLN AIRPORT, NE US",FM-15,343,1016.6,-7.2,-3.3,0,,1.4,3,75,CLR:00,1018.2,973.7,16.093,-4.6,330,,2.6,,,,,,,,,,,,,,,,,,,,,,,,,,,,,,,,,,,,,,,,,,,,,,,,,,,,,,,,,,,,,,,,,,,,,,,,,,,,,,,,,,,,,,,,,,,MET11501/22/23 17:54:02 METAR KLNK 222354Z 33005KT 10SM CLR M03/M07 A3002 RMK AO2 SLP182 T10331072 11011 21033 53014 (JJ),,,,,,,,,,3/26/2007
USW00014939,2023-01-22T18:00:00,40.8508,-96.7475,362.7,"LINCOLN AIRPORT, NE US",FM-12,223,,-7.2,-3.3,,,1.4,3,75,,1018.2,973.5,,-4.6,330,,2.6,,,,,,,,,,,,,,,,,,,,,,,,,,,,,,,,,,,,,,,,,,,,,,,,,,,,,,,,,,,,,,,,,,,,,,,,,,,,,,,,,,,,,,,,,,,SYN08072551 32966 03305 11033 21072 39735 40182 53014 92354 333 11011 21094 555 92300=,,,,,,,,,,3/26/2007
USW00014939,2023-01-22T18:54:00,40.8508,-96.7475,362.7,"LINCOLN AIRPORT, NE US",FM-15,343,1017.3,-9.4,-6.7,0,,,,81,CLR:00,1019.1,974.4,12.875,-7.5,80,,2.1,,,,,,,,,,,,,,,,,,,,,,,,,,,,,,,,,,,,,,,,,,,,,,,,,,,,,,,,,,,,,,,,,,,,,,,,,,,,,,,,,,,,,,,,,,,MET09601/22/23 18:54:03 METAR KLNK 230054Z 08004KT 8SM CLR M07/M09 A3004 RMK AO2 SLP191 T10671094 (JJ),,,,,,,,,,3/26/2007
USW00014939,2023-01-22T19:54:00,40.8508,-96.7475,362.7,"LINCOLN AIRPORT, NE US",FM-15,343,1017.6,-9.4,-7.2,0,BR:1 |BR |,,,84,CLR:00,1019.4,974.7,9.656,-7.9,,,0,,,,,,,,,,,,,,,,,,,,,,,,,,,,,,,,,,,,,,,,,,,,,,,,,,,,,,,,,,,,,,,,,,,,,,,,,,,,,,,,,,,,,,,,,,,MET09401/22/23 19:54:01 METAR KLNK 230154Z 00000KT 6SM BR CLR M07/M09 A3005 RMK AO2 SLP194 T10721094,,,,,,,,,,3/26/2007
USW00014939,2023-01-22T20:54:00,40.8508,-96.7475,362.7,"LINCOLN AIRPORT, NE US",FM-15,343,1017.9,-9.4,-7.2,0,BR:1 |BR |,1.3,1,84,CLR:00,1019.7,975,9.656,-7.9,,,0,,,,,,,,,,,,,,,,,,,,,,,,,,,,,,,,,,,,,,,,,,,,,,,,,,,,,,,,,,,,,,,,,,,,,,,,,,,,,,,,,,,,,,,,,,,MET10001/22/23 20:54:01 METAR KLNK 230254Z 00000KT 6SM BR CLR M07/M09 A3006 RMK AO2 SLP197 T10721094 51013,,,,,,,,,,3/26/2007
USW00014939,2023-01-22T21:54:00,40.8508,-96.7475,362.7,"LINCOLN AIRPORT, NE US",FM-15,343,1018.3,-11.1,-9.4,0,BR:1 |BR |,,,88,CLR:00,1020,975.3,8.047,-9.9,,,0,,,,,,,,,,,,,,,,,,,,,,,,,,,,,,,,,,,,,,,,,,,,,,,,,,,,,,,,,,,,,,,,,,,,,,,,,,,,,,,,,,,,,,,,,,,MET10001/22/23 21:54:01 METAR KLNK 230354Z 00000KT 5SM BR CLR M09/M11 A3007 RMK AO2 SLP200 I1000 T10941111,,,,,,,,,,3/26/2007
USW00014939,2023-01-22T22:54:00,40.8508,-96.7475,362.7,"LINCOLN AIRPORT, NE US",FM-15,343,1018.6,-11.7,-8.9,0,,,,80,CLR:00,1020.4,975.7,11.265,-9.6,,,0,,,,,,,,,,,,,,,,,,,,,,,,,,,,,,,,,,,,,,,,,,,,,,,,,,,,,,,,,,,,,,,,,,,,,,,,,,,,,,,,,,,,,,,,,,,MET09701/22/23 22:54:01 METAR KLNK 230454Z 00000KT 7SM CLR M09/M12 A3008 RMK AO2 SLP204 I1000 T10891117,,,,,,,,,,3/26/2007
USW00014939,2023-01-22T23:54:00,40.8508,-96.7475,362.7,"LINCOLN AIRPORT, NE US",FM-15,343,1019,-10.6,-8.9,0,,1.3,3,88,CLR:00,1020.9,976,12.875,-9.3,,,0,,,,,,,,,,,,,,,,,,,,,,,,,,,,,,,,,,,,,,,,,,,,,,,,,,,,,,,,,,,,,,,,,,,,,,,,,,,,,,,,,,,,,,,,,,,MET13101/22/23 23:54:01 METAR KLNK 230554Z 00000KT 8SM CLR M09/M11 A3009 RMK AO2 SLP209 I1000 I6000 T10891106 11033 21100 410111106 53013,,,,,,,,,,3/26/2007
USW00014939,2023-01-23T00:00:00,40.8508,-96.7475,362.7,"LINCOLN AIRPORT, NE US",FM-12,223,,-10.6,-8.9,,,1.3,3,88,,1020.9,975.8,,-9.3,,,0,,,,,,,,,,,,,,,,,,,,,,,,,,,,,,,,,,,,,,,,,,,,,,,,,,,,,,,,,,,,,,,,,,,,,,,,,,,,,,,,,,,,,,,,,,,SYN08072551 35962 00000 11089 21106 39758 40209 53013 90554 333 11022 21100 555 92306=,,,,,,,,,,3/26/2007
USW00014939,2023-01-23T00:00:00,40.8508,-96.7475,362.7,"LINCOLN AIRPORT, NE US",SOD,,,,,,,,,,,,,,,,,,746,1732,-6.7,-4.9,79,1023,978.3,-4.4,2.1,0,-0.96,23.2,3.3,-13.2,240,7.2,0,T,0,250,5.8,,,,,,,,,,,,,,,,,,,,,,,,,,,,,,,,,,,,,,,,,,,,,,,,,,,,,,,,,,,,,,,,,,,,,,,,,,,,,,,,3/26/2007
USW00014939,2023-01-23T00:54:00,40.8508,-96.7475,362.7,"LINCOLN AIRPORT, NE US",FM-15,343,1019.3,-12.8,-10,0,,,,80,CLR:00,1021.3,976.3,14.484,-10.7,,,0,,,,,,,,,,,,,,,,,,,,,,,,,,,,,,,,,,,,,,,,,,,,,,,,,,,,,,,,,,,,,,,,,,,,,,,,,,,,,,,,,,,,,,,,,,,MET09701/23/23 00:54:02 METAR KLNK 230654Z 00000KT 9SM CLR M10/M13 A3010 RMK AO2 SLP213 I1000 T11001128,,,,,,,,,,3/26/2007
USW00014939,2023-01-23T01:54:00,40.8508,-96.7475,362.7,"LINCOLN AIRPORT, NE US",FM-15,343,1020,-13.3,-10.6,0,,,,81,CLR:00,1021.9,977,11.265,-11.2,,,0,,,,,,,,,,,,,,,,,,,,,,,,,,,,,,,,,,,,,,,,,,,,,,,,,,,,,,,,,,,,,,,,,,,,,,,,,,,,,,,,,,,,,,,,,,,MET09701/23/23 01:54:02 METAR KLNK 230754Z 00000KT 7SM CLR M11/M13 A3012 RMK AO2 SLP219 I1000 T11061133,,,,,,,,,,3/26/2007
USW00014939,2023-01-23T02:54:00,40.8508,-96.7475,362.7,"LINCOLN AIRPORT, NE US",FM-15,343,1020.7,-13.9,-11.7,0,,1.5,3,84,CLR:00,1022.5,977.6,11.265,-12.2,180,,1.5,,,,,,,,,,,,,,,,,,,,,,,,,,,,,,,,,,,,,,,,,,,,,,,,,,,,,,,,,,,,,,,,,,,,,,,,,,,,,,,,,,,,,,,,,,,MET10901/23/23 02:54:02 METAR KLNK 230854Z 18003KT 7SM CLR M12/M14 A3014 RMK AO2 SLP225 I1000 I3000 T11171139 53015,,,,,,,,,,3/26/2007
USW00014939,2023-01-23T03:54:00,40.8508,-96.7475,362.7,"LINCOLN AIRPORT, NE US",FM-15,343,1020.7,-13.9,-12.2,0,,,,87,CLR:00,1022.6,977.6,12.875,-12.6,170,,2.1,,,,,,,,,,,,,,,,,,,,,,,,,,,,,,,,,,,,,,,,,,,,,,,,,,,,,,,,,,,,,,,,,,,,,,,,,,,,,,,,,,,,,,,,,,,MET09101/23/23 03:54:02 METAR KLNK 230954Z 17004KT 8SM CLR M12/M14 A3014 RMK AO2 SLP226 T11221139,,,,,,,,,,3/26/2007
USW00014939,2023-01-23T04:54:00,40.8508,-96.7475,362.7,"LINCOLN AIRPORT, NE US",FM-15,343,1020.7,-14.4,-12.2,0,,,,84,CLR:00,1022.6,977.6,16.093,-12.7,190,,2.6,,,,,,,,,,,,,,,,,,,,,,,,,,,,,,,,,,,,,,,,,,,,,,,,,,,,,,,,,,,,,,,,,,,,,,,,,,,,,,,,,,,,,,,,,,,MET09201/23/23 04:54:02 METAR KLNK 231054Z 19005KT 10SM CLR M12/M14 A3014 RMK AO2 SLP226 T11221144,,,,,,,,,,3/26/2007
USW00014939,2023-01-23T05:54:00,40.8508,-96.7475,362.7,"LINCOLN AIRPORT, NE US",FM-15,343,1020.3,-15,-12.8,0,,-0.3,8,84,CLR:00,1022.4,977.3,14.484,-13.3,190,,2.1,,,,,,,,,,,,,,,,,,,,,,,,,,,,,,,,,,,,,,,,,,,,,,,,,,,,,,,,,,,,,,,,,,,,,,,,,,,,,,,,,,,,,,,,,,,MET11501/23/23 05:54:02 METAR KLNK 231154Z 19004KT 9SM CLR M13/M15 A3013 RMK AO2 SLP224 I6000 T11281150 11089 21133 58003,,,,,,,,,,3/26/2007
USW00014939,2023-01-23T06:00:00,40.8508,-96.7475,362.7,"LINCOLN AIRPORT, NE US",FM-12,223,,-15,-12.8,,,-0.3,8,84,,1022.4,977.1,,-13.3,190,,2.1,,,,,,,,,,,,,,,,,,,,,,,,,,,,,,,,,,,,,,,,,,,,,,,,,,,,,,,,,,,,,,,,,,,,,,,,,,,,,,,,,,,,,,,,,,,SYN08072551 32964 01904 11128 21150 39771 40224 58003 91154 333 11011 21133 555 92312=,,,,,,,,,,3/26/2007
USW00014939,2023-01-23T06:54:00,40.8508,-96.7475,362.7,"LINCOLN AIRPORT, NE US",FM-15,343,1021.3,-13.9,-11.1,0,,,,80,CLR:00,1023.3,978.3,16.093,-11.8,210,,2.1,,,,,,,,,,,,,,,,,,,,,,,,,,,,,,,,,,,,,,,,,,,,,,,,,,,,,,,,,,,,,,,,,,,,,,,,,,,,,,,,,,,,,,,,,,,MET09201/23/23 06:54:02 METAR KLNK 231254Z 21004KT 10SM CLR M11/M14 A3016 RMK AO2 SLP233 T11111139,,,,,,,,,,3/26/2007
USW00014939,2023-01-23T07:54:00,40.8508,-96.7475,362.7,"LINCOLN AIRPORT, NE US",FM-15,343,1021.3,-14.4,-12.2,0,,,,84,CLR:00,1023.5,978.3,11.265,-12.7,190,,1.5,,,,,,,,,,,,,,,,,,,,,,,,,,,,,,,,,,,,,,,,,,,,,,,,,,,,,,,,,,,,,,,,,,,,,,,,,,,,,,,,,,,,,,,,,,,MET09101/23/23 07:54:02 METAR KLNK 231354Z 19003KT 7SM CLR M12/M14 A3016 RMK AO2 SLP235 T11221144,,,,,,,,,,3/26/2007
USW00014939,2023-01-23T08:54:00,40.8508,-96.7475,362.7,"LINCOLN AIRPORT, NE US",FM-15,343,1021.3,-11.1,-8.9,0,,1,1,84,CLR:00,1023.4,978.3,14.484,-9.5,250,,2.1,,,,,,,,,,,,,,,,,,,,,,,,,,,,,,,,,,,,,,,,,,,,,,,,,,,,,,,,,,,,,,,,,,,,,,,,,,,,,,,,,,,,,,,,,,,MET09701/23/23 08:54:01 METAR KLNK 231454Z 25004KT 9SM CLR M09/M11 A3016 RMK AO2 SLP234 T10891111 51010,,,,,,,,,,3/26/2007
USW00014939,2023-01-23T09:54:00,40.8508,-96.7475,362.7,"LINCOLN AIRPORT, NE US",FM-15,343,1021.7,-9.4,-6.7,0,,,,81,CLR:00,1023.7,978.6,14.484,-7.5,240,,4.1,,,,,,,,,,,,,,,,,,,,,,,,,,,,,,,,,,,,,,,,,,,,,,,,,,,,,,,,,,,,,,,,,,,,,,,,,,,,,,,,,,,,,,,,,,,MET09101/23/23 09:54:02 METAR KLNK 231554Z 24008KT 9SM CLR M07/M09 A3017 RMK AO2 SLP237 T10671094,,,,,,,,,,3/26/2007
USW00014939,2023-01-23T10:54:00,40.8508,-96.7475,362.7,"LINCOLN AIRPORT, NE US",FM-15,343,1022,-7.8,-4.4,0,,,,77,CLR:00,1023.7,978.9,12.875,-5.5,220,,3.6,,,,,,,,,,,,,,,,,,,,,,,,,,,,,,,,,,,,,,,,,,,,,,,,,,,,,,,,,,,,,,,,,,,,,,,,,,,,,,,,,,,,,,,,,,,MET09101/23/23 10:54:02 METAR KLNK 231654Z 22007KT 8SM CLR M04/M08 A3018 RMK AO2 SLP237 T10441078,,,,,,,,,,3/26/2007
USW00014939,2023-01-23T11:54:00,40.8508,-96.7475,362.7,"LINCOLN AIRPORT, NE US",FM-15,343,1022,-6.7,-1.7,0,,0.5,1,69,CLR:00,1023.6,978.9,16.093,-3.4,250,,5.1,,,,,,,,,,,,,,,,,,,,,,,,,,,,,,,,,,,,,,,,,,,,,,,,,,,,,,,,,,,,,,,,,,,,,,,,,,,,,,,,,,,,,,,,,,,MET11001/23/23 11:54:02 METAR KLNK 231754Z 25010KT 10SM CLR M02/M07 A3018 RMK AO2 SLP236 T10171067 11017 21133 51005,,,,,,,,,,3/26/2007
USW00014939,2023-01-23T12:00:00,40.8508,-96.7475,362.7,"LINCOLN AIRPORT, NE US",FM-12,223,,-6.7,-1.7,,,0.5,1,69,,1023.6,978.7,,-3.4,250,,5.1,,,,,,,,,,,,,,,,,,,,,,,,,,,,,,,,,,,,,,,,,,,,,,,,,,,,,,,,,,,,,,,,,,,,,,,,,,,,,,,,,,,,,,,,,,,SYN08072551 32966 02510 11017 21067 39787 40236 51005 91754 333 11017 21133 555 92318=,,,,,,,,,,3/26/2007
USW00014939,2023-01-23T12:54:00,40.8508,-96.7475,362.7,"LINCOLN AIRPORT, NE US",FM-15,343,1021.3,-5.6,-0.6,0,,,,69,CLR:00,1023,978.3,14.484,-2.3,250,,2.6,,,,,,,,,,,,,,,,,,,,,,,,,,,,,,,,,,,,,,,,,,,,,,,,,,,,,,,,,,,,,,,,,,,,,,,,,,,,,,,,,,,,,,,,,,,MET09101/23/23 12:54:02 METAR KLNK 231854Z 25005KT 9SM CLR M01/M06 A3016 RMK AO2 SLP230 T10061056,,,,,,,,,,3/26/2007
USW00014939,2023-01-23T13:54:00,40.8508,-96.7475,362.7,"LINCOLN AIRPORT, NE US",FM-15,343,1021,-3.9,1.1,0,,,,70,CLR:00,1022.5,978,16.093,-0.7,250,,3.1,,,,,,,,,,,,,,,,,,,,,,,,,,,,,,,,,,,,,,,,,,,,,,,,,,,,,,,,,,,,,,,,,,,,,,,,,,,,,,,,,,,,,,,,,,,MET09101/23/23 13:54:02 METAR KLNK 231954Z 25006KT 10SM CLR 01/M04 A3015 RMK AO2 SLP225 T00111039,,,,,,,,,,3/26/2007
USW00014939,2023-01-23T14:45:00,40.8508,-96.7475,362.7,"LINCOLN AIRPORT, NE US",FM-16,343,1021.3,-2.8,2.2,,,,,70,BKN:07 6.4,,978.3,16.093,0.3,240,,3.1,,,,,,,,,,,,,,,,,,,,,,,,,,,,,,,,,,,,,,,,,,,,,,,,,,,,,,,,,,,,,,,,,,,,,,,,,,,,,,,,,,,,,,,,,,,MET08701/23/23 14:45:02 SPECI KLNK 232045Z 24006KT 10SM BKN021 02/M03 A3016 RMK AO2 T00221028,,,,,,,,,,3/26/2007
USW00014939,2023-01-23T14:54:00,40.8508,-96.7475,362.7,"LINCOLN AIRPORT, NE US",FM-15,343,1021.7,-2.8,2.2,0,,-0.3,5,70,BKN:07 6.4 OVC:08 7.92,1023.2,978.6,16.093,0.3,240,,2.6,,,,,,,,,,,,,,,,,,,,,,,,,,,,,,,,,,,,,,,,,,,,,,,,,,,,,,,,,,,,,,,,,,,,,,,,,,,,,,,,,,,,,,,,,,,MET10701/23/23 14:54:02 METAR KLNK 232054Z 24005KT 10SM BKN021 OVC026 02/M03 A3017 RMK AO2 SLP232 T00221028 55003,,,,,,,,,,3/26/2007
USW00014939,2023-01-23T15:54:00,40.8508,-96.7475,362.7,"LINCOLN AIRPORT, NE US",FM-15,343,1021.7,-1.7,2.8,0,,,,73,FEW:02 4.57 OVC:08 7.92,1023.4,978.6,16.093,1,300,,2.6,,,,,,,,,,,,,,,,,,,,,,,,,,,,,,,,,,,,,,,,,,,,,,,,,,,,,,,,,,,,,,,,,,,,,,,,,,,,,,,,,,,,,,,,,,,MET10101/23/23 15:54:02 METAR KLNK 232154Z 30005KT 10SM FEW015 OVC026 03/M02 A3017 RMK AO2 SLP234 T00281017,,,,,,,,,,3/26/2007
USW00014939,2023-01-23T16:06:00,40.8508,-96.7475,362.7,"LINCOLN AIRPORT, NE US",FM-16,343,1021.7,-1.7,2.8,,,,,73,BKN:07 4.27 OVC:08 7.92,,978.6,16.093,1,300,,2.1,,,,,,,,,,,,,,,,,,,,,,,,,,,,,,,,,,,,,,,,,,,,,,,,,,,,,,,,,,,,,,,,,,,,,,,,,,,,,,,,,,,,,,,,,,,MET09401/23/23 16:06:02 SPECI KLNK 232206Z 30004KT 10SM BKN014 OVC026 03/M02 A3017 RMK AO2 T00281017,,,,,,,,,,3/26/2007
USW00014939,2023-01-23T16:40:00,40.8508,-96.7475,362.7,"LINCOLN AIRPORT, NE US",FM-16,343,1021.7,-1.1,2.8,,,,,76,OVC:08 4.57,,978.6,16.093,1.2,300,,1.5,,,,,,,,,,,,,,,,,,,,,,,,,,,,,,,,,,,,,,,,,,,,,,,,,,,,,,,,,,,,,,,,,,,,,,,,,,,,,,,,,,,,,,,,,,,MET08701/23/23 16:40:02 SPECI KLNK 232240Z 30003KT 10SM OVC015 03/M01 A3017 RMK AO2 T00281011,,,,,,,,,,3/26/2007
USW00014939,2023-01-23T16:54:00,40.8508,-96.7475,362.7,"LINCOLN AIRPORT, NE US",FM-15,343,1022,-1.1,2.8,0,,,,76,OVC:08 5.49,1023.5,978.9,16.093,1.2,250,,1.5,,,,,,,,,,,,,,,,,,,,,,,,,,,,,,,,,,,,,,,,,,,,,,,,,,,,,,,,,,,,,,,,,,,,,,,,,,,,,,,,,,,,,,,,,,,MET09401/23/23 16:54:02 METAR KLNK 232254Z 25003KT 10SM OVC018 03/M01 A3018 RMK AO2 SLP235 T00281011,,,,,,,,,,3/26/2007
USW00014939,2023-01-23T17:54:00,40.8508,-96.7475,362.7,"LINCOLN AIRPORT, NE US",FM-15,343,1022,-1.1,2.2,0,,0.4,3,79,OVC:08 5.49,1023.7,978.9,16.093,0.9,240,,1.5,,,,,,,,,,,,,,,,,,,,,,,,,,,,,,,,,,,,,,,,,,,,,,,,,,,,,,,,,,,,,,,,,,,,,,,,,,,,,,,,,,,,,,,,,,,MET11201/23/23 17:54:02 METAR KLNK 232354Z 24003KT 10SM OVC018 02/M01 A3018 RMK AO2 SLP237 T00221011 10033 21017 53004,,,,,,,,,,3/26/2007
USW00014939,2023-01-23T18:00:00,40.8508,-96.7475,362.7,"LINCOLN AIRPORT, NE US",FM-12,223,,-1.1,2.2,,,0.4,3,79,,1023.7,978.7,,0.9,240,,1.5,,,,,,,,,,,,,,,,,,,,,,,,,,,,,,,,,,,,,,,,,,,,,,,,,,,,,,,,,,,,,,,,,,,,,,,,,,,,,,,,,,,,,,,,,,,SYN08072551 32466 82403 10022 21011 39787 40237 53004 92354 333 10033 21133 555 92400=,,,,,,,,,,3/26/2007
USW00014939,2023-01-23T18:54:00,40.8508,-96.7475,362.7,"LINCOLN AIRPORT, NE US",FM-15,343,1022.4,-1.1,1.7,0,,,,82,OVC:08 5.49,1023.9,979.3,16.093,0.6,,,0,,,,,,,,,,,,,,,,,,,,,,,,,,,,,,,,,,,,,,,,,,,,,,,,,,,,,,,,,,,,,,,,,,,,,,,,,,,,,,,,,,,,,,,,,,,MET09401/23/23 18:54:01 METAR KLNK 240054Z 00000KT 10SM OVC018 02/M01 A3019 RMK AO2 SLP239 T00171011,,,,,,,,,,3/26/2007
USW00014939,2023-01-23T19:01:00,40.8508,-96.7475,362.7,"LINCOLN AIRPORT, NE US",FM-16,343,1022.4,-1.1,1.7,,,,,82,OVC:08 7.92,,979.3,16.093,0.6,260,,1.5,,,,,,,,,,,,,,,,,,,,,,,,,,,,,,,,,,,,,,,,,,,,,,,,,,,,,,,,,,,,,,,,,,,,,,,,,,,,,,,,,,,,,,,,,,,MET08701/23/23 19:01:01 SPECI KLNK 240101Z 26003KT 10SM OVC026 02/M01 A3019 RMK AO2 T00171011,,,,,,,,,,3/26/2007
USW00014939,2023-01-23T19:54:00,40.8508,-96.7475,362.7,"LINCOLN AIRPORT, NE US",FM-15,343,1022.4,-0.6,2.2,0,,,,82,OVC:08 7.32,1023.8,979.3,16.093,1.1,310,,3.1,,,,,,,,,,,,,,,,,,,,,,,,,,,,,,,,,,,,,,,,,,,,,,,,,,,,,,,,,,,,,,,,,,,,,,,,,,,,,,,,,,,,,,,,,,,MET09401/23/23 19:54:01 METAR KLNK 240154Z 31006KT 10SM OVC024 02/M01 A3019 RMK AO2 SLP238 T00221006,,,,,,,,,,3/26/2007
USW00014939,2023-01-23T20:54:00,40.8508,-96.7475,362.7,"LINCOLN AIRPORT, NE US",FM-15,343,1022,-1.1,2.2,0,,-0.2,8,79,OVC:08 6.4,1023.4,978.9,16.093,0.9,320,,2.1,,,,,,,,,,,,,,,,,,,,,,,,,,,,,,,,,,,,,,,,,,,,,,,,,,,,,,,,,,,,,,,,,,,,,,,,,,,,,,,,,,,,,,,,,,,MET10001/23/23 20:54:01 METAR KLNK 240254Z 32004KT 10SM OVC021 02/M01 A3018 RMK AO2 SLP234 T00221011 58002,,,,,,,,,,3/26/2007
USW00014939,2023-01-23T21:54:00,40.8508,-96.7475,362.7,"LINCOLN AIRPORT, NE US",FM-15,343,1021.3,-0.6,2.2,0,,,,82,OVC:08 6.1,1022.9,978.3,16.093,1.1,,,0,,,,,,,,,,,,,,,,,,,,,,,,,,,,,,,,,,,,,,,,,,,,,,,,,,,,,,,,,,,,,,,,,,,,,,,,,,,,,,,,,,,,,,,,,,,MET09401/23/23 21:54:01 METAR KLNK 240354Z 00000KT 10SM OVC020 02/M01 A3016 RMK AO2 SLP229 T00221006,,,,,,,,,,3/26/2007
USW00014939,2023-01-23T22:54:00,40.8508,-96.7475,362.7,"LINCOLN AIRPORT, NE US",FM-15,343,1022,-1.1,1.7,0,,,,82,OVC:08 5.79,1023.2,978.9,16.093,0.6,270,,1.5,,,,,,,,,,,,,,,,,,,,,,,,,,,,,,,,,,,,,,,,,,,,,,,,,,,,,,,,,,,,,,,,,,,,,,,,,,,,,,,,,,,,,,,,,,,MET09401/23/23 22:54:01 METAR KLNK 240454Z 27003KT 10SM OVC019 02/M01 A3018 RMK AO2 SLP232 T00171011,,,,,,,,,,3/26/2007
USW00014939,2023-01-23T23:54:00,40.8508,-96.7475,362.7,"LINCOLN AIRPORT, NE US",FM-15,343,1022.4,-1.1,1.7,0,,0.4,3,82,OVC:08 6.1,1023.4,979.3,16.093,0.6,260,,1.5,,,,,,,,,,,,,,,,,,,,,,,,,,,,,,,,,,,,,,,,,,,,,,,,,,,,,,,,,,,,,,,,,,,,,,,,,,,,,,,,,,,,,,,,,,,MET12201/23/23 23:54:01 METAR KLNK 240554Z 26003KT 10SM OVC020 02/M01 A3019 RMK AO2 SLP234 T00171011 10022 20017 400331133 53004,,,,,,,,,,3/26/2007
USW00014939,2023-01-24T00:00:00,40.8508,-96.7475,362.7,"LINCOLN AIRPORT, NE US",FM-12,223,,-1.1,1.7,,,0.4,3,82,,1023.4,979,,0.6,260,,1.5,,,,,,,,,,,,,,,,,,,,,,,,,,,,,,,,,,,,,,,,,,,,,,,,,,,,,,,,,,,,,,,,,,,,,,,,,,,,,,,,,,,,,,,,,,,SYN08072551 32566 82603 10017 21011 39790 40234 53004 90554 333 10022 21132 555 92406=,,,,,,,,,,3/26/2007
USW00014939,2023-01-24T00:00:00,40.8508,-96.7475,362.7,"LINCOLN AIRPORT, NE US",SOD,,,,,,,,,,,,,,,,,,745,1733,-1.7,0.6,81,1020,975.6,0,2.2,0,4.49,17.7,3.3,-2.1,180,7.2,0,T,0,180,5.8,,,,,,,,,,,,,,,,,,,,,,,,,,,,,,,,,,,,,,,,,,,,,,,,,,,,,,,,,,,,,,,,,,,,,,,,,,,,,,,,3/26/2007
USW00014939,2023-01-24T00:54:00,40.8508,-96.7475,362.7,"LINCOLN AIRPORT, NE US",FM-15,343,1022,-1.1,2.2,0,,,,79,OVC:08 6.71,1023.2,978.9,16.093,0.9,,,0,,,,,,,,,,,,,,,,,,,,,,,,,,,,,,,,,,,,,,,,,,,,,,,,,,,,,,,,,,,,,,,,,,,,,,,,,,,,,,,,,,,,,,,,,,,MET09401/24/23 00:54:01 METAR KLNK 240654Z 00000KT 10SM OVC022 02/M01 A3018 RMK AO2 SLP232 T00221011,,,,,,,,,,3/26/2007
USW00014939,2023-01-24T01:54:00,40.8508,-96.7475,362.7,"LINCOLN AIRPORT, NE US",FM-15,343,1021.7,-1.1,1.7,0,,,,82,OVC:08 7.32,1022.6,978.6,16.093,0.6,,,0,,,,,,,,,,,,,,,,,,,,,,,,,,,,,,,,,,,,,,,,,,,,,,,,,,,,,,,,,,,,,,,,,,,,,,,,,,,,,,,,,,,,,,,,,,,MET09401/24/23 01:54:01 METAR KLNK 240754Z 00000KT 10SM OVC024 02/M01 A3017 RMK AO2 SLP226 T00171011,,,,,,,,,,3/26/2007
USW00014939,2023-01-24T02:54:00,40.8508,-96.7475,362.7,"LINCOLN AIRPORT, NE US",FM-15,343,1021.3,-1.1,1.1,0,,-1.1,8,85,OVC:08 7.01,1022.2,978.3,16.093,0.2,160,,1.5,,,,,,,,,,,,,,,,,,,,,,,,,,,,,,,,,,,,,,,,,,,,,,,,,,,,,,,,,,,,,,,,,,,,,,,,,,,,,,,,,,,,,,,,,,,MET10501/24/23 02:54:02 METAR KLNK 240854Z 16003KT 10SM OVC023 01/M01 A3016 RMK AO2 SLP222 T00111011 58011 (AC),,,,,,,,,,3/26/2007
USW00014939,2023-01-24T03:54:00,40.8508,-96.7475,362.7,"LINCOLN AIRPORT, NE US",FM-15,343,1021,-0.6,1.1,0,,,,89,OVC:08 6.71,1022,978,16.093,0.4,190,,2.1,,,,,,,,,,,,,,,,,,,,,,,,,,,,,,,,,,,,,,,,,,,,,,,,,,,,,,,,,,,,,,,,,,,,,,,,,,,,,,,,,,,,,,,,,,,MET09901/24/23 03:54:02 METAR KLNK 240954Z 19004KT 10SM OVC022 01/M01 A3015 RMK AO2 SLP220 T00111006 (AC),,,,,,,,,,3/26/2007
USW00014939,2023-01-24T04:54:00,40.8508,-96.7475,362.7,"LINCOLN AIRPORT, NE US",FM-15,343,1021,-1.1,1.7,0,,,,82,OVC:08 6.4,1021.8,978,16.093,0.6,220,,2.1,,,,,,,,,,,,,,,,,,,,,,,,,,,,,,,,,,,,,,,,,,,,,,,,,,,,,,,,,,,,,,,,,,,,,,,,,,,,,,,,,,,,,,,,,,,MET09901/24/23 04:54:02 METAR KLNK 241054Z 22004KT 10SM OVC021 02/M01 A3015 RMK AO2 SLP218 T00171011 (AC),,,,,,,,,,3/26/2007
USW00014939,2023-01-24T05:54:00,40.8508,-96.7475,362.7,"LINCOLN AIRPORT, NE US",FM-15,343,1020.7,-1.1,1.7,0,,-0.5,8,82,OVC:08 6.1,1021.6,977.6,16.093,0.6,,,0,,,,,,,,,,,,,,,,,,,,,,,,,,,,,,,,,,,,,,,,,,,,,,,,,,,,,,,,,,,,,,,,,,,,,,,,,,,,,,,,,,,,,,,,,,,MET11701/24/23 05:54:02 METAR KLNK 241154Z 00000KT 10SM OVC020 02/M01 A3014 RMK AO2 SLP216 T00171011 10022 20011 58005 (RT),,,,,,,,,,3/26/2007
USW00014939,2023-01-24T06:00:00,40.8508,-96.7475,362.7,"LINCOLN AIRPORT, NE US",FM-12,223,,-1.1,1.7,,,-0.5,8,82,,1021.6,977.4,,0.6,,,0,,,,,,,,,,,,,,,,,,,,,,,,,,,,,,,,,,,,,,,,,,,,,,,,,,,,,,,,,,,,,,,,,,,,,,,,,,,,,,,,,,,,,,,,,,,SYN08072551 32566 80000 10017 21011 39774 40216 58005 91154 333 10033 20011 555 92412=,,,,,,,,,,3/26/2007
USW00014939,2023-01-24T06:54:00,40.8508,-96.7475,362.7,"LINCOLN AIRPORT, NE US",FM-15,343,1020.3,-1.1,1.1,0,,,,85,OVC:08 6.1,1021.3,977.3,16.093,0.2,200,,1.5,,,,,,,,,,,,,,,,,,,,,,,,,,,,,,,,,,,,,,,,,,,,,,,,,,,,,,,,,,,,,,,,,,,,,,,,,,,,,,,,,,,,,,,,,,,MET09401/24/23 06:54:01 METAR KLNK 241254Z 20003KT 10SM OVC020 01/M01 A3013 RMK AO2 SLP213 T00111011,,,,,,,,,,3/26/2007
USW00014939,2023-01-24T07:52:00,40.8508,-96.7475,362.7,"LINCOLN AIRPORT, NE US",FM-16,343,1020.3,-1,2,,,,,81,OVC:08 5.49,,977.3,16.093,0.9,220,,2.6,,,,,,,,,,,,,,,,,,,,,,,,,,,,,,,,,,,,,,,,,,,,,,,,,,,,,,,,,,,,,,,,,,,,,,,,,,,,,,,,,,,,,,,,,,,MET08701/24/23 07:52:02 SPECI KLNK 241352Z 22005KT 10SM OVC018 02/M01 A3013 RMK AO2 FIBI (RT),,,,,,,,,,3/26/2007
USW00014939,2023-01-24T07:54:00,40.8508,-96.7475,362.7,"LINCOLN AIRPORT, NE US",FM-15,343,1020.3,-1.1,1.7,0,,,,82,OVC:08 5.49,1021.2,977.3,16.093,0.6,210,,2.6,,,,,,,,,,,,,,,,,,,,,,,,,,,,,,,,,,,,,,,,,,,,,,,,,,,,,,,,,,,,,,,,,,,,,,,,,,,,,,,,,,,,,,,,,,,MET09901/24/23 07:54:02 METAR KLNK 241354Z 21005KT 10SM OVC018 02/M01 A3013 RMK AO2 SLP212 T00171011 (RT),,,,,,,,,,3/26/2007
USW00014939,2023-01-24T08:54:00,40.8508,-96.7475,362.7,"LINCOLN AIRPORT, NE US",FM-15,343,1021,-1.1,2.2,0,,0.2,3,79,OVC:08 5.18,1021.9,978,16.093,0.9,210,,2.6,,,,,,,,,,,,,,,,,,,,,,,,,,,,,,,,,,,,,,,,,,,,,,,,,,,,,,,,,,,,,,,,,,,,,,,,,,,,,,,,,,,,,,,,,,,MET10001/24/23 08:54:01 METAR KLNK 241454Z 21005KT 10SM OVC017 02/M01 A3015 RMK AO2 SLP219 T00221011 53002,,,,,,,,,,3/26/2007
USW00014939,2023-01-24T09:54:00,40.8508,-96.7475,362.7,"LINCOLN AIRPORT, NE US",FM-15,343,1021.3,-1.1,2.2,0,,,,79,OVC:08 5.18,1022.1,978.3,16.093,0.9,210,,3.1,,,,,,,,,,,,,,,,,,,,,,,,,,,,,,,,,,,,,,,,,,,,,,,,,,,,,,,,,,,,,,,,,,,,,,,,,,,,,,,,,,,,,,,,,,,MET09401/24/23 09:54:01 METAR KLNK 241554Z 21006KT 10SM OVC017 02/M01 A3016 RMK AO2 SLP221 T00221011,,,,,,,,,,3/26/2007
USW00014939,2023-01-24T10:54:00,40.8508,-96.7475,362.7,"LINCOLN AIRPORT, NE US",FM-15,343,1021,-1.1,2.8,0,,,,76,OVC:08 4.88,1022.1,978,16.093,1.2,200,,3.1,,,,,,,,,,,,,,,,,,,,,,,,,,,,,,,,,,,,,,,,,,,,,,,,,,,,,,,,,,,,,,,,,,,,,,,,,,,,,,,,,,,,,,,,,,,MET09401/24/23 10:54:01 METAR KLNK 241654Z 20006KT 10SM OVC016 03/M01 A3015 RMK AO2 SLP221 T00281011,,,,,,,,,,3/26/2007
USW00014939,2023-01-24T11:54:00,40.8508,-96.7475,362.7,"LINCOLN AIRPORT, NE US",FM-15,343,1020.3,-1.1,2.8,0,,-0.7,8,76,OVC:08 5.18,1021.1,977.3,16.093,1.2,190,,5.1,,,,,,,,,,,,,,,,,,,,,,,,,,,,,,,,,,,,,,,,,,,,,,,,,,,,,,,,,,,,,,,,,,,,,,,,,,,,,,,,,,,,,,,,,,,MET11201/24/23 11:54:01 METAR KLNK 241754Z 19010KT 10SM OVC017 03/M01 A3013 RMK AO2 SLP211 T00281011 10028 20011 58007,,,,,,,,,,3/26/2007
USW00014939,2023-01-24T12:00:00,40.8508,-96.7475,362.7,"LINCOLN AIRPORT, NE US",FM-12,223,,-1.1,2.8,,,-0.7,8,76,,1021.1,977.1,,1.2,190,,5.1,,,,,,,,,,,,,,,,,,,,,,,,,,,,,,,,,,,,,,,,,,,,,,,,,,,,,,,,,,,,,,,,,,,,,,,,,,,,,,,,,,,,,,,,,,,SYN08072551 32466 81910 10028 21011 39771 40211 58007 91754 333 10028 21016 555 92418=,,,,,,,,,,3/26/2007
USW00014939,2023-01-24T12:54:00,40.8508,-96.7475,362.7,"LINCOLN AIRPORT, NE US",FM-15,343,1019,-0.6,3.3,0,,,,76,OVC:08 5.18,1019.7,976,16.093,1.7,190,,4.1,,,,,,,,,,,,,,,,,,,,,,,,,,,,,,,,,,,,,,,,,,,,,,,,,,,,,,,,,,,,,,,,,,,,,,,,,,,,,,,,,,,,,,,,,,,MET09401/24/23 12:54:01 METAR KLNK 241854Z 19008KT 10SM OVC017 03/M01 A3009 RMK AO2 SLP197 T00331006,,,,,,,,,,3/26/2007
USW00014939,2023-01-24T13:54:00,40.8508,-96.7475,362.7,"LINCOLN AIRPORT, NE US",FM-15,343,1017.3,-1.1,3.3,0,,,,73,OVC:08 4.88,1018.1,974.4,16.093,1.5,220,,2.6,,,,,,,,,,,,,,,,,,,,,,,,,,,,,,,,,,,,,,,,,,,,,,,,,,,,,,,,,,,,,,,,,,,,,,,,,,,,,,,,,,,,,,,,,,,MET09401/24/23 13:54:02 METAR KLNK 241954Z 22005KT 10SM OVC016 03/M01 A3004 RMK AO2 SLP181 T00331011,,,,,,,,,,3/26/2007
USW00014939,2023-01-24T14:54:00,40.8508,-96.7475,362.7,"LINCOLN AIRPORT, NE US",FM-15,343,1017.3,-1.1,2.8,0,,-2.7,5,76,OVC:08 5.18,1018.3,974.4,16.093,1.2,230,,3.1,,,,,,,,,,,,,,,,,,,,,,,,,,,,,,,,,,,,,,,,,,,,,,,,,,,,,,,,,,,,,,,,,,,,,,,,,,,,,,,,,,,,,,,,,,,MET10001/24/23 14:54:02 METAR KLNK 242054Z 23006KT 10SM OVC017 03/M01 A3004 RMK AO2 SLP183 T00281011 55027,,,,,,,,,,3/26/2007
USW00014939,2023-01-24T15:54:00,40.8508,-96.7475,362.7,"LINCOLN AIRPORT, NE US",FM-15,343,1017.6,-0.6,2.8,0,,,,79,OVC:08 4.57,1018.3,974.7,16.093,1.4,180,,5.1,,,,,,,,,,,,,,,,,,,,,,,,,,,,,,,,,,,,,,,,,,,,,,,,,,,,,,,,,,,,,,,,,,,,,,,,,,,,,,,,,,,,,,,,,,,MET09401/24/23 15:54:02 METAR KLNK 242154Z 18010KT 10SM OVC015 03/M01 A3005 RMK AO2 SLP183 T00281006,,,,,,,,,,3/26/2007
USW00014939,2023-01-24T16:54:00,40.8508,-96.7475,362.7,"LINCOLN AIRPORT, NE US",FM-15,343,1017.6,-1.1,2.2,0,,,,79,BKN:07 4.57 OVC:08 33.53,1018.3,974.7,16.093,0.9,210,,2.1,,,,,,,,,,,,,,,,,,,,,,,,,,,,,,,,,,,,,,,,,,,,,,,,,,,,,,,,,,,,,,,,,,,,,,,,,,,,,,,,,,,,,,,,,,,MET10101/24/23 16:54:02 METAR KLNK 242254Z 21004KT 10SM BKN015 OVC110 02/M01 A3005 RMK AO2 SLP183 T00221011,,,,,,,,,,3/26/2007
USW00014939,2023-01-24T17:24:00,40.8508,-96.7475,362.7,"LINCOLN AIRPORT, NE US",FM-16,343,1017.6,-1.1,2.2,,,,,79,OVC:08 3.96,,974.7,12.875,0.9,,,0,,,,,,,,,,,,,,,,,,,,,,,,,,,,,,,,,,,,,,,,,,,,,,,,,,,,,,,,,,,,,,,,,,,,,,,,,,,,,,,,,,,,,,,,,,,MET08601/24/23 17:24:02 SPECI KLNK 242324Z 00000KT 8SM OVC013 02/M01 A3005 RMK AO2 T00221011,,,,,,,,,,3/26/2007
USW00014939,2023-01-24T17:54:00,40.8508,-96.7475,362.7,"LINCOLN AIRPORT, NE US",FM-15,343,1017.3,-1.1,1.7,0,,0,0,82,OVC:08 3.66,1018.4,974.4,14.484,0.6,300,,2.1,,,,,,,,,,,,,,,,,,,,,,,,,,,,,,,,,,,,,,,,,,,,,,,,,,,,,,,,,,,,,,,,,,,,,,,,,,,,,,,,,,,,,,,,,,,MET11101/24/23 17:54:02 METAR KLNK 242354Z 30004KT 9SM OVC012 02/M01 A3004 RMK AO2 SLP184 T00171011 10033 20017 50000,,,,,,,,,,3/26/2007
USW00014939,2023-01-24T18:00:00,40.8508,-96.7475,362.7,"LINCOLN AIRPORT, NE US",FM-12,223,,-1.1,1.7,,,0,9,82,,1018.4,974.1,,0.6,300,,2.1,,,,,,,,,,,,,,,,,,,,,,,,,,,,,,,,,,,,,,,,,,,,,,,,,,,,,,,,,,,,,,,,,,,,,,,,,,,,,,,,,,,,,,,,,,,SYN08072551 32464 83004 10017 21011 39741 40184 50000 92354 333 10033 20011 555 92500=,,,,,,,,,,3/26/2007
USW00014939,2023-01-24T18:54:00,40.8508,-96.7475,362.7,"LINCOLN AIRPORT, NE US",FM-15,343,1017.6,-1.7,1.1,0,,,,82,OVC:08 4.57,1018.4,974.7,16.093,0,300,,3.6,,,,,,,,,,,,,,,,,,,,,,,,,,,,,,,,,,,,,,,,,,,,,,,,,,,,,,,,,,,,,,,,,,,,,,,,,,,,,,,,,,,,,,,,,,,MET09401/24/23 18:54:01 METAR KLNK 250054Z 30007KT 10SM OVC015 01/M02 A3005 RMK AO2 SLP184 T00111017,,,,,,,,,,3/26/2007
USW00014939,2023-01-24T19:27:00,40.8508,-96.7475,362.7,"LINCOLN AIRPORT, NE US",FM-16,343,1017.3,-1.7,1.1,,,,,82,OVC:08 4.27,,974.4,16.093,0,310,,3.6,,,,,,,,,,,,,,,,,,,,,,,,,,,,,,,,,,,,,,,,,,,,,,,,,,,,,,,,,,,,,,,,,,,,,,,,,,,,,,,,,,,,,,,,,,,MET08701/24/23 19:27:01 SPECI KLNK 250127Z 31007KT 10SM OVC014 01/M02 A3004 RMK AO2 T00111017,,,,,,,,,,3/26/2007
USW00014939,2023-01-24T19:54:00,40.8508,-96.7475,362.7,"LINCOLN AIRPORT, NE US",FM-15,343,1016.9,-1.7,1.1,0,,,,82,OVC:08 4.27,1017.9,974,14.484,0,310,,3.6,,,,,,,,,,,,,,,,,,,,,,,,,,,,,,,,,,,,,,,,,,,,,,,,,,,,,,,,,,,,,,,,,,,,,,,,,,,,,,,,,,,,,,,,,,,MET09301/24/23 19:54:01 METAR KLNK 250154Z 31007KT 9SM OVC014 01/M02 A3003 RMK AO2 SLP179 T00111017,,,,,,,,,,3/26/2007
USW00014939,2023-01-24T20:54:00,40.8508,-96.7475,362.7,"LINCOLN AIRPORT, NE US",FM-15,343,1016.6,-1.7,0.6,0,,-0.9,8,85,OVC:08 3.66,1017.4,973.7,14.484,-0.3,,,0,,,,,,,,,,,,,,,,,,,,,,,,,,,,,,,,,,,,,,,,,,,,,,,,,,,,,,,,,,,,,,,,,,,,,,,,,,,,,,,,,,,,,,,,,,,MET09901/24/23 20:54:02 METAR KLNK 250254Z 00000KT 9SM OVC012 01/M02 A3002 RMK AO2 SLP174 T00061017 58009,,,,,,,,,,3/26/2007
USW00014939,2023-01-24T21:25:00,40.8508,-96.7475,362.7,"LINCOLN AIRPORT, NE US",FM-16,343,1015.9,-2.2,0,,,,,85,SCT:04 3.66,,973.1,14.484,-0.8,320,,2.1,,,,,,,,,,,,,,,,,,,,,,,,,,,,,,,,,,,,,,,,,,,,,,,,,,,,,,,,,,,,,,,,,,,,,,,,,,,,,,,,,,,,,,,,,,,MET08601/24/23 21:25:02 SPECI KLNK 250325Z 32004KT 9SM SCT012 00/M02 A3000 RMK AO2 T00001022,,,,,,,,,,3/26/2007
USW00014939,2023-01-24T21:54:00,40.8508,-96.7475,362.7,"LINCOLN AIRPORT, NE US",FM-15,343,1015.9,-2.2,0,0,,,,85,SCT:04 5.79,1017,973.1,14.484,-0.8,,,0,,,,,,,,,,,,,,,,,,,,,,,,,,,,,,,,,,,,,,,,,,,,,,,,,,,,,,,,,,,,,,,,,,,,,,,,,,,,,,,,,,,,,,,,,,,MET09301/24/23 21:54:02 METAR KLNK 250354Z 00000KT 9SM SCT019 00/M02 A3000 RMK AO2 SLP170 T00001022,,,,,,,,,,3/26/2007
USW00014939,2023-01-24T22:03:00,40.8508,-96.7475,362.7,"LINCOLN AIRPORT, NE US",FM-16,343,1016.3,-2.2,0,,,,,85,BKN:07 5.49,,973.4,14.484,-0.8,310,,2.1,,,,,,,,,,,,,,,,,,,,,,,,,,,,,,,,,,,,,,,,,,,,,,,,,,,,,,,,,,,,,,,,,,,,,,,,,,,,,,,,,,,,,,,,,,,MET08601/24/23 22:03:02 SPECI KLNK 250403Z 31004KT 9SM BKN018 00/M02 A3001 RMK AO2 T00001022,,,,,,,,,,3/26/2007
USW00014939,2023-01-24T22:52:00,40.8508,-96.7475,362.7,"LINCOLN AIRPORT, NE US",FM-16,343,1015.9,-3,-2,,,,,93,SCT:04 4.88,,973.1,11.265,-2.4,360,,1.5,,,,,,,,,,,,,,,,,,,,,,,,,,,,,,,,,,,,,,,,,,,,,,,,,,,,,,,,,,,,,,,,,,,,,,,,,,,,,,,,,,,,,,,,,,,MET07701/24/23 22:52:02 SPECI KLNK 250452Z 36003KT 7SM SCT016 M02/M03 A3000 RMK AO2,,,,,,,,,,3/26/2007
USW00014939,2023-01-24T22:54:00,40.8508,-96.7475,362.7,"LINCOLN AIRPORT, NE US",FM-15,343,1015.9,-3.3,-1.7,0,,,,89,FEW:02 4.88,1016.9,973.1,11.265,-2.3,350,,1.5,,,,,,,,,,,,,,,,,,,,,,,,,,,,,,,,,,,,,,,,,,,,,,,,,,,,,,,,,,,,,,,,,,,,,,,,,,,,,,,,,,,,,,,,,,,MET09401/24/23 22:54:02 METAR KLNK 250454Z 35003KT 7SM FEW016 M02/M03 A3000 RMK AO2 SLP169 T10171033,,,,,,,,,,3/26/2007
USW00014939,2023-01-24T23:54:00,40.8508,-96.7475,362.7,"LINCOLN AIRPORT, NE US",FM-15,343,1015.9,-2.8,-0.6,0,,-0.1,5,85,CLR:00,1017,973.1,12.875,-1.4,,,0,,,,,,,,,,,,,,,,,,,,,,,,,,,,,,,,,,,,,,,,,,,,,,,,,,,,,,,,,,,,,,,,,,,,,,,,,,,,,,,,,,,,,,,,,,,MET11901/24/23 23:54:02 METAR KLNK 250554Z 00000KT 8SM CLR M01/M03 A3000 RMK AO2 SLP170 T10061028 10017 21022 400331022 55001,,,,,,,,,,3/26/2007
USW00014939,2023-01-25T00:00:00,40.8508,-96.7475,362.7,"LINCOLN AIRPORT, NE US",FM-12,223,,-2.8,-0.6,,,-0.1,5,85,,1017,972.8,,-1.4,,,0,,,,,,,,,,,,,,,,,,,,,,,,,,,,,,,,,,,,,,,,,,,,,,,,,,,,,,,,,,,,,,,,,,,,,,,,,,,,,,,,,,,,,,,,,,,SYN08072551 35962 00000 11006 21028 39728 40170 55001 90554 333 10022 21022 555 92506=,,,,,,,,,,3/26/2007
USW00014939,2023-01-25T00:00:00,40.8508,-96.7475,362.7,"LINCOLN AIRPORT, NE US",SOD,,,,,,,,,,,,,,,,,,744,1734,-8.3,-4.9,73,1019.3,974.9,-5.6,5.9,0,-1.07,23.2,-0.5,-9.3,340,17,0,T,0,330,13,,,,,,,,,,,,,,,,,,,,,,,,,,,,,,,,,,,,,,,,,,,,,,,,,,,,,,,,,,,,,,,,,,,,,,,,,,,,,,,,3/26/2007
USW00014939,2023-01-25T00:54:00,40.8508,-96.7475,362.7,"LINCOLN AIRPORT, NE US",FM-15,343,1015.6,-3.3,-1.7,0,,,,89,CLR:00,1016.5,972.7,11.265,-2.3,290,,2.1,,,,,,,,,,,,,,,,,,,,,,,,,,,,,,,,,,,,,,,,,,,,,,,,,,,,,,,,,,,,,,,,,,,,,,,,,,,,,,,,,,,,,,,,,,,MET09101/25/23 00:54:02 METAR KLNK 250654Z 29004KT 7SM CLR M02/M03 A2999 RMK AO2 SLP165 T10171033,,,,,,,,,,3/26/2007
USW00014939,2023-01-25T01:54:00,40.8508,-96.7475,362.7,"LINCOLN AIRPORT, NE US",FM-15,343,1014.9,-3.9,-1.7,0,,,,85,CLR:00,1016,972.1,11.265,-2.5,290,,2.1,,,,,,,,,,,,,,,,,,,,,,,,,,,,,,,,,,,,,,,,,,,,,,,,,,,,,,,,,,,,,,,,,,,,,,,,,,,,,,,,,,,,,,,,,,,MET09101/25/23 01:54:01 METAR KLNK 250754Z 29004KT 7SM CLR M02/M04 A2997 RMK AO2 SLP160 T10171039,,,,,,,,,,3/26/2007
USW00014939,2023-01-25T02:54:00,40.8508,-96.7475,362.7,"LINCOLN AIRPORT, NE US",FM-15,343,1014.9,-4.4,-2.2,0,,-1.1,6,85,CLR:00,1015.9,972.1,12.875,-3,,,0,,,,,,,,,,,,,,,,,,,,,,,,,,,,,,,,,,,,,,,,,,,,,,,,,,,,,,,,,,,,,,,,,,,,,,,,,,,,,,,,,,,,,,,,,,,MET09701/25/23 02:54:01 METAR KLNK 250854Z 00000KT 8SM CLR M02/M04 A2997 RMK AO2 SLP159 T10221044 56011,,,,,,,,,,3/26/2007
USW00014939,2023-01-25T03:54:00,40.8508,-96.7475,362.7,"LINCOLN AIRPORT, NE US",FM-15,343,1014.6,-5,-2.8,0,,,,85,CLR:00,1015.7,971.8,14.484,-3.5,280,,1.5,,,,,,,,,,,,,,,,,,,,,,,,,,,,,,,,,,,,,,,,,,,,,,,,,,,,,,,,,,,,,,,,,,,,,,,,,,,,,,,,,,,,,,,,,,,MET09101/25/23 03:54:02 METAR KLNK 250954Z 28003KT 9SM CLR M03/M05 A2996 RMK AO2 SLP157 T10281050,,,,,,,,,,3/26/2007
USW00014939,2023-01-25T04:54:00,40.8508,-96.7475,362.7,"LINCOLN AIRPORT, NE US",FM-15,343,1014.6,-5.6,-2.8,0,,,,81,BKN:07 16.76,1015.6,971.8,16.093,-3.7,310,,2.6,,,,,,,,,,,,,,,,,,,,,,,,,,,,,,,,,,,,,,,,,,,,,,,,,,,,,,,,,,,,,,,,,,,,,,,,,,,,,,,,,,,,,,,,,,,MET09501/25/23 04:54:02 METAR KLNK 251054Z 31005KT 10SM BKN055 M03/M06 A2996 RMK AO2 SLP156 T10281056,,,,,,,,,,3/26/2007
USW00014939,2023-01-25T05:54:00,40.8508,-96.7475,362.7,"LINCOLN AIRPORT, NE US",FM-15,343,1014.2,-5.6,-2.2,0,,-0.5,6,78,BKN:07 19.81,1015.4,971.4,16.093,-3.4,340,,5.7,,,,,,,,,,,,,,,,,,,,,,,,,,,,,,,,,,,,,,,,,,,,,,,,,,,,,,,,,,,,,,,,,,,,,,,,,,,,,,,,,,,,,,,,,,,MET11301/25/23 05:54:02 METAR KLNK 251154Z 34011KT 10SM BKN065 M02/M06 A2995 RMK AO2 SLP154 T10221056 11006 21033 56005,,,,,,,,,,3/26/2007
USW00014939,2023-01-25T06:00:00,40.8508,-96.7475,362.7,"LINCOLN AIRPORT, NE US",FM-12,223,,-5.6,-2.2,,,-0.5,6,78,,1015.4,971.2,,-3.4,340,,5.7,,,,,,,,,,,,,,,,,,,,,,,,,,,,,,,,,,,,,,,,,,,,,,,,,,,,,,,,,,,,,,,,,,,,,,,,,,,,,,,,,,,,,,,,,,,SYN08072551 32766 63411 11022 21056 39712 40154 56005 91154 333 10033 21033 555 92512=,,,,,,,,,,3/26/2007
USW00014939,2023-01-25T06:54:00,40.8508,-96.7475,362.7,"LINCOLN AIRPORT, NE US",FM-15,343,1014.2,-4.4,-1.1,0,,,,79,OVC:08 15.24,1015.4,971.4,16.093,-2.3,330,,7.7,,,,,,,,,,,,,,,,,,,,,,,,,,,,,,,,,,,,,,,,,,,,,,,,,,,,,,,,,,,,,,,,,,,,,,,,,,,,,,,,,,,,,,,,,,,MET09501/25/23 06:54:02 METAR KLNK 251254Z 33015KT 10SM OVC050 M01/M04 A2995 RMK AO2 SLP154 T10111044,,,,,,,,,,3/26/2007
USW00014939,2023-01-25T07:54:00,40.8508,-96.7475,362.7,"LINCOLN AIRPORT, NE US",FM-15,343,1014.6,-5.6,-1.1,0,,,,72,CLR:00,1015.5,971.8,16.093,-2.7,330,,6.7,,,,,,,,,,,,,,,,,,,,,,,,,,,,,,,,,,,,,,,,,,,,,,,,,,,,,,,,,,,,,,,,,,,,,,,,,,,,,,,,,,,,,,,,,,,MET09201/25/23 07:54:02 METAR KLNK 251354Z 33013KT 10SM CLR M01/M06 A2996 RMK AO2 SLP155 T10111056,,,,,,,,,,3/26/2007
USW00014939,2023-01-25T08:24:00,40.8508,-96.7475,362.7,"LINCOLN AIRPORT, NE US",FM-16,343,1014.9,-5,-0.6,,,,,72,BKN:07 7.62,,972.1,16.093,-2.1,330,,7.7,,,,,,,,,,,,,,,,,,,,,,,,,,,,,,,,,,,,,,,,,,,,,,,,,,,,,,,,,,,,,,,,,,,,,,,,,,,,,,,,,,,,,,,,,,,MET08801/25/23 08:24:02 SPECI KLNK 251424Z 33015KT 10SM BKN025 M01/M05 A2997 RMK AO2 T10061050,,,,,,,,,,3/26/2007
USW00014939,2023-01-25T08:54:00,40.8508,-96.7475,362.7,"LINCOLN AIRPORT, NE US",FM-15,343,1015.6,-5,-1.1,0,,1,3,75,OVC:08 6.4,1016.5,972.7,16.093,-2.5,340,14.4,9.3,,,,,,,,,,,,,,,,,,,,,,,,,,,,,,,,,,,,,,,,,,,,,,,,,,,,,,,,,,,,,,,,,,,,,,,,,,,,,,,,,,,,,,,,,,,MET12201/25/23 08:54:02 METAR KLNK 251454Z 34018G28KT 10SM OVC021 M01/M05 A2999 RMK AO2 PK WND 34028/1447 SLP165 T10111050 53010,,,,,,,,,,3/26/2007
USW00014939,2023-01-25T09:54:00,40.8508,-96.7475,362.7,"LINCOLN AIRPORT, NE US",FM-15,343,1016.3,-6.7,-2.2,0,,,,72,OVC:08 6.4,1017.6,973.4,16.093,-3.7,330,16,11.8,,,,,,,,,,,,,,,,,,,,,,,,,,,,,,,,,,,,,,,,,,,,,,,,,,,,,,,,,,,,,,,,,,,,,,,,,,,,,,,,,,,,,,,,,,,MET11601/25/23 09:54:02 METAR KLNK 251554Z 33023G31KT 10SM OVC021 M02/M07 A3001 RMK AO2 PK WND 34031/1552 SLP176 T10221067,,,,,,,,,,3/26/2007
USW00014939,2023-01-25T10:54:00,40.8508,-96.7475,362.7,"LINCOLN AIRPORT, NE US",FM-15,343,1017.3,-7.8,-3.3,0,,,,71,OVC:08 5.79,1018.7,974.4,16.093,-4.8,330,14.9,9.3,,,,,,,,,,,,,,,,,,,,,,,,,,,,,,,,,,,,,,,,,,,,,,,,,,,,,,,,,,,,,,,,,,,,,,,,,,,,,,,,,,,,,,,,,,,MET11601/25/23 10:54:01 METAR KLNK 251654Z 33018G29KT 10SM OVC019 M03/M08 A3004 RMK AO2 PK WND 34033/1606 SLP187 T10331078,,,,,,,,,,3/26/2007
USW00014939,2023-01-25T11:33:00,40.8508,-96.7475,362.7,"LINCOLN AIRPORT, NE US",FM-16,343,1017.9,-8.3,-3.9,,,,,72,OVC:08 5.49,,975,16.093,-5.3,320,11.8,8.2,,,,,,,,,,,,,,,,,,,,,,,,,,,,,,,,,,,,,,,,,,,,,,,,,,,,,,,,,,,,,,,,,,,,,,,,,,,,,,,,,,,,,,,,,,,MET10901/25/23 11:33:01 SPECI KLNK 251733Z 32016G23KT 10SM OVC018 M04/M08 A3006 RMK AO2 PK WND 34030/1709 T10391083,,,,,,,,,,3/26/2007
USW00014939,2023-01-25T11:54:00,40.8508,-96.7475,362.7,"LINCOLN AIRPORT, NE US",FM-15,343,1017.9,-8.3,-3.9,0,,2.3,1,72,OVC:08 5.49,1019.2,975,16.093,-5.3,330,,8.8,,,,,,,,,,,,,,,,,,,,,,,,,,,,,,,,,,,,,,,,,,,,,,,,,,,,,,,,,,,,,,,,,,,,,,,,,,,,,,,,,,,,,,,,,,,MET13101/25/23 11:54:01 METAR KLNK 251754Z 33017KT 10SM OVC018 M04/M08 A3006 RMK AO2 PK WND 34030/1709 SLP192 T10391083 11006 21039 51023,,,,,,,,,,3/26/2007
USW00014939,2023-01-25T12:00:00,40.8508,-96.7475,362.7,"LINCOLN AIRPORT, NE US",FM-12,223,,-8.3,-3.9,,,2.3,1,72,,1019.2,974.8,,-5.3,330,,8.8,,,,,,,,,,,,,,,,,,,,,,,,,,,,,,,,,,,,,,,,,,,,,,,,,,,,,,,,,,,,,,,,,,,,,,,,,,,,,,,,,,,,,,,,,,,SYN08072551 32466 83317 11039 21083 39748 40192 51023 91754 333 11006 21039 555 92518=,,,,,,,,,,3/26/2007
USW00014939,2023-01-25T12:27:00,40.8508,-96.7475,362.7,"LINCOLN AIRPORT, NE US",FM-16,343,1017.6,-8.3,-3.3,,,,,69,OVC:08 5.79,,974.7,16.093,-4.9,320,13.4,9.8,,,,,,,,,,,,,,,,,,,,,,,,,,,,,,,,,,,,,,,,,,,,,,,,,,,,,,,,,,,,,,,,,,,,,,,,,,,,,,,,,,,,,,,,,,,MET10901/25/23 12:27:01 SPECI KLNK 251827Z 32019G26KT 10SM OVC019 M03/M08 A3005 RMK AO2 PK WND 34030/1812 T10331083,,,,,,,,,,3/26/2007
USW00014939,2023-01-25T12:54:00,40.8508,-96.7475,362.7,"LINCOLN AIRPORT, NE US",FM-15,343,1017.6,-8.9,-3.9,0,,,,69,OVC:08 5.79,1019.1,974.7,16.093,-5.4,320,14.4,9.8,,,,,,,,,,,,,,,,,,,,,,,,,,,,,,,,,,,,,,,,,,,,,,,,,,,,,,,,,,,,,,,,,,,,,,,,,,,,,,,,,,,,,,,,,,,MET11601/25/23 12:54:01 METAR KLNK 251854Z 32019G28KT 10SM OVC019 M04/M09 A3005 RMK AO2 PK WND 34030/1812 SLP191 T10391089,,,,,,,,,,3/26/2007
USW00014939,2023-01-25T13:54:00,40.8508,-96.7475,362.7,"LINCOLN AIRPORT, NE US",FM-15,343,1017.6,-8.9,-3.9,0,,,,69,OVC:08 6.1,1018.9,974.7,16.093,-5.4,330,13.4,9.8,,,,,,,,,,,,,,,,,,,,,,,,,,,,,,,,,,,,,,,,,,,,,,,,,,,,,,,,,,,,,,,,,,,,,,,,,,,,,,,,,,,,,,,,,,,MET11601/25/23 13:54:02 METAR KLNK 251954Z 33019G26KT 10SM OVC020 M04/M09 A3005 RMK AO2 PK WND 32028/1924 SLP189 T10391089,,,,,,,,,,3/26/2007
USW00014939,2023-01-25T14:54:00,40.8508,-96.7475,362.7,"LINCOLN AIRPORT, NE US",FM-15,343,1017.9,-8.9,-3.9,0,,0.2,3,69,OVC:08 5.79,1019.4,975,16.093,-5.4,330,,8.2,,,,,,,,,,,,,,,,,,,,,,,,,,,,,,,,,,,,,,,,,,,,,,,,,,,,,,,,,,,,,,,,,,,,,,,,,,,,,,,,,,,,,,,,,,,MET11901/25/23 14:54:02 METAR KLNK 252054Z 33016KT 10SM OVC019 M04/M09 A3006 RMK AO2 PK WND 34029/2007 SLP194 T10391089 53002,,,,,,,,,,3/26/2007
USW00014939,2023-01-25T15:52:00,40.8508,-96.7475,362.7,"LINCOLN AIRPORT, NE US",FM-16,343,1019,-10,-4,,,,,63,SCT:04 6.1 OVC:08 9.14,,976,16.093,-5.7,330,13.9,10.3,,,,,,,,,,,,,,,,,,,,,,,,,,,,,,,,,,,,,,,,,,,,,,,,,,,,,,,,,,,,,,,,,,,,,,,,,,,,,,,,,,,,,,,,,,,MET11601/25/23 15:52:02 SPECI KLNK 252152Z 33020G27KT 10SM SCT020 OVC030 M04/M10 A3009 RMK AO2 PK WND 33029/2115 FIBI (SD),,,,,,,,,,3/26/2007
USW00014939,2023-01-25T15:54:00,40.8508,-96.7475,362.7,"LINCOLN AIRPORT, NE US",FM-15,343,1019,-10,-4.4,0,,,,65,SCT:04 6.1 OVC:08 9.14,1020.3,976,16.093,-6.1,330,,10.3,,,,,,,,,,,,,,,,,,,,,,,,,,,,,,,,,,,,,,,,,,,,,,,,,,,,,,,,,,,,,,,,,,,,,,,,,,,,,,,,,,,,,,,,,,,MET12001/25/23 15:54:02 METAR KLNK 252154Z 33020KT 10SM SCT020 OVC030 M04/M10 A3009 RMK AO2 PK WND 33029/2115 SLP203 T10441100,,,,,,,,,,3/26/2007
USW00014939,2023-01-25T16:08:00,40.8508,-96.7475,362.7,"LINCOLN AIRPORT, NE US",FM-16,343,1019,-10,-4.4,,,,,65,SCT:04 6.1 BKN:07 8.84,,976,16.093,-6.1,320,13.9,9.8,,,,,,,,,,,,,,,,,,,,,,,,,,,,,,,,,,,,,,,,,,,,,,,,,,,,,,,,,,,,,,,,,,,,,,,,,,,,,,,,,,,,,,,,,,,MET11601/25/23 16:08:02 SPECI KLNK 252208Z 32019G27KT 10SM SCT020 BKN029 M04/M10 A3009 RMK AO2 PK WND 32027/2208 T10441100,,,,,,,,,,3/26/2007
USW00014939,2023-01-25T16:47:00,40.8508,-96.7475,362.7,"LINCOLN AIRPORT, NE US",FM-16,343,1019.3,-10.6,-4.4,,,,,62,SCT:04 7.32,,976.3,16.093,-6.3,330,14.9,11.3,,,,,,,,,,,,,,,,,,,,,,,,,,,,,,,,,,,,,,,,,,,,,,,,,,,,,,,,,,,,,,,,,,,,,,,,,,,,,,,,,,,,,,,,,,,MET11401/25/23 16:47:02 SPECI KLNK 252247Z 33022G29KT 10SM SCT024 M04/M11 A3010 RMK AO2 PK WND 35029/2212 T10441106 (SD),,,,,,,,,,3/26/2007
USW00014939,2023-01-25T16:54:00,40.8508,-96.7475,362.7,"LINCOLN AIRPORT, NE US",FM-15,343,1019.6,-10.6,-4.4,0,,,,62,FEW:02 7.32,1021,976.7,16.093,-6.3,330,13.9,7.7,,,,,,,,,,,,,,,,,,,,,,,,,,,,,,,,,,,,,,,,,,,,,,,,,,,,,,,,,,,,,,,,,,,,,,,,,,,,,,,,,,,,,,,,,,,MET12101/25/23 16:54:02 METAR KLNK 252254Z 33015G27KT 10SM FEW024 M04/M11 A3011 RMK AO2 PK WND 35029/2212 SLP210 T10441106 (SD),,,,,,,,,,3/26/2007
USW00014939,2023-01-25T17:54:00,40.8508,-96.7475,362.7,"LINCOLN AIRPORT, NE US",FM-15,343,1020,-12.2,-6.7,0,,2.1,1,65,CLR:00,1021.8,977,16.093,-8.2,340,11.8,7.7,,,,,,,,,,,,,,,,,,,,,,,,,,,,,,,,,,,,,,,,,,,,,,,,,,,,,,,,,,,,,,,,,,,,,,,,,,,,,,,,,,,,,,,,,,,MET13601/25/23 17:54:02 METAR KLNK 252354Z 34015G23KT 10SM CLR M07/M12 A3012 RMK AO2 PK WND 33028/2305 SLP218 T10671122 11033 21067 51021 (SD),,,,,,,,,,3/26/2007
USW00014939,2023-01-25T18:00:00,40.8508,-96.7475,362.7,"LINCOLN AIRPORT, NE US",FM-12,223,,-12.2,-6.7,,,2.1,1,65,,1021.8,976.7,,-8.2,340,,7.7,,,,,,,,,,,,,,,,,,,,,,,,,,,,,,,,,,,,,,,,,,,,,,,,,,,,,,,,,,,,,,,,,,,,,,,,,,,,,,,,,,,,,,,,,,,SYN08672551 32966 03415 11067 21122 39767 40218 51021 92354 333 11006 21067 91023 555 92600=,,,,,,,,,,3/26/2007
USW00014939,2023-01-25T18:54:00,40.8508,-96.7475,362.7,"LINCOLN AIRPORT, NE US",FM-15,343,1021,-12.2,-7.2,0,,,,68,CLR:00,1022.4,978,16.093,-8.6,330,,4.6,,,,,,,,,,,,,,,,,,,,,,,,,,,,,,,,,,,,,,,,,,,,,,,,,,,,,,,,,,,,,,,,,,,,,,,,,,,,,,,,,,,,,,,,,,,MET09201/25/23 18:54:01 METAR KLNK 260054Z 33009KT 10SM CLR M07/M12 A3015 RMK AO2 SLP224 T10721122,,,,,,,,,,3/26/2007
USW00014939,2023-01-25T19:54:00,40.8508,-96.7475,362.7,"LINCOLN AIRPORT, NE US",FM-15,343,1021,-12.8,-7.8,0,,,,68,CLR:00,1022.7,978,16.093,-9.1,310,,3.6,,,,,,,,,,,,,,,,,,,,,,,,,,,,,,,,,,,,,,,,,,,,,,,,,,,,,,,,,,,,,,,,,,,,,,,,,,,,,,,,,,,,,,,,,,,MET09201/25/23 19:54:01 METAR KLNK 260154Z 31007KT 10SM CLR M08/M13 A3015 RMK AO2 SLP227 T10781128,,,,,,,,,,3/26/2007
USW00014939,2023-01-25T20:54:00,40.8508,-96.7475,362.7,"LINCOLN AIRPORT, NE US",FM-15,343,1021,-12.8,-8.3,0,,1,1,70,CLR:00,1022.8,978,16.093,-9.5,310,,3.1,,,,,,,,,,,,,,,,,,,,,,,,,,,,,,,,,,,,,,,,,,,,,,,,,,,,,,,,,,,,,,,,,,,,,,,,,,,,,,,,,,,,,,,,,,,MET09801/25/23 20:54:01 METAR KLNK 260254Z 31006KT 10SM CLR M08/M13 A3015 RMK AO2 SLP228 T10831128 51010,,,,,,,,,,3/26/2007
USW00014939,2023-01-25T21:54:00,40.8508,-96.7475,362.7,"LINCOLN AIRPORT, NE US",FM-15,343,1021.3,-12.8,-8.9,0,,,,74,CLR:00,1023,978.3,16.093,-9.9,310,,2.6,,,,,,,,,,,,,,,,,,,,,,,,,,,,,,,,,,,,,,,,,,,,,,,,,,,,,,,,,,,,,,,,,,,,,,,,,,,,,,,,,,,,,,,,,,,MET09201/25/23 21:54:01 METAR KLNK 260354Z 31005KT 10SM CLR M09/M13 A3016 RMK AO2 SLP230 T10891128,,,,,,,,,,3/26/2007
USW00014939,2023-01-25T22:54:00,40.8508,-96.7475,362.7,"LINCOLN AIRPORT, NE US",FM-15,343,1021.7,-12.8,-9.4,0,,,,77,CLR:00,1023.4,978.6,16.093,-10.3,300,,2.6,,,,,,,,,,,,,,,,,,,,,,,,,,,,,,,,,,,,,,,,,,,,,,,,,,,,,,,,,,,,,,,,,,,,,,,,,,,,,,,,,,,,,,,,,,,MET09201/25/23 22:54:02 METAR KLNK 260454Z 30005KT 10SM CLR M09/M13 A3017 RMK AO2 SLP234 T10941128,,,,,,,,,,3/26/2007
USW00014939,2023-01-25T23:54:00,40.8508,-96.7475,362.7,"LINCOLN AIRPORT, NE US",FM-15,343,1022,-12.8,-9.4,0,,0.8,3,77,CLR:00,1023.9,978.9,16.093,-10.3,310,,3.6,,,,,,,,,,,,,,,,,,,,,,,,,,,,,,,,,,,,,,,,,,,,,,,,,,,,,,,,,,,,,,,,,,,,,,,,,,,,,,,,,,,,,,,,,,,MET12001/25/23 23:54:02 METAR KLNK 260554Z 31007KT 10SM CLR M09/M13 A3018 RMK AO2 SLP239 T10941128 11067 21094 410061094 53008,,,,,,,,,,3/26/2007
USW00014939,2023-01-26T00:00:00,40.8508,-96.7475,362.7,"LINCOLN AIRPORT, NE US",FM-12,223,,-12.8,-9.4,,,0.8,3,77,,1023.9,978.7,,-10.3,310,,3.6,,,,,,,,,,,,,,,,,,,,,,,,,,,,,,,,,,,,,,,,,,,,,,,,,,,,,,,,,,,,,,,,,,,,,,,,,,,,,,,,,,,,,,,,,,,SYN08072551 35966 03107 11094 21128 39787 40239 53008 90554 333 11006 21094 555 92606=,,,,,,,,,,3/26/2007
USW00014939,2023-01-26T00:00:00,40.8508,-96.7475,362.7,"LINCOLN AIRPORT, NE US",SOD,,,,,,,,,,,,,,,,,,744,1736,-7.8,-4.1,72,1021,976.6,-5,4.2,0,-0.32,22.4,1.7,-9.9,210,12.5,T,T,T,230,8.9,,,,,,,,,,,,,,,,,,,,,,,,,,,,,,,,,,,,,,,,,,,,,,,,,,,,,,,,,,,,,,,,,,,,,,,,,,,,,,,,3/26/2007
USW00014939,2023-01-26T00:54:00,40.8508,-96.7475,362.7,"LINCOLN AIRPORT, NE US",FM-15,343,1021.7,-12.8,-10,0,,,,80,BKN:07 33.53,1023.7,978.6,16.093,-10.7,300,,2.1,,,,,,,,,,,,,,,,,,,,,,,,,,,,,,,,,,,,,,,,,,,,,,,,,,,,,,,,,,,,,,,,,,,,,,,,,,,,,,,,,,,,,,,,,,,MET09501/26/23 00:54:02 METAR KLNK 260654Z 30004KT 10SM BKN110 M10/M13 A3017 RMK AO2 SLP237 T11001128,,,,,,,,,,3/26/2007
USW00014939,2023-01-26T01:54:00,40.8508,-96.7475,362.7,"LINCOLN AIRPORT, NE US",FM-15,343,1022,-12.8,-8.9,0,,,,74,OVC:08 33.53,1023.8,978.9,16.093,-9.9,310,,3.1,,,,,,,,,,,,,,,,,,,,,,,,,,,,,,,,,,,,,,,,,,,,,,,,,,,,,,,,,,,,,,,,,,,,,,,,,,,,,,,,,,,,,,,,,,,MET09501/26/23 01:54:02 METAR KLNK 260754Z 31006KT 10SM OVC110 M09/M13 A3018 RMK AO2 SLP238 T10891128,,,,,,,,,,3/26/2007
USW00014939,2023-01-26T02:54:00,40.8508,-96.7475,362.7,"LINCOLN AIRPORT, NE US",FM-15,343,1022.4,-12.2,-8.9,0,,0.5,3,77,OVC:08 33.53,1024.4,979.3,16.093,-9.8,320,,3.1,,,,,,,,,,,,,,,,,,,,,,,,,,,,,,,,,,,,,,,,,,,,,,,,,,,,,,,,,,,,,,,,,,,,,,,,,,,,,,,,,,,,,,,,,,,MET10101/26/23 02:54:02 METAR KLNK 260854Z 32006KT 10SM OVC110 M09/M12 A3019 RMK AO2 SLP244 T10891122 53005,,,,,,,,,,3/26/2007
USW00014939,2023-01-26T03:54:00,40.8508,-96.7475,362.7,"LINCOLN AIRPORT, NE US",FM-15,343,1022.4,-12.2,-8.9,0,,,,77,OVC:08 30.48,1024.1,979.3,16.093,-9.8,330,,3.6,,,,,,,,,,,,,,,,,,,,,,,,,,,,,,,,,,,,,,,,,,,,,,,,,,,,,,,,,,,,,,,,,,,,,,,,,,,,,,,,,,,,,,,,,,,MET09501/26/23 03:54:02 METAR KLNK 260954Z 33007KT 10SM OVC100 M09/M12 A3019 RMK AO2 SLP241 T10891122,,,,,,,,,,3/26/2007
USW00014939,2023-01-26T04:54:00,40.8508,-96.7475,362.7,"LINCOLN AIRPORT, NE US",FM-15,343,1022.7,-12.2,-8.9,0,,,,77,OVC:08 24.38,1024.6,979.6,16.093,-9.8,330,,3.1,,,,,,,,,,,,,,,,,,,,,,,,,,,,,,,,,,,,,,,,,,,,,,,,,,,,,,,,,,,,,,,,,,,,,,,,,,,,,,,,,,,,,,,,,,,MET09501/26/23 04:54:02 METAR KLNK 261054Z 33006KT 10SM OVC080 M09/M12 A3020 RMK AO2 SLP246 T10891122,,,,,,,,,,3/26/2007
USW00014939,2023-01-26T05:54:00,40.8508,-96.7475,362.7,"LINCOLN AIRPORT, NE US",FM-15,343,1022.7,-12.2,-8.3,0,,0.1,3,74,FEW:02 22.86 OVC:08 30.48,1024.6,979.6,16.093,-9.4,320,,3.6,,,,,,,,,,,,,,,,,,,,,,,,,,,,,,,,,,,,,,,,,,,,,,,,,,,,,,,,,,,,,,,,,,,,,,,,,,,,,,,,,,,,,,,,,,,MET12501/26/23 05:54:02 METAR KLNK 261154Z 32007KT 10SM FEW075 OVC100 M08/M12 A3020 RMK AO2 SLP246 T10831122 11083 21100 53001 (NU),,,,,,,,,,3/26/2007
USW00014939,2023-01-26T06:00:00,40.8508,-96.7475,362.7,"LINCOLN AIRPORT, NE US",FM-12,223,,-12.2,-8.3,,,0.1,3,74,,1024.6,979.4,,-9.4,320,,3.6,,,,,,,,,,,,,,,,,,,,,,,,,,,,,,,,,,,,,,,,,,,,,,,,,,,,,,,,,,,,,,,,,,,,,,,,,,,,,,,,,,,,,,,,,,,SYN08072551 32866 83207 11083 21122 39794 40246 53001 91154 333 11006 21100 555 92612=,,,,,,,,,,3/26/2007
USW00014939,2023-01-26T06:54:00,40.8508,-96.7475,362.7,"LINCOLN AIRPORT, NE US",FM-15,343,1023,-11.7,-8.3,0,,,,77,OVC:08 30.48,1024.8,979.9,16.093,-9.2,310,,2.1,,,,,,,,,,,,,,,,,,,,,,,,,,,,,,,,,,,,,,,,,,,,,,,,,,,,,,,,,,,,,,,,,,,,,,,,,,,,,,,,,,,,,,,,,,,MET10001/26/23 06:54:02 METAR KLNK 261254Z 31004KT 10SM OVC100 M08/M12 A3021 RMK AO2 SLP248 T10831117 (NU),,,,,,,,,,3/26/2007
USW00014939,2023-01-26T07:54:00,40.8508,-96.7475,362.7,"LINCOLN AIRPORT, NE US",FM-15,343,1023,-11.1,-7.8,0,,,,77,OVC:08 30.48,1025.1,979.9,16.093,-8.7,320,,2.6,,,,,,,,,,,,,,,,,,,,,,,,,,,,,,,,,,,,,,,,,,,,,,,,,,,,,,,,,,,,,,,,,,,,,,,,,,,,,,,,,,,,,,,,,,,MET10001/26/23 07:54:02 METAR KLNK 261354Z 32005KT 10SM OVC100 M08/M11 A3021 RMK AO2 SLP251 T10781111 (NU),,,,,,,,,,3/26/2007
USW00014939,2023-01-26T08:54:00,40.8508,-96.7475,362.7,"LINCOLN AIRPORT, NE US",FM-15,343,1023.7,-11.1,-7.2,0,,0.9,3,74,OVC:08 30.48,1025.6,980.6,16.093,-8.3,310,,4.1,,,,,,,,,,,,,,,,,,,,,,,,,,,,,,,,,,,,,,,,,,,,,,,,,,,,,,,,,,,,,,,,,,,,,,,,,,,,,,,,,,,,,,,,,,,MET10601/26/23 08:54:02 METAR KLNK 261454Z 31008KT 10SM OVC100 M07/M11 A3023 RMK AO2 SLP256 T10721111 53009 (NU),,,,,,,,,,3/26/2007
USW00014939,2023-01-26T09:54:00,40.8508,-96.7475,362.7,"LINCOLN AIRPORT, NE US",FM-15,343,1024,-10,-6.1,0,,,,74,OVC:08 30.48,1025.9,980.9,16.093,-7.2,360,,2.6,,,,,,,,,,,,,,,,,,,,,,,,,,,,,,,,,,,,,,,,,,,,,,,,,,,,,,,,,,,,,,,,,,,,,,,,,,,,,,,,,,,,,,,,,,,MET10001/26/23 09:54:02 METAR KLNK 261554Z 36005KT 10SM OVC100 M06/M10 A3024 RMK AO2 SLP259 T10611100 (NU),,,,,,,,,,3/26/2007
USW00014939,2023-01-26T10:54:00,40.8508,-96.7475,362.7,"LINCOLN AIRPORT, NE US",FM-15,343,1024,-9.4,-3.9,0,,,,66,OVC:08 28.96,1026,980.9,16.093,-5.6,330,,3.6,,,,,,,,,,,,,,,,,,,,,,,,,,,,,,,,,,,,,,,,,,,,,,,,,,,,,,,,,,,,,,,,,,,,,,,,,,,,,,,,,,,,,,,,,,,MET09501/26/23 10:54:01 METAR KLNK 261654Z 33007KT 10SM OVC095 M04/M09 A3024 RMK AO2 SLP260 T10391094,,,,,,,,,,3/26/2007
USW00014939,2023-01-26T11:54:00,40.8508,-96.7475,362.7,"LINCOLN AIRPORT, NE US",FM-15,343,1023.7,-8.9,-2.2,0,,-0.1,8,60,FEW:02 11.58,1025.3,980.6,16.093,-4.3,,,2.1,,,,,,,,,,,,,,,,,,,,,,,,,,,,,,,,,,,,,,,,,,,,,,,,,,,,,,,,,,,,,,,,,,,,,,,,,,,,,,,,,,,,,,,,,,,MET11301/26/23 11:54:01 METAR KLNK 261754Z VRB04KT 10SM FEW038 M02/M09 A3023 RMK AO2 SLP253 T10221089 11022 21083 58001,,,,,,,,,,3/26/2007
USW00014939,2023-01-26T12:00:00,40.8508,-96.7475,362.7,"LINCOLN AIRPORT, NE US",FM-12,223,,-8.9,-2.2,,,-0.1,8,60,,1025.3,980.3,,-4.3,999,,2.1,,,,,,,,,,,,,,,,,,,,,,,,,,,,,,,,,,,,,,,,,,,,,,,,,,,,,,,,,,,,,,,,,,,,,,,,,,,,,,,,,,,,,,,,,,,SYN08072551 32666 2//04 11022 21089 39803 40253 58001 91754 333 11022 21083 555 92618=,,,,,,,,,,3/26/2007
USW00014939,2023-01-26T12:54:00,40.8508,-96.7475,362.7,"LINCOLN AIRPORT, NE US",FM-15,343,1021.7,-7.8,-1.1,0,,,,61,CLR:00,1023.4,978.6,16.093,-3.3,330,,2.1,,,,,,,,,,,,,,,,,,,,,,,,,,,,,,,,,,,,,,,,,,,,,,,,,,,,,,,,,,,,,,,,,,,,,,,,,,,,,,,,,,,,,,,,,,,MET09201/26/23 12:54:01 METAR KLNK 261854Z 33004KT 10SM CLR M01/M08 A3017 RMK AO2 SLP234 T10111078,,,,,,,,,,3/26/2007
USW00014939,2023-01-26T13:54:00,40.8508,-96.7475,362.7,"LINCOLN AIRPORT, NE US",FM-15,343,1020,-6.7,-0.6,0,,,,64,SCT:04 11.28,1021.6,977,16.093,-2.7,240,,4.1,,,,,,,,,,,,,,,,,,,,,,,,,,,,,,,,,,,,,,,,,,,,,,,,,,,,,,,,,,,,,,,,,,,,,,,,,,,,,,,,,,,,,,,,,,,MET09501/26/23 13:54:01 METAR KLNK 261954Z 24008KT 10SM SCT037 M01/M07 A3012 RMK AO2 SLP216 T10061067,,,,,,,,,,3/26/2007
USW00014939,2023-01-26T14:54:00,40.8508,-96.7475,362.7,"LINCOLN AIRPORT, NE US",FM-15,343,1019.6,-6.7,0,0,,-3.8,6,61,FEW:02 7.01,1021.3,976.7,16.093,-2.3,290,,5.1,,,,,,,,,,,,,,,,,,,,,,,,,,,,,,,,,,,,,,,,,,,,,,,,,,,,,,,,,,,,,,,,,,,,,,,,,,,,,,,,,,,,,,,,,,,MET10001/26/23 14:54:01 METAR KLNK 262054Z 29010KT 10SM FEW023 00/M07 A3011 RMK AO2 SLP213 T00001067 56038,,,,,,,,,,3/26/2007
USW00014939,2023-01-26T15:11:00,40.8508,-96.7475,362.7,"LINCOLN AIRPORT, NE US",FM-16,343,1019.6,-6.1,0,,,,,64,BKN:07 6.71,,976.7,16.093,-2.1,250,,5.1,,,,,,,,,,,,,,,,,,,,,,,,,,,,,,,,,,,,,,,,,,,,,,,,,,,,,,,,,,,,,,,,,,,,,,,,,,,,,,,,,,,,,,,,,,,MET08701/26/23 15:11:01 SPECI KLNK 262111Z 25010KT 10SM BKN022 00/M06 A3011 RMK AO2 T00001061,,,,,,,,,,3/26/2007
USW00014939,2023-01-26T15:54:00,40.8508,-96.7475,362.7,"LINCOLN AIRPORT, NE US",FM-15,343,1019.3,-5.6,0,0,,,,66,BKN:07 7.32 OVC:08 9.14,1021,976.3,16.093,-2,220,,3.6,,,,,,,,,,,,,,,,,,,,,,,,,,,,,,,,,,,,,,,,,,,,,,,,,,,,,,,,,,,,,,,,,,,,,,,,,,,,,,,,,,,,,,,,,,,MET10101/26/23 15:54:01 METAR KLNK 262154Z 22007KT 10SM BKN024 OVC030 00/M06 A3010 RMK AO2 SLP210 T00001056,,,,,,,,,,3/26/2007
USW00014939,2023-01-26T16:54:00,40.8508,-96.7475,362.7,"LINCOLN AIRPORT, NE US",FM-15,343,1018.6,-5,0,0,,,,69,OVC:08 8.53,1020.1,975.7,16.093,-1.8,220,,6.2,,,,,,,,,,,,,,,,,,,,,,,,,,,,,,,,,,,,,,,,,,,,,,,,,,,,,,,,,,,,,,,,,,,,,,,,,,,,,,,,,,,,,,,,,,,MET09401/26/23 16:54:01 METAR KLNK 262254Z 22012KT 10SM OVC028 00/M05 A3008 RMK AO2 SLP201 T00001050,,,,,,,,,,3/26/2007
USW00014939,2023-01-26T17:12:00,40.8508,-96.7475,362.7,"LINCOLN AIRPORT, NE US",FM-16,343,1018.3,-5,-0.6,,,,,72,SCT:04 8.53,,975.3,16.093,-2.1,210,,4.6,,,,,,,,,,,,,,,,,,,,,,,,,,,,,,,,,,,,,,,,,,,,,,,,,,,,,,,,,,,,,,,,,,,,,,,,,,,,,,,,,,,,,,,,,,,MET08801/26/23 17:12:02 SPECI KLNK 262312Z 21009KT 10SM SCT028 M01/M05 A3007 RMK AO2 T10061050,,,,,,,,,,3/26/2007
USW00014939,2023-01-26T17:54:00,40.8508,-96.7475,362.7,"LINCOLN AIRPORT, NE US",FM-15,343,1017.3,-5.6,-1.7,0,,-2.2,8,75,CLR:00,1019,974.4,16.093,-3,200,,3.6,,,,,,,,,,,,,,,,,,,,,,,,,,,,,,,,,,,,,,,,,,,,,,,,,,,,,,,,,,,,,,,,,,,,,,,,,,,,,,,,,,,,,,,,,,,MET11001/26/23 17:54:02 METAR KLNK 262354Z 20007KT 10SM CLR M02/M06 A3004 RMK AO2 SLP190 T10171056 10000 21022 58022,,,,,,,,,,3/26/2007
USW00014939,2023-01-26T18:00:00,40.8508,-96.7475,362.7,"LINCOLN AIRPORT, NE US",FM-12,223,,-5.6,-1.7,,,-2.2,8,75,,1019,974.1,,-3,200,,3.6,,,,,,,,,,,,,,,,,,,,,,,,,,,,,,,,,,,,,,,,,,,,,,,,,,,,,,,,,,,,,,,,,,,,,,,,,,,,,,,,,,,,,,,,,,,SYN08072551 32966 02007 11017 21056 39741 40190 58022 92354 333 10000 21100 555 92700=,,,,,,,,,,3/26/2007
USW00014939,2023-01-26T18:54:00,40.8508,-96.7475,362.7,"LINCOLN AIRPORT, NE US",FM-15,343,1015.9,-6.1,-2.2,0,,,,75,CLR:00,1017.6,973.1,16.093,-3.5,190,,5.1,,,,,,,,,,,,,,,,,,,,,,,,,,,,,,,,,,,,,,,,,,,,,,,,,,,,,,,,,,,,,,,,,,,,,,,,,,,,,,,,,,,,,,,,,,,MET09901/26/23 18:54:01 METAR KLNK 270054Z 19010KT 10SM CLR M02/M06 A3000 RMK AO2 PRESFR SLP176 T10221061,,,,,,,,,,3/26/2007
USW00014939,2023-01-26T19:54:00,40.8508,-96.7475,362.7,"LINCOLN AIRPORT, NE US",FM-15,343,1015.2,-5.6,-2.2,0,,,,78,CLR:00,1016.9,972.4,16.093,-3.4,200,,6.2,,,,,,,,,,,,,,,,,,,,,,,,,,,,,,,,,,,,,,,,,,,,,,,,,,,,,,,,,,,,,,,,,,,,,,,,,,,,,,,,,,,,,,,,,,,MET09701/26/23 19:54:03 METAR KLNK 270154Z 20012KT 10SM CLR M02/M06 A2998 RMK AO2 SLP169 T10221056 (SD),,,,,,,,,,3/26/2007
USW00014939,2023-01-26T20:54:00,40.8508,-96.7475,362.7,"LINCOLN AIRPORT, NE US",FM-15,343,1013.5,-5,-1.1,0,,-3.8,8,75,CLR:00,1014.9,970.8,16.093,-2.5,200,,6.7,,,,,,,,,,,,,,,,,,,,,,,,,,,,,,,,,,,,,,,,,,,,,,,,,,,,,,,,,,,,,,,,,,,,,,,,,,,,,,,,,,,,,,,,,,,MET10301/26/23 20:54:03 METAR KLNK 270254Z 20013KT 10SM CLR M01/M05 A2993 RMK AO2 SLP149 T10111050 58038 (BV),,,,,,,,,,3/26/2007
USW00014939,2023-01-26T21:54:00,40.8508,-96.7475,362.7,"LINCOLN AIRPORT, NE US",FM-15,343,1011.9,-4.4,-0.6,0,,,,76,BKN:07 33.53,1013.3,969.1,16.093,-2,200,10.8,7.7,,,,,,,,,,,,,,,,,,,,,,,,,,,,,,,,,,,,,,,,,,,,,,,,,,,,,,,,,,,,,,,,,,,,,,,,,,,,,,,,,,,,,,,,,,,MET10301/26/23 21:54:03 METAR KLNK 270354Z 20015G21KT 10SM BKN110 M01/M04 A2988 RMK AO2 SLP133 T10061044 (BV),,,,,,,,,,3/26/2007
USW00014939,2023-01-26T22:54:00,40.8508,-96.7475,362.7,"LINCOLN AIRPORT, NE US",FM-15,343,1010.5,-4.4,0,0,,,,73,OVC:08 25.91,1011.8,967.8,16.093,-1.6,210,11.8,7.7,,,,,,,,,,,,,,,,,,,,,,,,,,,,,,,,,,,,,,,,,,,,,,,,,,,,,,,,,,,,,,,,,,,,,,,,,,,,,,,,,,,,,,,,,,,MET09701/26/23 22:54:03 METAR KLNK 270454Z 21015G23KT 10SM OVC085 00/M04 A2984 RMK AO2 SLP118 T00001044,,,,,,,,,,3/26/2007
USW00014939,2023-01-26T23:54:00,40.8508,-96.7475,362.7,"LINCOLN AIRPORT, NE US",FM-15,343,1009.8,-3.3,1.7,T,,-3.7,6,70,BKN:07 12.5 OVC:08 14.63,1010.7,967.2,16.093,-0.2,230,,7.7,,,,,,,,,,,,,,,,,,,,,,,,,,,,,,,,,,,,,,,,,,,,,,,,,,,,,,,,,,,,,,,,,,,,,,,,,,,,,,,,,,,,,,,,,,,MET15001/26/23 23:54:03 METAR KLNK 270554Z 23015KT 10SM BKN041 OVC048 02/M03 A2982 RMK AO2 SNB10E37 SLP107 P0000 60000 T00171033 10017 21033 400171100 56037,,,,,,,,,,3/26/2007
USW00014939,2023-01-27T00:00:00,40.8508,-96.7475,362.7,"LINCOLN AIRPORT, NE US",FM-12,223,,-3.3,1.7,,,-3.7,6,70,,1010.7,966.9,,-0.2,230,,7.7,,,,,,,,,,,,,,,,,,,,,,,,,,,,,,,,,,,,,,,,,,,,,,,,,,,,,,,,,,,,,,,,,,,,,,,,,,,,,,,,,,,,,,,,,,,SYN08672551 15666 82315 10017 21033 39669 40107 56037 69901 90554 333 10017 21100 555 92706=,,,,,,,,,,3/26/2007
USW00014939,2023-01-27T00:00:00,40.8508,-96.7475,362.7,"LINCOLN AIRPORT, NE US",SOD,,,,,,,,,,,,,,,,,,743,1737,-3.3,2.3,66,1013.9,969.9,0,4.3,0,6.02,16,5.6,-1,330,16.5,T,0,T,330,12.5,,,,,,,,,,,,,,,,,,,,,,,,,,,,,,,,,,,,,,,,,,,,,,,,,,,,,,,,,,,,,,,,,,,,,,,,,,,,,,,,3/26/2007
USW00014939,2023-01-27T00:54:00,40.8508,-96.7475,362.7,"LINCOLN AIRPORT, NE US",FM-15,343,1008.5,-2.8,1.7,0,,,,72,SCT:04 15.24 BKN:07 22.86 OVC:08 28.96,1009.6,965.9,16.093,0,250,11.8,6.7,,,,,,,,,,,,,,,,,,,,,,,,,,,,,,,,,,,,,,,,,,,,,,,,,,,,,,,,,,,,,,,,,,,,,,,,,,,,,,,,,,,,,,,,,,,MET11101/27/23 00:54:02 METAR KLNK 270654Z 25013G23KT 10SM SCT050 BKN075 OVC095 02/M03 A2978 RMK AO2 SLP096 T00171028,,,,,,,,,,3/26/2007
USW00014939,2023-01-27T01:54:00,40.8508,-96.7475,362.7,"LINCOLN AIRPORT, NE US",FM-15,343,1008.1,-2.2,2.2,T,,,,73,OVC:08 27.43,1008.9,965.5,16.093,0.5,250,,7.2,,,,,,,,,,,,,,,,,,,,,,,,,,,,,,,,,,,,,,,,,,,,,,,,,,,,,,,,,,,,,,,,,,,,,,,,,,,,,,,,,,,,,,,,,,,MET12301/27/23 01:54:02 METAR KLNK 270754Z 25014KT 10SM OVC090 02/M02 A2977 RMK AO2 UPB10E18SNB09E10B18E19 SLP089 P0000 T00221022,,,,,,,,,,3/26/2007
USW00014939,2023-01-27T02:54:00,40.8508,-96.7475,362.7,"LINCOLN AIRPORT, NE US",FM-15,343,1007.8,-2.2,2.2,0,,-2,6,73,SCT:04 27.43,1008.5,965.2,16.093,0.5,250,,7.2,,,,,,,,,,,,,,,,,,,,,,,,,,,,,,,,,,,,,,,,,,,,,,,,,,,,,,,,,,,,,,,,,,,,,,,,,,,,,,,,,,,,,,,,,,,MET10601/27/23 02:54:02 METAR KLNK 270854Z 25014KT 10SM SCT090 02/M02 A2976 RMK AO2 SLP085 60000 T00221022 56020,,,,,,,,,,3/26/2007
USW00014939,2023-01-27T03:54:00,40.8508,-96.7475,362.7,"LINCOLN AIRPORT, NE US",FM-15,343,1007.5,-2.2,2.8,0,,,,70,BKN:07 30.48,1008.4,964.9,16.093,0.8,270,,5.7,,,,,,,,,,,,,,,,,,,,,,,,,,,,,,,,,,,,,,,,,,,,,,,,,,,,,,,,,,,,,,,,,,,,,,,,,,,,,,,,,,,,,,,,,,,MET09401/27/23 03:54:02 METAR KLNK 270954Z 27011KT 10SM BKN100 03/M02 A2975 RMK AO2 SLP084 T00281022,,,,,,,,,,3/26/2007
USW00014939,2023-01-27T04:54:00,40.8508,-96.7475,362.7,"LINCOLN AIRPORT, NE US",FM-15,343,1008.5,-0.6,3.3,T,,,,76,FEW:02 15.24 SCT:04 19.81 OVC:08 24.38,1009.2,965.9,16.093,1.7,280,,4.1,,,,,,,,,,,,,,,,,,,,,,,,,,,,,,,,,,,,,,,,,,,,,,,,,,,,,,,,,,,,,,,,,,,,,,,,,,,,,,,,,,,,,,,,,,,MET12301/27/23 04:54:02 METAR KLNK 271054Z 28008KT 10SM FEW050 SCT065 OVC080 03/M01 A2978 RMK AO2 RAB22E36 SLP092 P0000 T00331006,,,,,,,,,,3/26/2007
USW00014939,2023-01-27T05:54:00,40.8508,-96.7475,362.7,"LINCOLN AIRPORT, NE US",FM-15,343,1008.5,-0.6,3.9,T,,0.7,3,73,FEW:02 13.72 BKN:07 21.34,1009.2,965.9,16.093,2.1,270,,3.1,,,,,,,,,,,,,,,,,,,,,,,,,,,,,,,,,,,,,,,,,,,,,,,,,,,,,,,,,,,,,,,,,,,,,,,,,,,,,,,,,,,,,,,,,,,MET14501/27/23 05:54:02 METAR KLNK 271154Z 27006KT 10SM FEW045 BKN070 04/M01 A2978 RMK AO2 RAB03E28 SLP092 P0000 60000 T00391006 10044 20011 53007 (DS),,,,,,,,,,3/26/2007
USW00014939,2023-01-27T06:00:00,40.8508,-96.7475,362.7,"LINCOLN AIRPORT, NE US",FM-12,223,,-0.6,3.9,,,0.7,3,73,,1009.2,965.6,,2.1,270,,3.1,,,,,,,,,,,,,,,,,,,,,,,,,,,,,,,,,,,,,,,,,,,,,,,,,,,,,,,,,,,,,,,,,,,,,,,,,,,,,,,,,,,,,,,,,,,SYN08672551 12666 62706 10039 21006 39656 40092 53007 69901 91154 333 10017 21032 555 92712=,,,,,,,,,,3/26/2007
USW00014939,2023-01-27T06:54:00,40.8508,-96.7475,362.7,"LINCOLN AIRPORT, NE US",FM-15,343,1009.5,-0.6,3.3,0,,,,76,FEW:02 18.29 SCT:04 22.86,1010.3,966.8,16.093,1.7,280,,4.6,,,,,,,,,,,,,,,,,,,,,,,,,,,,,,,,,,,,,,,,,,,,,,,,,,,,,,,,,,,,,,,,,,,,,,,,,,,,,,,,,,,,,,,,,,,MET10601/27/23 06:54:02 METAR KLNK 271254Z 28009KT 10SM FEW060 SCT075 03/M01 A2981 RMK AO2 SLP103 T00331006 (DS),,,,,,,,,,3/26/2007
USW00014939,2023-01-27T07:54:00,40.8508,-96.7475,362.7,"LINCOLN AIRPORT, NE US",FM-15,343,1010.2,-0.6,4.4,0,,,,70,CLR:00,1011,967.5,16.093,2.4,280,11.3,6.7,,,,,,,,,,,,,,,,,,,,,,,,,,,,,,,,,,,,,,,,,,,,,,,,,,,,,,,,,,,,,,,,,,,,,,,,,,,,,,,,,,,,,,,,,,,MET11701/27/23 07:54:02 METAR KLNK 271354Z 28013G22KT 10SM CLR 04/M01 A2983 RMK AO2 PK WND 29026/1333 SLP110 T00441006 (DS),,,,,,,,,,3/26/2007
USW00014939,2023-01-27T08:54:00,40.8508,-96.7475,362.7,"LINCOLN AIRPORT, NE US",FM-15,343,1011.5,-2.2,5,0,,3.2,3,60,CLR:00,1012.4,968.8,16.093,2.1,320,16,8.2,,,,,,,,,,,,,,,,,,,,,,,,,,,,,,,,,,,,,,,,,,,,,,,,,,,,,,,,,,,,,,,,,,,,,,,,,,,,,,,,,,,,,,,,,,,MET12301/27/23 08:54:02 METAR KLNK 271454Z 32016G31KT 10SM CLR 05/M02 A2987 RMK AO2 PK WND 32031/1445 SLP124 T00501022 53032 (DS),,,,,,,,,,3/26/2007
USW00014939,2023-01-27T09:54:00,40.8508,-96.7475,362.7,"LINCOLN AIRPORT, NE US",FM-15,343,1012.2,-2.8,5,0,,,,57,CLR:00,1013,969.5,16.093,1.9,330,16,8.8,,,,,,,,,,,,,,,,,,,,,,,,,,,,,,,,,,,,,,,,,,,,,,,,,,,,,,,,,,,,,,,,,,,,,,,,,,,,,,,,,,,,,,,,,,,MET11701/27/23 09:54:02 METAR KLNK 271554Z 33017G31KT 10SM CLR 05/M03 A2989 RMK AO2 PK WND 33032/1538 SLP130 T00501028 (DS),,,,,,,,,,3/26/2007
USW00014939,2023-01-27T10:54:00,40.8508,-96.7475,362.7,"LINCOLN AIRPORT, NE US",FM-15,343,1013.2,-2.8,5,0,,,,57,CLR:00,1014,970.4,16.093,1.9,330,12.4,6.7,,,,,,,,,,,,,,,,,,,,,,,,,,,,,,,,,,,,,,,,,,,,,,,,,,,,,,,,,,,,,,,,,,,,,,,,,,,,,,,,,,,,,,,,,,,MET11701/27/23 10:54:02 METAR KLNK 271654Z 33013G24KT 10SM CLR 05/M03 A2992 RMK AO2 PK WND 33029/1608 SLP140 T00501028 (DS),,,,,,,,,,3/26/2007
USW00014939,2023-01-27T11:54:00,40.8508,-96.7475,362.7,"LINCOLN AIRPORT, NE US",FM-15,343,1013.5,-3.9,5,0,,2,1,53,CLR:00,1014.4,970.8,16.093,1.5,340,10.3,7.7,,,,,,,,,,,,,,,,,,,,,,,,,,,,,,,,,,,,,,,,,,,,,,,,,,,,,,,,,,,,,,,,,,,,,,,,,,,,,,,,,,,,,,,,,,,MET11701/27/23 11:54:02 METAR KLNK 271754Z 34015G20KT 10SM CLR 05/M04 A2993 RMK AO2 SLP144 T00501039 10056 20033 51020 (DS),,,,,,,,,,3/26/2007
USW00014939,2023-01-27T12:00:00,40.8508,-96.7475,362.7,"LINCOLN AIRPORT, NE US",FM-12,223,,-3.9,5,,,2,1,53,,1014.4,970.5,,1.5,340,,7.7,,,,,,,,,,,,,,,,,,,,,,,,,,,,,,,,,,,,,,,,,,,,,,,,,,,,,,,,,,,,,,,,,,,,,,,,,,,,,,,,,,,,,,,,,,,SYN08672551 32966 03415 10050 21039 39705 40144 51020 91754 333 10056 21021 91020 555 92718=,,,,,,,,,,3/26/2007
USW00014939,2023-01-27T12:54:00,40.8508,-96.7475,362.7,"LINCOLN AIRPORT, NE US",FM-15,343,1013.9,-3.3,5,0,,,,55,CLR:00,1014.7,971.1,16.093,1.7,330,,4.1,,,,,,,,,,,,,,,,,,,,,,,,,,,,,,,,,,,,,,,,,,,,,,,,,,,,,,,,,,,,,,,,,,,,,,,,,,,,,,,,,,,,,,,,,,,MET09601/27/23 12:54:02 METAR KLNK 271854Z 33008KT 10SM CLR 05/M03 A2994 RMK AO2 SLP147 T00501033 (CR),,,,,,,,,,3/26/2007
USW00014939,2023-01-27T13:54:00,40.8508,-96.7475,362.7,"LINCOLN AIRPORT, NE US",FM-15,343,1014.2,-3.3,5,0,,,,55,CLR:00,1014.8,971.4,16.093,1.7,290,,5.1,,,,,,,,,,,,,,,,,,,,,,,,,,,,,,,,,,,,,,,,,,,,,,,,,,,,,,,,,,,,,,,,,,,,,,,,,,,,,,,,,,,,,,,,,,,MET09601/27/23 13:54:02 METAR KLNK 271954Z 29010KT 10SM CLR 05/M03 A2995 RMK AO2 SLP148 T00501033 (CR),,,,,,,,,,3/26/2007
USW00014939,2023-01-27T14:54:00,40.8508,-96.7475,362.7,"LINCOLN AIRPORT, NE US",FM-15,343,1014.2,-3.9,5,0,,0.4,1,53,CLR:00,1014.8,971.4,16.093,1.5,300,,5.1,,,,,,,,,,,,,,,,,,,,,,,,,,,,,,,,,,,,,,,,,,,,,,,,,,,,,,,,,,,,,,,,,,,,,,,,,,,,,,,,,,,,,,,,,,,MET10201/27/23 14:54:02 METAR KLNK 272054Z 30010KT 10SM CLR 05/M04 A2995 RMK AO2 SLP148 T00501039 51004 (CR),,,,,,,,,,3/26/2007
USW00014939,2023-01-27T15:54:00,40.8508,-96.7475,362.7,"LINCOLN AIRPORT, NE US",FM-15,343,1013.9,-3.9,5,0,,,,53,CLR:00,1014.5,971.1,16.093,1.5,,,0,,,,,,,,,,,,,,,,,,,,,,,,,,,,,,,,,,,,,,,,,,,,,,,,,,,,,,,,,,,,,,,,,,,,,,,,,,,,,,,,,,,,,,,,,,,MET09601/27/23 15:54:02 METAR KLNK 272154Z 00000KT 10SM CLR 05/M04 A2994 RMK AO2 SLP145 T00501039 (CR),,,,,,,,,,3/26/2007
USW00014939,2023-01-27T16:54:00,40.8508,-96.7475,362.7,"LINCOLN AIRPORT, NE US",FM-15,343,1014.6,-3.9,3.9,0,,,,57,CLR:00,1015.2,971.8,16.093,0.9,,,0,,,,,,,,,,,,,,,,,,,,,,,,,,,,,,,,,,,,,,,,,,,,,,,,,,,,,,,,,,,,,,,,,,,,,,,,,,,,,,,,,,,,,,,,,,,MET09601/27/23 16:54:02 METAR KLNK 272254Z 00000KT 10SM CLR 04/M04 A2996 RMK AO2 SLP152 T00391039 (CR),,,,,,,,,,3/26/2007
USW00014939,2023-01-27T17:54:00,40.8508,-96.7475,362.7,"LINCOLN AIRPORT, NE US",FM-15,343,1014.9,-3.9,2.8,0,,0.7,3,62,CLR:00,1015.6,972.1,16.093,0.2,260,,1.5,,,,,,,,,,,,,,,,,,,,,,,,,,,,,,,,,,,,,,,,,,,,,,,,,,,,,,,,,,,,,,,,,,,,,,,,,,,,,,,,,,,,,,,,,,,MET11401/27/23 17:54:02 METAR KLNK 272354Z 26003KT 10SM CLR 03/M04 A2997 RMK AO2 SLP156 T00281039 10056 20028 53007 (CR),,,,,,,,,,3/26/2007
USW00014939,2023-01-27T18:00:00,40.8508,-96.7475,362.7,"LINCOLN AIRPORT, NE US",FM-12,223,,-3.9,2.8,,,0.7,3,62,,1015.6,971.8,,0.2,260,,1.5,,,,,,,,,,,,,,,,,,,,,,,,,,,,,,,,,,,,,,,,,,,,,,,,,,,,,,,,,,,,,,,,,,,,,,,,,,,,,,,,,,,,,,,,,,,SYN08072551 32966 02603 10028 21039 39718 40156 53007 92354 333 10056 20011 555 92800=,,,,,,,,,,3/26/2007
USW00014939,2023-01-27T18:54:00,40.8508,-96.7475,362.7,"LINCOLN AIRPORT, NE US",FM-15,343,1015.6,-4.4,0,0,,,,73,CLR:00,1016.4,972.7,16.093,-1.6,,,0,,,,,,,,,,,,,,,,,,,,,,,,,,,,,,,,,,,,,,,,,,,,,,,,,,,,,,,,,,,,,,,,,,,,,,,,,,,,,,,,,,,,,,,,,,,MET09101/27/23 18:54:01 METAR KLNK 280054Z 00000KT 10SM CLR 00/M04 A2999 RMK AO2 SLP164 T00001044,,,,,,,,,,3/26/2007
USW00014939,2023-01-27T19:54:00,40.8508,-96.7475,362.7,"LINCOLN AIRPORT, NE US",FM-15,343,1015.2,-3.9,0.6,0,,,,72,CLR:00,1016.2,972.4,16.093,-1.1,100,,2.6,,,,,,,,,,,,,,,,,,,,,,,,,,,,,,,,,,,,,,,,,,,,,,,,,,,,,,,,,,,,,,,,,,,,,,,,,,,,,,,,,,,,,,,,,,,MET09101/27/23 19:54:01 METAR KLNK 280154Z 10005KT 10SM CLR 01/M04 A2998 RMK AO2 SLP162 T00061039,,,,,,,,,,3/26/2007
USW00014939,2023-01-27T20:54:00,40.8508,-96.7475,362.7,"LINCOLN AIRPORT, NE US",FM-15,343,1015.6,-4.4,0.6,0,,0.7,1,70,FEW:02 36.58,1016.4,972.7,16.093,-1.3,120,,1.5,,,,,,,,,,,,,,,,,,,,,,,,,,,,,,,,,,,,,,,,,,,,,,,,,,,,,,,,,,,,,,,,,,,,,,,,,,,,,,,,,,,,,,,,,,,MET10001/27/23 20:54:01 METAR KLNK 280254Z 12003KT 10SM FEW120 01/M04 A2999 RMK AO2 SLP164 T00061044 51007,,,,,,,,,,3/26/2007
USW00014939,2023-01-27T21:54:00,40.8508,-96.7475,362.7,"LINCOLN AIRPORT, NE US",FM-15,343,1015.9,-4.4,0,0,,,,73,BKN:07 33.53,1016.7,973.1,16.093,-1.6,,,0,,,,,,,,,,,,,,,,,,,,,,,,,,,,,,,,,,,,,,,,,,,,,,,,,,,,,,,,,,,,,,,,,,,,,,,,,,,,,,,,,,,,,,,,,,,MET09401/27/23 21:54:01 METAR KLNK 280354Z 00000KT 10SM BKN110 00/M04 A3000 RMK AO2 SLP167 T00001044,,,,,,,,,,3/26/2007
USW00014939,2023-01-27T22:54:00,40.8508,-96.7475,362.7,"LINCOLN AIRPORT, NE US",FM-15,343,1015.6,-4.4,-0.6,0,,,,76,OVC:08 28.96,1016.4,972.7,16.093,-2,60,,4.1,,,,,,,,,,,,,,,,,,,,,,,,,,,,,,,,,,,,,,,,,,,,,,,,,,,,,,,,,,,,,,,,,,,,,,,,,,,,,,,,,,,,,,,,,,,MET09501/27/23 22:54:01 METAR KLNK 280454Z 06008KT 10SM OVC095 M01/M04 A2999 RMK AO2 SLP164 T10061044,,,,,,,,,,3/26/2007
USW00014939,2023-01-27T23:54:00,40.8508,-96.7475,362.7,"LINCOLN AIRPORT, NE US",FM-15,343,1015.6,-4.4,-0.6,0,,0,8,76,FEW:02 15.24 OVC:08 21.34,1016.4,972.7,16.093,-2,80,,3.6,,,,,,,,,,,,,,,,,,,,,,,,,,,,,,,,,,,,,,,,,,,,,,,,,,,,,,,,,,,,,,,,,,,,,,,,,,,,,,,,,,,,,,,,,,,MET13001/27/23 23:54:01 METAR KLNK 280554Z 08007KT 10SM FEW050 OVC070 M01/M04 A2999 RMK AO2 SLP164 T10061044 10028 21011 400561011 58000,,,,,,,,,,3/26/2007
USW00014939,2023-01-28T00:00:00,40.8508,-96.7475,362.7,"LINCOLN AIRPORT, NE US",FM-12,223,,-4.4,-0.6,,,,,76,,1016.4,972.5,,-2,80,,3.6,,,,,,,,,,,,,,,,,,,,,,,,,,,,,,,,,,,,,,,,,,,,,,,,,,,,,,,,,,,,,,,,,,,,,,,,,,,,,,,,,,,,,,,,,,,SYN08072551 35766 80807 11006 21044 39725 40164 58000 90554 333 10044 21011 555 92806=,,,,,,,,,,3/26/2007
USW00014939,2023-01-28T00:00:00,40.8508,-96.7475,362.7,"LINCOLN AIRPORT, NE US",SOD,,,,,,,,,,,,,,,,,,742,1738,-10,-7.1,76,1019.3,975.3,-7.8,8.2,0,-3.43,25.4,-0.5,-13.8,10,16.1,T,T,T,360,12.5,BR FZRA SN UP,,,,,,,,,,,,,,,,,,,,,,,,,,,,,,,,,,,,,,,,,,,,,,,,,,,,,,,,,,,,,,,,,,,,,,,,,,,,,,,3/26/2007
USW00014939,2023-01-28T00:54:00,40.8508,-96.7475,362.7,"LINCOLN AIRPORT, NE US",FM-15,343,1015.2,-5,-1.1,0,,,,75,FEW:02 11.89 OVC:08 14.63,1016,972.4,16.093,-2.5,70,,5.7,,,,,,,,,,,,,,,,,,,,,,,,,,,,,,,,,,,,,,,,,,,,,,,,,,,,,,,,,,,,,,,,,,,,,,,,,,,,,,,,,,,,,,,,,,,MET10201/28/23 00:54:02 METAR KLNK 280654Z 07011KT 10SM FEW039 OVC048 M01/M05 A2998 RMK AO2 SLP160 T10111050,,,,,,,,,,3/26/2007
USW00014939,2023-01-28T01:54:00,40.8508,-96.7475,362.7,"LINCOLN AIRPORT, NE US",FM-15,343,1014.2,-5,-1.1,T,,,,75,BKN:07 15.24 BKN:07 21.34 OVC:08 24.38,1014.9,971.4,12.875,-2.5,90,,5.1,,,,,,,,,,,,,,,,,,,,,,,,,,,,,,,,,,,,,,,,,,,,,,,,,,,,,,,,,,,,,,,,,,,,,,,,,,,,,,,,,,,,,,,,,,,MET12301/28/23 01:54:02 METAR KLNK 280754Z 09010KT 8SM BKN050 BKN070 OVC080 M01/M05 A2995 RMK AO2 SNB41E53 SLP149 P0000 T10111050,,,,,,,,,,3/26/2007
USW00014939,2023-01-28T02:54:00,40.8508,-96.7475,362.7,"LINCOLN AIRPORT, NE US",FM-15,343,1013.2,-5,-1.1,T,-SN:03 |SN |SN,-2.3,8,75,OVC:08 18.29,1013.9,970.4,12.875,-2.5,100,,4.6,,,,,,,,,,,,,,,,,,,,,,,,,,,,,,,,,,,,,,,,,,,,,,,,,,,,,,,,,,,,,,,,,,,,,,,,,,,,,,,,,,,,,,,,,,,MET12201/28/23 02:54:02 METAR KLNK 280854Z 10009KT 8SM -SN OVC060 M01/M05 A2992 RMK AO2 SNB46 SLP139 P0000 60000 T10111050 58023,,,,,,,,,,3/26/2007
USW00014939,2023-01-28T03:54:00,40.8508,-96.7475,362.7,"LINCOLN AIRPORT, NE US",FM-15,343,1012.5,-5,-1.1,0,,,,75,OVC:08 30.48,1013.3,969.8,16.093,-2.5,100,,3.6,,,,,,,,,,,,,,,,,,,,,,,,,,,,,,,,,,,,,,,,,,,,,,,,,,,,,,,,,,,,,,,,,,,,,,,,,,,,,,,,,,,,,,,,,,,MET10901/28/23 03:54:02 METAR KLNK 280954Z 10007KT 10SM OVC100 M01/M05 A2990 RMK AO2 SNE0856 SLP133 P0000 T10111050,,,,,,,,,,3/26/2007
USW00014939,2023-01-28T04:54:00,40.8508,-96.7475,362.7,"LINCOLN AIRPORT, NE US",FM-15,343,1012.5,-5,-1.7,0,,,,78,SCT:04 33.53,1013.4,969.8,16.093,-2.8,70,,4.1,,,,,,,,,,,,,,,,,,,,,,,,,,,,,,,,,,,,,,,,,,,,,,,,,,,,,,,,,,,,,,,,,,,,,,,,,,,,,,,,,,,,,,,,,,,MET09501/28/23 04:54:02 METAR KLNK 281054Z 07008KT 10SM SCT110 M02/M05 A2990 RMK AO2 SLP134 T10171050,,,,,,,,,,3/26/2007
USW00014939,2023-01-28T05:54:00,40.8508,-96.7475,362.7,"LINCOLN AIRPORT, NE US",FM-15,343,1012.2,-5,-2.2,0,,-0.8,6,81,BKN:07 4.57,1013.3,969.5,16.093,-3.2,70,,5.7,,,,,,,,,,,,,,,,,,,,,,,,,,,,,,,,,,,,,,,,,,,,,,,,,,,,,,,,,,,,,,,,,,,,,,,,,,,,,,,,,,,,,,,,,,,MET12401/28/23 05:54:02 METAR KLNK 281154Z 07011KT 10SM BKN015 M02/M05 A2989 RMK AO2 SLP133 60000 T10221050 11006 21022 56008 (SD),,,,,,,,,,3/26/2007
USW00014939,2023-01-28T06:00:00,40.8508,-96.7475,362.7,"LINCOLN AIRPORT, NE US",FM-12,223,,-5,-2.2,,,-0.8,6,81,,1013.3,969.2,,-3.2,70,,5.7,,,,,,,,,,,,,,,,,,,,,,,,,,,,,,,,,,,,,,,,,,,,,,,,,,,,,,,,,,,,,,,,,,,,,,,,,,,,,,,,,,,,,,,,,,,SYN08672551 12466 60711 11022 21050 39692 40133 56008 69901 91154 333 10056 21022 555 92812=,,,,,,,,,,3/26/2007
USW00014939,2023-01-28T06:14:00,40.8508,-96.7475,362.7,"LINCOLN AIRPORT, NE US",FM-16,343,1012.2,-5,-2.8,,,,,85,BKN:07 4.27,,969.5,16.093,-3.5,50,,4.6,,,,,,,,,,,,,,,,,,,,,,,,,,,,,,,,,,,,,,,,,,,,,,,,,,,,,,,,,,,,,,,,,,,,,,,,,,,,,,,,,,,,,,,,,,,MET09301/28/23 06:14:02 SPECI KLNK 281214Z 05009KT 10SM BKN014 M03/M05 A2989 RMK AO2 T10281050 (SD),,,,,,,,,,3/26/2007
USW00014939,2023-01-28T06:54:00,40.8508,-96.7475,362.7,"LINCOLN AIRPORT, NE US",FM-15,343,1012.9,-5,-2.2,0,,,,81,OVC:08 3.05,1014.1,970.1,14.484,-3.2,60,,5.7,,,,,,,,,,,,,,,,,,,,,,,,,,,,,,,,,,,,,,,,,,,,,,,,,,,,,,,,,,,,,,,,,,,,,,,,,,,,,,,,,,,,,,,,,,,MET09901/28/23 06:54:02 METAR KLNK 281254Z 06011KT 9SM OVC010 M02/M05 A2991 RMK AO2 SLP141 T10221050 (SD),,,,,,,,,,3/26/2007
USW00014939,2023-01-28T07:50:00,40.8508,-96.7475,362.7,"LINCOLN AIRPORT, NE US",FM-16,343,1013.9,-6,-3,,,,,80,BKN:07 2.74 OVC:08 4.27,,971.1,16.093,-3.9,50,,7.7,,,,,,,,,,,,,,,,,,,,,,,,,,,,,,,,,,,,,,,,,,,,,,,,,,,,,,,,,,,,,,,,,,,,,,,,,,,,,,,,,,,,,,,,,,,MET09001/28/23 07:50:02 SPECI KLNK 281350Z 05015KT 10SM BKN009 OVC014 M03/M06 A2994 RMK AO2 (SD),,,,,,,,,,3/26/2007
USW00014939,2023-01-28T07:54:00,40.8508,-96.7475,362.7,"LINCOLN AIRPORT, NE US",FM-15,343,1013.9,-5.6,-2.8,0,,,,81,OVC:08 2.74,1015.1,971.1,16.093,-3.7,50,,7.7,,,,,,,,,,,,,,,,,,,,,,,,,,,,,,,,,,,,,,,,,,,,,,,,,,,,,,,,,,,,,,,,,,,,,,,,,,,,,,,,,,,,,,,,,,,MET10001/28/23 07:54:02 METAR KLNK 281354Z 05015KT 10SM OVC009 M03/M06 A2994 RMK AO2 SLP151 T10281056 (SD),,,,,,,,,,3/26/2007
USW00014939,2023-01-28T08:52:00,40.8508,-96.7475,362.7,"LINCOLN AIRPORT, NE US",FM-16,343,1014.6,-7,-4,,,,,80,OVC:08 3.05,,971.8,11.265,-5,50,11.3,6.7,,,,,,,,,,,,,,,,,,,,,,,,,,,,,,,,,,,,,,,,,,,,,,,,,,,,,,,,,,,,,,,,,,,,,,,,,,,,,,,,,,,,,,,,,,,MET09001/28/23 08:52:02 SPECI KLNK 281452Z 05013G22KT 7SM OVC010 M04/M07 A2996 RMK AO2 FIBI (SD),,,,,,,,,,3/26/2007
USW00014939,2023-01-28T08:54:00,40.8508,-96.7475,362.7,"LINCOLN AIRPORT, NE US",FM-15,343,1014.6,-6.7,-3.9,0,,1.7,1,81,OVC:08 3.05,1015.9,971.8,11.265,-4.8,50,11.3,7.2,,,,,,,,,,,,,,,,,,,,,,,,,,,,,,,,,,,,,,,,,,,,,,,,,,,,,,,,,,,,,,,,,,,,,,,,,,,,,,,,,,,,,,,,,,,MET10801/28/23 08:54:02 METAR KLNK 281454Z 05014G22KT 7SM OVC010 M04/M07 A2996 RMK AO2 SLP159 T10391067 51017 (SD),,,,,,,,,,3/26/2007
USW00014939,2023-01-28T09:54:00,40.8508,-96.7475,362.7,"LINCOLN AIRPORT, NE US",FM-15,343,1015.9,-7.8,-5,0,,,,81,OVC:08 3.35,1017.1,973.1,16.093,-5.9,40,14.9,9.8,,,,,,,,,,,,,,,,,,,,,,,,,,,,,,,,,,,,,,,,,,,,,,,,,,,,,,,,,,,,,,,,,,,,,,,,,,,,,,,,,,,,,,,,,,,MET12101/28/23 09:54:02 METAR KLNK 281554Z 04019G29KT 10SM OVC011 M05/M08 A3000 RMK AO2 PK WND 04029/1553 SLP171 T10501078 (SD),,,,,,,,,,3/26/2007
USW00014939,2023-01-28T10:54:00,40.8508,-96.7475,362.7,"LINCOLN AIRPORT, NE US",FM-15,343,1016.6,-9.4,-5.6,0,,,,75,OVC:08 3.96,1018,973.7,16.093,-6.7,40,12.9,10.3,,,,,,,,,,,,,,,,,,,,,,,,,,,,,,,,,,,,,,,,,,,,,,,,,,,,,,,,,,,,,,,,,,,,,,,,,,,,,,,,,,,,,,,,,,,MET12101/28/23 10:54:02 METAR KLNK 281654Z 04020G25KT 10SM OVC013 M06/M09 A3002 RMK AO2 PK WND 04027/1639 SLP180 T10561094 (SD),,,,,,,,,,3/26/2007
USW00014939,2023-01-28T11:40:00,40.8508,-96.7475,362.7,"LINCOLN AIRPORT, NE US",FM-16,343,1017.3,-10,-6.1,,,,,74,OVC:08 4.57,,974.4,16.093,-7.2,30,12.9,9.8,,,,,,,,,,,,,,,,,,,,,,,,,,,,,,,,,,,,,,,,,,,,,,,,,,,,,,,,,,,,,,,,,,,,,,,,,,,,,,,,,,,,,,,,,,,MET11401/28/23 11:40:02 SPECI KLNK 281740Z 03019G25KT 10SM OVC015 M06/M10 A3004 RMK AO2 PK WND 03026/1700 T10611100 (SD),,,,,,,,,,3/26/2007
USW00014939,2023-01-28T11:54:00,40.8508,-96.7475,362.7,"LINCOLN AIRPORT, NE US",FM-15,343,1017.3,-10,-6.1,0,,2.7,1,74,OVC:08 4.57,1018.9,974.4,16.093,-7.2,20,12.9,9.3,,,,,,,,,,,,,,,,,,,,,,,,,,,,,,,,,,,,,,,,,,,,,,,,,,,,,,,,,,,,,,,,,,,,,,,,,,,,,,,,,,,,,,,,,,,MET13901/28/23 11:54:02 METAR KLNK 281754Z 02018G25KT 10SM OVC015 M06/M10 A3004 RMK AO2 PK WND 03026/1700 SLP189 T10611100 11022 21061 51027 (SD),,,,,,,,,,3/26/2007
USW00014939,2023-01-28T12:00:00,40.8508,-96.7475,362.7,"LINCOLN AIRPORT, NE US",FM-12,223,,-10,-6.1,,,2.7,1,74,,1018.9,974.1,,-7.2,20,,9.3,,,,,,,,,,,,,,,,,,,,,,,,,,,,,,,,,,,,,,,,,,,,,,,,,,,,,,,,,,,,,,,,,,,,,,,,,,,,,,,,,,,,,,,,,,,SYN08672551 32466 80218 11061 21100 39741 40189 51027 91754 333 11006 21061 91025 555 92818=,,,,,,,,,,3/26/2007
USW00014939,2023-01-28T12:54:00,40.8508,-96.7475,362.7,"LINCOLN AIRPORT, NE US",FM-15,343,1016.6,-10.6,-6.7,0,,,,74,OVC:08 4.57,1018.1,973.7,16.093,-7.8,30,13.4,10.3,,,,,,,,,,,,,,,,,,,,,,,,,,,,,,,,,,,,,,,,,,,,,,,,,,,,,,,,,,,,,,,,,,,,,,,,,,,,,,,,,,,,,,,,,,,MET12101/28/23 12:54:02 METAR KLNK 281854Z 03020G26KT 10SM OVC015 M07/M11 A3002 RMK AO2 PK WND 04027/1824 SLP181 T10671106 (SD),,,,,,,,,,3/26/2007
USW00014939,2023-01-28T13:31:00,40.8508,-96.7475,362.7,"LINCOLN AIRPORT, NE US",FM-16,343,1016.9,-10,-7.8,T,UP:09 BR:1 |41 BR |,,,84,OVC:08 3.96,,974,4.828,-8.4,30,12.9,9.3,,,,,,,,,,,,,,,,,,,,,,,,,,,,,,,,,,,,,,,,,,,,,,,,,,,,,,,,,,,,,,,,,,,,,,,,,,,,,,,,,,,,,,,,,,,MET11901/28/23 13:31:02 SPECI KLNK 281931Z 03018G25KT 3SM UP BR OVC013 M08/M10 A3003 RMK AO2 UPB23 P0000 I1000 T10781100 (SD),,,,,,,,,,3/26/2007
USW00014939,2023-01-28T13:54:00,40.8508,-96.7475,362.7,"LINCOLN AIRPORT, NE US",FM-15,343,1017.3,-10.6,-8.3,T,-FZRA:02 BR:1 |FZRA BR |,,,84,OVC:08 3.35,1018.8,974.4,4.828,-8.9,20,,8.8,,,,,,,,,,,,,,,,,,,,,,,,,,,,,,,,,,,,,,,,,,,,,,,,,,,,,,,,,,,,,,,,,,,,,,,,,,,,,,,,,,,,,,,,,,,MET16601/28/23 13:54:02 METAR KLNK 281954Z 02017KT 3SM -FZRA BR OVC011 M08/M11 A3004 RMK AO2 PK WND 02026/1936 UPB23E53FZRAB53 CIG 008V013 SLP188 P0000 I1001 T10831106 (SD),,,,,,,,,,3/26/2007
USW00014939,2023-01-28T14:12:00,40.8508,-96.7475,362.7,"LINCOLN AIRPORT, NE US",FM-16,343,1017.3,-11.1,-8.3,T,,,,80,OVC:08 3.05,,974.4,6.437,-9.1,20,12.9,10.3,,,,,,,,,,,,,,,,,,,,,,,,,,,,,,,,,,,,,,,,,,,,,,,,,,,,,,,,,,,,,,,,,,,,,,,,,,,,,,,,,,,,,,,,,,,MET11501/28/23 14:12:02 SPECI KLNK 282012Z 02020G25KT 4SM OVC010 M08/M11 A3004 RMK AO2 FZRAE06 P0000 I1000 T10831111 (CK),,,,,,,,,,3/26/2007
USW00014939,2023-01-28T14:45:00,40.8508,-96.7475,362.7,"LINCOLN AIRPORT, NE US",FM-16,343,1018.3,-11.7,-8.3,T,-SN:03 |SN |SN,,,77,OVC:08 3.96,,975.3,4.023V,-9.2,10,13.4,9.8,,,,,,,,,,,,,,,,,,,,,,,,,,,,,,,,,,,,,,,,,,,,,,,,,,,,,,,,,,,,,,,,,,,,,,,,,,,,,,,,,,,,,,,,,,,MET15801/28/23 14:45:02 SPECI KLNK 282045Z 01019G26KT 2 1/2SM -SN OVC013 M08/M12 A3007 RMK AO2 PK WND 36026/2043 VIS 1 1/2V3 FZRAE06SNB13 P0000 I1000 T10831117 (CK),,,,,,,,,,3/26/2007
USW00014939,2023-01-28T14:52:00,40.8508,-96.7475,362.7,"LINCOLN AIRPORT, NE US",FM-16,343,1018.3,-12,-9,,-SN:03 |SN |SN,,,79,OVC:08 3.96,,975.3,6.437,-9.8,10,14.4,9.8,,,,,,,,,,,,,,,,,,,,,,,,,,,,,,,,,,,,,,,,,,,,,,,,,,,,,,,,,,,,,,,,,,,,,,,,,,,,,,,,,,,,,,,,,,,MET13701/28/23 14:52:02 SPECI KLNK 282052Z 01019G28KT 4SM -SN OVC013 M09/M12 A3007 RMK AO2 PK WND 01028/2052 FZRAE06SNB13 P0000 I1000 FIBI (CK),,,,,,,,,,3/26/2007
USW00014939,2023-01-28T14:54:00,40.8508,-96.7475,362.7,"LINCOLN AIRPORT, NE US",FM-15,343,1018.6,-12.2,-8.9,T,-SN:03 |SN |SN,1.1,3,77,OVC:08 4.57,1020.1,975.7,8.047,-9.8,10,14.4,10.8,,,,,,,,,,,,,,,,,,,,,,,,,,,,,,,,,,,,,,,,,,,,,,,,,,,,,,,,,,,,,,,,,,,,,,,,,,,,,,,,,,,,,,,,,,,MET16701/28/23 14:54:02 METAR KLNK 282054Z 01021G28KT 5SM -SN OVC015 M09/M12 A3008 RMK AO2 PK WND 01028/2052 FZRAE06SNB13 SLP201 P0000 60000 I1000 I3001 T10891122 53011 (CK),,,,,,,,,,3/26/2007
USW00014939,2023-01-28T15:54:00,40.8508,-96.7475,362.7,"LINCOLN AIRPORT, NE US",FM-15,343,1019.3,-12.8,-9.4,T,-SN:03 |SN |SN,,,77,OVC:08 5.18,1020.9,976.3,4.023,-10.3,10,13.9,10.3,,,,,,,,,,,,,,,,,,,,,,,,,,,,,,,,,,,,,,,,,,,,,,,,,,,,,,,,,,,,,,,,,,,,,,,,,,,,,,,,,,,,,,,,,,,MET13401/28/23 15:54:02 METAR KLNK 282154Z 01020G27KT 2 1/2SM -SN OVC017 M09/M13 A3010 RMK AO2 PK WND 01029/2118 SLP209 P0000 T10941128 (CK),,,,,,,,,,3/26/2007
USW00014939,2023-01-28T16:11:00,40.8508,-96.7475,362.7,"LINCOLN AIRPORT, NE US",FM-16,343,1019.3,-12.8,-9.4,T,-SN:03 |SN |SN,,,77,OVC:08 4.57,,976.3,4.828,-10.3,10,13.4,9.3,,,,,,,,,,,,,,,,,,,,,,,,,,,,,,,,,,,,,,,,,,,,,,,,,,,,,,,,,,,,,,,,,,,,,,,,,,,,,,,,,,,,,,,,,,,MET12301/28/23 16:11:02 SPECI KLNK 282211Z 01018G26KT 3SM -SN OVC015 M09/M13 A3010 RMK AO2 PK WND 02027/2201 P0000 T10941128 (CK),,,,,,,,,,3/26/2007
USW00014939,2023-01-28T16:27:00,40.8508,-96.7475,362.7,"LINCOLN AIRPORT, NE US",FM-16,343,1019.3,-12.8,-10,T,-SN:03 |SN |SN,,,80,OVC:08 4.88,,976.3,4.023,-10.7,10,13.9,8.8,,,,,,,,,,,,,,,,,,,,,,,,,,,,,,,,,,,,,,,,,,,,,,,,,,,,,,,,,,,,,,,,,,,,,,,,,,,,,,,,,,,,,,,,,,,MET12701/28/23 16:27:02 SPECI KLNK 282227Z 01017G27KT 2 1/2SM -SN OVC016 M10/M13 A3010 RMK AO2 PK WND 02028/2212 P0000 T11001128 (CK),,,,,,,,,,3/26/2007
USW00014939,2023-01-28T16:45:00,40.8508,-96.7475,362.7,"LINCOLN AIRPORT, NE US",FM-16,343,1019.6,-13.3,-10,T,-SN:03 |SN |SN,,,77,OVC:08 4.88,,976.7,6.437,-10.8,20,16,9.3,,,,,,,,,,,,,,,,,,,,,,,,,,,,,,,,,,,,,,,,,,,,,,,,,,,,,,,,,,,,,,,,,,,,,,,,,,,,,,,,,,,,,,,,,,,MET12301/28/23 16:45:02 SPECI KLNK 282245Z 02018G31KT 4SM -SN OVC016 M10/M13 A3011 RMK AO2 PK WND 02031/2238 P0000 T11001133 (CK),,,,,,,,,,3/26/2007
USW00014939,2023-01-28T16:52:00,40.8508,-96.7475,362.7,"LINCOLN AIRPORT, NE US",FM-16,343,1019.6,-13,-10,,-SN:03 |SN |SN,,,79,OVC:08 4.88,,976.7,4.023,-10.7,20,13.4,7.2,,,,,,,,,,,,,,,,,,,,,,,,,,,,,,,,,,,,,,,,,,,,,,,,,,,,,,,,,,,,,,,,,,,,,,,,,,,,,,,,,,,,,,,,,,,MET12201/28/23 16:52:02 SPECI KLNK 282252Z 02014G26KT 2 1/2SM -SN OVC016 M10/M13 A3011 RMK AO2 PK WND 02031/2238 P0000 FIBI (CK),,,,,,,,,,3/26/2007
USW00014939,2023-01-28T16:54:00,40.8508,-96.7475,362.7,"LINCOLN AIRPORT, NE US",FM-15,343,1019.6,-12.8,-10,T,-SN:03 |SN |SN,,,80,OVC:08 4.88,1021.4,976.7,4.023,-10.7,20,12.4,8.2,,,,,,,,,,,,,,,,,,,,,,,,,,,,,,,,,,,,,,,,,,,,,,,,,,,,,,,,,,,,,,,,,,,,,,,,,,,,,,,,,,,,,,,,,,,MET13401/28/23 16:54:02 METAR KLNK 282254Z 02016G24KT 2 1/2SM -SN OVC016 M10/M13 A3011 RMK AO2 PK WND 02031/2238 SLP214 P0000 T11001128 (CK),,,,,,,,,,3/26/2007
USW00014939,2023-01-28T17:06:00,40.8508,-96.7475,362.7,"LINCOLN AIRPORT, NE US",FM-16,343,1020,-13.3,-10,T,-SN:03 |SN |SN,,,77,OVC:08 5.18,,977,6.437,-10.8,20,13.4,10.3,,,,,,,,,,,,,,,,,,,,,,,,,,,,,,,,,,,,,,,,,,,,,,,,,,,,,,,,,,,,,,,,,,,,,,,,,,,,,,,,,,,,,,,,,,,MET12301/28/23 17:06:02 SPECI KLNK 282306Z 02020G26KT 4SM -SN OVC017 M10/M13 A3012 RMK AO2 PK WND 01026/2303 P0000 T11001133 (CK),,,,,,,,,,3/26/2007
USW00014939,2023-01-28T17:54:00,40.8508,-96.7475,362.7,"LINCOLN AIRPORT, NE US",FM-15,343,1021,-13.9,-10.6,T,-SN:03 |SN |SN,2.4,3,77,OVC:08 5.49,1022.8,978,6.437,-11.4,10,14.4,9.8,,,,,,,,,,,,,,,,,,,,,,,,,,,,,,,,,,,,,,,,,,,,,,,,,,,,,,,,,,,,,,,,,,,,,,,,,,,,,,,,,,,,,,,,,,,MET16001/28/23 17:54:02 METAR KLNK 282354Z 01019G28KT 4SM -SN OVC018 M11/M14 A3015 RMK AO2 PK WND 01031/2330 SLP228 P0000 60000 I6001 T11061139 11061 21106 53024 (CK),,,,,,,,,,3/26/2007
USW00014939,2023-01-28T18:00:00,40.8508,-96.7475,362.7,"LINCOLN AIRPORT, NE US",FM-12,223,,-13.9,-10.6,,||SN,2.4,3,77,,1022.8,977.7,,-11.4,10,,9.8,,,,,,,,,,,,,,,,,,,,,,,,,,,,,,,,,,,,,,,,,,,,,,,,,,,,,,,,,,,,,,,,,,,,,,,,,,,,,,,,,,,,,,,,,,,SYN09872551 11456 80119 11106 21139 39777 40228 53024 69901 771// 92354 333 11022 21106 91028 555 92900=,,,,,,,,,,3/26/2007
USW00014939,2023-01-28T18:07:00,40.8508,-96.7475,362.7,"LINCOLN AIRPORT, NE US",FM-16,343,1021.3,-14.4,-11.1,T,-SN:03 |SN |SN,,,77,OVC:08 6.1,,978.3,8.047,-11.9,10,14.4,10.3,,,,,,,,,,,,,,,,,,,,,,,,,,,,,,,,,,,,,,,,,,,,,,,,,,,,,,,,,,,,,,,,,,,,,,,,,,,,,,,,,,,,,,,,,,,MET11801/28/23 18:07:01 SPECI KLNK 290007Z 01020G28KT 5SM -SN OVC020 M11/M14 A3016 RMK AO2 PK WND 01028/0004 P0000 T11111144,,,,,,,,,,3/26/2007
USW00014939,2023-01-28T18:54:00,40.8508,-96.7475,362.7,"LINCOLN AIRPORT, NE US",FM-15,343,1022.4,-15,-11.7,T,UP:09 |41 |,,,77,FEW:02 4.57 OVC:08 8.23,1024.2,979.3,9.656,-12.4,20,14.4,9.8,,,,,,,,,,,,,,,,,,,,,,,,,,,,,,,,,,,,,,,,,,,,,,,,,,,,,,,,,,,,,,,,,,,,,,,,,,,,,,,,,,,,,,,,,,,MET14201/28/23 18:54:01 METAR KLNK 290054Z 02019G28KT 6SM UP FEW015 OVC027 M12/M15 A3019 RMK AO2 PK WND 01029/0041 UPB23SNE23 SLP242 P0000 T11171150,,,,,,,,,,3/26/2007
USW00014939,2023-01-28T19:54:00,40.8508,-96.7475,362.7,"LINCOLN AIRPORT, NE US",FM-15,343,1023.4,-15.6,-12.2,T,,,,76,OVC:08 8.23,1025.5,980.3,16.093,-13,10,14.4,10.3,,,,,,,,,,,,,,,,,,,,,,,,,,,,,,,,,,,,,,,,,,,,,,,,,,,,,,,,,,,,,,,,,,,,,,,,,,,,,,,,,,,,,,,,,,,MET14201/28/23 19:54:01 METAR KLNK 290154Z 01020G28KT 10SM OVC027 M12/M16 A3022 RMK AO2 PK WND 01029/0106 UPE01B17E38SNB01E17 SLP255 P0000 T11221156,,,,,,,,,,3/26/2007
USW00014939,2023-01-28T20:54:00,40.8508,-96.7475,362.7,"LINCOLN AIRPORT, NE US",FM-15,343,1024.7,-16.7,-12.8,0,,3.8,2,73,OVC:08 8.23,1027,981.6,16.093,-13.6,360,14.4,11.3,,,,,,,,,,,,,,,,,,,,,,,,,,,,,,,,,,,,,,,,,,,,,,,,,,,,,,,,,,,,,,,,,,,,,,,,,,,,,,,,,,,,,,,,,,,MET12801/28/23 20:54:01 METAR KLNK 290254Z 36022G28KT 10SM OVC027 M13/M17 A3026 RMK AO2 PK WND 36028/0254 SLP270 60000 T11281167 52038,,,,,,,,,,3/26/2007
USW00014939,2023-01-28T21:17:00,40.8508,-96.7475,362.7,"LINCOLN AIRPORT, NE US",FM-16,343,1025.1,-16.7,-12.8,,,,,73,OVC:08 9.14,,981.9,16.093,-13.6,10,14.4,8.8,,,,,,,,,,,,,,,,,,,,,,,,,,,,,,,,,,,,,,,,,,,,,,,,,,,,,,,,,,,,,,,,,,,,,,,,,,,,,,,,,,,,,,,,,,,MET10901/28/23 21:17:01 SPECI KLNK 290317Z 01017G28KT 10SM OVC030 M13/M17 A3027 RMK AO2 PK WND 01031/0255 T11281167,,,,,,,,,,3/26/2007
USW00014939,2023-01-28T21:54:00,40.8508,-96.7475,362.7,"LINCOLN AIRPORT, NE US",FM-15,343,1025.7,-17.2,-12.8,0,,,,70,OVC:08 10.67,1027.9,982.5,16.093,-13.7,360,13.4,9.8,,,,,,,,,,,,,,,,,,,,,,,,,,,,,,,,,,,,,,,,,,,,,,,,,,,,,,,,,,,,,,,,,,,,,,,,,,,,,,,,,,,,,,,,,,,MET11601/28/23 21:54:01 METAR KLNK 290354Z 36019G26KT 10SM OVC035 M13/M17 A3029 RMK AO2 PK WND 01031/0255 SLP279 T11281172,,,,,,,,,,3/26/2007
USW00014939,2023-01-28T22:54:00,40.8508,-96.7475,362.7,"LINCOLN AIRPORT, NE US",FM-15,343,1026.4,-18.3,-13.3,0,,,,66,OVC:08 14.02,1028.8,983.2,16.093,-14.3,10,14.9,9.3,,,,,,,,,,,,,,,,,,,,,,,,,,,,,,,,,,,,,,,,,,,,,,,,,,,,,,,,,,,,,,,,,,,,,,,,,,,,,,,,,,,,,,,,,,,MET11601/28/23 22:54:01 METAR KLNK 290454Z 01018G29KT 10SM OVC046 M13/M18 A3031 RMK AO2 PK WND 01029/0436 SLP288 T11331183,,,,,,,,,,3/26/2007
USW00014939,2023-01-28T23:54:00,40.8508,-96.7475,362.7,"LINCOLN AIRPORT, NE US",FM-15,343,1027.1,-18.9,-13.9,0,,2,1,66,OVC:08 16.76,1029.3,983.9,16.093,-14.8,10,15.4,9.3,,,,,,,,,,,,,,,,,,,,,,,,,,,,,,,,,,,,,,,,,,,,,,,,,,,,,,,,,,,,,,,,,,,,,,,,,,,,,,,,,,,,,,,,,,,MET15001/28/23 23:54:01 METAR KLNK 290554Z 01018G30KT 10SM OVC055 M14/M19 A3033 RMK AO2 PK WND 01030/0550 SLP293 60000 T11391189 11106 21139 410061139 51020,,,,,,,,,,3/26/2007
USW00014939,2023-01-29T00:00:00,40.8508,-96.7475,362.7,"LINCOLN AIRPORT, NE US",FM-12,223,,-18.9,-13.9,,,2,1,66,,1029.3,983.6,,-14.8,10,,9.3,,,,,,,,,,,,,,,,,,,,,,,,,,,,,,,,,,,,,,,,,,,,,,,,,,,,,,,,,,,,,,,,,,,,,,,,,,,,,,,,,,,,,,,,,,,SYN09272551 15766 80118 11139 21189 39836 40293 51020 69901 90554 333 11006 21139 91030 555 92906=,,,,,,,,,,3/26/2007
USW00014939,2023-01-29T00:00:00,40.8508,-96.7475,362.7,"LINCOLN AIRPORT, NE US",SOD,,,,,,,,,,,,,,,,,,741,1739,-18.3,-14.3,64,1032.8,987.8,-14.4,6.8,0,-10.69,32.6,-12.1,-16.6,10,14.8,0,T,T,360,11.2,,,,,,,,,,,,,,,,,,,,,,,,,,,,,,,,,,,,,,,,,,,,,,,,,,,,,,,,,,,,,,,,,,,,,,,,,,,,,,,,3/26/2007
USW00014939,2023-01-29T00:54:00,40.8508,-96.7475,362.7,"LINCOLN AIRPORT, NE US",FM-15,343,1027.4,-18.9,-14.4,0,,,,69,OVC:08 16.76,1030,984.2,16.093,-15.3,10,,10.3,,,,,,,,,,,,,,,,,,,,,,,,,,,,,,,,,,,,,,,,,,,,,,,,,,,,,,,,,,,,,,,,,,,,,,,,,,,,,,,,,,,,,,,,,,,MET11301/29/23 00:54:02 METAR KLNK 290654Z 01020KT 10SM OVC055 M14/M19 A3034 RMK AO2 PK WND 01027/0604 SLP300 T11441189,,,,,,,,,,3/26/2007
USW00014939,2023-01-29T01:54:00,40.8508,-96.7475,362.7,"LINCOLN AIRPORT, NE US",FM-15,343,1027.4,-19.4,-15,0,,,,69,OVC:08 16.76,1030.1,984.2,12.875,-15.8,360,12.4,8.2,,,,,,,,,,,,,,,,,,,,,,,,,,,,,,,,,,,,,,,,,,,,,,,,,,,,,,,,,,,,,,,,,,,,,,,,,,,,,,,,,,,,,,,,,,,MET11501/29/23 01:54:02 METAR KLNK 290754Z 36016G24KT 8SM OVC055 M15/M19 A3034 RMK AO2 PK WND 01029/0728 SLP301 T11501194,,,,,,,,,,3/26/2007
USW00014939,2023-01-29T02:54:00,40.8508,-96.7475,362.7,"LINCOLN AIRPORT, NE US",FM-15,343,1027.8,-20.6,-16.1,0,,0.9,1,69,CLR:00,1030.5,984.5,16.093,-16.8,360,12.9,7.7,,,,,,,,,,,,,,,,,,,,,,,,,,,,,,,,,,,,,,,,,,,,,,,,,,,,,,,,,,,,,,,,,,,,,,,,,,,,,,,,,,,,,,,,,,,MET11901/29/23 02:54:02 METAR KLNK 290854Z 36015G25KT 10SM CLR M16/M21 A3035 RMK AO2 PK WND 35027/0830 SLP305 T11611206 51009,,,,,,,,,,3/26/2007
USW00014939,2023-01-29T03:54:00,40.8508,-96.7475,362.7,"LINCOLN AIRPORT, NE US",FM-15,343,1028.4,-21.1,-15.6,0,,,,63,BKN:07 36.58,1031,985.2,16.093,-16.5,10,,8.8,,,,,,,,,,,,,,,,,,,,,,,,,,,,,,,,,,,,,,,,,,,,,,,,,,,,,,,,,,,,,,,,,,,,,,,,,,,,,,,,,,,,,,,,,,,MET09501/29/23 03:54:02 METAR KLNK 290954Z 01017KT 10SM BKN120 M16/M21 A3037 RMK AO2 SLP310 T11561211,,,,,,,,,,3/26/2007
USW00014939,2023-01-29T04:54:00,40.8508,-96.7475,362.7,"LINCOLN AIRPORT, NE US",FM-15,343,1028.1,-21.1,-15.6,0,,,,63,SCT:04 36.58,1030.9,984.8,16.093,-16.5,10,12.9,8.8,,,,,,,,,,,,,,,,,,,,,,,,,,,,,,,,,,,,,,,,,,,,,,,,,,,,,,,,,,,,,,,,,,,,,,,,,,,,,,,,,,,,,,,,,,,MET09801/29/23 04:54:02 METAR KLNK 291054Z 01017G25KT 10SM SCT120 M16/M21 A3036 RMK AO2 SLP309 T11561211,,,,,,,,,,3/26/2007
USW00014939,2023-01-29T05:54:00,40.8508,-96.7475,362.7,"LINCOLN AIRPORT, NE US",FM-15,343,1029.1,-21.1,-16.1,0,,1.1,3,66,CLR:00,1031.8,985.8,16.093,-16.9,10,,7.2,,,,,,,,,,,,,,,,,,,,,,,,,,,,,,,,,,,,,,,,,,,,,,,,,,,,,,,,,,,,,,,,,,,,,,,,,,,,,,,,,,,,,,,,,,,MET11001/29/23 05:54:02 METAR KLNK 291154Z 01014KT 10SM CLR M16/M21 A3039 RMK AO2 SLP318 T11611211 11139 21161 53011,,,,,,,,,,3/26/2007
USW00014939,2023-01-29T06:00:00,40.8508,-96.7475,362.7,"LINCOLN AIRPORT, NE US",FM-12,223,,-21.1,-16.1,,,1.1,3,66,,1031.8,985.6,,-16.9,10,,7.2,,,,,,,,,,,,,,,,,,,,,,,,,,,,,,,,,,,,,,,,,,,,,,,,,,,,,,,,,,,,,,,,,,,,,,,,,,,,,,,,,,,,,,,,,,,SYN08072551 35966 00114 11161 21211 39856 40318 53011 91154 333 11006 21161 555 92912=,,,,,,,,,,3/26/2007
USW00014939,2023-01-29T06:54:00,40.8508,-96.7475,362.7,"LINCOLN AIRPORT, NE US",FM-15,343,1030.1,-21.1,-16.7,0,,,,69,FEW:02 33.53,1033,986.8,16.093,-17.4,360,,6.2,,,,,,,,,,,,,,,,,,,,,,,,,,,,,,,,,,,,,,,,,,,,,,,,,,,,,,,,,,,,,,,,,,,,,,,,,,,,,,,,,,,,,,,,,,,MET10001/29/23 06:54:02 METAR KLNK 291254Z 36012KT 10SM FEW110 M17/M21 A3042 RMK AO2 SLP330 T11671211 (SD),,,,,,,,,,3/26/2007
USW00014939,2023-01-29T07:54:00,40.8508,-96.7475,362.7,"LINCOLN AIRPORT, NE US",FM-15,343,1030.5,-21.1,-16.7,0,,,,69,SCT:04 33.53,1033.3,987.1,16.093,-17.4,10,,7.7,,,,,,,,,,,,,,,,,,,,,,,,,,,,,,,,,,,,,,,,,,,,,,,,,,,,,,,,,,,,,,,,,,,,,,,,,,,,,,,,,,,,,,,,,,,MET10001/29/23 07:54:02 METAR KLNK 291354Z 01015KT 10SM SCT110 M17/M21 A3043 RMK AO2 SLP333 T11671211 (SD),,,,,,,,,,3/26/2007
USW00014939,2023-01-29T08:54:00,40.8508,-96.7475,362.7,"LINCOLN AIRPORT, NE US",FM-15,343,1031.2,-20.6,-15.6,0,,1.9,1,66,SCT:04 28.96,1033.8,987.8,16.093,-16.4,10,,6.2,,,,,,,,,,,,,,,,,,,,,,,,,,,,,,,,,,,,,,,,,,,,,,,,,,,,,,,,,,,,,,,,,,,,,,,,,,,,,,,,,,,,,,,,,,,MET10601/29/23 08:54:02 METAR KLNK 291454Z 01012KT 10SM SCT095 M16/M21 A3045 RMK AO2 SLP338 T11561206 51019 (SD),,,,,,,,,,3/26/2007
USW00014939,2023-01-29T09:54:00,40.8508,-96.7475,362.7,"LINCOLN AIRPORT, NE US",FM-15,343,1031.5,-20.6,-13.9,0,,,,57,CLR:00,1034.3,988.1,16.093,-15.1,10,,6.7,,,,,,,,,,,,,,,,,,,,,,,,,,,,,,,,,,,,,,,,,,,,,,,,,,,,,,,,,,,,,,,,,,,,,,,,,,,,,,,,,,,,,,,,,,,MET09701/29/23 09:54:02 METAR KLNK 291554Z 01013KT 10SM CLR M14/M21 A3046 RMK AO2 SLP343 T11391206 (SD),,,,,,,,,,3/26/2007
USW00014939,2023-01-29T10:54:00,40.8508,-96.7475,362.7,"LINCOLN AIRPORT, NE US",FM-15,343,1032.2,-20.6,-14.4,0,,,,60,OVC:08 28.96,1034.9,988.8,16.093,-15.5,20,,7.2,,,,,,,,,,,,,,,,,,,,,,,,,,,,,,,,,,,,,,,,,,,,,,,,,,,,,,,,,,,,,,,,,,,,,,,,,,,,,,,,,,,,,,,,,,,MET10001/29/23 10:54:02 METAR KLNK 291654Z 02014KT 10SM OVC095 M14/M21 A3048 RMK AO2 SLP349 T11441206 (SD),,,,,,,,,,3/26/2007
USW00014939,2023-01-29T11:54:00,40.8508,-96.7475,362.7,"LINCOLN AIRPORT, NE US",FM-15,343,1031.5,-20,-12.8,0,,0.5,0,55,OVC:08 28.96,1034.3,988.1,16.093,-14.1,20,,7.2,,,,,,,,,,,,,,,,,,,,,,,,,,,,,,,,,,,,,,,,,,,,,,,,,,,,,,,,,,,,,,,,,,,,,,,,,,,,,,,,,,,,,,,,,,,MET11801/29/23 11:54:02 METAR KLNK 291754Z 02014KT 10SM OVC095 M13/M20 A3046 RMK AO2 SLP343 T11281200 11122 21167 50005 (SD),,,,,,,,,,3/26/2007
USW00014939,2023-01-29T12:00:00,40.8508,-96.7475,362.7,"LINCOLN AIRPORT, NE US",FM-12,223,,-20,-12.8,,,0.5,9,55,,1034.3,987.9,,-14.1,20,,7.2,,,,,,,,,,,,,,,,,,,,,,,,,,,,,,,,,,,,,,,,,,,,,,,,,,,,,,,,,,,,,,,,,,,,,,,,,,,,,,,,,,,,,,,,,,,SYN08072551 32966 80214 11128 21200 39879 40343 50005 91754 333 11122 21167 555 92918=,,,,,,,,,,3/26/2007
USW00014939,2023-01-29T12:54:00,40.8508,-96.7475,362.7,"LINCOLN AIRPORT, NE US",FM-15,343,1030.8,-18.9,-13.3,0,,,,63,OVC:08 24.38,1033.7,987.4,16.093,-14.4,10,,6.2,,,,,,,,,,,,,,,,,,,,,,,,,,,,,,,,,,,,,,,,,,,,,,,,,,,,,,,,,,,,,,,,,,,,,,,,,,,,,,,,,,,,,,,,,,,MET10001/29/23 12:54:02 METAR KLNK 291854Z 01012KT 10SM OVC080 M13/M19 A3044 RMK AO2 SLP337 T11331189 (SD),,,,,,,,,,3/26/2007
USW00014939,2023-01-29T13:54:00,40.8508,-96.7475,362.7,"LINCOLN AIRPORT, NE US",FM-15,343,1030.5,-18.9,-13.3,0,,,,63,OVC:08 21.34,1033.1,987.1,16.093,-14.4,20,,6.2,,,,,,,,,,,,,,,,,,,,,,,,,,,,,,,,,,,,,,,,,,,,,,,,,,,,,,,,,,,,,,,,,,,,,,,,,,,,,,,,,,,,,,,,,,,MET10001/29/23 13:54:02 METAR KLNK 291954Z 02012KT 10SM OVC070 M13/M19 A3043 RMK AO2 SLP331 T11331189 (SD),,,,,,,,,,3/26/2007
USW00014939,2023-01-29T14:54:00,40.8508,-96.7475,362.7,"LINCOLN AIRPORT, NE US",FM-15,343,1029.8,-18.9,-13.3,0,,-1.7,7,63,OVC:08 21.34,1032.6,986.5,16.093,-14.4,10,,5.7,,,,,,,,,,,,,,,,,,,,,,,,,,,,,,,,,,,,,,,,,,,,,,,,,,,,,,,,,,,,,,,,,,,,,,,,,,,,,,,,,,,,,,,,,,,MET10601/29/23 14:54:02 METAR KLNK 292054Z 01011KT 10SM OVC070 M13/M19 A3041 RMK AO2 SLP326 T11331189 57017 (SD),,,,,,,,,,3/26/2007
USW00014939,2023-01-29T15:54:00,40.8508,-96.7475,362.7,"LINCOLN AIRPORT, NE US",FM-15,343,1030.1,-19.4,-13.3,0,,,,60,OVC:08 19.81,1033,986.8,16.093,-14.5,10,,6.7,,,,,,,,,,,,,,,,,,,,,,,,,,,,,,,,,,,,,,,,,,,,,,,,,,,,,,,,,,,,,,,,,,,,,,,,,,,,,,,,,,,,,,,,,,,MET09501/29/23 15:54:02 METAR KLNK 292154Z 01013KT 10SM OVC065 M13/M19 A3042 RMK AO2 SLP330 T11331194,,,,,,,,,,3/26/2007
USW00014939,2023-01-29T16:54:00,40.8508,-96.7475,362.7,"LINCOLN AIRPORT, NE US",FM-15,343,1030.5,-18.9,-12.8,0,,,,61,OVC:08 18.29,1033.2,987.1,16.093,-14,10,,6.7,,,,,,,,,,,,,,,,,,,,,,,,,,,,,,,,,,,,,,,,,,,,,,,,,,,,,,,,,,,,,,,,,,,,,,,,,,,,,,,,,,,,,,,,,,,MET09501/29/23 16:54:02 METAR KLNK 292254Z 01013KT 10SM OVC060 M13/M19 A3043 RMK AO2 SLP332 T11281189,,,,,,,,,,3/26/2007
USW00014939,2023-01-29T17:54:00,40.8508,-96.7475,362.7,"LINCOLN AIRPORT, NE US",FM-15,343,1031.2,-18.9,-13.3,0,,1.4,3,63,OVC:08 19.81,1034,987.8,16.093,-14.4,20,,6.2,,,,,,,,,,,,,,,,,,,,,,,,,,,,,,,,,,,,,,,,,,,,,,,,,,,,,,,,,,,,,,,,,,,,,,,,,,,,,,,,,,,,,,,,,,,MET11801/29/23 17:54:02 METAR KLNK 292354Z 02012KT 10SM OVC065 M13/M19 A3045 RMK AO2 SLP340 T11331189 11122 21133 53014 (CO),,,,,,,,,,3/26/2007
USW00014939,2023-01-29T18:00:00,40.8508,-96.7475,362.7,"LINCOLN AIRPORT, NE US",FM-12,223,,-18.9,-13.3,,,1.4,3,63,,1034,987.5,,-14.4,20,,6.2,,,,,,,,,,,,,,,,,,,,,,,,,,,,,,,,,,,,,,,,,,,,,,,,,,,,,,,,,,,,,,,,,,,,,,,,,,,,,,,,,,,,,,,,,,,SYN08072551 32766 80212 11133 21189 39875 40340 53014 92354 333 11122 21161 555 93000=,,,,,,,,,,3/26/2007
USW00014939,2023-01-29T18:54:00,40.8508,-96.7475,362.7,"LINCOLN AIRPORT, NE US",FM-15,343,1031.5,-18.9,-13.3,0,,,,63,OVC:08 21.34,1034.4,988.1,16.093,-14.4,20,,6.2,,,,,,,,,,,,,,,,,,,,,,,,,,,,,,,,,,,,,,,,,,,,,,,,,,,,,,,,,,,,,,,,,,,,,,,,,,,,,,,,,,,,,,,,,,,MET09501/29/23 18:54:01 METAR KLNK 300054Z 02012KT 10SM OVC070 M13/M19 A3046 RMK AO2 SLP344 T11331189,,,,,,,,,,3/26/2007
USW00014939,2023-01-29T19:54:00,40.8508,-96.7475,362.7,"LINCOLN AIRPORT, NE US",FM-15,343,1032.2,-18.9,-13.3,0,,,,63,OVC:08 21.34,1035.2,988.8,16.093,-14.4,10,,6.7,,,,,,,,,,,,,,,,,,,,,,,,,,,,,,,,,,,,,,,,,,,,,,,,,,,,,,,,,,,,,,,,,,,,,,,,,,,,,,,,,,,,,,,,,,,MET09501/29/23 19:54:01 METAR KLNK 300154Z 01013KT 10SM OVC070 M13/M19 A3048 RMK AO2 SLP352 T11331189,,,,,,,,,,3/26/2007
USW00014939,2023-01-29T20:54:00,40.8508,-96.7475,362.7,"LINCOLN AIRPORT, NE US",FM-15,343,1032.2,-18.3,-13.3,0,,1.1,1,66,OVC:08 21.34,1035.1,988.8,16.093,-14.3,10,,5.7,,,,,,,,,,,,,,,,,,,,,,,,,,,,,,,,,,,,,,,,,,,,,,,,,,,,,,,,,,,,,,,,,,,,,,,,,,,,,,,,,,,,,,,,,,,MET10101/29/23 20:54:01 METAR KLNK 300254Z 01011KT 10SM OVC070 M13/M18 A3048 RMK AO2 SLP351 T11331183 51011,,,,,,,,,,3/26/2007
USW00014939,2023-01-29T21:54:00,40.8508,-96.7475,362.7,"LINCOLN AIRPORT, NE US",FM-15,343,1032.8,-18.3,-13.3,0,,,,66,OVC:08 21.34,1035.7,989.4,16.093,-14.3,10,,5.7,,,,,,,,,,,,,,,,,,,,,,,,,,,,,,,,,,,,,,,,,,,,,,,,,,,,,,,,,,,,,,,,,,,,,,,,,,,,,,,,,,,,,,,,,,,MET09501/29/23 21:54:01 METAR KLNK 300354Z 01011KT 10SM OVC070 M13/M18 A3050 RMK AO2 SLP357 T11331183,,,,,,,,,,3/26/2007
USW00014939,2023-01-29T22:54:00,40.8508,-96.7475,362.7,"LINCOLN AIRPORT, NE US",FM-15,343,1033.5,-18.3,-13.3,0,,,,66,OVC:08 21.34,1036.2,990.1,16.093,-14.3,360,,4.6,,,,,,,,,,,,,,,,,,,,,,,,,,,,,,,,,,,,,,,,,,,,,,,,,,,,,,,,,,,,,,,,,,,,,,,,,,,,,,,,,,,,,,,,,,,MET09501/29/23 22:54:01 METAR KLNK 300454Z 36009KT 10SM OVC070 M13/M18 A3052 RMK AO2 SLP362 T11331183,,,,,,,,,,3/26/2007
USW00014939,2023-01-29T23:54:00,40.8508,-96.7475,362.7,"LINCOLN AIRPORT, NE US",FM-15,343,1033.5,-18.3,-13.3,0,,1.2,1,66,OVC:08 21.34,1036.2,990.1,16.093,-14.3,350,,4.1,,,,,,,,,,,,,,,,,,,,,,,,,,,,,,,,,,,,,,,,,,,,,,,,,,,,,,,,,,,,,,,,,,,,,,,,,,,,,,,,,,,,,,,,,,,MET12301/29/23 23:54:01 METAR KLNK 300554Z 35008KT 10SM OVC070 M13/M18 A3052 RMK AO2 SLP362 T11331183 11133 21133 411221167 51012,,,,,,,,,,3/26/2007
USW00014939,2023-01-30T00:00:00,40.8508,-96.7475,362.7,"LINCOLN AIRPORT, NE US",FM-12,223,,-18.3,-13.3,,,1.2,1,66,,1036.2,989.8,,-14.3,350,,4.1,,,,,,,,,,,,,,,,,,,,,,,,,,,,,,,,,,,,,,,,,,,,,,,,,,,,,,,,,,,,,,,,,,,,,,,,,,,,,,,,,,,,,,,,,,,SYN08072551 35866 83508 11133 21183 39898 40362 51012 90554 333 11133 21161 555 93006=,,,,,,,,,,3/26/2007
USW00014939,2023-01-30T00:00:00,40.8508,-96.7475,362.7,"LINCOLN AIRPORT, NE US",SOD,,,,,,,,,,,,,,,,,,740,1741,-18.3,-12.1,61,1035.6,989.5,-13.9,3.1,0,-8.54,30.4,-8.8,-15.5,350,9.8,0,T,0,350,8.1,,,,,,,,,,,,,,,,,,,,,,,,,,,,,,,,,,,,,,,,,,,,,,,,,,,,,,,,,,,,,,,,,,,,,,,,,,,,,,,,3/26/2007
USW00014939,2023-01-30T00:54:00,40.8508,-96.7475,362.7,"LINCOLN AIRPORT, NE US",FM-15,343,1032.5,-18.3,-12.8,0,,,,64,OVC:08 21.34,1035.3,989.1,16.093,-13.9,360,,6.7,,,,,,,,,,,,,,,,,,,,,,,,,,,,,,,,,,,,,,,,,,,,,,,,,,,,,,,,,,,,,,,,,,,,,,,,,,,,,,,,,,,,,,,,,,,MET09501/30/23 00:54:02 METAR KLNK 300654Z 36013KT 10SM OVC070 M13/M18 A3049 RMK AO2 SLP353 T11281183,,,,,,,,,,3/26/2007
USW00014939,2023-01-30T01:54:00,40.8508,-96.7475,362.7,"LINCOLN AIRPORT, NE US",FM-15,343,1032.5,-18.3,-12.8,0,,,,64,OVC:08 21.34,1035.2,989.1,16.093,-13.9,10,,6.2,,,,,,,,,,,,,,,,,,,,,,,,,,,,,,,,,,,,,,,,,,,,,,,,,,,,,,,,,,,,,,,,,,,,,,,,,,,,,,,,,,,,,,,,,,,MET09501/30/23 01:54:02 METAR KLNK 300754Z 01012KT 10SM OVC070 M13/M18 A3049 RMK AO2 SLP352 T11281183,,,,,,,,,,3/26/2007
USW00014939,2023-01-30T02:54:00,40.8508,-96.7475,362.7,"LINCOLN AIRPORT, NE US",FM-15,343,1033.2,-18.9,-13.3,0,,-0.3,5,63,OVC:08 21.34,1036,989.7,16.093,-14.4,360,,5.7,,,,,,,,,,,,,,,,,,,,,,,,,,,,,,,,,,,,,,,,,,,,,,,,,,,,,,,,,,,,,,,,,,,,,,,,,,,,,,,,,,,,,,,,,,,MET10101/30/23 02:54:02 METAR KLNK 300854Z 36011KT 10SM OVC070 M13/M19 A3051 RMK AO2 SLP360 T11331189 55003,,,,,,,,,,3/26/2007
USW00014939,2023-01-30T03:54:00,40.8508,-96.7475,362.7,"LINCOLN AIRPORT, NE US",FM-15,343,1033.2,-18.9,-13.3,0,,,,63,OVC:08 21.34,1035.8,989.7,16.093,-14.4,10,,5.1,,,,,,,,,,,,,,,,,,,,,,,,,,,,,,,,,,,,,,,,,,,,,,,,,,,,,,,,,,,,,,,,,,,,,,,,,,,,,,,,,,,,,,,,,,,MET09501/30/23 03:54:02 METAR KLNK 300954Z 01010KT 10SM OVC070 M13/M19 A3051 RMK AO2 SLP358 T11331189,,,,,,,,,,3/26/2007
USW00014939,2023-01-30T04:54:00,40.8508,-96.7475,362.7,"LINCOLN AIRPORT, NE US",FM-15,343,1032.8,-18.3,-13.3,0,,,,66,OVC:08 21.34,1035.4,989.4,16.093,-14.3,360,,5.1,,,,,,,,,,,,,,,,,,,,,,,,,,,,,,,,,,,,,,,,,,,,,,,,,,,,,,,,,,,,,,,,,,,,,,,,,,,,,,,,,,,,,,,,,,,MET09501/30/23 04:54:02 METAR KLNK 301054Z 36010KT 10SM OVC070 M13/M18 A3050 RMK AO2 SLP354 T11331183,,,,,,,,,,3/26/2007
USW00014939,2023-01-30T05:54:00,40.8508,-96.7475,362.7,"LINCOLN AIRPORT, NE US",FM-15,343,1033.2,-18.3,-13.9,0,,-0.1,5,70,BKN:07 21.34,1035.9,989.7,16.093,-14.7,340,,4.1,,,,,,,,,,,,,,,,,,,,,,,,,,,,,,,,,,,,,,,,,,,,,,,,,,,,,,,,,,,,,,,,,,,,,,,,,,,,,,,,,,,,,,,,,,,MET11801/30/23 05:54:02 METAR KLNK 301154Z 34008KT 10SM BKN070 M14/M18 A3051 RMK AO2 SLP359 T11391183 11128 21139 55001 (CD),,,,,,,,,,3/26/2007
USW00014939,2023-01-30T06:00:00,40.8508,-96.7475,362.7,"LINCOLN AIRPORT, NE US",FM-12,223,,-18.3,-13.9,,,-0.1,5,70,,1035.9,989.5,,-14.7,340,,4.1,,,,,,,,,,,,,,,,,,,,,,,,,,,,,,,,,,,,,,,,,,,,,,,,,,,,,,,,,,,,,,,,,,,,,,,,,,,,,,,,,,,,,,,,,,,SYN08072551 32866 63408 11139 21183 39895 40359 55001 91154 333 11122 21139 555 93012=,,,,,,,,,,3/26/2007
USW00014939,2023-01-30T06:54:00,40.8508,-96.7475,362.7,"LINCOLN AIRPORT, NE US",FM-15,343,1033.2,-17.8,-14.4,0,,,,76,OVC:08 21.34,1035.9,989.7,16.093,-15.1,360,,2.6,,,,,,,,,,,,,,,,,,,,,,,,,,,,,,,,,,,,,,,,,,,,,,,,,,,,,,,,,,,,,,,,,,,,,,,,,,,,,,,,,,,,,,,,,,,MET10001/30/23 06:54:02 METAR KLNK 301254Z 36005KT 10SM OVC070 M14/M18 A3051 RMK AO2 SLP359 T11441178 (CD),,,,,,,,,,3/26/2007
USW00014939,2023-01-30T07:54:00,40.8508,-96.7475,362.7,"LINCOLN AIRPORT, NE US",FM-15,343,1033.2,-17.8,-13.9,0,,,,73,OVC:08 21.34,1036.1,989.7,16.093,-14.6,340,,3.6,,,,,,,,,,,,,,,,,,,,,,,,,,,,,,,,,,,,,,,,,,,,,,,,,,,,,,,,,,,,,,,,,,,,,,,,,,,,,,,,,,,,,,,,,,,MET10001/30/23 07:54:02 METAR KLNK 301354Z 34007KT 10SM OVC070 M14/M18 A3051 RMK AO2 SLP361 T11391178 (CD),,,,,,,,,,3/26/2007
USW00014939,2023-01-30T08:54:00,40.8508,-96.7475,362.7,"LINCOLN AIRPORT, NE US",FM-15,343,1034.2,-17.8,-13.3,0,,1.1,3,69,OVC:08 21.34,1037,990.7,16.093,-14.2,350,,4.1,,,,,,,,,,,,,,,,,,,,,,,,,,,,,,,,,,,,,,,,,,,,,,,,,,,,,,,,,,,,,,,,,,,,,,,,,,,,,,,,,,,,,,,,,,,MET10601/30/23 08:54:02 METAR KLNK 301454Z 35008KT 10SM OVC070 M13/M18 A3054 RMK AO2 SLP370 T11331178 53011 (CD),,,,,,,,,,3/26/2007
USW00014939,2023-01-30T09:54:00,40.8508,-96.7475,362.7,"LINCOLN AIRPORT, NE US",FM-15,343,1034.5,-18.3,-12.2,0,,,,61,OVC:08 21.34,1037.3,991,16.093,-13.4,350,,2.6,,,,,,,,,,,,,,,,,,,,,,,,,,,,,,,,,,,,,,,,,,,,,,,,,,,,,,,,,,,,,,,,,,,,,,,,,,,,,,,,,,,,,,,,,,,MET10001/30/23 09:54:02 METAR KLNK 301554Z 35005KT 10SM OVC070 M12/M18 A3055 RMK AO2 SLP373 T11221183 (CD),,,,,,,,,,3/26/2007
USW00014939,2023-01-30T10:54:00,40.8508,-96.7475,362.7,"LINCOLN AIRPORT, NE US",FM-15,343,1034.9,-17.8,-11.1,0,,,,58,OVC:08 21.34,1037.5,991.4,16.093,-12.5,340,,2.6,,,,,,,,,,,,,,,,,,,,,,,,,,,,,,,,,,,,,,,,,,,,,,,,,,,,,,,,,,,,,,,,,,,,,,,,,,,,,,,,,,,,,,,,,,,MET10001/30/23 10:54:02 METAR KLNK 301654Z 34005KT 10SM OVC070 M11/M18 A3056 RMK AO2 SLP375 T11111178 (CD),,,,,,,,,,3/26/2007
USW00014939,2023-01-30T11:54:00,40.8508,-96.7475,362.7,"LINCOLN AIRPORT, NE US",FM-15,343,1033.9,-17.2,-10.6,0,,-0.2,8,59,BKN:07 7.92 OVC:08 21.34,1036.6,990.4,16.093,-12,360,,3.1,,,,,,,,,,,,,,,,,,,,,,,,,,,,,,,,,,,,,,,,,,,,,,,,,,,,,,,,,,,,,,,,,,,,,,,,,,,,,,,,,,,,,,,,,,,MET12501/30/23 11:54:02 METAR KLNK 301754Z 36006KT 10SM BKN026 OVC070 M11/M17 A3053 RMK AO2 SLP366 T11061172 11106 21150 58002 (CD),,,,,,,,,,3/26/2007
USW00014939,2023-01-30T12:00:00,40.8508,-96.7475,362.7,"LINCOLN AIRPORT, NE US",FM-12,223,,-17.2,-10.6,,,-0.2,8,59,,1036.6,990.1,,-12,360,,3.1,,,,,,,,,,,,,,,,,,,,,,,,,,,,,,,,,,,,,,,,,,,,,,,,,,,,,,,,,,,,,,,,,,,,,,,,,,,,,,,,,,,,,,,,,,,SYN08072551 32566 83606 11106 21172 39901 40366 58002 91754 333 11106 21150 555 93018=,,,,,,,,,,3/26/2007
USW00014939,2023-01-30T12:10:00,40.8508,-96.7475,362.7,"LINCOLN AIRPORT, NE US",FM-16,343,1033.9,-18.3,-10.6,,,,,54,SCT:04 7.92 OVC:08 21.34,,990.4,16.093,-12.2,30,,4.1,,,,,,,,,,,,,,,,,,,,,,,,,,,,,,,,,,,,,,,,,,,,,,,,,,,,,,,,,,,,,,,,,,,,,,,,,,,,,,,,,,,,,,,,,,,MET10001/30/23 12:10:02 SPECI KLNK 301810Z 03008KT 10SM SCT026 OVC070 M11/M18 A3053 RMK AO2 T11061183 (CK),,,,,,,,,,3/26/2007
USW00014939,2023-01-30T12:54:00,40.8508,-96.7475,362.7,"LINCOLN AIRPORT, NE US",FM-15,343,1033.2,-18.3,-10,0,,,,51,OVC:08 21.34,1035.5,989.7,16.093,-11.8,340,,2.6,,,,,,,,,,,,,,,,,,,,,,,,,,,,,,,,,,,,,,,,,,,,,,,,,,,,,,,,,,,,,,,,,,,,,,,,,,,,,,,,,,,,,,,,,,,MET10001/30/23 12:54:02 METAR KLNK 301854Z 34005KT 10SM OVC070 M10/M18 A3051 RMK AO2 SLP355 T11001183 (CK),,,,,,,,,,3/26/2007
USW00014939,2023-01-30T13:54:00,40.8508,-96.7475,362.7,"LINCOLN AIRPORT, NE US",FM-15,343,1032.2,-19.4,-10,0,,,,47,OVC:08 21.34,1034.5,988.8,16.093,-11.9,330,,3.6,,,,,,,,,,,,,,,,,,,,,,,,,,,,,,,,,,,,,,,,,,,,,,,,,,,,,,,,,,,,,,,,,,,,,,,,,,,,,,,,,,,,,,,,,,,MET10001/30/23 13:54:02 METAR KLNK 301954Z 33007KT 10SM OVC070 M10/M19 A3048 RMK AO2 SLP345 T11001194 (CK),,,,,,,,,,3/26/2007
USW00014939,2023-01-30T14:54:00,40.8508,-96.7475,362.7,"LINCOLN AIRPORT, NE US",FM-15,343,1031.5,-18.9,-9.4,0,,-2.3,6,46,OVC:08 21.34,1034.1,988.1,16.093,-11.4,350,,4.1,,,,,,,,,,,,,,,,,,,,,,,,,,,,,,,,,,,,,,,,,,,,,,,,,,,,,,,,,,,,,,,,,,,,,,,,,,,,,,,,,,,,,,,,,,,MET10601/30/23 14:54:02 METAR KLNK 302054Z 35008KT 10SM OVC070 M09/M19 A3046 RMK AO2 SLP341 T10941189 56023 (DS),,,,,,,,,,3/26/2007
USW00014939,2023-01-30T15:54:00,40.8508,-96.7475,362.7,"LINCOLN AIRPORT, NE US",FM-15,343,1031.8,-18.3,-10,0,,,,51,OVC:08 19.81,1034.4,988.4,16.093,-11.8,10,,2.6,,,,,,,,,,,,,,,,,,,,,,,,,,,,,,,,,,,,,,,,,,,,,,,,,,,,,,,,,,,,,,,,,,,,,,,,,,,,,,,,,,,,,,,,,,,MET10001/30/23 15:54:02 METAR KLNK 302154Z 01005KT 10SM OVC065 M10/M18 A3047 RMK AO2 SLP344 T11001183 (DS),,,,,,,,,,3/26/2007
USW00014939,2023-01-30T16:54:00,40.8508,-96.7475,362.7,"LINCOLN AIRPORT, NE US",FM-15,343,1032.2,-17.8,-10.6,0,,,,56,FEW:02 10.36,1034.6,988.8,16.093,-12.1,360,,3.6,,,,,,,,,,,,,,,,,,,,,,,,,,,,,,,,,,,,,,,,,,,,,,,,,,,,,,,,,,,,,,,,,,,,,,,,,,,,,,,,,,,,,,,,,,,MET10001/30/23 16:54:02 METAR KLNK 302254Z 36007KT 10SM FEW034 M11/M18 A3048 RMK AO2 SLP346 T11061178 (DS),,,,,,,,,,3/26/2007
USW00014939,2023-01-30T17:54:00,40.8508,-96.7475,362.7,"LINCOLN AIRPORT, NE US",FM-15,343,1032.2,-18.9,-12.8,0,,0.6,3,61,FEW:02 33.53,1035,988.8,16.093,-14,30,,3.6,,,,,,,,,,,,,,,,,,,,,,,,,,,,,,,,,,,,,,,,,,,,,,,,,,,,,,,,,,,,,,,,,,,,,,,,,,,,,,,,,,,,,,,,,,,MET11801/30/23 17:54:02 METAR KLNK 302354Z 03007KT 10SM FEW110 M13/M19 A3048 RMK AO2 SLP350 T11281189 11089 21128 53006 (DS),,,,,,,,,,3/26/2007
USW00014939,2023-01-30T18:00:00,40.8508,-96.7475,362.7,"LINCOLN AIRPORT, NE US",FM-12,223,,-18.9,-12.8,,,0.6,3,61,,1035,988.5,,-14,30,,3.6,,,,,,,,,,,,,,,,,,,,,,,,,,,,,,,,,,,,,,,,,,,,,,,,,,,,,,,,,,,,,,,,,,,,,,,,,,,,,,,,,,,,,,,,,,,SYN08072551 32966 20307 11128 21189 39885 40350 53006 92354 333 11089 21139 555 93100=,,,,,,,,,,3/26/2007
USW00014939,2023-01-30T18:54:00,40.8508,-96.7475,362.7,"LINCOLN AIRPORT, NE US",FM-15,343,1032.5,-19.4,-14.4,0,,,,66,CLR:00,1035.5,989.1,16.093,-15.3,40,,2.6,,,,,,,,,,,,,,,,,,,,,,,,,,,,,,,,,,,,,,,,,,,,,,,,,,,,,,,,,,,,,,,,,,,,,,,,,,,,,,,,,,,,,,,,,,,MET09701/30/23 18:54:03 METAR KLNK 310054Z 04005KT 10SM CLR M14/M19 A3049 RMK AO2 SLP355 T11441194 (DS),,,,,,,,,,3/26/2007
USW00014939,2023-01-30T19:54:00,40.8508,-96.7475,362.7,"LINCOLN AIRPORT, NE US",FM-15,343,1032.8,-20,-15,0,,,,66,CLR:00,1035.7,989.4,16.093,-15.9,,,0,,,,,,,,,,,,,,,,,,,,,,,,,,,,,,,,,,,,,,,,,,,,,,,,,,,,,,,,,,,,,,,,,,,,,,,,,,,,,,,,,,,,,,,,,,,MET09701/30/23 19:54:03 METAR KLNK 310154Z 00000KT 10SM CLR M15/M20 A3050 RMK AO2 SLP357 T11501200 (DS),,,,,,,,,,3/26/2007
USW00014939,2023-01-30T20:54:00,40.8508,-96.7475,362.7,"LINCOLN AIRPORT, NE US",FM-15,343,1032.8,-20.6,-13.9,0,,0.5,0,57,CLR:00,1035.6,989.4,16.093,-15.1,,,0,,,,,,,,,,,,,,,,,,,,,,,,,,,,,,,,,,,,,,,,,,,,,,,,,,,,,,,,,,,,,,,,,,,,,,,,,,,,,,,,,,,,,,,,,,,MET10301/30/23 20:54:03 METAR KLNK 310254Z 00000KT 10SM CLR M14/M21 A3050 RMK AO2 SLP356 T11391206 50005 (DS),,,,,,,,,,3/26/2007
USW00014939,2023-01-30T21:54:00,40.8508,-96.7475,362.7,"LINCOLN AIRPORT, NE US",FM-15,343,1032.8,-20.6,-14.4,0,,,,60,CLR:00,1035.6,989.4,16.093,-15.5,,,0,,,,,,,,,,,,,,,,,,,,,,,,,,,,,,,,,,,,,,,,,,,,,,,,,,,,,,,,,,,,,,,,,,,,,,,,,,,,,,,,,,,,,,,,,,,MET09701/30/23 21:54:03 METAR KLNK 310354Z 00000KT 10SM CLR M14/M21 A3050 RMK AO2 SLP356 T11441206 (DS),,,,,,,,,,3/26/2007
USW00014939,2023-01-30T22:54:00,40.8508,-96.7475,362.7,"LINCOLN AIRPORT, NE US",FM-15,343,1032.5,-20.6,-15,0,,,,63,CLR:00,1035.3,989.1,16.093,-15.9,,,0,,,,,,,,,,,,,,,,,,,,,,,,,,,,,,,,,,,,,,,,,,,,,,,,,,,,,,,,,,,,,,,,,,,,,,,,,,,,,,,,,,,,,,,,,,,MET09701/30/23 22:54:03 METAR KLNK 310454Z 00000KT 10SM CLR M15/M21 A3049 RMK AO2 SLP353 T11501206 (DS),,,,,,,,,,3/26/2007
USW00014939,2023-01-30T23:54:00,40.8508,-96.7475,362.7,"LINCOLN AIRPORT, NE US",FM-15,343,1032.5,-20,-15,0,,-0.3,8,66,SCT:04 33.53,1035.2,989.1,16.093,-15.9,,,0,,,,,,,,,,,,,,,,,,,,,,,,,,,,,,,,,,,,,,,,,,,,,,,,,,,,,,,,,,,,,,,,,,,,,,,,,,,,,,,,,,,,,,,,,,,MET12801/30/23 23:54:03 METAR KLNK 310554Z 00000KT 10SM SCT110 M15/M20 A3049 RMK AO2 SLP352 T11501200 11128 21156 410891156 58003 (DS),,,,,,,,,,3/26/2007
USW00014939,2023-01-31T00:00:00,40.8508,-96.7475,362.7,"LINCOLN AIRPORT, NE US",FM-12,223,,-20,-15,,,-0.3,8,66,,1035.2,988.8,,-15.9,,,0,,,,,,,,,,,,,,,,,,,,,,,,,,,,,,,,,,,,,,,,,,,,,,,,,,,,,,,,,,,,,,,,,,,,,,,,,,,,,,,,,,,,,,,,,,,SYN08072551 32966 40000 11150 21200 39888 40352 58003 90554 333 11128 21156 555 93106=,,,,,,,,,,3/26/2007
USW00014939,2023-01-31T00:00:00,40.8508,-96.7475,362.7,"LINCOLN AIRPORT, NE US",SOD,,,,,,,,,,,,,,,,,,739,1742,-16.7,-9.9,56,1030.5,983.7,-10.6,3.8,0,-6.46,28.2,-3.2,-16.6,220,9.8,0,T,0,230,7.6,,,,,,,,,,,,,,,,,,,,,,,,,,,,,,,,,,,,,,,,,,,,,,,,,,,,,,,,,,,,,,,,,,,,,,,,,,,,,,,,3/26/2007
USW00014939,2023-01-31T00:54:00,40.8508,-96.7475,362.7,"LINCOLN AIRPORT, NE US",FM-15,343,1031.8,-19.4,-15,0,,,,69,CLR:00,1034.6,988.4,16.093,-15.8,230,,1.5,,,,,,,,,,,,,,,,,,,,,,,,,,,,,,,,,,,,,,,,,,,,,,,,,,,,,,,,,,,,,,,,,,,,,,,,,,,,,,,,,,,,,,,,,,,MET09701/31/23 00:54:02 METAR KLNK 310654Z 23003KT 10SM CLR M15/M19 A3047 RMK AO2 SLP346 T11501194 (DS),,,,,,,,,,3/26/2007
USW00014939,2023-01-31T01:54:00,40.8508,-96.7475,362.7,"LINCOLN AIRPORT, NE US",FM-15,343,1031.5,-18.3,-13.9,0,,,,70,OVC:08 33.53,1034,988.1,16.093,-14.7,200,,2.1,,,,,,,,,,,,,,,,,,,,,,,,,,,,,,,,,,,,,,,,,,,,,,,,,,,,,,,,,,,,,,,,,,,,,,,,,,,,,,,,,,,,,,,,,,,MET10001/31/23 01:54:02 METAR KLNK 310754Z 20004KT 10SM OVC110 M14/M18 A3046 RMK AO2 SLP340 T11391183 (DS),,,,,,,,,,3/26/2007
USW00014939,2023-01-31T02:54:00,40.8508,-96.7475,362.7,"LINCOLN AIRPORT, NE US",FM-15,343,1031.2,-17.2,-13.3,0,,-1.3,6,73,OVC:08 36.58,1033.7,987.8,16.093,-14.1,190,,2.6,,,,,,,,,,,,,,,,,,,,,,,,,,,,,,,,,,,,,,,,,,,,,,,,,,,,,,,,,,,,,,,,,,,,,,,,,,,,,,,,,,,,,,,,,,,MET10601/31/23 02:54:02 METAR KLNK 310854Z 19005KT 10SM OVC120 M13/M17 A3045 RMK AO2 SLP337 T11331172 56013 (DS),,,,,,,,,,3/26/2007
USW00014939,2023-01-31T03:54:00,40.8508,-96.7475,362.7,"LINCOLN AIRPORT, NE US",FM-15,343,1030.5,-17.2,-13.3,0,,,,73,OVC:08 33.53,1032.9,987.1,16.093,-14.1,200,,1.5,,,,,,,,,,,,,,,,,,,,,,,,,,,,,,,,,,,,,,,,,,,,,,,,,,,,,,,,,,,,,,,,,,,,,,,,,,,,,,,,,,,,,,,,,,,MET10001/31/23 03:54:02 METAR KLNK 310954Z 20003KT 10SM OVC110 M13/M17 A3043 RMK AO2 SLP329 T11331172 (DS),,,,,,,,,,3/26/2007
USW00014939,2023-01-31T04:54:00,40.8508,-96.7475,362.7,"LINCOLN AIRPORT, NE US",FM-15,343,1029.5,-16.7,-12.2,0,,,,69,BKN:07 36.58,1031.8,986.1,16.093,-13.2,200,,4.1,,,,,,,,,,,,,,,,,,,,,,,,,,,,,,,,,,,,,,,,,,,,,,,,,,,,,,,,,,,,,,,,,,,,,,,,,,,,,,,,,,,,,,,,,,,MET10001/31/23 04:54:02 METAR KLNK 311054Z 20008KT 10SM BKN120 M12/M17 A3040 RMK AO2 SLP318 T11221167 (DS),,,,,,,,,,3/26/2007
USW00014939,2023-01-31T05:54:00,40.8508,-96.7475,362.7,"LINCOLN AIRPORT, NE US",FM-15,343,1029.5,-17.2,-11.7,0,,-1.7,5,64,OVC:08 33.53,1032.1,986.1,16.093,-12.8,210,,4.1,,,,,,,,,,,,,,,,,,,,,,,,,,,,,,,,,,,,,,,,,,,,,,,,,,,,,,,,,,,,,,,,,,,,,,,,,,,,,,,,,,,,,,,,,,,MET11801/31/23 05:54:02 METAR KLNK 311154Z 21008KT 10SM OVC110 M12/M17 A3040 RMK AO2 SLP321 T11171172 11117 21167 55017 (DS),,,,,,,,,,3/26/2007
USW00014939,2023-01-31T06:00:00,40.8508,-96.7475,362.7,"LINCOLN AIRPORT, NE US",FM-12,223,,-17.2,-11.7,,,-1.7,5,64,,1032.1,985.9,,-12.8,210,,4.1,,,,,,,,,,,,,,,,,,,,,,,,,,,,,,,,,,,,,,,,,,,,,,,,,,,,,,,,,,,,,,,,,,,,,,,,,,,,,,,,,,,,,,,,,,,SYN08072551 32966 82108 11117 21172 39859 40321 55017 91154 333 11089 21167 555 93112=,,,,,,,,,,3/26/2007
USW00014939,2023-01-31T06:54:00,40.8508,-96.7475,362.7,"LINCOLN AIRPORT, NE US",FM-15,343,1029.1,-17.8,-12.8,0,,,,66,CLR:00,1031.9,985.8,16.093,-13.8,220,,4.1,,,,,,,,,,,,,,,,,,,,,,,,,,,,,,,,,,,,,,,,,,,,,,,,,,,,,,,,,,,,,,,,,,,,,,,,,,,,,,,,,,,,,,,,,,,MET09701/31/23 06:54:02 METAR KLNK 311254Z 22008KT 10SM CLR M13/M18 A3039 RMK AO2 SLP319 T11281178 (HT),,,,,,,,,,3/26/2007
USW00014939,2023-01-31T07:54:00,40.8508,-96.7475,362.7,"LINCOLN AIRPORT, NE US",FM-15,343,1029.1,-17.2,-12.8,0,,,,70,SCT:04 36.58,1031.8,985.8,16.093,-13.7,200,,3.6,,,,,,,,,,,,,,,,,,,,,,,,,,,,,,,,,,,,,,,,,,,,,,,,,,,,,,,,,,,,,,,,,,,,,,,,,,,,,,,,,,,,,,,,,,,MET10001/31/23 07:54:02 METAR KLNK 311354Z 20007KT 10SM SCT120 M13/M17 A3039 RMK AO2 SLP318 T11281172 (HT),,,,,,,,,,3/26/2007
USW00014939,2023-01-31T08:54:00,40.8508,-96.7475,362.7,"LINCOLN AIRPORT, NE US",FM-15,343,1029.5,-16.7,-11.1,0,,0,5,64,CLR:00,1032.1,986.1,16.093,-12.3,200,,4.6,,,,,,,,,,,,,,,,,,,,,,,,,,,,,,,,,,,,,,,,,,,,,,,,,,,,,,,,,,,,,,,,,,,,,,,,,,,,,,,,,,,,,,,,,,,MET10301/31/23 08:54:02 METAR KLNK 311454Z 20009KT 10SM CLR M11/M17 A3040 RMK AO2 SLP321 T11111167 55000 (HT),,,,,,,,,,3/26/2007
USW00014939,2023-01-31T09:54:00,40.8508,-96.7475,362.7,"LINCOLN AIRPORT, NE US",FM-15,343,1029.8,-16.7,-8.9,0,,,,54,CLR:00,1032.2,986.5,16.093,-10.7,230,,6.2,,,,,,,,,,,,,,,,,,,,,,,,,,,,,,,,,,,,,,,,,,,,,,,,,,,,,,,,,,,,,,,,,,,,,,,,,,,,,,,,,,,,,,,,,,,MET09701/31/23 09:54:02 METAR KLNK 311554Z 23012KT 10SM CLR M09/M17 A3041 RMK AO2 SLP322 T10891167 (HT),,,,,,,,,,3/26/2007
USW00014939,2023-01-31T10:54:00,40.8508,-96.7475,362.7,"LINCOLN AIRPORT, NE US",FM-15,343,1029.5,-16.7,-7.2,0,,,,47,CLR:00,1031.8,986.1,16.093,-9.5,230,,7.2,,,,,,,,,,,,,,,,,,,,,,,,,,,,,,,,,,,,,,,,,,,,,,,,,,,,,,,,,,,,,,,,,,,,,,,,,,,,,,,,,,,,,,,,,,,MET09701/31/23 10:54:02 METAR KLNK 311654Z 23014KT 10SM CLR M07/M17 A3040 RMK AO2 SLP318 T10721167 (HT),,,,,,,,,,3/26/2007
USW00014939,2023-01-31T11:54:00,40.8508,-96.7475,362.7,"LINCOLN AIRPORT, NE US",FM-15,343,1028.4,-16.1,-5.6,0,,-0.8,8,44,CLR:00,1030.9,985.2,16.093,-8.2,220,,6.7,,,,,,,,,,,,,,,,,,,,,,,,,,,,,,,,,,,,,,,,,,,,,,,,,,,,,,,,,,,,,,,,,,,,,,,,,,,,,,,,,,,,,,,,,,,MET11501/31/23 11:54:02 METAR KLNK 311754Z 22013KT 10SM CLR M06/M16 A3037 RMK AO2 SLP309 T10561161 11056 21133 58008 (HT),,,,,,,,,,3/26/2007
USW00014939,2023-01-31T12:00:00,40.8508,-96.7475,362.7,"LINCOLN AIRPORT, NE US",FM-12,223,,-16.1,-5.6,,,-0.8,8,44,,1030.9,984.9,,-8.2,220,,6.7,,,,,,,,,,,,,,,,,,,,,,,,,,,,,,,,,,,,,,,,,,,,,,,,,,,,,,,,,,,,,,,,,,,,,,,,,,,,,,,,,,,,,,,,,,,SYN08072551 32966 02213 11056 21161 39849 40309 58008 91754 333 11056 21133 555 93118=,,,,,,,,,,3/26/2007
USW00014939,2023-01-31T12:54:00,40.8508,-96.7475,362.7,"LINCOLN AIRPORT, NE US",FM-15,343,1027.1,-16.7,-4.4,0,,,,38,CLR:00,1029.3,983.9,16.093,-7.5,220,,5.7,,,,,,,,,,,,,,,,,,,,,,,,,,,,,,,,,,,,,,,,,,,,,,,,,,,,,,,,,,,,,,,,,,,,,,,,,,,,,,,,,,,,,,,,,,,MET09701/31/23 12:54:02 METAR KLNK 311854Z 22011KT 10SM CLR M04/M17 A3033 RMK AO2 SLP293 T10441167 (HT),,,,,,,,,,3/26/2007
USW00014939,2023-01-31T13:54:00,40.8508,-96.7475,362.7,"LINCOLN AIRPORT, NE US",FM-15,343,1026.1,-16.1,-3.9,0,,,,39,CLR:00,1028.2,982.9,16.093,-7,250,,4.1,,,,,,,,,,,,,,,,,,,,,,,,,,,,,,,,,,,,,,,,,,,,,,,,,,,,,,,,,,,,,,,,,,,,,,,,,,,,,,,,,,,,,,,,,,,MET09701/31/23 13:54:02 METAR KLNK 311954Z 25008KT 10SM CLR M04/M16 A3030 RMK AO2 SLP282 T10391161 (HN),,,,,,,,,,3/26/2007
USW00014939,2023-01-31T14:54:00,40.8508,-96.7475,362.7,"LINCOLN AIRPORT, NE US",FM-15,343,1025.7,-16.7,-3.3,0,,-2.8,6,35,CLR:00,1027.8,982.5,16.093,-6.8,250,,5.1,,,,,,,,,,,,,,,,,,,,,,,,,,,,,,,,,,,,,,,,,,,,,,,,,,,,,,,,,,,,,,,,,,,,,,,,,,,,,,,,,,,,,,,,,,,MET10301/31/23 14:54:02 METAR KLNK 312054Z 25010KT 10SM CLR M03/M17 A3029 RMK AO2 SLP278 T10331167 56028 (HN),,,,,,,,,,3/26/2007
USW00014939,2023-01-31T15:54:00,40.8508,-96.7475,362.7,"LINCOLN AIRPORT, NE US",FM-15,343,1026.1,-15.6,-3.3,0,,,,38,CLR:00,1028,982.9,16.093,-6.6,240,,6.7,,,,,,,,,,,,,,,,,,,,,,,,,,,,,,,,,,,,,,,,,,,,,,,,,,,,,,,,,,,,,,,,,,,,,,,,,,,,,,,,,,,,,,,,,,,MET09701/31/23 15:54:02 METAR KLNK 312154Z 24013KT 10SM CLR M03/M16 A3030 RMK AO2 SLP280 T10331156 (HN),,,,,,,,,,3/26/2007
USW00014939,2023-01-31T16:54:00,40.8508,-96.7475,362.7,"LINCOLN AIRPORT, NE US",FM-15,343,1025.7,-15,-3.9,0,,,,42,CLR:00,1027.8,982.5,16.093,-6.8,230,,5.7,,,,,,,,,,,,,,,,,,,,,,,,,,,,,,,,,,,,,,,,,,,,,,,,,,,,,,,,,,,,,,,,,,,,,,,,,,,,,,,,,,,,,,,,,,,MET09701/31/23 16:54:02 METAR KLNK 312254Z 23011KT 10SM CLR M04/M15 A3029 RMK AO2 SLP278 T10391150 (HN),,,,,,,,,,3/26/2007
USW00014939,2023-01-31T17:54:00,40.8508,-96.7475,362.7,"LINCOLN AIRPORT, NE US",FM-15,343,1025.7,-15,-5.6,0,,0.1,0,48,CLR:00,1027.9,982.5,16.093,-8,240,,4.1,,,,,,,,,,,,,,,,,,,,,,,,,,,,,,,,,,,,,,,,,,,,,,,,,,,,,,,,,,,,,,,,,,,,,,,,,,,,,,,,,,,,,,,,,,,MET11501/31/23 17:54:02 METAR KLNK 312354Z 24008KT 10SM CLR M06/M15 A3029 RMK AO2 SLP279 T10561150 11033 21061 50001 (HN),,,,,,,,,,3/26/2007
USW00014939,2023-01-31T18:00:00,40.8508,-96.7475,362.7,"LINCOLN AIRPORT, NE US",FM-12,223,,-15,-5.6,,,0.1,9,48,,1027.9,982.3,,-8,240,,4.1,,,,,,,,,,,,,,,,,,,,,,,,,,,,,,,,,,,,,,,,,,,,,,,,,,,,,,,,,,,,,,,,,,,,,,,,,,,,,,,,,,,,,,,,,,,SYN08072551 32966 02408 11056 21150 39823 40279 50001 92354 333 11033 21133 555 90100=,,,,,,,,,,3/26/2007
USW00014939,2023-01-31T18:54:00,40.8508,-96.7475,362.7,"LINCOLN AIRPORT, NE US",FM-15,343,1026.1,-15,-8.3,0,,,,59,CLR:00,1028.3,982.9,16.093,-10,200,,2.6,,,,,,,,,,,,,,,,,,,,,,,,,,,,,,,,,,,,,,,,,,,,,,,,,,,,,,,,,,,,,,,,,,,,,,,,,,,,,,,,,,,,,,,,,,,MET09701/31/23 18:54:03 METAR KLNK 010054Z 20005KT 10SM CLR M08/M15 A3030 RMK AO2 SLP283 T10831150 (HN),,,,,,,,,,3/26/2007
USW00014939,2023-01-31T19:54:00,40.8508,-96.7475,362.7,"LINCOLN AIRPORT, NE US",FM-15,343,1025.7,-15,-8.3,0,,,,59,CLR:00,1028.3,982.5,16.093,-10,,,0,,,,,,,,,,,,,,,,,,,,,,,,,,,,,,,,,,,,,,,,,,,,,,,,,,,,,,,,,,,,,,,,,,,,,,,,,,,,,,,,,,,,,,,,,,,MET09701/31/23 19:54:03 METAR KLNK 010154Z 00000KT 10SM CLR M08/M15 A3029 RMK AO2 SLP283 T10831150 (HN),,,,,,,,,,3/26/2007
USW00014939,2023-01-31T20:54:00,40.8508,-96.7475,362.7,"LINCOLN AIRPORT, NE US",FM-15,343,1026.1,-15.6,-9.4,0,,0.1,1,61,CLR:00,1028.2,982.9,16.093,-10.9,150,,1.5,,,,,,,,,,,,,,,,,,,,,,,,,,,,,,,,,,,,,,,,,,,,,,,,,,,,,,,,,,,,,,,,,,,,,,,,,,,,,,,,,,,,,,,,,,,MET10301/31/23 20:54:03 METAR KLNK 010254Z 15003KT 10SM CLR M09/M16 A3030 RMK AO2 SLP282 T10941156 51001 (HN),,,,,,,,,,3/26/2007
USW00014939,2023-01-31T21:54:00,40.8508,-96.7475,362.7,"LINCOLN AIRPORT, NE US",FM-15,343,1026.1,-15.6,-10,0,,,,64,CLR:00,1028.4,982.9,16.093,-11.3,220,,1.5,,,,,,,,,,,,,,,,,,,,,,,,,,,,,,,,,,,,,,,,,,,,,,,,,,,,,,,,,,,,,,,,,,,,,,,,,,,,,,,,,,,,,,,,,,,MET09701/31/23 21:54:03 METAR KLNK 010354Z 22003KT 10SM CLR M10/M16 A3030 RMK AO2 SLP284 T11001156 (HN),,,,,,,,,,3/26/2007
USW00014939,2023-01-31T22:54:00,40.8508,-96.7475,362.7,"LINCOLN AIRPORT, NE US",FM-15,343,1025.7,-16.1,-11.1,0,,,,67,CLR:00,1028.1,982.5,16.093,-12.2,170,,2.6,,,,,,,,,,,,,,,,,,,,,,,,,,,,,,,,,,,,,,,,,,,,,,,,,,,,,,,,,,,,,,,,,,,,,,,,,,,,,,,,,,,,,,,,,,,MET09201/31/23 22:54:03 METAR KLNK 010454Z 17005KT 10SM CLR M11/M16 A3029 RMK AO2 SLP281 T11111161,,,,,,,,,,3/26/2007
USW00014939,2023-01-31T23:54:00,40.8508,-96.7475,362.7,"LINCOLN AIRPORT, NE US",FM-15,343,1025.4,-15.6,-8.9,0,,-0.5,8,59,CLR:00,1027.4,982.2,16.093,-10.5,230,,4.6,,,,,,,,,,,,,,,,,,,,,,,,,,,,,,,,,,,,,,,,,,,,,,,,,,,,,,,,,,,,,,,,,,,,,,,,,,,,,,,,,,,,,,,,,,,MET12001/31/23 23:54:03 METAR KLNK 010554Z 23009KT 10SM CLR M09/M16 A3028 RMK AO2 SLP274 T10891156 11056 21117 410331167 58005,,,,,,,,,,3/26/2007
USW00014939,2023-02-01T00:00:00,40.8508,-96.7475,362.7,"LINCOLN AIRPORT, NE US",FM-12,223,,-15.6,-8.9,,,-0.5,8,59,,1027.4,982,,-10.5,230,,4.6,,,,,,,,,,,,,,,,,,,,,,,,,,,,,,,,,,,,,,,,,,,,,,,,,,,,,,,,,,,,,,,,,,,,,,,,,,,,,,,,,,,,,,,,,,,SYN08072551 35966 02309 11089 21156 39820 40274 58005 90554 333 11056 21133 555 90106=,,,,,,,,,,3/26/2007
USW00014939,2023-02-01T00:00:00,40.8508,-96.7475,362.7,"LINCOLN AIRPORT, NE US",SOD,,,,,,,,,,,,,,,,,,739,1743,-11.7,-4.6,59,1024.7,979.3,-6.7,3.7,0,-1.21,22.9,5,-14.3,240,10.7,0,0,0,230,8.9,,,,,,,,,,,,,,,,,,,,,,,,,,,,,,,,,,,,,,,,,,,,,,,,,,,,,,,,,,,,,,,,,,,,,,,,,,,,,,,,3/26/2007
USW00014939,2023-02-01T00:00:00,40.8508,-96.7475,362.7,"LINCOLN AIRPORT, NE US",SOM,,,,,,,,,,,,,,,,,,,,,,,,,,,,,,,,,,,,,,,,66,6,3,27,0,2,4,0.69,0,-19.11,2.57,-1.2,10.2,-6.63,15,16-16,200,16,224,16-16,1041.7,24,254,7.35,-0.7,984.8,27,54,-8.76,1017.3,973,32.8,242,-2.71,4.2,0,0,1,2493.2,533,2,1,0,993.8,2/26/2023 21:14,2/26/2023 21:14,2/26/2023 21:14,2/26/2023 21:14,2/26/2023 21:34,2/26/2023 21:50,2/26/2023 22:03,2/26/2023 22:06,2/26/2023 22:06,2/26/2023 22:06,2/26/2023 22:57,2/26/2023 23:23,1.3,1.8,2,2.3,2.5,3.3,4.1,4.8,5.6,5.8,6.1,6.9,,,,,,,,,,,3/26/2007
USW00014939,2023-02-01T00:54:00,40.8508,-96.7475,362.7,"LINCOLN AIRPORT, NE US",FM-15,343,1025.1,-16.1,-10.6,0,,,,64,CLR:00,1027.1,981.9,16.093,-11.8,210,,2.1,,,,,,,,,,,,,,,,,,,,,,,,,,,,,,,,,,,,,,,,,,,,,,,,,,,,,,,,,,,,,,,,,,,,,,,,,,,,,,,,,,,,,,,,,,,MET09202/01/23 00:54:02 METAR KLNK 010654Z 21004KT 10SM CLR M11/M16 A3027 RMK AO2 SLP271 T11061161,,,,,,,,,,3/26/2007
USW00014939,2023-02-01T01:54:00,40.8508,-96.7475,362.7,"LINCOLN AIRPORT, NE US",FM-15,343,1024.7,-16.7,-11.7,0,,,,67,CLR:00,1026.7,981.6,16.093,-12.7,180,,2.1,,,,,,,,,,,,,,,,,,,,,,,,,,,,,,,,,,,,,,,,,,,,,,,,,,,,,,,,,,,,,,,,,,,,,,,,,,,,,,,,,,,,,,,,,,,MET09202/01/23 01:54:02 METAR KLNK 010754Z 18004KT 10SM CLR M12/M17 A3026 RMK AO2 SLP267 T11171167,,,,,,,,,,3/26/2007
USW00014939,2023-02-01T02:54:00,40.8508,-96.7475,362.7,"LINCOLN AIRPORT, NE US",FM-15,343,1025.1,-17.2,-13.3,0,,-0.4,5,73,CLR:00,1027.1,981.9,16.093,-14.1,180,,3.1,,,,,,,,,,,,,,,,,,,,,,,,,,,,,,,,,,,,,,,,,,,,,,,,,,,,,,,,,,,,,,,,,,,,,,,,,,,,,,,,,,,,,,,,,,,MET09802/01/23 02:54:02 METAR KLNK 010854Z 18006KT 10SM CLR M13/M17 A3027 RMK AO2 SLP271 T11331172 55004,,,,,,,,,,3/26/2007
USW00014939,2023-02-01T03:54:00,40.8508,-96.7475,362.7,"LINCOLN AIRPORT, NE US",FM-15,343,1024.4,-16.7,-12.8,0,,,,73,CLR:00,1026.4,981.2,16.093,-13.6,170,,3.1,,,,,,,,,,,,,,,,,,,,,,,,,,,,,,,,,,,,,,,,,,,,,,,,,,,,,,,,,,,,,,,,,,,,,,,,,,,,,,,,,,,,,,,,,,,MET09202/01/23 03:54:02 METAR KLNK 010954Z 17006KT 10SM CLR M13/M17 A3025 RMK AO2 SLP264 T11281167,,,,,,,,,,3/26/2007
USW00014939,2023-02-01T04:54:00,40.8508,-96.7475,362.7,"LINCOLN AIRPORT, NE US",FM-15,343,1024,-16.7,-11.7,0,,,,67,CLR:00,1026,980.9,16.093,-12.7,170,,2.6,,,,,,,,,,,,,,,,,,,,,,,,,,,,,,,,,,,,,,,,,,,,,,,,,,,,,,,,,,,,,,,,,,,,,,,,,,,,,,,,,,,,,,,,,,,MET09202/01/23 04:54:02 METAR KLNK 011054Z 17005KT 10SM CLR M12/M17 A3024 RMK AO2 SLP260 T11171167,,,,,,,,,,3/26/2007
USW00014939,2023-02-01T05:54:00,40.8508,-96.7475,362.7,"LINCOLN AIRPORT, NE US",FM-15,343,1023.7,-16.1,-11.7,0,,-1.3,6,70,CLR:00,1025.7,980.6,16.093,-12.6,170,,1.5,,,,,,,,,,,,,,,,,,,,,,,,,,,,,,,,,,,,,,,,,,,,,,,,,,,,,,,,,,,,,,,,,,,,,,,,,,,,,,,,,,,,,,,,,,,MET11502/01/23 05:54:02 METAR KLNK 011154Z 17003KT 10SM CLR M12/M16 A3023 RMK AO2 SLP257 T11171161 11089 21144 56013 (NU),,,,,,,,,,3/26/2007
USW00014939,2023-02-01T06:00:00,40.8508,-96.7475,362.7,"LINCOLN AIRPORT, NE US",FM-12,223,,-16.1,-11.7,,,-1.3,6,70,,1025.7,980.3,,-12.6,170,,1.5,,,,,,,,,,,,,,,,,,,,,,,,,,,,,,,,,,,,,,,,,,,,,,,,,,,,,,,,,,,,,,,,,,,,,,,,,,,,,,,,,,,,,,,,,,,SYN08072551 32966 01703 11117 21161 39803 40257 56013 91154 333 11033 21144 555 90112=,,,,,,,,,,3/26/2007
USW00014939,2023-02-01T06:54:00,40.8508,-96.7475,362.7,"LINCOLN AIRPORT, NE US",FM-15,343,1023.4,-17.2,-12.8,0,,,,70,CLR:00,1025.7,980.3,16.093,-13.7,180,,3.6,,,,,,,,,,,,,,,,,,,,,,,,,,,,,,,,,,,,,,,,,,,,,,,,,,,,,,,,,,,,,,,,,,,,,,,,,,,,,,,,,,,,,,,,,,,MET09702/01/23 06:54:02 METAR KLNK 011254Z 18007KT 10SM CLR M13/M17 A3022 RMK AO2 SLP257 T11281172 (NU),,,,,,,,,,3/26/2007
USW00014939,2023-02-01T07:54:00,40.8508,-96.7475,362.7,"LINCOLN AIRPORT, NE US",FM-15,343,1023.7,-16.1,-11.7,0,,,,70,CLR:00,1026.1,980.6,16.093,-12.6,200,,3.1,,,,,,,,,,,,,,,,,,,,,,,,,,,,,,,,,,,,,,,,,,,,,,,,,,,,,,,,,,,,,,,,,,,,,,,,,,,,,,,,,,,,,,,,,,,MET09702/01/23 07:54:02 METAR KLNK 011354Z 20006KT 10SM CLR M12/M16 A3023 RMK AO2 SLP261 T11171161 (NU),,,,,,,,,,3/26/2007
USW00014939,2023-02-01T08:54:00,40.8508,-96.7475,362.7,"LINCOLN AIRPORT, NE US",FM-15,343,1024.7,-14.4,-8.9,0,,1,3,65,CLR:00,1026.8,981.6,16.093,-10.2,200,,3.1,,,,,,,,,,,,,,,,,,,,,,,,,,,,,,,,,,,,,,,,,,,,,,,,,,,,,,,,,,,,,,,,,,,,,,,,,,,,,,,,,,,,,,,,,,,MET10302/01/23 08:54:02 METAR KLNK 011454Z 20006KT 10SM CLR M09/M14 A3026 RMK AO2 SLP268 T10891144 53010 (NU),,,,,,,,,,3/26/2007
USW00014939,2023-02-01T09:54:00,40.8508,-96.7475,362.7,"LINCOLN AIRPORT, NE US",FM-15,343,1024.7,-13.9,-6.1,0,,,,54,CLR:00,1026.6,981.6,16.093,-8.2,230,,4.6,,,,,,,,,,,,,,,,,,,,,,,,,,,,,,,,,,,,,,,,,,,,,,,,,,,,,,,,,,,,,,,,,,,,,,,,,,,,,,,,,,,,,,,,,,,MET09702/01/23 09:54:02 METAR KLNK 011554Z 23009KT 10SM CLR M06/M14 A3026 RMK AO2 SLP266 T10611139 (NU),,,,,,,,,,3/26/2007
USW00014939,2023-02-01T10:54:00,40.8508,-96.7475,362.7,"LINCOLN AIRPORT, NE US",FM-15,343,1024.7,-12.8,-2.8,0,,,,46,CLR:00,1026.4,981.6,16.093,-5.7,230,,4.6,,,,,,,,,,,,,,,,,,,,,,,,,,,,,,,,,,,,,,,,,,,,,,,,,,,,,,,,,,,,,,,,,,,,,,,,,,,,,,,,,,,,,,,,,,,MET09702/01/23 10:54:02 METAR KLNK 011654Z 23009KT 10SM CLR M03/M13 A3026 RMK AO2 SLP264 T10281128 (NU),,,,,,,,,,3/26/2007
USW00014939,2023-02-01T11:54:00,40.8508,-96.7475,362.7,"LINCOLN AIRPORT, NE US",FM-15,343,1023.7,-10.6,0.6,0,,-1.1,8,43,CLR:00,1025.1,980.6,16.093,-3,220,,4.6,,,,,,,,,,,,,,,,,,,,,,,,,,,,,,,,,,,,,,,,,,,,,,,,,,,,,,,,,,,,,,,,,,,,,,,,,,,,,,,,,,,,,,,,,,,MET11402/01/23 11:54:02 METAR KLNK 011754Z 22009KT 10SM CLR 01/M11 A3023 RMK AO2 SLP251 T00061106 10006 21133 58011 (NU),,,,,,,,,,3/26/2007
USW00014939,2023-02-01T12:00:00,40.8508,-96.7475,362.7,"LINCOLN AIRPORT, NE US",FM-12,223,,-10.6,0.6,,,-1.1,8,43,,1025.1,980.3,,-3,220,,4.6,,,,,,,,,,,,,,,,,,,,,,,,,,,,,,,,,,,,,,,,,,,,,,,,,,,,,,,,,,,,,,,,,,,,,,,,,,,,,,,,,,,,,,,,,,,SYN08072551 32966 02209 10006 21106 39803 40251 58011 91754 333 10006 21133 555 90118=,,,,,,,,,,3/26/2007
USW00014939,2023-02-01T12:54:00,40.8508,-96.7475,362.7,"LINCOLN AIRPORT, NE US",FM-15,343,1022.4,-11.1,3.3,0,,,,34,CLR:00,1023.7,979.3,16.093,-1.4,240,,5.7,,,,,,,,,,,,,,,,,,,,,,,,,,,,,,,,,,,,,,,,,,,,,,,,,,,,,,,,,,,,,,,,,,,,,,,,,,,,,,,,,,,,,,,,,,,MET09602/01/23 12:54:02 METAR KLNK 011854Z 24011KT 10SM CLR 03/M11 A3019 RMK AO2 SLP237 T00331111 (NU),,,,,,,,,,3/26/2007
USW00014939,2023-02-01T13:54:00,40.8508,-96.7475,362.7,"LINCOLN AIRPORT, NE US",FM-15,343,1021.7,-10.6,4.4,0,,,,33,CLR:00,1023.2,978.6,16.093,-0.6,230,,8.2,,,,,,,,,,,,,,,,,,,,,,,,,,,,,,,,,,,,,,,,,,,,,,,,,,,,,,,,,,,,,,,,,,,,,,,,,,,,,,,,,,,,,,,,,,,MET09602/01/23 13:54:02 METAR KLNK 011954Z 23016KT 10SM CLR 04/M11 A3017 RMK AO2 SLP232 T00441106 (SD),,,,,,,,,,3/26/2007
USW00014939,2023-02-01T14:54:00,40.8508,-96.7475,362.7,"LINCOLN AIRPORT, NE US",FM-15,343,1021.3,-9.4,4.4,0,,-2.1,6,36,CLR:00,1023,978.3,16.093,-0.4,230,,5.7,,,,,,,,,,,,,,,,,,,,,,,,,,,,,,,,,,,,,,,,,,,,,,,,,,,,,,,,,,,,,,,,,,,,,,,,,,,,,,,,,,,,,,,,,,,MET10202/01/23 14:54:02 METAR KLNK 012054Z 23011KT 10SM CLR 04/M09 A3016 RMK AO2 SLP230 T00441094 56021 (SD),,,,,,,,,,3/26/2007
USW00014939,2023-02-01T15:54:00,40.8508,-96.7475,362.7,"LINCOLN AIRPORT, NE US",FM-15,343,1021.3,-7.8,3.9,0,,,,43,CLR:00,1022.8,978.3,16.093,-0.3,250,,5.1,,,,,,,,,,,,,,,,,,,,,,,,,,,,,,,,,,,,,,,,,,,,,,,,,,,,,,,,,,,,,,,,,,,,,,,,,,,,,,,,,,,,,,,,,,,MET09602/01/23 15:54:02 METAR KLNK 012154Z 25010KT 10SM CLR 04/M08 A3016 RMK AO2 SLP228 T00391078 (SD),,,,,,,,,,3/26/2007
USW00014939,2023-02-01T16:54:00,40.8508,-96.7475,362.7,"LINCOLN AIRPORT, NE US",FM-15,343,1021.7,-7.8,2.8,0,,,,46,CLR:00,1023.4,978.6,16.093,-0.9,250,,5.1,,,,,,,,,,,,,,,,,,,,,,,,,,,,,,,,,,,,,,,,,,,,,,,,,,,,,,,,,,,,,,,,,,,,,,,,,,,,,,,,,,,,,,,,,,,MET09602/01/23 16:54:02 METAR KLNK 012254Z 25010KT 10SM CLR 03/M08 A3017 RMK AO2 SLP234 T00281078 (SD),,,,,,,,,,3/26/2007
USW00014939,2023-02-01T17:54:00,40.8508,-96.7475,362.7,"LINCOLN AIRPORT, NE US",FM-15,343,1021.7,-7.8,0.6,0,,0.4,3,54,CLR:00,1023.5,978.6,16.093,-2.3,230,,3.6,,,,,,,,,,,,,,,,,,,,,,,,,,,,,,,,,,,,,,,,,,,,,,,,,,,,,,,,,,,,,,,,,,,,,,,,,,,,,,,,,,,,,,,,,,,MET11402/01/23 17:54:02 METAR KLNK 012354Z 23007KT 10SM CLR 01/M08 A3017 RMK AO2 SLP235 T00061078 10050 20006 53004 (SD),,,,,,,,,,3/26/2007
USW00014939,2023-02-01T18:00:00,40.8508,-96.7475,362.7,"LINCOLN AIRPORT, NE US",FM-12,223,,-7.8,0.6,,,0.4,3,54,,1023.5,978.4,,-2.3,230,,3.6,,,,,,,,,,,,,,,,,,,,,,,,,,,,,,,,,,,,,,,,,,,,,,,,,,,,,,,,,,,,,,,,,,,,,,,,,,,,,,,,,,,,,,,,,,,SYN08072551 32966 02307 10006 21078 39784 40235 53004 92354 333 10050 21143 555 90200=,,,,,,,,,,3/26/2007
USW00014939,2023-02-01T18:54:00,40.8508,-96.7475,362.7,"LINCOLN AIRPORT, NE US",FM-15,343,1022.4,-7.8,-0.6,0,,,,59,CLR:00,1024.1,979.3,16.093,-3,230,,4.1,,,,,,,,,,,,,,,,,,,,,,,,,,,,,,,,,,,,,,,,,,,,,,,,,,,,,,,,,,,,,,,,,,,,,,,,,,,,,,,,,,,,,,,,,,,MET09202/01/23 18:54:01 METAR KLNK 020054Z 23008KT 10SM CLR M01/M08 A3019 RMK AO2 SLP241 T10061078,,,,,,,,,,3/26/2007
USW00014939,2023-02-01T19:54:00,40.8508,-96.7475,362.7,"LINCOLN AIRPORT, NE US",FM-15,343,1022.7,-7.8,-2.2,0,,,,66,CLR:00,1024.4,979.6,16.093,-4,220,,2.6,,,,,,,,,,,,,,,,,,,,,,,,,,,,,,,,,,,,,,,,,,,,,,,,,,,,,,,,,,,,,,,,,,,,,,,,,,,,,,,,,,,,,,,,,,,MET09202/01/23 19:54:01 METAR KLNK 020154Z 22005KT 10SM CLR M02/M08 A3020 RMK AO2 SLP244 T10221078,,,,,,,,,,3/26/2007
USW00014939,2023-02-01T20:54:00,40.8508,-96.7475,362.7,"LINCOLN AIRPORT, NE US",FM-15,343,1022.4,-7.8,-2.8,0,,0.6,0,69,CLR:00,1024.2,979.3,16.093,-4.4,240,,2.6,,,,,,,,,,,,,,,,,,,,,,,,,,,,,,,,,,,,,,,,,,,,,,,,,,,,,,,,,,,,,,,,,,,,,,,,,,,,,,,,,,,,,,,,,,,MET09802/01/23 20:54:01 METAR KLNK 020254Z 24005KT 10SM CLR M03/M08 A3019 RMK AO2 SLP242 T10281078 50006,,,,,,,,,,3/26/2007
USW00014939,2023-02-01T21:54:00,40.8508,-96.7475,362.7,"LINCOLN AIRPORT, NE US",FM-15,343,1022.4,-8.3,-3.3,0,,,,69,CLR:00,1024.1,979.3,16.093,-4.9,230,,2.6,,,,,,,,,,,,,,,,,,,,,,,,,,,,,,,,,,,,,,,,,,,,,,,,,,,,,,,,,,,,,,,,,,,,,,,,,,,,,,,,,,,,,,,,,,,MET09202/01/23 21:54:01 METAR KLNK 020354Z 23005KT 10SM CLR M03/M08 A3019 RMK AO2 SLP241 T10331083,,,,,,,,,,3/26/2007
USW00014939,2023-02-01T22:54:00,40.8508,-96.7475,362.7,"LINCOLN AIRPORT, NE US",FM-15,343,1022.4,-8.9,-4.4,0,,,,71,CLR:00,1023.8,979.3,16.093,-5.8,250,,2.6,,,,,,,,,,,,,,,,,,,,,,,,,,,,,,,,,,,,,,,,,,,,,,,,,,,,,,,,,,,,,,,,,,,,,,,,,,,,,,,,,,,,,,,,,,,MET09202/01/23 22:54:01 METAR KLNK 020454Z 25005KT 10SM CLR M04/M09 A3019 RMK AO2 SLP238 T10441089,,,,,,,,,,3/26/2007
USW00014939,2023-02-01T23:54:00,40.8508,-96.7475,362.7,"LINCOLN AIRPORT, NE US",FM-15,343,1022.4,-9.4,-4.4,0,,-0.3,8,68,CLR:00,1023.5,979.3,16.093,-6,280,,2.1,,,,,,,,,,,,,,,,,,,,,,,,,,,,,,,,,,,,,,,,,,,,,,,,,,,,,,,,,,,,,,,,,,,,,,,,,,,,,,,,,,,,,,,,,,,MET12002/01/23 23:54:01 METAR KLNK 020554Z 28004KT 10SM CLR M04/M09 A3019 RMK AO2 SLP235 T10441094 10006 21044 400501144 58003,,,,,,,,,,3/26/2007
USW00014939,2023-02-02T00:00:00,40.8508,-96.7475,362.7,"LINCOLN AIRPORT, NE US",FM-12,223,,-9.4,-4.4,,,-0.3,8,68,,1023.5,979,,-6,280,,2.1,,,,,,,,,,,,,,,,,,,,,,,,,,,,,,,,,,,,,,,,,,,,,,,,,,,,,,,,,,,,,,,,,,,,,,,,,,,,,,,,,,,,,,,,,,,SYN08072551 35966 02804 11044 21094 39790 40235 58003 90554 333 10006 21144 555 90206=,,,,,,,,,,3/26/2007
USW00014939,2023-02-02T00:00:00,40.8508,-96.7475,362.7,"LINCOLN AIRPORT, NE US",SOD,,,,,,,,,,,,,,,,,,738,1744,-13.3,-6.9,64,1031.2,987.5,-9.4,4.9,0,-3.62,25.2,1.7,-15.5,10,17.4,0,0,0,360,13.9,,,,,,,,,,,,,,,,,,,,,,,,,,,,,,,,,,,,,,,,,,,,,,,,,,,,,,,,,,,,,,,,,,,,,,,,,,,,,,,,3/26/2007
USW00014939,2023-02-02T00:54:00,40.8508,-96.7475,362.7,"LINCOLN AIRPORT, NE US",FM-15,343,1022,-9.4,-5,0,,,,72,CLR:00,1023.4,978.9,16.093,-6.3,250,,2.6,,,,,,,,,,,,,,,,,,,,,,,,,,,,,,,,,,,,,,,,,,,,,,,,,,,,,,,,,,,,,,,,,,,,,,,,,,,,,,,,,,,,,,,,,,,MET09202/02/23 00:54:02 METAR KLNK 020654Z 25005KT 10SM CLR M05/M09 A3018 RMK AO2 SLP234 T10501094,,,,,,,,,,3/26/2007
USW00014939,2023-02-02T01:54:00,40.8508,-96.7475,362.7,"LINCOLN AIRPORT, NE US",FM-15,343,1022,-10.6,-6.7,0,,,,74,CLR:00,1023.3,978.9,16.093,-7.8,220,,2.6,,,,,,,,,,,,,,,,,,,,,,,,,,,,,,,,,,,,,,,,,,,,,,,,,,,,,,,,,,,,,,,,,,,,,,,,,,,,,,,,,,,,,,,,,,,MET09202/02/23 01:54:02 METAR KLNK 020754Z 22005KT 10SM CLR M07/M11 A3018 RMK AO2 SLP233 T10671106,,,,,,,,,,3/26/2007
USW00014939,2023-02-02T02:54:00,40.8508,-96.7475,362.7,"LINCOLN AIRPORT, NE US",FM-15,343,1022,-10.6,-7.2,0,,-0.1,5,77,CLR:00,1023.4,978.9,16.093,-8.2,210,,2.1,,,,,,,,,,,,,,,,,,,,,,,,,,,,,,,,,,,,,,,,,,,,,,,,,,,,,,,,,,,,,,,,,,,,,,,,,,,,,,,,,,,,,,,,,,,MET09802/02/23 02:54:02 METAR KLNK 020854Z 21004KT 10SM CLR M07/M11 A3018 RMK AO2 SLP234 T10721106 55001,,,,,,,,,,3/26/2007
USW00014939,2023-02-02T03:54:00,40.8508,-96.7475,362.7,"LINCOLN AIRPORT, NE US",FM-15,343,1022,-10.6,-6.7,0,,,,74,CLR:00,1023.4,978.9,16.093,-7.8,,,0,,,,,,,,,,,,,,,,,,,,,,,,,,,,,,,,,,,,,,,,,,,,,,,,,,,,,,,,,,,,,,,,,,,,,,,,,,,,,,,,,,,,,,,,,,,MET09202/02/23 03:54:02 METAR KLNK 020954Z 00000KT 10SM CLR M07/M11 A3018 RMK AO2 SLP234 T10671106,,,,,,,,,,3/26/2007
USW00014939,2023-02-02T04:54:00,40.8508,-96.7475,362.7,"LINCOLN AIRPORT, NE US",FM-15,343,1022,-11.7,-8.3,0,,,,77,CLR:00,1023.4,978.9,16.093,-9.2,210,,2.1,,,,,,,,,,,,,,,,,,,,,,,,,,,,,,,,,,,,,,,,,,,,,,,,,,,,,,,,,,,,,,,,,,,,,,,,,,,,,,,,,,,,,,,,,,,MET09202/02/23 04:54:02 METAR KLNK 021054Z 21004KT 10SM CLR M08/M12 A3018 RMK AO2 SLP234 T10831117,,,,,,,,,,3/26/2007
USW00014939,2023-02-02T05:54:00,40.8508,-96.7475,362.7,"LINCOLN AIRPORT, NE US",FM-15,343,1022,-11.7,-9.4,0,,0,5,84,CLR:00,1023.7,978.9,16.093,-10,200,,2.1,,,,,,,,,,,,,,,,,,,,,,,,,,,,,,,,,,,,,,,,,,,,,,,,,,,,,,,,,,,,,,,,,,,,,,,,,,,,,,,,,,,,,,,,,,,MET11502/02/23 05:54:02 METAR KLNK 021154Z 20004KT 10SM CLR M09/M12 A3018 RMK AO2 SLP237 T10941117 11044 21094 55000 (NU),,,,,,,,,,3/26/2007
USW00014939,2023-02-02T06:00:00,40.8508,-96.7475,362.7,"LINCOLN AIRPORT, NE US",FM-12,223,,-11.7,-9.4,,,0,5,84,,1023.7,978.7,,-10,200,,2.1,,,,,,,,,,,,,,,,,,,,,,,,,,,,,,,,,,,,,,,,,,,,,,,,,,,,,,,,,,,,,,,,,,,,,,,,,,,,,,,,,,,,,,,,,,,SYN08072551 32966 02004 11094 21117 39787 40237 55000 91154 333 10050 21094 555 90212=,,,,,,,,,,3/26/2007
USW00014939,2023-02-02T06:54:00,40.8508,-96.7475,362.7,"LINCOLN AIRPORT, NE US",FM-15,343,1022.4,-11.1,-7.2,0,,,,74,CLR:00,1023.8,979.3,16.093,-8.3,250,,1.5,,,,,,,,,,,,,,,,,,,,,,,,,,,,,,,,,,,,,,,,,,,,,,,,,,,,,,,,,,,,,,,,,,,,,,,,,,,,,,,,,,,,,,,,,,,MET09702/02/23 06:54:02 METAR KLNK 021254Z 25003KT 10SM CLR M07/M11 A3019 RMK AO2 SLP238 T10721111 (NU),,,,,,,,,,3/26/2007
USW00014939,2023-02-02T07:54:00,40.8508,-96.7475,362.7,"LINCOLN AIRPORT, NE US",FM-15,343,1022.7,-12.2,-8.9,0,,,,77,CLR:00,1024.5,979.6,11.265,-9.8,220,,3.1,,,,,,,,,,,,,,,,,,,,,,,,,,,,,,,,,,,,,,,,,,,,,,,,,,,,,,,,,,,,,,,,,,,,,,,,,,,,,,,,,,,,,,,,,,,MET09602/02/23 07:54:02 METAR KLNK 021354Z 22006KT 7SM CLR M09/M12 A3020 RMK AO2 SLP245 T10891122 (NU),,,,,,,,,,3/26/2007
USW00014939,2023-02-02T08:54:00,40.8508,-96.7475,362.7,"LINCOLN AIRPORT, NE US",FM-15,343,1024.4,-8.9,-3.9,0,,2.2,3,69,CLR:00,1025.9,981.2,16.093,-5.4,,,0,,,,,,,,,,,,,,,,,,,,,,,,,,,,,,,,,,,,,,,,,,,,,,,,,,,,,,,,,,,,,,,,,,,,,,,,,,,,,,,,,,,,,,,,,,,MET10302/02/23 08:54:02 METAR KLNK 021454Z 00000KT 10SM CLR M04/M09 A3025 RMK AO2 SLP259 T10391089 53022 (NU),,,,,,,,,,3/26/2007
USW00014939,2023-02-02T09:54:00,40.8508,-96.7475,362.7,"LINCOLN AIRPORT, NE US",FM-15,343,1025.7,-7.2,0.6,0,,,,56,CLR:00,1027,982.5,16.093,-2.1,350,,8.2,,,,,,,,,,,,,,,,,,,,,,,,,,,,,,,,,,,,,,,,,,,,,,,,,,,,,,,,,,,,,,,,,,,,,,,,,,,,,,,,,,,,,,,,,,,MET09602/02/23 09:54:02 METAR KLNK 021554Z 35016KT 10SM CLR 01/M07 A3029 RMK AO2 SLP270 T00061072 (NU),,,,,,,,,,3/26/2007
USW00014939,2023-02-02T10:54:00,40.8508,-96.7475,362.7,"LINCOLN AIRPORT, NE US",FM-15,343,1027.1,-7.2,1.1,0,,,,54,CLR:00,1028.4,983.9,16.093,-1.8,10,13.9,10.3,,,,,,,,,,,,,,,,,,,,,,,,,,,,,,,,,,,,,,,,,,,,,,,,,,,,,,,,,,,,,,,,,,,,,,,,,,,,,,,,,,,,,,,,,,,MET11702/02/23 10:54:02 METAR KLNK 021654Z 01020G27KT 10SM CLR 01/M07 A3033 RMK AO2 PK WND 02027/1653 SLP284 T00111072 (NU),,,,,,,,,,3/26/2007
USW00014939,2023-02-02T11:54:00,40.8508,-96.7475,362.7,"LINCOLN AIRPORT, NE US",FM-15,343,1029.5,-8.9,-1.7,0,,5,3,58,CLR:00,1031,986.1,16.093,-4,10,16,10.3,,,,,,,,,,,,,,,,,,,,,,,,,,,,,,,,,,,,,,,,,,,,,,,,,,,,,,,,,,,,,,,,,,,,,,,,,,,,,,,,,,,,,,,,,,,MET14302/02/23 11:54:02 METAR KLNK 021754Z 01020G31KT 10SM CLR M02/M09 A3040 RMK AO2 PK WND 01034/1731 PRESRR SLP310 T10171089 10017 21100 53050 (NU),,,,,,,,,,3/26/2007
USW00014939,2023-02-02T12:00:00,40.8508,-96.7475,362.7,"LINCOLN AIRPORT, NE US",FM-12,223,,-8.9,-1.7,,,5,3,58,,1031,985.9,,-4,10,,10.3,,,,,,,,,,,,,,,,,,,,,,,,,,,,,,,,,,,,,,,,,,,,,,,,,,,,,,,,,,,,,,,,,,,,,,,,,,,,,,,,,,,,,,,,,,,SYN08672551 32966 00120 11017 21089 39859 40310 53050 91754 333 10017 21100 91031 555 90218=,,,,,,,,,,3/26/2007
USW00014939,2023-02-02T12:54:00,40.8508,-96.7475,362.7,"LINCOLN AIRPORT, NE US",FM-15,343,1030.1,-10,-2.8,0,,,,58,FEW:02 6.4 OVC:08 33.53,1031.7,986.8,16.093,-5,10,13.4,8.8,,,,,,,,,,,,,,,,,,,,,,,,,,,,,,,,,,,,,,,,,,,,,,,,,,,,,,,,,,,,,,,,,,,,,,,,,,,,,,,,,,,,,,,,,,,MET12802/02/23 12:54:02 METAR KLNK 021854Z 01017G26KT 10SM FEW021 OVC110 M03/M10 A3042 RMK AO2 PK WND 01030/1802 SLP317 T10281100 (AC),,,,,,,,,,3/26/2007
USW00014939,2023-02-02T13:54:00,40.8508,-96.7475,362.7,"LINCOLN AIRPORT, NE US",FM-15,343,1030.8,-11.1,-3.3,0,,,,55,CLR:00,1032.5,987.4,16.093,-5.6,20,13.9,10.3,,,,,,,,,,,,,,,,,,,,,,,,,,,,,,,,,,,,,,,,,,,,,,,,,,,,,,,,,,,,,,,,,,,,,,,,,,,,,,,,,,,,,,,,,,,MET11802/02/23 13:54:02 METAR KLNK 021954Z 02020G27KT 10SM CLR M03/M11 A3044 RMK AO2 PK WND 03030/1936 SLP325 T10331111 (AC),,,,,,,,,,3/26/2007
USW00014939,2023-02-02T14:54:00,40.8508,-96.7475,362.7,"LINCOLN AIRPORT, NE US",FM-15,343,1032.2,-12.8,-4.4,0,,2.5,3,52,CLR:00,1033.9,988.8,16.093,-6.8,360,14.4,9.3,,,,,,,,,,,,,,,,,,,,,,,,,,,,,,,,,,,,,,,,,,,,,,,,,,,,,,,,,,,,,,,,,,,,,,,,,,,,,,,,,,,,,,,,,,,MET12402/02/23 14:54:02 METAR KLNK 022054Z 36018G28KT 10SM CLR M04/M13 A3048 RMK AO2 PK WND 36030/2039 SLP339 T10441128 53025 (SD),,,,,,,,,,3/26/2007
USW00014939,2023-02-02T15:54:00,40.8508,-96.7475,362.7,"LINCOLN AIRPORT, NE US",FM-15,343,1033.5,-15.6,-6.7,0,,,,50,CLR:00,1035.4,990.1,16.093,-8.9,20,13.9,8.2,,,,,,,,,,,,,,,,,,,,,,,,,,,,,,,,,,,,,,,,,,,,,,,,,,,,,,,,,,,,,,,,,,,,,,,,,,,,,,,,,,,,,,,,,,,MET11802/02/23 15:54:02 METAR KLNK 022154Z 02016G27KT 10SM CLR M07/M16 A3052 RMK AO2 PK WND 36027/2145 SLP354 T10671156 (SD),,,,,,,,,,3/26/2007
USW00014939,2023-02-02T16:54:00,40.8508,-96.7475,362.7,"LINCOLN AIRPORT, NE US",FM-15,343,1034.5,-16.1,-7.8,0,,,,52,CLR:00,1036.5,991,16.093,-9.8,360,11.8,7.2,,,,,,,,,,,,,,,,,,,,,,,,,,,,,,,,,,,,,,,,,,,,,,,,,,,,,,,,,,,,,,,,,,,,,,,,,,,,,,,,,,,,,,,,,,,MET10002/02/23 16:54:02 METAR KLNK 022254Z 36014G23KT 10SM CLR M08/M16 A3055 RMK AO2 SLP365 T10781161 (BV),,,,,,,,,,3/26/2007
USW00014939,2023-02-02T17:54:00,40.8508,-96.7475,362.7,"LINCOLN AIRPORT, NE US",FM-15,343,1035.2,-16.7,-10.6,0,,3.2,1,61,CLR:00,1037.7,991.7,16.093,-11.9,10,,6.7,,,,,,,,,,,,,,,,,,,,,,,,,,,,,,,,,,,,,,,,,,,,,,,,,,,,,,,,,,,,,,,,,,,,,,,,,,,,,,,,,,,,,,,,,,,MET11502/02/23 17:54:02 METAR KLNK 022354Z 01013KT 10SM CLR M11/M17 A3057 RMK AO2 SLP377 T11061167 11017 21106 51032 (BV),,,,,,,,,,3/26/2007
USW00014939,2023-02-02T18:00:00,40.8508,-96.7475,362.7,"LINCOLN AIRPORT, NE US",FM-12,223,,-16.7,-10.6,,,3.2,1,61,,1037.7,991.5,,-11.9,10,,6.7,,,,,,,,,,,,,,,,,,,,,,,,,,,,,,,,,,,,,,,,,,,,,,,,,,,,,,,,,,,,,,,,,,,,,,,,,,,,,,,,,,,,,,,,,,,SYN08072551 32966 00113 11106 21167 39915 40377 51032 92354 333 10017 21106 555 90300=,,,,,,,,,,3/26/2007
USW00014939,2023-02-02T18:54:00,40.8508,-96.7475,362.7,"LINCOLN AIRPORT, NE US",FM-15,343,1035.9,-17.8,-11.7,0,,,,61,CLR:00,1038.1,992.4,16.093,-12.9,360,,5.7,,,,,,,,,,,,,,,,,,,,,,,,,,,,,,,,,,,,,,,,,,,,,,,,,,,,,,,,,,,,,,,,,,,,,,,,,,,,,,,,,,,,,,,,,,,MET09202/02/23 18:54:01 METAR KLNK 030054Z 36011KT 10SM CLR M12/M18 A3059 RMK AO2 SLP381 T11171178,,,,,,,,,,3/26/2007
USW00014939,2023-02-02T19:54:00,40.8508,-96.7475,362.7,"LINCOLN AIRPORT, NE US",FM-15,343,1036.6,-18.9,-12.2,0,,,,58,CLR:00,1039.1,993,16.093,-13.5,10,,4.6,,,,,,,,,,,,,,,,,,,,,,,,,,,,,,,,,,,,,,,,,,,,,,,,,,,,,,,,,,,,,,,,,,,,,,,,,,,,,,,,,,,,,,,,,,,MET09202/02/23 19:54:01 METAR KLNK 030154Z 01009KT 10SM CLR M12/M19 A3061 RMK AO2 SLP391 T11221189,,,,,,,,,,3/26/2007
USW00014939,2023-02-02T20:54:00,40.8508,-96.7475,362.7,"LINCOLN AIRPORT, NE US",FM-15,343,1037.3,-18.9,-13.3,0,,1.7,1,63,CLR:00,1039.3,993.7,16.093,-14.4,30,,3.1,,,,,,,,,,,,,,,,,,,,,,,,,,,,,,,,,,,,,,,,,,,,,,,,,,,,,,,,,,,,,,,,,,,,,,,,,,,,,,,,,,,,,,,,,,,MET09802/02/23 20:54:01 METAR KLNK 030254Z 03006KT 10SM CLR M13/M19 A3063 RMK AO2 SLP393 T11331189 51017,,,,,,,,,,3/26/2007
USW00014939,2023-02-02T21:54:00,40.8508,-96.7475,362.7,"LINCOLN AIRPORT, NE US",FM-15,343,1037.3,-18.9,-13.9,0,,,,66,CLR:00,1039.4,993.7,16.093,-14.8,360,,3.6,,,,,,,,,,,,,,,,,,,,,,,,,,,,,,,,,,,,,,,,,,,,,,,,,,,,,,,,,,,,,,,,,,,,,,,,,,,,,,,,,,,,,,,,,,,MET09202/02/23 21:54:01 METAR KLNK 030354Z 36007KT 10SM CLR M14/M19 A3063 RMK AO2 SLP394 T11391189,,,,,,,,,,3/26/2007
USW00014939,2023-02-02T22:54:00,40.8508,-96.7475,362.7,"LINCOLN AIRPORT, NE US",FM-15,343,1037.6,-19.4,-13.9,0,,,,63,CLR:00,1039.7,994,16.093,-14.9,330,,3.6,,,,,,,,,,,,,,,,,,,,,,,,,,,,,,,,,,,,,,,,,,,,,,,,,,,,,,,,,,,,,,,,,,,,,,,,,,,,,,,,,,,,,,,,,,,MET09202/02/23 22:54:02 METAR KLNK 030454Z 33007KT 10SM CLR M14/M19 A3064 RMK AO2 SLP397 T11391194,,,,,,,,,,3/26/2007
USW00014939,2023-02-02T23:54:00,40.8508,-96.7475,362.7,"LINCOLN AIRPORT, NE US",FM-15,343,1037.6,-20,-15.6,0,,0.6,1,69,CLR:00,1040,994,16.093,-16.3,10,,2.6,,,,,,,,,,,,,,,,,,,,,,,,,,,,,,,,,,,,,,,,,,,,,,,,,,,,,,,,,,,,,,,,,,,,,,,,,,,,,,,,,,,,,,,,,,,MET12002/02/23 23:54:02 METAR KLNK 030554Z 01005KT 10SM CLR M16/M20 A3064 RMK AO2 SLP400 T11561200 11106 21156 400171156 51006,,,,,,,,,,3/26/2007
USW00014939,2023-02-03T00:00:00,40.8508,-96.7475,362.7,"LINCOLN AIRPORT, NE US",FM-12,223,,-20,-15.6,,,0.6,1,69,,1040,993.7,,-16.3,10,,2.6,,,,,,,,,,,,,,,,,,,,,,,,,,,,,,,,,,,,,,,,,,,,,,,,,,,,,,,,,,,,,,,,,,,,,,,,,,,,,,,,,,,,,,,,,,,SYN08072551 35966 00105 11156 21200 39937 40400 51006 90554 333 11044 21156 555 90306=,,,,,,,,,,3/26/2007
USW00014939,2023-02-03T00:00:00,40.8508,-96.7475,362.7,"LINCOLN AIRPORT, NE US",SOD,,,,,,,,,,,,,,,,,,737,1746,-16.1,-8,55,1031.8,984.8,-10,3.8,0,-4.83,26.3,0,-16,200,12.1,0,0,0,180,9.8,,,,,,,,,,,,,,,,,,,,,,,,,,,,,,,,,,,,,,,,,,,,,,,,,,,,,,,,,,,,,,,,,,,,,,,,,,,,,,,,3/26/2007
USW00014939,2023-02-03T00:54:00,40.8508,-96.7475,362.7,"LINCOLN AIRPORT, NE US",FM-15,343,1037.6,-19.4,-15.6,0,,,,73,CLR:00,1040,994,16.093,-16.2,20,,2.1,,,,,,,,,,,,,,,,,,,,,,,,,,,,,,,,,,,,,,,,,,,,,,,,,,,,,,,,,,,,,,,,,,,,,,,,,,,,,,,,,,,,,,,,,,,MET09202/03/23 00:54:02 METAR KLNK 030654Z 02004KT 10SM CLR M16/M19 A3064 RMK AO2 SLP400 T11561194,,,,,,,,,,3/26/2007
USW00014939,2023-02-03T01:54:00,40.8508,-96.7475,362.7,"LINCOLN AIRPORT, NE US",FM-15,343,1037.9,-19.4,-15.6,0,,,,73,CLR:00,1040.2,994.3,16.093,-16.2,10,,3.1,,,,,,,,,,,,,,,,,,,,,,,,,,,,,,,,,,,,,,,,,,,,,,,,,,,,,,,,,,,,,,,,,,,,,,,,,,,,,,,,,,,,,,,,,,,MET09202/03/23 01:54:02 METAR KLNK 030754Z 01006KT 10SM CLR M16/M19 A3065 RMK AO2 SLP402 T11561194,,,,,,,,,,3/26/2007
USW00014939,2023-02-03T02:54:00,40.8508,-96.7475,362.7,"LINCOLN AIRPORT, NE US",FM-15,343,1036.9,-20,-16.1,0,,-0.7,8,72,CLR:00,1039.5,993.3,16.093,-16.8,60,,1.5,,,,,,,,,,,,,,,,,,,,,,,,,,,,,,,,,,,,,,,,,,,,,,,,,,,,,,,,,,,,,,,,,,,,,,,,,,,,,,,,,,,,,,,,,,,MET09802/03/23 02:54:02 METAR KLNK 030854Z 06003KT 10SM CLR M16/M20 A3062 RMK AO2 SLP395 T11611200 58007,,,,,,,,,,3/26/2007
USW00014939,2023-02-03T03:54:00,40.8508,-96.7475,362.7,"LINCOLN AIRPORT, NE US",FM-15,343,1036.2,-19.4,-15.6,0,,,,73,SCT:04 30.48,1038.7,992.7,16.093,-16.2,60,,2.1,,,,,,,,,,,,,,,,,,,,,,,,,,,,,,,,,,,,,,,,,,,,,,,,,,,,,,,,,,,,,,,,,,,,,,,,,,,,,,,,,,,,,,,,,,,MET09502/03/23 03:54:02 METAR KLNK 030954Z 06004KT 10SM SCT100 M16/M19 A3060 RMK AO2 SLP387 T11561194,,,,,,,,,,3/26/2007
USW00014939,2023-02-03T04:54:00,40.8508,-96.7475,362.7,"LINCOLN AIRPORT, NE US",FM-15,343,1035.6,-18.9,-15,0,,,,72,OVC:08 30.48,1038,992,16.093,-15.7,80,,2.1,,,,,,,,,,,,,,,,,,,,,,,,,,,,,,,,,,,,,,,,,,,,,,,,,,,,,,,,,,,,,,,,,,,,,,,,,,,,,,,,,,,,,,,,,,,MET09502/03/23 04:54:02 METAR KLNK 031054Z 08004KT 10SM OVC100 M15/M19 A3058 RMK AO2 SLP380 T11501189,,,,,,,,,,3/26/2007
USW00014939,2023-02-03T05:54:00,40.8508,-96.7475,362.7,"LINCOLN AIRPORT, NE US",FM-15,343,1035.2,-20,-15.6,0,,-1.7,6,69,CLR:00,1038,991.7,16.093,-16.3,90,,2.6,,,,,,,,,,,,,,,,,,,,,,,,,,,,,,,,,,,,,,,,,,,,,,,,,,,,,,,,,,,,,,,,,,,,,,,,,,,,,,,,,,,,,,,,,,,MET11502/03/23 05:54:02 METAR KLNK 031154Z 09005KT 10SM CLR M16/M20 A3057 RMK AO2 SLP380 T11561200 11150 21161 56017 (AC),,,,,,,,,,3/26/2007
USW00014939,2023-02-03T06:00:00,40.8508,-96.7475,362.7,"LINCOLN AIRPORT, NE US",FM-12,223,,-20,-15.6,,,-1.7,6,69,,1038,991.5,,-16.3,90,,2.6,,,,,,,,,,,,,,,,,,,,,,,,,,,,,,,,,,,,,,,,,,,,,,,,,,,,,,,,,,,,,,,,,,,,,,,,,,,,,,,,,,,,,,,,,,,SYN08072551 32966 00905 11156 21200 39915 40380 56017 91154 333 10017 21161 555 90312=,,,,,,,,,,3/26/2007
USW00014939,2023-02-03T06:54:00,40.8508,-96.7475,362.7,"LINCOLN AIRPORT, NE US",FM-15,343,1034.9,-19.4,-15.6,0,,,,73,CLR:00,1037.8,991.4,16.093,-16.2,120,,2.6,,,,,,,,,,,,,,,,,,,,,,,,,,,,,,,,,,,,,,,,,,,,,,,,,,,,,,,,,,,,,,,,,,,,,,,,,,,,,,,,,,,,,,,,,,,MET09702/03/23 06:54:02 METAR KLNK 031254Z 12005KT 10SM CLR M16/M19 A3056 RMK AO2 SLP378 T11561194 (AC),,,,,,,,,,3/26/2007
USW00014939,2023-02-03T07:54:00,40.8508,-96.7475,362.7,"LINCOLN AIRPORT, NE US",FM-15,343,1035.2,-20,-15.6,0,,,,69,CLR:00,1038.2,991.7,16.093,-16.3,170,,2.6,,,,,,,,,,,,,,,,,,,,,,,,,,,,,,,,,,,,,,,,,,,,,,,,,,,,,,,,,,,,,,,,,,,,,,,,,,,,,,,,,,,,,,,,,,,MET09702/03/23 07:54:02 METAR KLNK 031354Z 17005KT 10SM CLR M16/M20 A3057 RMK AO2 SLP382 T11561200 (RC),,,,,,,,,,3/26/2007
USW00014939,2023-02-03T08:54:00,40.8508,-96.7475,362.7,"LINCOLN AIRPORT, NE US",FM-15,343,1035.6,-19.4,-13.9,0,,0.2,3,63,CLR:00,1038.3,992,16.093,-14.9,160,,3.6,,,,,,,,,,,,,,,,,,,,,,,,,,,,,,,,,,,,,,,,,,,,,,,,,,,,,,,,,,,,,,,,,,,,,,,,,,,,,,,,,,,,,,,,,,,MET10302/03/23 08:54:02 METAR KLNK 031454Z 16007KT 10SM CLR M14/M19 A3058 RMK AO2 SLP383 T11391194 53002 (RC),,,,,,,,,,3/26/2007
USW00014939,2023-02-03T09:54:00,40.8508,-96.7475,362.7,"LINCOLN AIRPORT, NE US",FM-15,343,1035.2,-19.4,-11.7,0,,,,53,CLR:00,1037.8,991.7,16.093,-13.2,150,,5.1,,,,,,,,,,,,,,,,,,,,,,,,,,,,,,,,,,,,,,,,,,,,,,,,,,,,,,,,,,,,,,,,,,,,,,,,,,,,,,,,,,,,,,,,,,,MET09702/03/23 09:54:02 METAR KLNK 031554Z 15010KT 10SM CLR M12/M19 A3057 RMK AO2 SLP378 T11171194 (RC),,,,,,,,,,3/26/2007
USW00014939,2023-02-03T10:54:00,40.8508,-96.7475,362.7,"LINCOLN AIRPORT, NE US",FM-15,343,1034.2,-19.4,-8.9,0,,,,43,CLR:00,1036.6,990.7,16.093,-11.1,180,9.3,6.2,,,,,,,,,,,,,,,,,,,,,,,,,,,,,,,,,,,,,,,,,,,,,,,,,,,,,,,,,,,,,,,,,,,,,,,,,,,,,,,,,,,,,,,,,,,MET10002/03/23 10:54:02 METAR KLNK 031654Z 18012G18KT 10SM CLR M09/M19 A3054 RMK AO2 SLP366 T10891194 (RC),,,,,,,,,,3/26/2007
USW00014939,2023-02-03T11:54:00,40.8508,-96.7475,362.7,"LINCOLN AIRPORT, NE US",FM-15,343,1032.5,-19.4,-6.1,0,,-2.8,8,34,OVC:08 9.14,1035.1,989.1,16.093,-9.1,160,,6.2,,,,,,,,,,,,,,,,,,,,,,,,,,,,,,,,,,,,,,,,,,,,,,,,,,,,,,,,,,,,,,,,,,,,,,,,,,,,,,,,,,,,,,,,,,,MET11802/03/23 11:54:02 METAR KLNK 031754Z 16012KT 10SM OVC030 M06/M19 A3049 RMK AO2 SLP351 T10611194 11061 21156 58028 (RC),,,,,,,,,,3/26/2007
USW00014939,2023-02-03T12:00:00,40.8508,-96.7475,362.7,"LINCOLN AIRPORT, NE US",FM-12,223,,-19.4,-6.1,,,-2.8,8,34,,1035.1,988.8,,-9.1,160,,6.2,,,,,,,,,,,,,,,,,,,,,,,,,,,,,,,,,,,,,,,,,,,,,,,,,,,,,,,,,,,,,,,,,,,,,,,,,,,,,,,,,,,,,,,,,,,SYN08072551 32566 81612 11061 21194 39888 40351 58028 91754 333 11061 21156 555 90318=,,,,,,,,,,3/26/2007
USW00014939,2023-02-03T12:24:00,40.8508,-96.7475,362.7,"LINCOLN AIRPORT, NE US",FM-16,343,1031.5,-20.6,-5,,,,,29,OVC:08 8.84,,988.1,16.093,-8.4,170,,6.2,,,,,,,,,,,,,,,,,,,,,,,,,,,,,,,,,,,,,,,,,,,,,,,,,,,,,,,,,,,,,,,,,,,,,,,,,,,,,,,,,,,,,,,,,,,MET09302/03/23 12:24:02 SPECI KLNK 031824Z 17012KT 10SM OVC029 M05/M21 A3046 RMK AO2 T10501206 (RC),,,,,,,,,,3/26/2007
USW00014939,2023-02-03T12:50:00,40.8508,-96.7475,362.7,"LINCOLN AIRPORT, NE US",FM-16,343,1030.8,-21,-4,,,,,26,SCT:04 8.84,,987.4,16.093,-7.7,160,,6.7,,,,,,,,,,,,,,,,,,,,,,,,,,,,,,,,,,,,,,,,,,,,,,,,,,,,,,,,,,,,,,,,,,,,,,,,,,,,,,,,,,,,,,,,,,,MET08302/03/23 12:50:02 SPECI KLNK 031850Z 16013KT 10SM SCT029 M04/M21 A3044 RMK AO2 (RC),,,,,,,,,,3/26/2007
USW00014939,2023-02-03T12:54:00,40.8508,-96.7475,362.7,"LINCOLN AIRPORT, NE US",FM-15,343,1030.5,-20.6,-3.9,0,,,,26,FEW:02 8.84,1032.7,987.1,16.093,-7.7,190,,7.2,,,,,,,,,,,,,,,,,,,,,,,,,,,,,,,,,,,,,,,,,,,,,,,,,,,,,,,,,,,,,,,,,,,,,,,,,,,,,,,,,,,,,,,,,,,MET10002/03/23 12:54:02 METAR KLNK 031854Z 19014KT 10SM FEW029 M04/M21 A3043 RMK AO2 SLP327 T10391206 (RC),,,,,,,,,,3/26/2007
USW00014939,2023-02-03T13:54:00,40.8508,-96.7475,362.7,"LINCOLN AIRPORT, NE US",FM-15,343,1028.8,-18.3,-2.8,0,,,,29,CLR:00,1030.9,985.5,16.093,-6.6,200,,6.2,,,,,,,,,,,,,,,,,,,,,,,,,,,,,,,,,,,,,,,,,,,,,,,,,,,,,,,,,,,,,,,,,,,,,,,,,,,,,,,,,,,,,,,,,,,MET09702/03/23 13:54:02 METAR KLNK 031954Z 20012KT 10SM CLR M03/M18 A3038 RMK AO2 SLP309 T10281183 (RC),,,,,,,,,,3/26/2007
USW00014939,2023-02-03T14:54:00,40.8508,-96.7475,362.7,"LINCOLN AIRPORT, NE US",FM-15,343,1027.4,-15.6,-2.2,0,,-3,8,35,CLR:00,1029.7,984.2,16.093,-5.8,180,11.3,7.2,,,,,,,,,,,,,,,,,,,,,,,,,,,,,,,,,,,,,,,,,,,,,,,,,,,,,,,,,,,,,,,,,,,,,,,,,,,,,,,,,,,,,,,,,,,MET10602/03/23 14:54:02 METAR KLNK 032054Z 18014G22KT 10SM CLR M02/M16 A3034 RMK AO2 SLP297 T10221156 58030 (BV),,,,,,,,,,3/26/2007
USW00014939,2023-02-03T15:54:00,40.8508,-96.7475,362.7,"LINCOLN AIRPORT, NE US",FM-15,343,1026.8,-13.9,-0.6,0,,,,36,CLR:00,1028.8,983.5,16.093,-4.4,180,,6.7,,,,,,,,,,,,,,,,,,,,,,,,,,,,,,,,,,,,,,,,,,,,,,,,,,,,,,,,,,,,,,,,,,,,,,,,,,,,,,,,,,,,,,,,,,,MET09702/03/23 15:54:02 METAR KLNK 032154Z 18013KT 10SM CLR M01/M14 A3032 RMK AO2 SLP288 T10061139 (BV),,,,,,,,,,3/26/2007
USW00014939,2023-02-03T16:54:00,40.8508,-96.7475,362.7,"LINCOLN AIRPORT, NE US",FM-15,343,1025.7,-12.2,-0.6,0,,,,42,CLR:00,1027.6,982.5,16.093,-4.1,180,,6.2,,,,,,,,,,,,,,,,,,,,,,,,,,,,,,,,,,,,,,,,,,,,,,,,,,,,,,,,,,,,,,,,,,,,,,,,,,,,,,,,,,,,,,,,,,,MET09702/03/23 16:54:02 METAR KLNK 032254Z 18012KT 10SM CLR M01/M12 A3029 RMK AO2 SLP276 T10061122 (BV),,,,,,,,,,3/26/2007
USW00014939,2023-02-03T17:54:00,40.8508,-96.7475,362.7,"LINCOLN AIRPORT, NE US",FM-15,343,1025.1,-13.3,-5,0,,-2.4,6,53,CLR:00,1027.2,981.9,16.093,-7.3,170,,3.6,,,,,,,,,,,,,,,,,,,,,,,,,,,,,,,,,,,,,,,,,,,,,,,,,,,,,,,,,,,,,,,,,,,,,,,,,,,,,,,,,,,,,,,,,,,MET11502/03/23 17:54:02 METAR KLNK 032354Z 17007KT 10SM CLR M05/M13 A3027 RMK AO2 SLP272 T10501133 10000 21061 56024 (BV),,,,,,,,,,3/26/2007
USW00014939,2023-02-03T18:00:00,40.8508,-96.7475,362.7,"LINCOLN AIRPORT, NE US",FM-12,223,,-13.3,-5,,,-2.4,6,53,,1027.2,981.6,,-7.3,170,,3.6,,,,,,,,,,,,,,,,,,,,,,,,,,,,,,,,,,,,,,,,,,,,,,,,,,,,,,,,,,,,,,,,,,,,,,,,,,,,,,,,,,,,,,,,,,,SYN08072551 32966 01707 11050 21133 39816 40272 56024 92354 333 10000 21161 555 90400=,,,,,,,,,,3/26/2007
USW00014939,2023-02-03T18:54:00,40.8508,-96.7475,362.7,"LINCOLN AIRPORT, NE US",FM-15,343,1024.4,-12.8,-5,0,,,,55,CLR:00,1026.5,981.2,16.093,-7.2,150,,3.6,,,,,,,,,,,,,,,,,,,,,,,,,,,,,,,,,,,,,,,,,,,,,,,,,,,,,,,,,,,,,,,,,,,,,,,,,,,,,,,,,,,,,,,,,,,MET09202/03/23 18:54:01 METAR KLNK 040054Z 15007KT 10SM CLR M05/M13 A3025 RMK AO2 SLP265 T10501128,,,,,,,,,,3/26/2007
USW00014939,2023-02-03T19:54:00,40.8508,-96.7475,362.7,"LINCOLN AIRPORT, NE US",FM-15,343,1023.4,-13.3,-6.1,0,,,,57,CLR:00,1025.8,980.3,16.093,-8,160,,3.6,,,,,,,,,,,,,,,,,,,,,,,,,,,,,,,,,,,,,,,,,,,,,,,,,,,,,,,,,,,,,,,,,,,,,,,,,,,,,,,,,,,,,,,,,,,MET09202/03/23 19:54:01 METAR KLNK 040154Z 16007KT 10SM CLR M06/M13 A3022 RMK AO2 SLP258 T10611133,,,,,,,,,,3/26/2007
USW00014939,2023-02-03T20:54:00,40.8508,-96.7475,362.7,"LINCOLN AIRPORT, NE US",FM-15,343,1022.7,-12.2,-5,0,,-2.3,8,57,CLR:00,1024.7,979.6,16.093,-7,170,,2.6,,,,,,,,,,,,,,,,,,,,,,,,,,,,,,,,,,,,,,,,,,,,,,,,,,,,,,,,,,,,,,,,,,,,,,,,,,,,,,,,,,,,,,,,,,,MET09802/03/23 20:54:01 METAR KLNK 040254Z 17005KT 10SM CLR M05/M12 A3020 RMK AO2 SLP247 T10501122 58023,,,,,,,,,,3/26/2007
USW00014939,2023-02-03T21:54:00,40.8508,-96.7475,362.7,"LINCOLN AIRPORT, NE US",FM-15,343,1022,-12.2,-5,0,,,,57,CLR:00,1023.9,978.9,16.093,-7,170,,1.5,,,,,,,,,,,,,,,,,,,,,,,,,,,,,,,,,,,,,,,,,,,,,,,,,,,,,,,,,,,,,,,,,,,,,,,,,,,,,,,,,,,,,,,,,,,MET09202/03/23 21:54:01 METAR KLNK 040354Z 17003KT 10SM CLR M05/M12 A3018 RMK AO2 SLP239 T10501122,,,,,,,,,,3/26/2007
USW00014939,2023-02-03T22:54:00,40.8508,-96.7475,362.7,"LINCOLN AIRPORT, NE US",FM-15,343,1021,-11.1,-5,0,,,,63,CLR:00,1022.7,978,16.093,-6.8,150,,2.6,,,,,,,,,,,,,,,,,,,,,,,,,,,,,,,,,,,,,,,,,,,,,,,,,,,,,,,,,,,,,,,,,,,,,,,,,,,,,,,,,,,,,,,,,,,MET09202/03/23 22:54:02 METAR KLNK 040454Z 15005KT 10SM CLR M05/M11 A3015 RMK AO2 SLP227 T10501111,,,,,,,,,,3/26/2007
USW00014939,2023-02-03T23:54:00,40.8508,-96.7475,362.7,"LINCOLN AIRPORT, NE US",FM-15,343,1020,-11.7,-6.1,0,,-2.6,8,65,CLR:00,1021.8,977,16.093,-7.7,180,,1.5,,,,,,,,,,,,,,,,,,,,,,,,,,,,,,,,,,,,,,,,,,,,,,,,,,,,,,,,,,,,,,,,,,,,,,,,,,,,,,,,,,,,,,,,,,,MET12002/03/23 23:54:02 METAR KLNK 040554Z 18003KT 10SM CLR M06/M12 A3012 RMK AO2 SLP218 T10611117 11039 21072 400001161 58026,,,,,,,,,,3/26/2007
USW00014939,2023-02-04T00:00:00,40.8508,-96.7475,362.7,"LINCOLN AIRPORT, NE US",FM-12,223,,-11.7,-6.1,,,-2.6,8,65,,1021.8,976.7,,-7.7,180,,1.5,,,,,,,,,,,,,,,,,,,,,,,,,,,,,,,,,,,,,,,,,,,,,,,,,,,,,,,,,,,,,,,,,,,,,,,,,,,,,,,,,,,,,,,,,,,SYN08072551 35966 01803 11061 21117 39767 40218 58026 90554 333 11039 21161 555 90406=,,,,,,,,,,3/26/2007
USW00014939,2023-02-04T00:00:00,40.8508,-96.7475,362.7,"LINCOLN AIRPORT, NE US",SOD,,,,,,,,,,,,,,,,,,736,1747,-5,0.6,66,1016.6,971.6,-1.1,3.2,0,3.66,17.7,10,-8.8,200,11.6,0,0,0,240,8.9,,,,,,,,,,,,,,,,,,,,,,,,,,,,,,,,,,,,,,,,,,,,,,,,,,,,,,,,,,,,,,,,,,,,,,,,,,,,,,,,3/26/2007
USW00014939,2023-02-04T00:54:00,40.8508,-96.7475,362.7,"LINCOLN AIRPORT, NE US",FM-15,343,1018.6,-11.1,-7.2,0,,,,74,CLR:00,1020.5,975.7,16.093,-8.3,150,,2.1,,,,,,,,,,,,,,,,,,,,,,,,,,,,,,,,,,,,,,,,,,,,,,,,,,,,,,,,,,,,,,,,,,,,,,,,,,,,,,,,,,,,,,,,,,,MET09202/04/23 00:54:02 METAR KLNK 040654Z 15004KT 10SM CLR M07/M11 A3008 RMK AO2 SLP205 T10721111,,,,,,,,,,3/26/2007
USW00014939,2023-02-04T01:54:00,40.8508,-96.7475,362.7,"LINCOLN AIRPORT, NE US",FM-15,343,1018.6,-11.7,-8.9,0,,,,80,CLR:00,1020.2,975.7,16.093,-9.6,,,0,,,,,,,,,,,,,,,,,,,,,,,,,,,,,,,,,,,,,,,,,,,,,,,,,,,,,,,,,,,,,,,,,,,,,,,,,,,,,,,,,,,,,,,,,,,MET09202/04/23 01:54:02 METAR KLNK 040754Z 00000KT 10SM CLR M09/M12 A3008 RMK AO2 SLP202 T10891117,,,,,,,,,,3/26/2007
USW00014939,2023-02-04T02:54:00,40.8508,-96.7475,362.7,"LINCOLN AIRPORT, NE US",FM-15,343,1017.3,-10,-6.1,0,,-2.5,6,74,CLR:00,1018.9,974.4,16.093,-7.2,,,0,,,,,,,,,,,,,,,,,,,,,,,,,,,,,,,,,,,,,,,,,,,,,,,,,,,,,,,,,,,,,,,,,,,,,,,,,,,,,,,,,,,,,,,,,,,MET09802/04/23 02:54:02 METAR KLNK 040854Z 00000KT 10SM CLR M06/M10 A3004 RMK AO2 SLP189 T10611100 56025,,,,,,,,,,3/26/2007
USW00014939,2023-02-04T03:54:00,40.8508,-96.7475,362.7,"LINCOLN AIRPORT, NE US",FM-15,343,1016.6,-7.2,-3.3,0,,,,75,CLR:00,1017.8,973.7,16.093,-4.6,210,,1.5,,,,,,,,,,,,,,,,,,,,,,,,,,,,,,,,,,,,,,,,,,,,,,,,,,,,,,,,,,,,,,,,,,,,,,,,,,,,,,,,,,,,,,,,,,,MET09202/04/23 03:54:02 METAR KLNK 040954Z 21003KT 10SM CLR M03/M07 A3002 RMK AO2 SLP178 T10331072,,,,,,,,,,3/26/2007
USW00014939,2023-02-04T04:54:00,40.8508,-96.7475,362.7,"LINCOLN AIRPORT, NE US",FM-15,343,1015.9,-7.2,-4.4,0,,,,81,CLR:00,1017.1,973.1,16.093,-5.3,180,,3.1,,,,,,,,,,,,,,,,,,,,,,,,,,,,,,,,,,,,,,,,,,,,,,,,,,,,,,,,,,,,,,,,,,,,,,,,,,,,,,,,,,,,,,,,,,,MET09202/04/23 04:54:02 METAR KLNK 041054Z 18006KT 10SM CLR M04/M07 A3000 RMK AO2 SLP171 T10441072,,,,,,,,,,3/26/2007
USW00014939,2023-02-04T05:54:00,40.8508,-96.7475,362.7,"LINCOLN AIRPORT, NE US",FM-15,343,1015.6,-6.7,-2.8,0,,-1.8,6,75,CLR:00,1017,972.7,16.093,-4.1,200,,2.6,,,,,,,,,,,,,,,,,,,,,,,,,,,,,,,,,,,,,,,,,,,,,,,,,,,,,,,,,,,,,,,,,,,,,,,,,,,,,,,,,,,,,,,,,,,MET11002/04/23 05:54:02 METAR KLNK 041154Z 20005KT 10SM CLR M03/M07 A2999 RMK AO2 SLP170 T10281067 11028 21089 56018,,,,,,,,,,3/26/2007
USW00014939,2023-02-04T06:00:00,40.8508,-96.7475,362.7,"LINCOLN AIRPORT, NE US",FM-12,223,,-6.7,-2.8,,,-1.8,6,75,,1017,972.5,,-4.1,200,,2.6,,,,,,,,,,,,,,,,,,,,,,,,,,,,,,,,,,,,,,,,,,,,,,,,,,,,,,,,,,,,,,,,,,,,,,,,,,,,,,,,,,,,,,,,,,,SYN08072551 35966 02005 11028 21067 39725 40170 56018 91154 333 10000 21089 555 90412=,,,,,,,,,,3/26/2007
USW00014939,2023-02-04T06:54:00,40.8508,-96.7475,362.7,"LINCOLN AIRPORT, NE US",FM-15,343,1015.2,-5.6,-2.2,0,,,,78,CLR:00,1016.6,972.4,16.093,-3.4,210,,2.6,,,,,,,,,,,,,,,,,,,,,,,,,,,,,,,,,,,,,,,,,,,,,,,,,,,,,,,,,,,,,,,,,,,,,,,,,,,,,,,,,,,,,,,,,,,MET09702/04/23 06:54:02 METAR KLNK 041254Z 21005KT 10SM CLR M02/M06 A2998 RMK AO2 SLP166 T10221056 (HN),,,,,,,,,,3/26/2007
USW00014939,2023-02-04T07:54:00,40.8508,-96.7475,362.7,"LINCOLN AIRPORT, NE US",FM-15,343,1014.9,-5.6,-2.2,0,,,,78,CLR:00,1016.3,972.1,16.093,-3.4,170,,3.1,,,,,,,,,,,,,,,,,,,,,,,,,,,,,,,,,,,,,,,,,,,,,,,,,,,,,,,,,,,,,,,,,,,,,,,,,,,,,,,,,,,,,,,,,,,MET09702/04/23 07:54:02 METAR KLNK 041354Z 17006KT 10SM CLR M02/M06 A2997 RMK AO2 SLP163 T10221056 (HN),,,,,,,,,,3/26/2007
USW00014939,2023-02-04T08:54:00,40.8508,-96.7475,362.7,"LINCOLN AIRPORT, NE US",FM-15,343,1014.9,-3.9,0.6,0,,-0.4,5,72,CLR:00,1016.4,972.1,16.093,-1.1,210,,1.5,,,,,,,,,,,,,,,,,,,,,,,,,,,,,,,,,,,,,,,,,,,,,,,,,,,,,,,,,,,,,,,,,,,,,,,,,,,,,,,,,,,,,,,,,,,MET10202/04/23 08:54:02 METAR KLNK 041454Z 21003KT 10SM CLR 01/M04 A2997 RMK AO2 SLP164 T00061039 55004 (HN),,,,,,,,,,3/26/2007
USW00014939,2023-02-04T09:54:00,40.8508,-96.7475,362.7,"LINCOLN AIRPORT, NE US",FM-15,343,1014.6,-2.2,3.9,0,,,,65,CLR:00,1015.8,971.8,16.093,1.5,210,,5.1,,,,,,,,,,,,,,,,,,,,,,,,,,,,,,,,,,,,,,,,,,,,,,,,,,,,,,,,,,,,,,,,,,,,,,,,,,,,,,,,,,,,,,,,,,,MET09602/04/23 09:54:02 METAR KLNK 041554Z 21010KT 10SM CLR 04/M02 A2996 RMK AO2 SLP158 T00391022 (HN),,,,,,,,,,3/26/2007
USW00014939,2023-02-04T10:54:00,40.8508,-96.7475,362.7,"LINCOLN AIRPORT, NE US",FM-15,343,1013.9,-2.2,7.8,0,,,,50,CLR:00,1014.8,971.1,16.093,3.6,220,10.8,6.2,,,,,,,,,,,,,,,,,,,,,,,,,,,,,,,,,,,,,,,,,,,,,,,,,,,,,,,,,,,,,,,,,,,,,,,,,,,,,,,,,,,,,,,,,,,MET09902/04/23 10:54:02 METAR KLNK 041654Z 22012G21KT 10SM CLR 08/M02 A2994 RMK AO2 SLP148 T00781022 (HN),,,,,,,,,,3/26/2007
USW00014939,2023-02-04T11:54:00,40.8508,-96.7475,362.7,"LINCOLN AIRPORT, NE US",FM-15,343,1012.9,-2.8,8.9,0,,-2.1,8,44,CLR:00,1013.8,970.1,16.093,4,220,,8.2,,,,,,,,,,,,,,,,,,,,,,,,,,,,,,,,,,,,,,,,,,,,,,,,,,,,,,,,,,,,,,,,,,,,,,,,,,,,,,,,,,,,,,,,,,,MET11402/04/23 11:54:02 METAR KLNK 041754Z 22016KT 10SM CLR 09/M03 A2991 RMK AO2 SLP138 T00891028 10089 21044 58021 (HN),,,,,,,,,,3/26/2007
USW00014939,2023-02-04T12:00:00,40.8508,-96.7475,362.7,"LINCOLN AIRPORT, NE US",FM-12,223,,-2.8,8.9,,,-2.1,8,44,,1013.8,969.9,,4,220,,8.2,,,,,,,,,,,,,,,,,,,,,,,,,,,,,,,,,,,,,,,,,,,,,,,,,,,,,,,,,,,,,,,,,,,,,,,,,,,,,,,,,,,,,,,,,,,SYN08072551 32966 02216 10089 21028 39699 40138 58021 91754 333 10089 21061 555 90418=,,,,,,,,,,3/26/2007
USW00014939,2023-02-04T12:54:00,40.8508,-96.7475,362.7,"LINCOLN AIRPORT, NE US",FM-15,343,1011.9,-2.2,9.4,0,,,,44,CLR:00,1012.7,969.1,16.093,4.5,230,,7.2,,,,,,,,,,,,,,,,,,,,,,,,,,,,,,,,,,,,,,,,,,,,,,,,,,,,,,,,,,,,,,,,,,,,,,,,,,,,,,,,,,,,,,,,,,,MET09602/04/23 12:54:02 METAR KLNK 041854Z 23014KT 10SM CLR 09/M02 A2988 RMK AO2 SLP127 T00941022 (BV),,,,,,,,,,3/26/2007
USW00014939,2023-02-04T13:54:00,40.8508,-96.7475,362.7,"LINCOLN AIRPORT, NE US",FM-15,343,1010.8,-1.7,9.4,0,,,,46,CLR:00,1011.7,968.2,16.093,4.7,210,,6.2,,,,,,,,,,,,,,,,,,,,,,,,,,,,,,,,,,,,,,,,,,,,,,,,,,,,,,,,,,,,,,,,,,,,,,,,,,,,,,,,,,,,,,,,,,,MET09602/04/23 13:54:02 METAR KLNK 041954Z 21012KT 10SM CLR 09/M02 A2985 RMK AO2 SLP117 T00941017 (BV),,,,,,,,,,3/26/2007
USW00014939,2023-02-04T14:54:00,40.8508,-96.7475,362.7,"LINCOLN AIRPORT, NE US",FM-15,343,1010.8,-2.2,10,0,,-2,5,43,CLR:00,1011.6,968.2,16.093,4.8,240,,8.2,,,,,,,,,,,,,,,,,,,,,,,,,,,,,,,,,,,,,,,,,,,,,,,,,,,,,,,,,,,,,,,,,,,,,,,,,,,,,,,,,,,,,,,,,,,MET10202/04/23 14:54:02 METAR KLNK 042054Z 24016KT 10SM CLR 10/M02 A2985 RMK AO2 SLP116 T01001022 55020 (BV),,,,,,,,,,3/26/2007
USW00014939,2023-02-04T15:54:00,40.8508,-96.7475,362.7,"LINCOLN AIRPORT, NE US",FM-15,343,1011.5,-1.7,9.4,0,,,,46,CLR:00,1012.3,968.8,16.093,4.7,240,,5.7,,,,,,,,,,,,,,,,,,,,,,,,,,,,,,,,,,,,,,,,,,,,,,,,,,,,,,,,,,,,,,,,,,,,,,,,,,,,,,,,,,,,,,,,,,,MET09602/04/23 15:54:02 METAR KLNK 042154Z 24011KT 10SM CLR 09/M02 A2987 RMK AO2 SLP123 T00941017 (BV),,,,,,,,,,3/26/2007
USW00014939,2023-02-04T16:54:00,40.8508,-96.7475,362.7,"LINCOLN AIRPORT, NE US",FM-15,343,1011.9,-1.7,8.3,0,,,,50,CLR:00,1012.7,969.1,16.093,4.1,240,,5.1,,,,,,,,,,,,,,,,,,,,,,,,,,,,,,,,,,,,,,,,,,,,,,,,,,,,,,,,,,,,,,,,,,,,,,,,,,,,,,,,,,,,,,,,,,,MET09602/04/23 16:54:02 METAR KLNK 042254Z 24010KT 10SM CLR 08/M02 A2988 RMK AO2 SLP127 T00831017 (BV),,,,,,,,,,3/26/2007
USW00014939,2023-02-04T17:54:00,40.8508,-96.7475,362.7,"LINCOLN AIRPORT, NE US",FM-15,343,1012.9,-1.7,5.6,0,,2,3,60,CLR:00,1013.8,970.1,16.093,2.6,260,,3.6,,,,,,,,,,,,,,,,,,,,,,,,,,,,,,,,,,,,,,,,,,,,,,,,,,,,,,,,,,,,,,,,,,,,,,,,,,,,,,,,,,,,,,,,,,,MET11402/04/23 17:54:02 METAR KLNK 042354Z 26007KT 10SM CLR 06/M02 A2991 RMK AO2 SLP138 T00561017 10100 20056 53020 (BV),,,,,,,,,,3/26/2007
USW00014939,2023-02-04T18:00:00,40.8508,-96.7475,362.7,"LINCOLN AIRPORT, NE US",FM-12,223,,-1.7,5.6,,,2,3,60,,1013.8,969.9,,2.6,260,,3.6,,,,,,,,,,,,,,,,,,,,,,,,,,,,,,,,,,,,,,,,,,,,,,,,,,,,,,,,,,,,,,,,,,,,,,,,,,,,,,,,,,,,,,,,,,,SYN08072551 32966 02607 10056 21017 39699 40138 53020 92354 333 10100 21088 555 90500=,,,,,,,,,,3/26/2007
USW00014939,2023-02-04T18:54:00,40.8508,-96.7475,362.7,"LINCOLN AIRPORT, NE US",FM-15,343,1013.2,-1.7,3.3,0,,,,70,CLR:00,1014.1,970.4,16.093,1.3,,,0,,,,,,,,,,,,,,,,,,,,,,,,,,,,,,,,,,,,,,,,,,,,,,,,,,,,,,,,,,,,,,,,,,,,,,,,,,,,,,,,,,,,,,,,,,,MET09102/04/23 18:54:01 METAR KLNK 050054Z 00000KT 10SM CLR 03/M02 A2992 RMK AO2 SLP141 T00331017,,,,,,,,,,3/26/2007
USW00014939,2023-02-04T19:54:00,40.8508,-96.7475,362.7,"LINCOLN AIRPORT, NE US",FM-15,343,1013.9,-2.2,3.3,0,,,,68,CLR:00,1015,971.1,16.093,1.1,310,,2.1,,,,,,,,,,,,,,,,,,,,,,,,,,,,,,,,,,,,,,,,,,,,,,,,,,,,,,,,,,,,,,,,,,,,,,,,,,,,,,,,,,,,,,,,,,,MET09102/04/23 19:54:01 METAR KLNK 050154Z 31004KT 10SM CLR 03/M02 A2994 RMK AO2 SLP150 T00331022,,,,,,,,,,3/26/2007
USW00014939,2023-02-04T20:54:00,40.8508,-96.7475,362.7,"LINCOLN AIRPORT, NE US",FM-15,343,1014.9,-4.4,-1.1,0,,2,3,79,CLR:00,1016,972.1,16.093,-2.3,,,0,,,,,,,,,,,,,,,,,,,,,,,,,,,,,,,,,,,,,,,,,,,,,,,,,,,,,,,,,,,,,,,,,,,,,,,,,,,,,,,,,,,,,,,,,,,MET09802/04/23 20:54:01 METAR KLNK 050254Z 00000KT 10SM CLR M01/M04 A2997 RMK AO2 SLP160 T10111044 53020,,,,,,,,,,3/26/2007
USW00014939,2023-02-04T21:54:00,40.8508,-96.7475,362.7,"LINCOLN AIRPORT, NE US",FM-15,343,1015.6,-2.8,1.7,0,,,,72,CLR:00,1016.3,972.7,16.093,0,270,,2.1,,,,,,,,,,,,,,,,,,,,,,,,,,,,,,,,,,,,,,,,,,,,,,,,,,,,,,,,,,,,,,,,,,,,,,,,,,,,,,,,,,,,,,,,,,,MET09102/04/23 21:54:01 METAR KLNK 050354Z 27004KT 10SM CLR 02/M03 A2999 RMK AO2 SLP163 T00171028,,,,,,,,,,3/26/2007
USW00014939,2023-02-04T22:54:00,40.8508,-96.7475,362.7,"LINCOLN AIRPORT, NE US",FM-15,343,1015.9,-5,-1.7,0,,,,78,CLR:00,1016.7,973.1,16.093,-2.8,,,0,,,,,,,,,,,,,,,,,,,,,,,,,,,,,,,,,,,,,,,,,,,,,,,,,,,,,,,,,,,,,,,,,,,,,,,,,,,,,,,,,,,,,,,,,,,MET09202/04/23 22:54:02 METAR KLNK 050454Z 00000KT 10SM CLR M02/M05 A3000 RMK AO2 SLP167 T10171050,,,,,,,,,,3/26/2007
USW00014939,2023-02-04T23:54:00,40.8508,-96.7475,362.7,"LINCOLN AIRPORT, NE US",FM-15,343,1016.3,-4.4,-1.7,0,,1.1,1,82,CLR:00,1016.8,973.4,16.093,-2.7,,,0,,,,,,,,,,,,,,,,,,,,,,,,,,,,,,,,,,,,,,,,,,,,,,,,,,,,,,,,,,,,,,,,,,,,,,,,,,,,,,,,,,,,,,,,,,,MET12002/04/23 23:54:02 METAR KLNK 050554Z 00000KT 10SM CLR M02/M04 A3001 RMK AO2 SLP168 T10171044 10056 21033 401001089 51011,,,,,,,,,,3/26/2007
USW00014939,2023-02-05T00:00:00,40.8508,-96.7475,362.7,"LINCOLN AIRPORT, NE US",FM-12,223,,-4.4,-1.7,,,1.1,1,82,,1016.8,973.1,,-2.7,,,0,,,,,,,,,,,,,,,,,,,,,,,,,,,,,,,,,,,,,,,,,,,,,,,,,,,,,,,,,,,,,,,,,,,,,,,,,,,,,,,,,,,,,,,,,,,SYN08072551 32966 00000 11017 21044 39731 40168 51011 90554 333 10056 21089 555 90506=,,,,,,,,,,3/26/2007
USW00014939,2023-02-05T00:00:00,40.8508,-96.7475,362.7,"LINCOLN AIRPORT, NE US",SOD,,,,,,,,,,,,,,,,,,735,1748,-3.9,3.7,67,1019,974.9,0,1.5,0,6.64,14.6,13.3,-6,360,6.3,0,0,0,360,5.4,,,,,,,,,,,,,,,,,,,,,,,,,,,,,,,,,,,,,,,,,,,,,,,,,,,,,,,,,,,,,,,,,,,,,,,,,,,,,,,,3/26/2007
USW00014939,2023-02-05T00:54:00,40.8508,-96.7475,362.7,"LINCOLN AIRPORT, NE US",FM-15,343,1016.6,-6.1,-3.9,0,,,,85,CLR:00,1017.5,973.7,16.093,-4.6,,,0,,,,,,,,,,,,,,,,,,,,,,,,,,,,,,,,,,,,,,,,,,,,,,,,,,,,,,,,,,,,,,,,,,,,,,,,,,,,,,,,,,,,,,,,,,,MET09202/05/23 00:54:02 METAR KLNK 050654Z 00000KT 10SM CLR M04/M06 A3002 RMK AO2 SLP175 T10391061,,,,,,,,,,3/26/2007
USW00014939,2023-02-05T01:54:00,40.8508,-96.7475,362.7,"LINCOLN AIRPORT, NE US",FM-15,343,1016.6,-4.4,-2.2,0,,,,85,CLR:00,1017.3,973.7,16.093,-3,,,0,,,,,,,,,,,,,,,,,,,,,,,,,,,,,,,,,,,,,,,,,,,,,,,,,,,,,,,,,,,,,,,,,,,,,,,,,,,,,,,,,,,,,,,,,,,MET09202/05/23 01:54:02 METAR KLNK 050754Z 00000KT 10SM CLR M02/M04 A3002 RMK AO2 SLP173 T10221044,,,,,,,,,,3/26/2007
USW00014939,2023-02-05T02:54:00,40.8508,-96.7475,362.7,"LINCOLN AIRPORT, NE US",FM-15,343,1016.9,-6.1,-3.9,0,,0.7,1,85,CLR:00,1017.7,974,16.093,-4.6,240,,2.1,,,,,,,,,,,,,,,,,,,,,,,,,,,,,,,,,,,,,,,,,,,,,,,,,,,,,,,,,,,,,,,,,,,,,,,,,,,,,,,,,,,,,,,,,,,MET09802/05/23 02:54:02 METAR KLNK 050854Z 24004KT 10SM CLR M04/M06 A3003 RMK AO2 SLP177 T10391061 51007,,,,,,,,,,3/26/2007
USW00014939,2023-02-05T03:54:00,40.8508,-96.7475,362.7,"LINCOLN AIRPORT, NE US",FM-15,343,1016.9,-5,-2.8,0,,,,85,CLR:00,1017.7,974,16.093,-3.5,,,0,,,,,,,,,,,,,,,,,,,,,,,,,,,,,,,,,,,,,,,,,,,,,,,,,,,,,,,,,,,,,,,,,,,,,,,,,,,,,,,,,,,,,,,,,,,MET09202/05/23 03:54:02 METAR KLNK 050954Z 00000KT 10SM CLR M03/M05 A3003 RMK AO2 SLP177 T10281050,,,,,,,,,,3/26/2007
USW00014939,2023-02-05T04:54:00,40.8508,-96.7475,362.7,"LINCOLN AIRPORT, NE US",FM-15,343,1017.3,-5,-2.2,0,,,,81,CLR:00,1018.1,974.4,16.093,-3.2,,,0,,,,,,,,,,,,,,,,,,,,,,,,,,,,,,,,,,,,,,,,,,,,,,,,,,,,,,,,,,,,,,,,,,,,,,,,,,,,,,,,,,,,,,,,,,,MET09202/05/23 04:54:02 METAR KLNK 051054Z 00000KT 10SM CLR M02/M05 A3004 RMK AO2 SLP181 T10221050,,,,,,,,,,3/26/2007
USW00014939,2023-02-05T05:54:00,40.8508,-96.7475,362.7,"LINCOLN AIRPORT, NE US",FM-15,343,1017.3,-7.2,-5.6,0,,0.5,3,89,CLR:00,1018.5,974.4,16.093,-6.1,200,,2.1,,,,,,,,,,,,,,,,,,,,,,,,,,,,,,,,,,,,,,,,,,,,,,,,,,,,,,,,,,,,,,,,,,,,,,,,,,,,,,,,,,,,,,,,,,,MET11002/05/23 05:54:02 METAR KLNK 051154Z 20004KT 10SM CLR M06/M07 A3004 RMK AO2 SLP185 T10561072 10006 21056 53005,,,,,,,,,,3/26/2007
USW00014939,2023-02-05T06:00:00,40.8508,-96.7475,362.7,"LINCOLN AIRPORT, NE US",FM-12,223,,-7.2,-5.6,,,0.5,3,89,,1018.5,974.1,,-6.1,200,,2.1,,,,,,,,,,,,,,,,,,,,,,,,,,,,,,,,,,,,,,,,,,,,,,,,,,,,,,,,,,,,,,,,,,,,,,,,,,,,,,,,,,,,,,,,,,,SYN08072551 32966 02004 11056 21072 39741 40185 53005 91154 333 10100 21056 555 90512=,,,,,,,,,,3/26/2007
USW00014939,2023-02-05T06:54:00,40.8508,-96.7475,362.7,"LINCOLN AIRPORT, NE US",FM-15,343,1017.9,-4.4,-1.7,0,,,,82,CLR:00,1018.8,975,16.093,-2.7,250,,2.6,,,,,,,,,,,,,,,,,,,,,,,,,,,,,,,,,,,,,,,,,,,,,,,,,,,,,,,,,,,,,,,,,,,,,,,,,,,,,,,,,,,,,,,,,,,MET09202/05/23 06:54:02 METAR KLNK 051254Z 25005KT 10SM CLR M02/M04 A3006 RMK AO2 SLP188 T10171044,,,,,,,,,,3/26/2007
USW00014939,2023-02-05T07:54:00,40.8508,-96.7475,362.7,"LINCOLN AIRPORT, NE US",FM-15,343,1017.9,-6.1,-3.3,0,,,,81,CLR:00,1019.2,975,16.093,-4.3,210,,1.5,,,,,,,,,,,,,,,,,,,,,,,,,,,,,,,,,,,,,,,,,,,,,,,,,,,,,,,,,,,,,,,,,,,,,,,,,,,,,,,,,,,,,,,,,,,MET09202/05/23 07:54:02 METAR KLNK 051354Z 21003KT 10SM CLR M03/M06 A3006 RMK AO2 SLP192 T10331061,,,,,,,,,,3/26/2007
USW00014939,2023-02-05T08:54:00,40.8508,-96.7475,362.7,"LINCOLN AIRPORT, NE US",FM-15,343,1019,-2.8,0,0,,1.4,3,82,CLR:00,1020.1,976,16.093,-1,,,0,,,,,,,,,,,,,,,,,,,,,,,,,,,,,,,,,,,,,,,,,,,,,,,,,,,,,,,,,,,,,,,,,,,,,,,,,,,,,,,,,,,,,,,,,,,MET09702/05/23 08:54:02 METAR KLNK 051454Z 00000KT 10SM CLR 00/M03 A3009 RMK AO2 SLP201 T00001028 53014,,,,,,,,,,3/26/2007
USW00014939,2023-02-05T09:54:00,40.8508,-96.7475,362.7,"LINCOLN AIRPORT, NE US",FM-15,343,1019.3,-1.7,4.4,0,,,,65,CLR:00,1020.2,976.3,16.093,2,100,,1.5,,,,,,,,,,,,,,,,,,,,,,,,,,,,,,,,,,,,,,,,,,,,,,,,,,,,,,,,,,,,,,,,,,,,,,,,,,,,,,,,,,,,,,,,,,,MET09102/05/23 09:54:02 METAR KLNK 051554Z 10003KT 10SM CLR 04/M02 A3010 RMK AO2 SLP202 T00441017,,,,,,,,,,3/26/2007
USW00014939,2023-02-05T10:54:00,40.8508,-96.7475,362.7,"LINCOLN AIRPORT, NE US",FM-15,343,1019.6,-1.7,8.9,0,,,,48,CLR:00,1020.2,976.7,16.093,4.4,350,,2.6,,,,,,,,,,,,,,,,,,,,,,,,,,,,,,,,,,,,,,,,,,,,,,,,,,,,,,,,,,,,,,,,,,,,,,,,,,,,,,,,,,,,,,,,,,,MET09102/05/23 10:54:02 METAR KLNK 051654Z 35005KT 10SM CLR 09/M02 A3011 RMK AO2 SLP202 T00891017,,,,,,,,,,3/26/2007
USW00014939,2023-02-05T11:54:00,40.8508,-96.7475,362.7,"LINCOLN AIRPORT, NE US",FM-15,343,1019.6,-1.7,11.7,0,,0.5,0,40,CLR:00,1020.1,976.7,16.093,5.8,350,,3.6,,,,,,,,,,,,,,,,,,,,,,,,,,,,,,,,,,,,,,,,,,,,,,,,,,,,,,,,,,,,,,,,,,,,,,,,,,,,,,,,,,,,,,,,,,,MET10902/05/23 11:54:02 METAR KLNK 051754Z 35007KT 10SM CLR 12/M02 A3011 RMK AO2 SLP201 T01171017 10117 21061 50005,,,,,,,,,,3/26/2007
USW00014939,2023-02-05T12:00:00,40.8508,-96.7475,362.7,"LINCOLN AIRPORT, NE US",FM-12,223,,-1.7,11.7,,,0.5,9,40,,1020.1,976.4,,5.8,350,,3.6,,,,,,,,,,,,,,,,,,,,,,,,,,,,,,,,,,,,,,,,,,,,,,,,,,,,,,,,,,,,,,,,,,,,,,,,,,,,,,,,,,,,,,,,,,,SYN08072551 32966 03507 10117 21017 39764 40201 50005 91754 333 10117 21061 555 90518=,,,,,,,,,,3/26/2007
USW00014939,2023-02-05T12:54:00,40.8508,-96.7475,362.7,"LINCOLN AIRPORT, NE US",FM-15,343,1019,-1.7,11.7,0,,,,40,CLR:00,1019.6,976,16.093,5.8,350,,3.1,,,,,,,,,,,,,,,,,,,,,,,,,,,,,,,,,,,,,,,,,,,,,,,,,,,,,,,,,,,,,,,,,,,,,,,,,,,,,,,,,,,,,,,,,,,MET09602/05/23 12:54:02 METAR KLNK 051854Z 35006KT 10SM CLR 12/M02 A3009 RMK AO2 SLP196 T01171017 (CO),,,,,,,,,,3/26/2007
USW00014939,2023-02-05T13:54:00,40.8508,-96.7475,362.7,"LINCOLN AIRPORT, NE US",FM-15,343,1018.6,-1.7,12.2,0,,,,38,CLR:00,1019.3,975.7,16.093,6.1,340,,2.1,,,,,,,,,,,,,,,,,,,,,,,,,,,,,,,,,,,,,,,,,,,,,,,,,,,,,,,,,,,,,,,,,,,,,,,,,,,,,,,,,,,,,,,,,,,MET09602/05/23 13:54:02 METAR KLNK 051954Z 34004KT 10SM CLR 12/M02 A3008 RMK AO2 SLP193 T01221017 (CO),,,,,,,,,,3/26/2007
USW00014939,2023-02-05T14:54:00,40.8508,-96.7475,362.7,"LINCOLN AIRPORT, NE US",FM-15,343,1018.6,-1.7,12.8,0,,-0.8,6,37,CLR:00,1019.3,975.7,16.093,6.4,350,,2.6,,,,,,,,,,,,,,,,,,,,,,,,,,,,,,,,,,,,,,,,,,,,,,,,,,,,,,,,,,,,,,,,,,,,,,,,,,,,,,,,,,,,,,,,,,,MET10202/05/23 14:54:02 METAR KLNK 052054Z 35005KT 10SM CLR 13/M02 A3008 RMK AO2 SLP193 T01281017 56008 (CO),,,,,,,,,,3/26/2007
USW00014939,2023-02-05T15:54:00,40.8508,-96.7475,362.7,"LINCOLN AIRPORT, NE US",FM-15,343,1018.6,-2.8,12.8,0,,,,34,CLR:00,1019.3,975.7,16.093,6,340,,1.5,,,,,,,,,,,,,,,,,,,,,,,,,,,,,,,,,,,,,,,,,,,,,,,,,,,,,,,,,,,,,,,,,,,,,,,,,,,,,,,,,,,,,,,,,,,MET09602/05/23 15:54:02 METAR KLNK 052154Z 34003KT 10SM CLR 13/M03 A3008 RMK AO2 SLP193 T01281028 (CO),,,,,,,,,,3/26/2007
USW00014939,2023-02-05T16:54:00,40.8508,-96.7475,362.7,"LINCOLN AIRPORT, NE US",FM-15,343,1018.6,-1.1,8.9,0,,,,50,CLR:00,1019.3,975.7,16.093,4.6,50,,3.6,,,,,,,,,,,,,,,,,,,,,,,,,,,,,,,,,,,,,,,,,,,,,,,,,,,,,,,,,,,,,,,,,,,,,,,,,,,,,,,,,,,,,,,,,,,MET09602/05/23 16:54:02 METAR KLNK 052254Z 05007KT 10SM CLR 09/M01 A3008 RMK AO2 SLP193 T00891011 (CO),,,,,,,,,,3/26/2007
USW00014939,2023-02-05T17:54:00,40.8508,-96.7475,362.7,"LINCOLN AIRPORT, NE US",FM-15,343,1018.3,-2.2,4.4,0,,-0.4,8,63,CLR:00,1019.3,975.3,16.093,1.8,60,,4.1,,,,,,,,,,,,,,,,,,,,,,,,,,,,,,,,,,,,,,,,,,,,,,,,,,,,,,,,,,,,,,,,,,,,,,,,,,,,,,,,,,,,,,,,,,,MET11402/05/23 17:54:02 METAR KLNK 052354Z 06008KT 10SM CLR 04/M02 A3007 RMK AO2 SLP193 T00441022 10133 20044 58004 (CO),,,,,,,,,,3/26/2007
USW00014939,2023-02-05T18:00:00,40.8508,-96.7475,362.7,"LINCOLN AIRPORT, NE US",FM-12,223,,-2.2,4.4,,,-0.4,8,63,,1019.3,975.1,,1.8,60,,4.1,,,,,,,,,,,,,,,,,,,,,,,,,,,,,,,,,,,,,,,,,,,,,,,,,,,,,,,,,,,,,,,,,,,,,,,,,,,,,,,,,,,,,,,,,,,SYN08072551 32966 00608 10044 21022 39751 40193 58004 92354 333 10133 21055 555 90600=,,,,,,,,,,3/26/2007
USW00014939,2023-02-05T18:54:00,40.8508,-96.7475,362.7,"LINCOLN AIRPORT, NE US",FM-15,343,1017.9,-1.1,5,0,,,,65,CLR:00,1019.1,975,16.093,2.5,60,,1.5,,,,,,,,,,,,,,,,,,,,,,,,,,,,,,,,,,,,,,,,,,,,,,,,,,,,,,,,,,,,,,,,,,,,,,,,,,,,,,,,,,,,,,,,,,,MET09102/05/23 18:54:01 METAR KLNK 060054Z 06003KT 10SM CLR 05/M01 A3006 RMK AO2 SLP191 T00501011,,,,,,,,,,3/26/2007
USW00014939,2023-02-05T19:54:00,40.8508,-96.7475,362.7,"LINCOLN AIRPORT, NE US",FM-15,343,1018.3,-1.7,3.9,0,,,,67,CLR:00,1019.2,975.3,16.093,1.7,,,0,,,,,,,,,,,,,,,,,,,,,,,,,,,,,,,,,,,,,,,,,,,,,,,,,,,,,,,,,,,,,,,,,,,,,,,,,,,,,,,,,,,,,,,,,,,MET09102/05/23 19:54:01 METAR KLNK 060154Z 00000KT 10SM CLR 04/M02 A3007 RMK AO2 SLP192 T00391017,,,,,,,,,,3/26/2007
USW00014939,2023-02-05T20:54:00,40.8508,-96.7475,362.7,"LINCOLN AIRPORT, NE US",FM-15,343,1017.6,-3.3,0,0,,-0.5,8,79,CLR:00,1018.7,974.7,16.093,-1.2,,,0,,,,,,,,,,,,,,,,,,,,,,,,,,,,,,,,,,,,,,,,,,,,,,,,,,,,,,,,,,,,,,,,,,,,,,,,,,,,,,,,,,,,,,,,,,,MET09702/05/23 20:54:01 METAR KLNK 060254Z 00000KT 10SM CLR 00/M03 A3005 RMK AO2 SLP187 T00001033 58005,,,,,,,,,,3/26/2007
USW00014939,2023-02-05T21:54:00,40.8508,-96.7475,362.7,"LINCOLN AIRPORT, NE US",FM-15,343,1016.9,-3.9,-1.1,0,,,,82,CLR:00,1017.9,974,16.093,-2.1,340,,2.1,,,,,,,,,,,,,,,,,,,,,,,,,,,,,,,,,,,,,,,,,,,,,,,,,,,,,,,,,,,,,,,,,,,,,,,,,,,,,,,,,,,,,,,,,,,MET09202/05/23 21:54:01 METAR KLNK 060354Z 34004KT 10SM CLR M01/M04 A3003 RMK AO2 SLP179 T10111039,,,,,,,,,,3/26/2007
USW00014939,2023-02-05T22:54:00,40.8508,-96.7475,362.7,"LINCOLN AIRPORT, NE US",FM-15,343,1016.3,-3.9,-1.7,0,,,,85,CLR:00,1017.1,973.4,16.093,-2.5,,,0,,,,,,,,,,,,,,,,,,,,,,,,,,,,,,,,,,,,,,,,,,,,,,,,,,,,,,,,,,,,,,,,,,,,,,,,,,,,,,,,,,,,,,,,,,,MET09202/05/23 22:54:02 METAR KLNK 060454Z 00000KT 10SM CLR M02/M04 A3001 RMK AO2 SLP171 T10171039,,,,,,,,,,3/26/2007
USW00014939,2023-02-05T23:54:00,40.8508,-96.7475,362.7,"LINCOLN AIRPORT, NE US",FM-15,343,1016.3,-5.6,-3.3,0,,-1.3,6,84,CLR:00,1016.9,973.4,16.093,-4.1,,,0,,,,,,,,,,,,,,,,,,,,,,,,,,,,,,,,,,,,,,,,,,,,,,,,,,,,,,,,,,,,,,,,,,,,,,,,,,,,,,,,,,,,,,,,,,,MET12002/05/23 23:54:02 METAR KLNK 060554Z 00000KT 10SM CLR M03/M06 A3001 RMK AO2 SLP169 T10331056 10061 21039 401331061 56013,,,,,,,,,,3/26/2007
USW00014939,2023-02-06T00:00:00,40.8508,-96.7475,362.7,"LINCOLN AIRPORT, NE US",FM-12,223,,-5.6,-3.3,,,-1.3,6,84,,1016.9,973.1,,-4.1,,,0,,,,,,,,,,,,,,,,,,,,,,,,,,,,,,,,,,,,,,,,,,,,,,,,,,,,,,,,,,,,,,,,,,,,,,,,,,,,,,,,,,,,,,,,,,,SYN08072551 35966 00000 11033 21056 39731 40169 56013 90554 333 10061 21056 555 90606=,,,,,,,,,,3/26/2007
USW00014939,2023-02-06T00:00:00,40.8508,-96.7475,362.7,"LINCOLN AIRPORT, NE US",SOD,,,,,,,,,,,,,,,,,,733,1749,-0.6,2.6,71,1009.1,965.8,2.8,4.4,0,5.43,15.7,10,-4.9,300,11.6,0,0,0,300,8.1,,,,,,,,,,,,,,,,,,,,,,,,,,,,,,,,,,,,,,,,,,,,,,,,,,,,,,,,,,,,,,,,,,,,,,,,,,,,,,,,3/26/2007
USW00014939,2023-02-06T00:54:00,40.8508,-96.7475,362.7,"LINCOLN AIRPORT, NE US",FM-15,343,1015.6,-5,-2.8,0,,,,85,CLR:00,1016.2,972.7,16.093,-3.5,,,0,,,,,,,,,,,,,,,,,,,,,,,,,,,,,,,,,,,,,,,,,,,,,,,,,,,,,,,,,,,,,,,,,,,,,,,,,,,,,,,,,,,,,,,,,,,MET09202/06/23 00:54:02 METAR KLNK 060654Z 00000KT 10SM CLR M03/M05 A2999 RMK AO2 SLP162 T10281050,,,,,,,,,,3/26/2007
USW00014939,2023-02-06T01:54:00,40.8508,-96.7475,362.7,"LINCOLN AIRPORT, NE US",FM-15,343,1014.2,-6.7,-5,0,,,,88,CLR:00,1015,971.4,16.093,-5.5,,,0,,,,,,,,,,,,,,,,,,,,,,,,,,,,,,,,,,,,,,,,,,,,,,,,,,,,,,,,,,,,,,,,,,,,,,,,,,,,,,,,,,,,,,,,,,,MET09202/06/23 01:54:02 METAR KLNK 060754Z 00000KT 10SM CLR M05/M07 A2995 RMK AO2 SLP150 T10501067,,,,,,,,,,3/26/2007
USW00014939,2023-02-06T02:54:00,40.8508,-96.7475,362.7,"LINCOLN AIRPORT, NE US",FM-15,343,1013.2,-3.3,1.1,0,,-2.8,8,73,CLR:00,1013.7,970.4,16.093,-0.6,150,,2.6,,,,,,,,,,,,,,,,,,,,,,,,,,,,,,,,,,,,,,,,,,,,,,,,,,,,,,,,,,,,,,,,,,,,,,,,,,,,,,,,,,,,,,,,,,,MET09702/06/23 02:54:02 METAR KLNK 060854Z 15005KT 10SM CLR 01/M03 A2992 RMK AO2 SLP137 T00111033 58028,,,,,,,,,,3/26/2007
USW00014939,2023-02-06T03:54:00,40.8508,-96.7475,362.7,"LINCOLN AIRPORT, NE US",FM-15,343,1011.9,-3.9,1.1,0,,,,70,CLR:00,1012.3,969.1,16.093,-0.8,130,,2.1,,,,,,,,,,,,,,,,,,,,,,,,,,,,,,,,,,,,,,,,,,,,,,,,,,,,,,,,,,,,,,,,,,,,,,,,,,,,,,,,,,,,,,,,,,,MET09102/06/23 03:54:02 METAR KLNK 060954Z 13004KT 10SM CLR 01/M04 A2988 RMK AO2 SLP123 T00111039,,,,,,,,,,3/26/2007
USW00014939,2023-02-06T04:54:00,40.8508,-96.7475,362.7,"LINCOLN AIRPORT, NE US",FM-15,343,1010.8,-2.8,2.2,0,,,,70,CLR:00,1011.5,968.2,16.093,0.3,130,,3.6,,,,,,,,,,,,,,,,,,,,,,,,,,,,,,,,,,,,,,,,,,,,,,,,,,,,,,,,,,,,,,,,,,,,,,,,,,,,,,,,,,,,,,,,,,,MET09102/06/23 04:54:02 METAR KLNK 061054Z 13007KT 10SM CLR 02/M03 A2985 RMK AO2 SLP115 T00221028,,,,,,,,,,3/26/2007
USW00014939,2023-02-06T05:54:00,40.8508,-96.7475,362.7,"LINCOLN AIRPORT, NE US",FM-15,343,1009.5,-2.8,2.8,0,,-3.9,8,67,CLR:00,1009.9,966.8,16.093,0.6,140,,5.7,,,,,,,,,,,,,,,,,,,,,,,,,,,,,,,,,,,,,,,,,,,,,,,,,,,,,,,,,,,,,,,,,,,,,,,,,,,,,,,,,,,,,,,,,,,MET11402/06/23 05:54:02 METAR KLNK 061154Z 14011KT 10SM CLR 03/M03 A2981 RMK AO2 SLP099 T00281028 10028 21050 58039 (CD),,,,,,,,,,3/26/2007
USW00014939,2023-02-06T06:00:00,40.8508,-96.7475,362.7,"LINCOLN AIRPORT, NE US",FM-12,223,,-2.8,2.8,,,-3.9,8,67,,1009.9,966.6,,0.6,140,,5.7,,,,,,,,,,,,,,,,,,,,,,,,,,,,,,,,,,,,,,,,,,,,,,,,,,,,,,,,,,,,,,,,,,,,,,,,,,,,,,,,,,,,,,,,,,,SYN08072551 32966 01411 10028 21028 39666 40099 58039 91154 333 10133 21050 555 90612=,,,,,,,,,,3/26/2007
USW00014939,2023-02-06T06:54:00,40.8508,-96.7475,362.7,"LINCOLN AIRPORT, NE US",FM-15,343,1008.1,-2.2,3.9,0,,,,65,CLR:00,1008.6,965.5,16.093,1.4,140,,5.7,,,,,,,,,,,,,,,,,,,,,,,,,,,,,,,,,,,,,,,,,,,,,,,,,,,,,,,,,,,,,,,,,,,,,,,,,,,,,,,,,,,,,,,,,,,MET09602/06/23 06:54:02 METAR KLNK 061254Z 14011KT 10SM CLR 04/M02 A2977 RMK AO2 SLP086 T00391022 (CD),,,,,,,,,,3/26/2007
USW00014939,2023-02-06T07:54:00,40.8508,-96.7475,362.7,"LINCOLN AIRPORT, NE US",FM-15,343,1007.5,-2.2,3.3,0,,,,68,CLR:00,1008,964.9,16.093,1.1,60,,2.6,,,,,,,,,,,,,,,,,,,,,,,,,,,,,,,,,,,,,,,,,,,,,,,,,,,,,,,,,,,,,,,,,,,,,,,,,,,,,,,,,,,,,,,,,,,MET09602/06/23 07:54:02 METAR KLNK 061354Z 06005KT 10SM CLR 03/M02 A2975 RMK AO2 SLP080 T00331022 (CD),,,,,,,,,,3/26/2007
USW00014939,2023-02-06T08:54:00,40.8508,-96.7475,362.7,"LINCOLN AIRPORT, NE US",FM-15,343,1006.1,-1.1,3.9,0,,-3,6,70,CLR:00,1007,963.6,16.093,1.8,110,,2.1,,,,,,,,,,,,,,,,,,,,,,,,,,,,,,,,,,,,,,,,,,,,,,,,,,,,,,,,,,,,,,,,,,,,,,,,,,,,,,,,,,,,,,,,,,,MET10202/06/23 08:54:02 METAR KLNK 061454Z 11004KT 10SM CLR 04/M01 A2971 RMK AO2 SLP070 T00391011 56030 (CD),,,,,,,,,,3/26/2007
USW00014939,2023-02-06T09:37:00,40.8508,-96.7475,362.7,"LINCOLN AIRPORT, NE US",FM-16,343,1005.1,0.6,6.7,,,,,65,BKN:07 8.23,,962.6,16.093,4,140,,5.7,,,,,,,,,,,,,,,,,,,,,,,,,,,,,,,,,,,,,,,,,,,,,,,,,,,,,,,,,,,,,,,,,,,,,,,,,,,,,,,,,,,,,,,,,,,MET09102/06/23 09:37:02 SPECI KLNK 061537Z 14011KT 10SM BKN027 07/01 A2968 RMK AO2 T00670006 (CD),,,,,,,,,,3/26/2007
USW00014939,2023-02-06T09:52:00,40.8508,-96.7475,362.7,"LINCOLN AIRPORT, NE US",FM-16,343,1004.7,1,7,,,,,66,SCT:04 8.23,,962.3,16.093,4.5,160,,5.1,,,,,,,,,,,,,,,,,,,,,,,,,,,,,,,,,,,,,,,,,,,,,,,,,,,,,,,,,,,,,,,,,,,,,,,,,,,,,,,,,,,,,,,,,,,MET08602/06/23 09:52:02 SPECI KLNK 061552Z 16010KT 10SM SCT027 07/01 A2967 RMK AO2 FIBI (CD),,,,,,,,,,3/26/2007
USW00014939,2023-02-06T09:54:00,40.8508,-96.7475,362.7,"LINCOLN AIRPORT, NE US",FM-15,343,1004.7,1.1,6.7,0,,,,68,SCT:04 8.23,1005.6,962.3,16.093,4.2,160,,4.1,,,,,,,,,,,,,,,,,,,,,,,,,,,,,,,,,,,,,,,,,,,,,,,,,,,,,,,,,,,,,,,,,,,,,,,,,,,,,,,,,,,,,,,,,,,MET09802/06/23 09:54:02 METAR KLNK 061554Z 16008KT 10SM SCT027 07/01 A2967 RMK AO2 SLP056 T00670011 (CD),,,,,,,,,,3/26/2007
USW00014939,2023-02-06T10:07:00,40.8508,-96.7475,362.7,"LINCOLN AIRPORT, NE US",FM-16,343,1004.7,1.7,7.8,,,,,66,BKN:07 7.01,,962.3,16.093,5,160,,5.7,,,,,,,,,,,,,,,,,,,,,,,,,,,,,,,,,,,,,,,,,,,,,,,,,,,,,,,,,,,,,,,,,,,,,,,,,,,,,,,,,,,,,,,,,,,MET09102/06/23 10:07:02 SPECI KLNK 061607Z 16011KT 10SM BKN023 08/02 A2967 RMK AO2 T00780017 (CD),,,,,,,,,,3/26/2007
USW00014939,2023-02-06T10:54:00,40.8508,-96.7475,362.7,"LINCOLN AIRPORT, NE US",FM-15,343,1004.4,3.3,8.3,0,,,,71,OVC:08 6.1,1005.1,961.9,16.093,6,180,,6.2,,,,,,,,,,,,,,,,,,,,,,,,,,,,,,,,,,,,,,,,,,,,,,,,,,,,,,,,,,,,,,,,,,,,,,,,,,,,,,,,,,,,,,,,,,,MET09802/06/23 10:54:02 METAR KLNK 061654Z 18012KT 10SM OVC020 08/03 A2966 RMK AO2 SLP051 T00830033 (CD),,,,,,,,,,3/26/2007
USW00014939,2023-02-06T11:54:00,40.8508,-96.7475,362.7,"LINCOLN AIRPORT, NE US",FM-15,343,1003.4,3.9,9.4,0,,-2.7,6,69,OVC:08 6.1,1004,961,16.093,6.8,200,,4.6,,,,,,,,,,,,,,,,,,,,,,,,,,,,,,,,,,,,,,,,,,,,,,,,,,,,,,,,,,,,,,,,,,,,,,,,,,,,,,,,,,,,,,,,,,,MET11602/06/23 11:54:02 METAR KLNK 061754Z 20009KT 10SM OVC020 09/04 A2963 RMK AO2 SLP040 T00940039 10094 20028 56027 (CD),,,,,,,,,,3/26/2007
USW00014939,2023-02-06T12:00:00,40.8508,-96.7475,362.7,"LINCOLN AIRPORT, NE US",FM-12,223,,3.9,9.4,,,-2.7,6,69,,1004,960.7,,6.8,200,,4.6,,,,,,,,,,,,,,,,,,,,,,,,,,,,,,,,,,,,,,,,,,,,,,,,,,,,,,,,,,,,,,,,,,,,,,,,,,,,,,,,,,,,,,,,,,,SYN08072551 32566 82009 10094 20039 39607 40040 56027 91754 333 10094 20028 555 90618=,,,,,,,,,,3/26/2007
USW00014939,2023-02-06T12:54:00,40.8508,-96.7475,362.7,"LINCOLN AIRPORT, NE US",FM-15,343,1002.7,4.4,8.9,0,,,,74,OVC:08 6.1,1003.4,960.3,16.093,6.8,230,,4.6,,,,,,,,,,,,,,,,,,,,,,,,,,,,,,,,,,,,,,,,,,,,,,,,,,,,,,,,,,,,,,,,,,,,,,,,,,,,,,,,,,,,,,,,,,,MET09802/06/23 12:54:02 METAR KLNK 061854Z 23009KT 10SM OVC020 09/04 A2961 RMK AO2 SLP034 T00890044 (CD),,,,,,,,,,3/26/2007
USW00014939,2023-02-06T13:54:00,40.8508,-96.7475,362.7,"LINCOLN AIRPORT, NE US",FM-15,343,1002.7,3.9,8.9,0,,,,71,OVC:08 6.1,1003.3,960.3,16.093,6.5,250,,5.7,,,,,,,,,,,,,,,,,,,,,,,,,,,,,,,,,,,,,,,,,,,,,,,,,,,,,,,,,,,,,,,,,,,,,,,,,,,,,,,,,,,,,,,,,,,MET09802/06/23 13:54:02 METAR KLNK 061954Z 25011KT 10SM OVC020 09/04 A2961 RMK AO2 SLP033 T00890039 (CD),,,,,,,,,,3/26/2007
USW00014939,2023-02-06T14:54:00,40.8508,-96.7475,362.7,"LINCOLN AIRPORT, NE US",FM-15,343,1003,2.8,7.8,0,,-0.2,5,71,OVC:08 6.4,1003.7,960.6,16.093,5.5,270,,5.7,,,,,,,,,,,,,,,,,,,,,,,,,,,,,,,,,,,,,,,,,,,,,,,,,,,,,,,,,,,,,,,,,,,,,,,,,,,,,,,,,,,,,,,,,,,MET10402/06/23 14:54:02 METAR KLNK 062054Z 27011KT 10SM OVC021 08/03 A2962 RMK AO2 SLP037 T00780028 55002 (HT),,,,,,,,,,3/26/2007
USW00014939,2023-02-06T15:54:00,40.8508,-96.7475,362.7,"LINCOLN AIRPORT, NE US",FM-15,343,1004.1,2.8,8.3,0,,,,69,SCT:04 6.4 OVC:08 7.92,1004.6,961.6,16.093,5.8,270,,4.1,,,,,,,,,,,,,,,,,,,,,,,,,,,,,,,,,,,,,,,,,,,,,,,,,,,,,,,,,,,,,,,,,,,,,,,,,,,,,,,,,,,,,,,,,,,MET10502/06/23 15:54:02 METAR KLNK 062154Z 27008KT 10SM SCT021 OVC026 08/03 A2965 RMK AO2 SLP046 T00830028 (AC),,,,,,,,,,3/26/2007
USW00014939,2023-02-06T16:32:00,40.8508,-96.7475,362.7,"LINCOLN AIRPORT, NE US",FM-16,343,1005.1,1.1,9.4,,,,,56,BKN:07 9.14,,962.6,16.093,5.7,300,10.3,7.7,,,,,,,,,,,,,,,,,,,,,,,,,,,,,,,,,,,,,,,,,,,,,,,,,,,,,,,,,,,,,,,,,,,,,,,,,,,,,,,,,,,,,,,,,,,MET09402/06/23 16:32:02 SPECI KLNK 062232Z 30015G20KT 10SM BKN030 09/01 A2968 RMK AO2 T00940011 (AC),,,,,,,,,,3/26/2007
USW00014939,2023-02-06T16:54:00,40.8508,-96.7475,362.7,"LINCOLN AIRPORT, NE US",FM-15,343,1005.8,0.6,8.3,0,,,,59,CLR:00,1006.1,963.2,16.093,4.9,280,,6.7,,,,,,,,,,,,,,,,,,,,,,,,,,,,,,,,,,,,,,,,,,,,,,,,,,,,,,,,,,,,,,,,,,,,,,,,,,,,,,,,,,,,,,,,,,,MET09502/06/23 16:54:02 METAR KLNK 062254Z 28013KT 10SM CLR 08/01 A2970 RMK AO2 SLP061 T00830006 (AC),,,,,,,,,,3/26/2007
USW00014939,2023-02-06T17:54:00,40.8508,-96.7475,362.7,"LINCOLN AIRPORT, NE US",FM-15,343,1007.1,-0.6,6.1,0,,3.9,3,63,CLR:00,1007.7,964.6,16.093,3.3,300,,6.7,,,,,,,,,,,,,,,,,,,,,,,,,,,,,,,,,,,,,,,,,,,,,,,,,,,,,,,,,,,,,,,,,,,,,,,,,,,,,,,,,,,,,,,,,,,MET11402/06/23 17:54:02 METAR KLNK 062354Z 30013KT 10SM CLR 06/M01 A2974 RMK AO2 SLP077 T00611006 10100 20061 53039 (AC),,,,,,,,,,3/26/2007
USW00014939,2023-02-06T18:00:00,40.8508,-96.7475,362.7,"LINCOLN AIRPORT, NE US",FM-12,223,,-0.6,6.1,,,3.9,3,63,,1007.7,964.3,,3.3,300,,6.7,,,,,,,,,,,,,,,,,,,,,,,,,,,,,,,,,,,,,,,,,,,,,,,,,,,,,,,,,,,,,,,,,,,,,,,,,,,,,,,,,,,,,,,,,,,SYN08072551 32966 03013 10061 21006 39643 40077 53039 92354 333 10100 21049 555 90700=,,,,,,,,,,3/26/2007
USW00014939,2023-02-06T18:54:00,40.8508,-96.7475,362.7,"LINCOLN AIRPORT, NE US",FM-15,343,1008.5,0,5,0,,,,70,CLR:00,1009.2,965.9,16.093,2.9,290,,4.6,,,,,,,,,,,,,,,,,,,,,,,,,,,,,,,,,,,,,,,,,,,,,,,,,,,,,,,,,,,,,,,,,,,,,,,,,,,,,,,,,,,,,,,,,,,MET09002/06/23 18:54:01 METAR KLNK 070054Z 29009KT 10SM CLR 05/00 A2978 RMK AO2 SLP092 T00500000,,,,,,,,,,3/26/2007
USW00014939,2023-02-06T19:54:00,40.8508,-96.7475,362.7,"LINCOLN AIRPORT, NE US",FM-15,343,1009.5,0.6,4.4,0,,,,77,BKN:07 33.53,1010.1,966.8,16.093,2.8,260,,4.6,,,,,,,,,,,,,,,,,,,,,,,,,,,,,,,,,,,,,,,,,,,,,,,,,,,,,,,,,,,,,,,,,,,,,,,,,,,,,,,,,,,,,,,,,,,MET09302/06/23 19:54:01 METAR KLNK 070154Z 26009KT 10SM BKN110 04/01 A2981 RMK AO2 SLP101 T00440006,,,,,,,,,,3/26/2007
USW00014939,2023-02-06T20:54:00,40.8508,-96.7475,362.7,"LINCOLN AIRPORT, NE US",FM-15,343,1011.2,0.6,5,0,,3.8,3,73,SCT:04 36.58,1011.7,968.5,16.093,3.1,270,,6.2,,,,,,,,,,,,,,,,,,,,,,,,,,,,,,,,,,,,,,,,,,,,,,,,,,,,,,,,,,,,,,,,,,,,,,,,,,,,,,,,,,,,,,,,,,,MET09902/06/23 20:54:01 METAR KLNK 070254Z 27012KT 10SM SCT120 05/01 A2986 RMK AO2 SLP117 T00500006 53038,,,,,,,,,,3/26/2007
USW00014939,2023-02-06T21:54:00,40.8508,-96.7475,362.7,"LINCOLN AIRPORT, NE US",FM-15,343,1012.2,0,3.3,0,,,,79,SCT:04 33.53,1012.8,969.5,16.093,2,260,,5.1,,,,,,,,,,,,,,,,,,,,,,,,,,,,,,,,,,,,,,,,,,,,,,,,,,,,,,,,,,,,,,,,,,,,,,,,,,,,,,,,,,,,,,,,,,,MET09302/06/23 21:54:01 METAR KLNK 070354Z 26010KT 10SM SCT110 03/00 A2989 RMK AO2 SLP128 T00330000,,,,,,,,,,3/26/2007
USW00014939,2023-02-06T22:54:00,40.8508,-96.7475,362.7,"LINCOLN AIRPORT, NE US",FM-15,343,1013.2,0,3.9,0,,,,76,CLR:00,1013.7,970.4,16.093,2.3,280,,5.7,,,,,,,,,,,,,,,,,,,,,,,,,,,,,,,,,,,,,,,,,,,,,,,,,,,,,,,,,,,,,,,,,,,,,,,,,,,,,,,,,,,,,,,,,,,MET09002/06/23 22:54:02 METAR KLNK 070454Z 28011KT 10SM CLR 04/00 A2992 RMK AO2 SLP137 T00390000,,,,,,,,,,3/26/2007
USW00014939,2023-02-06T23:54:00,40.8508,-96.7475,362.7,"LINCOLN AIRPORT, NE US",FM-15,343,1014.2,0,3.9,0,,3,1,76,CLR:00,1014.6,971.4,16.093,2.3,300,,6.2,,,,,,,,,,,,,,,,,,,,,,,,,,,,,,,,,,,,,,,,,,,,,,,,,,,,,,,,,,,,,,,,,,,,,,,,,,,,,,,,,,,,,,,,,,,MET11802/06/23 23:54:02 METAR KLNK 070554Z 30012KT 10SM CLR 04/00 A2995 RMK AO2 SLP146 T00390000 10061 20033 401001050 51030,,,,,,,,,,3/26/2007
USW00014939,2023-02-07T00:00:00,40.8508,-96.7475,362.7,"LINCOLN AIRPORT, NE US",FM-12,223,,0,3.9,,,3,1,76,,1014.6,971.2,,2.3,300,,6.2,,,,,,,,,,,,,,,,,,,,,,,,,,,,,,,,,,,,,,,,,,,,,,,,,,,,,,,,,,,,,,,,,,,,,,,,,,,,,,,,,,,,,,,,,,,SYN08072551 35966 03012 10039 20000 39712 40146 51030 90554 333 10061 21049 555 90706=,,,,,,,,,,3/26/2007
USW00014939,2023-02-07T00:00:00,40.8508,-96.7475,362.7,"LINCOLN AIRPORT, NE US",SOD,,,,,,,,,,,,,,,,,,732,1750,-4.4,4,58,1022.4,979.3,0.6,3.2,0,6.72,14.3,11.7,-3.8,310,12.1,0,0,0,320,8.9,,,,,,,,,,,,,,,,,,,,,,,,,,,,,,,,,,,,,,,,,,,,,,,,,,,,,,,,,,,,,,,,,,,,,,,,,,,,,,,,3/26/2007
USW00014939,2023-02-07T00:54:00,40.8508,-96.7475,362.7,"LINCOLN AIRPORT, NE US",FM-15,343,1014.6,-0.6,3.9,0,,,,73,CLR:00,1015.1,971.8,16.093,2.1,310,11.8,8.2,,,,,,,,,,,,,,,,,,,,,,,,,,,,,,,,,,,,,,,,,,,,,,,,,,,,,,,,,,,,,,,,,,,,,,,,,,,,,,,,,,,,,,,,,,,MET09402/07/23 00:54:02 METAR KLNK 070654Z 31016G23KT 10SM CLR 04/M01 A2996 RMK AO2 SLP151 T00391006,,,,,,,,,,3/26/2007
USW00014939,2023-02-07T01:54:00,40.8508,-96.7475,362.7,"LINCOLN AIRPORT, NE US",FM-15,343,1014.9,-1.1,3.3,0,,,,73,CLR:00,1015.5,972.1,16.093,1.5,300,,6.7,,,,,,,,,,,,,,,,,,,,,,,,,,,,,,,,,,,,,,,,,,,,,,,,,,,,,,,,,,,,,,,,,,,,,,,,,,,,,,,,,,,,,,,,,,,MET09102/07/23 01:54:02 METAR KLNK 070754Z 30013KT 10SM CLR 03/M01 A2997 RMK AO2 SLP155 T00331011,,,,,,,,,,3/26/2007
USW00014939,2023-02-07T02:54:00,40.8508,-96.7475,362.7,"LINCOLN AIRPORT, NE US",FM-15,343,1015.9,-1.7,3.3,0,,1.8,3,70,CLR:00,1016.6,973.1,16.093,1.3,310,,6.2,,,,,,,,,,,,,,,,,,,,,,,,,,,,,,,,,,,,,,,,,,,,,,,,,,,,,,,,,,,,,,,,,,,,,,,,,,,,,,,,,,,,,,,,,,,MET09702/07/23 02:54:02 METAR KLNK 070854Z 31012KT 10SM CLR 03/M02 A3000 RMK AO2 SLP166 T00331017 53018,,,,,,,,,,3/26/2007
USW00014939,2023-02-07T03:54:00,40.8508,-96.7475,362.7,"LINCOLN AIRPORT, NE US",FM-15,343,1017.3,-2.2,2.2,0,,,,73,CLR:00,1017.8,974.4,16.093,0.5,310,,4.1,,,,,,,,,,,,,,,,,,,,,,,,,,,,,,,,,,,,,,,,,,,,,,,,,,,,,,,,,,,,,,,,,,,,,,,,,,,,,,,,,,,,,,,,,,,MET09102/07/23 03:54:02 METAR KLNK 070954Z 31008KT 10SM CLR 02/M02 A3004 RMK AO2 SLP178 T00221022,,,,,,,,,,3/26/2007
USW00014939,2023-02-07T04:54:00,40.8508,-96.7475,362.7,"LINCOLN AIRPORT, NE US",FM-15,343,1018.3,-2.8,1.7,0,,,,72,CLR:00,1018.8,975.3,16.093,0,310,,4.6,,,,,,,,,,,,,,,,,,,,,,,,,,,,,,,,,,,,,,,,,,,,,,,,,,,,,,,,,,,,,,,,,,,,,,,,,,,,,,,,,,,,,,,,,,,MET09102/07/23 04:54:02 METAR KLNK 071054Z 31009KT 10SM CLR 02/M03 A3007 RMK AO2 SLP188 T00171028,,,,,,,,,,3/26/2007
USW00014939,2023-02-07T05:54:00,40.8508,-96.7475,362.7,"LINCOLN AIRPORT, NE US",FM-15,343,1019,-3.3,1.1,0,,2.7,1,73,CLR:00,1019.6,976,16.093,-0.6,300,,5.1,,,,,,,,,,,,,,,,,,,,,,,,,,,,,,,,,,,,,,,,,,,,,,,,,,,,,,,,,,,,,,,,,,,,,,,,,,,,,,,,,,,,,,,,,,,MET10902/07/23 05:54:02 METAR KLNK 071154Z 30010KT 10SM CLR 01/M03 A3009 RMK AO2 SLP196 T00111033 10039 20011 51027,,,,,,,,,,3/26/2007
USW00014939,2023-02-07T06:00:00,40.8508,-96.7475,362.7,"LINCOLN AIRPORT, NE US",FM-12,223,,-3.3,1.1,,,2.7,1,73,,1019.6,975.8,,-0.6,300,,5.1,,,,,,,,,,,,,,,,,,,,,,,,,,,,,,,,,,,,,,,,,,,,,,,,,,,,,,,,,,,,,,,,,,,,,,,,,,,,,,,,,,,,,,,,,,,SYN08072551 32966 03010 10011 21033 39758 40196 51027 91154 333 10100 20011 555 90712=,,,,,,,,,,3/26/2007
USW00014939,2023-02-07T06:54:00,40.8508,-96.7475,362.7,"LINCOLN AIRPORT, NE US",FM-15,343,1020,-4.4,0.6,0,,,,70,CLR:00,1020.7,977,16.093,-1.3,300,,3.6,,,,,,,,,,,,,,,,,,,,,,,,,,,,,,,,,,,,,,,,,,,,,,,,,,,,,,,,,,,,,,,,,,,,,,,,,,,,,,,,,,,,,,,,,,,MET09602/07/23 06:54:02 METAR KLNK 071254Z 30007KT 10SM CLR 01/M04 A3012 RMK AO2 SLP207 T00061044 (RT),,,,,,,,,,3/26/2007
USW00014939,2023-02-07T07:54:00,40.8508,-96.7475,362.7,"LINCOLN AIRPORT, NE US",FM-15,343,1021,-5,0.6,0,,,,66,CLR:00,1022,978,16.093,-1.5,310,,5.1,,,,,,,,,,,,,,,,,,,,,,,,,,,,,,,,,,,,,,,,,,,,,,,,,,,,,,,,,,,,,,,,,,,,,,,,,,,,,,,,,,,,,,,,,,,MET09602/07/23 07:54:02 METAR KLNK 071354Z 31010KT 10SM CLR 01/M05 A3015 RMK AO2 SLP220 T00061050 (RT),,,,,,,,,,3/26/2007
USW00014939,2023-02-07T08:54:00,40.8508,-96.7475,362.7,"LINCOLN AIRPORT, NE US",FM-15,343,1022.4,-4.4,2.2,0,,3.2,3,62,CLR:00,1022.9,979.3,16.093,-0.3,310,,4.1,,,,,,,,,,,,,,,,,,,,,,,,,,,,,,,,,,,,,,,,,,,,,,,,,,,,,,,,,,,,,,,,,,,,,,,,,,,,,,,,,,,,,,,,,,,MET10202/07/23 08:54:02 METAR KLNK 071454Z 31008KT 10SM CLR 02/M04 A3019 RMK AO2 SLP229 T00221044 53032 (RT),,,,,,,,,,3/26/2007
USW00014939,2023-02-07T09:54:00,40.8508,-96.7475,362.7,"LINCOLN AIRPORT, NE US",FM-15,343,1023,-5,3.9,0,,,,53,CLR:00,1023.6,979.9,16.093,0.5,340,,6.2,,,,,,,,,,,,,,,,,,,,,,,,,,,,,,,,,,,,,,,,,,,,,,,,,,,,,,,,,,,,,,,,,,,,,,,,,,,,,,,,,,,,,,,,,,,MET09602/07/23 09:54:02 METAR KLNK 071554Z 34012KT 10SM CLR 04/M05 A3021 RMK AO2 SLP236 T00391050 (RT),,,,,,,,,,3/26/2007
USW00014939,2023-02-07T10:54:00,40.8508,-96.7475,362.7,"LINCOLN AIRPORT, NE US",FM-15,343,1024,-6.1,5.6,0,,,,43,CLR:00,1024.5,980.9,16.093,1.2,320,,3.1,,,,,,,,,,,,,,,,,,,,,,,,,,,,,,,,,,,,,,,,,,,,,,,,,,,,,,,,,,,,,,,,,,,,,,,,,,,,,,,,,,,,,,,,,,,MET09602/07/23 10:54:02 METAR KLNK 071654Z 32006KT 10SM CLR 06/M06 A3024 RMK AO2 SLP245 T00561061 (RT),,,,,,,,,,3/26/2007
USW00014939,2023-02-07T11:54:00,40.8508,-96.7475,362.7,"LINCOLN AIRPORT, NE US",FM-15,343,1024,-7.8,7.2,0,,1.8,1,34,CLR:00,1024.7,980.9,16.093,1.7,340,,3.6,,,,,,,,,,,,,,,,,,,,,,,,,,,,,,,,,,,,,,,,,,,,,,,,,,,,,,,,,,,,,,,,,,,,,,,,,,,,,,,,,,,,,,,,,,,MET11402/07/23 11:54:02 METAR KLNK 071754Z 34007KT 10SM CLR 07/M08 A3024 RMK AO2 SLP247 T00721078 10078 20000 51018 (RT),,,,,,,,,,3/26/2007
USW00014939,2023-02-07T12:00:00,40.8508,-96.7475,362.7,"LINCOLN AIRPORT, NE US",FM-12,223,,-7.8,7.2,,,1.8,1,34,,1024.7,980.7,,1.7,340,,3.6,,,,,,,,,,,,,,,,,,,,,,,,,,,,,,,,,,,,,,,,,,,,,,,,,,,,,,,,,,,,,,,,,,,,,,,,,,,,,,,,,,,,,,,,,,,SYN08072551 32966 03407 10072 21078 39807 40247 51018 91754 333 10078 20000 555 90718=,,,,,,,,,,3/26/2007
USW00014939,2023-02-07T12:54:00,40.8508,-96.7475,362.7,"LINCOLN AIRPORT, NE US",FM-15,343,1023.4,-5,8.9,0,,,,37,CLR:00,1023.9,980.3,16.093,3.4,300,,4.1,,,,,,,,,,,,,,,,,,,,,,,,,,,,,,,,,,,,,,,,,,,,,,,,,,,,,,,,,,,,,,,,,,,,,,,,,,,,,,,,,,,,,,,,,,,MET09602/07/23 12:54:02 METAR KLNK 071854Z 30008KT 10SM CLR 09/M05 A3022 RMK AO2 SLP239 T00891050 (RT),,,,,,,,,,3/26/2007
USW00014939,2023-02-07T13:54:00,40.8508,-96.7475,362.7,"LINCOLN AIRPORT, NE US",FM-15,343,1023,-5,9.4,0,,,,36,CLR:00,1023.6,979.9,16.093,3.7,310,,2.1,,,,,,,,,,,,,,,,,,,,,,,,,,,,,,,,,,,,,,,,,,,,,,,,,,,,,,,,,,,,,,,,,,,,,,,,,,,,,,,,,,,,,,,,,,,MET09602/07/23 13:54:02 METAR KLNK 071954Z 31004KT 10SM CLR 09/M05 A3021 RMK AO2 SLP236 T00941050 (RC),,,,,,,,,,3/26/2007
USW00014939,2023-02-07T14:54:00,40.8508,-96.7475,362.7,"LINCOLN AIRPORT, NE US",FM-15,343,1022.7,-4.4,10.6,0,,-1.4,6,35,CLR:00,1023.1,979.6,16.093,4.4,280,,2.6,,,,,,,,,,,,,,,,,,,,,,,,,,,,,,,,,,,,,,,,,,,,,,,,,,,,,,,,,,,,,,,,,,,,,,,,,,,,,,,,,,,,,,,,,,,MET10202/07/23 14:54:02 METAR KLNK 072054Z 28005KT 10SM CLR 11/M04 A3020 RMK AO2 SLP231 T01061044 56014 (RC),,,,,,,,,,3/26/2007
USW00014939,2023-02-07T15:54:00,40.8508,-96.7475,362.7,"LINCOLN AIRPORT, NE US",FM-15,343,1023.4,-3.9,11.1,0,,,,35,CLR:00,1023.8,980.3,16.093,4.9,,,0,,,,,,,,,,,,,,,,,,,,,,,,,,,,,,,,,,,,,,,,,,,,,,,,,,,,,,,,,,,,,,,,,,,,,,,,,,,,,,,,,,,,,,,,,,,MET09602/07/23 15:54:02 METAR KLNK 072154Z 00000KT 10SM CLR 11/M04 A3022 RMK AO2 SLP238 T01111039 (RC),,,,,,,,,,3/26/2007
USW00014939,2023-02-07T16:54:00,40.8508,-96.7475,362.7,"LINCOLN AIRPORT, NE US",FM-15,343,1023.7,-3.9,10.6,0,,,,36,CLR:00,1024.4,980.6,16.093,4.6,260,,2.1,,,,,,,,,,,,,,,,,,,,,,,,,,,,,,,,,,,,,,,,,,,,,,,,,,,,,,,,,,,,,,,,,,,,,,,,,,,,,,,,,,,,,,,,,,,MET09602/07/23 16:54:02 METAR KLNK 072254Z 26004KT 10SM CLR 11/M04 A3023 RMK AO2 SLP244 T01061039 (RC),,,,,,,,,,3/26/2007
USW00014939,2023-02-07T17:54:00,40.8508,-96.7475,362.7,"LINCOLN AIRPORT, NE US",FM-15,343,1024,-3.9,7.2,0,,1.3,1,46,CLR:00,1024.8,980.9,16.093,2.8,210,,1.5,,,,,,,,,,,,,,,,,,,,,,,,,,,,,,,,,,,,,,,,,,,,,,,,,,,,,,,,,,,,,,,,,,,,,,,,,,,,,,,,,,,,,,,,,,,MET11402/07/23 17:54:02 METAR KLNK 072354Z 21003KT 10SM CLR 07/M04 A3024 RMK AO2 SLP248 T00721039 10117 20072 51013 (RC),,,,,,,,,,3/26/2007
USW00014939,2023-02-07T18:00:00,40.8508,-96.7475,362.7,"LINCOLN AIRPORT, NE US",FM-12,223,,-3.9,7.2,,,1.3,1,46,,1024.8,980.7,,2.8,210,,1.5,,,,,,,,,,,,,,,,,,,,,,,,,,,,,,,,,,,,,,,,,,,,,,,,,,,,,,,,,,,,,,,,,,,,,,,,,,,,,,,,,,,,,,,,,,,SYN08072551 32966 02103 10072 21039 39807 40248 51013 92354 333 10117 20011 555 90800=,,,,,,,,,,3/26/2007
USW00014939,2023-02-07T18:54:00,40.8508,-96.7475,362.7,"LINCOLN AIRPORT, NE US",FM-15,343,1024.4,-4.4,3.9,0,,,,55,CLR:00,1025.2,981.2,16.093,0.7,,,0,,,,,,,,,,,,,,,,,,,,,,,,,,,,,,,,,,,,,,,,,,,,,,,,,,,,,,,,,,,,,,,,,,,,,,,,,,,,,,,,,,,,,,,,,,,MET09102/07/23 18:54:01 METAR KLNK 080054Z 00000KT 10SM CLR 04/M04 A3025 RMK AO2 SLP252 T00391044,,,,,,,,,,3/26/2007
USW00014939,2023-02-07T19:54:00,40.8508,-96.7475,362.7,"LINCOLN AIRPORT, NE US",FM-15,343,1024.4,-5,1.1,0,,,,64,CLR:00,1025.3,981.2,16.093,-1.1,,,0,,,,,,,,,,,,,,,,,,,,,,,,,,,,,,,,,,,,,,,,,,,,,,,,,,,,,,,,,,,,,,,,,,,,,,,,,,,,,,,,,,,,,,,,,,,MET09102/07/23 19:54:01 METAR KLNK 080154Z 00000KT 10SM CLR 01/M05 A3025 RMK AO2 SLP253 T00111050,,,,,,,,,,3/26/2007
USW00014939,2023-02-07T20:54:00,40.8508,-96.7475,362.7,"LINCOLN AIRPORT, NE US",FM-15,343,1024,-4.4,1.1,0,,0,0,67,CLR:00,1025.1,980.9,16.093,-0.9,180,,1.5,,,,,,,,,,,,,,,,,,,,,,,,,,,,,,,,,,,,,,,,,,,,,,,,,,,,,,,,,,,,,,,,,,,,,,,,,,,,,,,,,,,,,,,,,,,MET09702/07/23 20:54:01 METAR KLNK 080254Z 18003KT 10SM CLR 01/M04 A3024 RMK AO2 SLP251 T00111044 50000,,,,,,,,,,3/26/2007
USW00014939,2023-02-07T21:54:00,40.8508,-96.7475,362.7,"LINCOLN AIRPORT, NE US",FM-15,343,1024.4,-4.4,-0.6,0,,,,76,CLR:00,1025.4,981.2,16.093,-2,,,0,,,,,,,,,,,,,,,,,,,,,,,,,,,,,,,,,,,,,,,,,,,,,,,,,,,,,,,,,,,,,,,,,,,,,,,,,,,,,,,,,,,,,,,,,,,MET09202/07/23 21:54:02 METAR KLNK 080354Z 00000KT 10SM CLR M01/M04 A3025 RMK AO2 SLP254 T10061044,,,,,,,,,,3/26/2007
USW00014939,2023-02-07T22:54:00,40.8508,-96.7475,362.7,"LINCOLN AIRPORT, NE US",FM-15,343,1024,-3.9,-0.6,0,,,,79,CLR:00,1025,980.9,16.093,-1.8,140,,1.5,,,,,,,,,,,,,,,,,,,,,,,,,,,,,,,,,,,,,,,,,,,,,,,,,,,,,,,,,,,,,,,,,,,,,,,,,,,,,,,,,,,,,,,,,,,MET09202/07/23 22:54:02 METAR KLNK 080454Z 14003KT 10SM CLR M01/M04 A3024 RMK AO2 SLP250 T10061039,,,,,,,,,,3/26/2007
USW00014939,2023-02-07T23:54:00,40.8508,-96.7475,362.7,"LINCOLN AIRPORT, NE US",FM-15,343,1024,-5.6,-3.9,0,,-0.2,8,88,CLR:00,1024.9,980.9,16.093,-4.4,,,0,,,,,,,,,,,,,,,,,,,,,,,,,,,,,,,,,,,,,,,,,,,,,,,,,,,,,,,,,,,,,,,,,,,,,,,,,,,,,,,,,,,,,,,,,,,MET12002/07/23 23:54:02 METAR KLNK 080554Z 00000KT 10SM CLR M04/M06 A3024 RMK AO2 SLP249 T10391056 10072 21039 401171039 58002,,,,,,,,,,3/26/2007
USW00014939,2023-02-08T00:00:00,40.8508,-96.7475,362.7,"LINCOLN AIRPORT, NE US",FM-12,223,,-5.6,-3.9,,,-0.2,8,88,,1024.9,980.7,,-4.4,,,0,,,,,,,,,,,,,,,,,,,,,,,,,,,,,,,,,,,,,,,,,,,,,,,,,,,,,,,,,,,,,,,,,,,,,,,,,,,,,,,,,,,,,,,,,,,SYN08072551 35966 00000 11039 21056 39807 40249 58002 90554 333 10072 21039 555 90806=,,,,,,,,,,3/26/2007
USW00014939,2023-02-08T00:00:00,40.8508,-96.7475,362.7,"LINCOLN AIRPORT, NE US",SOD,,,,,,,,,,,,,,,,,,731,1752,-3.3,2.8,65,1018.6,974.3,0.6,2.3,0,5.41,15.5,12.2,-6.6,200,8.9,0,0,0,190,7.2,,,,,,,,,,,,,,,,,,,,,,,,,,,,,,,,,,,,,,,,,,,,,,,,,,,,,,,,,,,,,,,,,,,,,,,,,,,,,,,,3/26/2007
USW00014939,2023-02-08T00:54:00,40.8508,-96.7475,362.7,"LINCOLN AIRPORT, NE US",FM-15,343,1023.7,-5.6,-2.8,0,,,,81,CLR:00,1024.5,980.6,16.093,-3.7,150,,2.1,,,,,,,,,,,,,,,,,,,,,,,,,,,,,,,,,,,,,,,,,,,,,,,,,,,,,,,,,,,,,,,,,,,,,,,,,,,,,,,,,,,,,,,,,,,MET09202/08/23 00:54:02 METAR KLNK 080654Z 15004KT 10SM CLR M03/M06 A3023 RMK AO2 SLP245 T10281056,,,,,,,,,,3/26/2007
USW00014939,2023-02-08T01:54:00,40.8508,-96.7475,362.7,"LINCOLN AIRPORT, NE US",FM-15,343,1023.4,-6.7,-4.4,0,,,,84,CLR:00,1024.3,980.3,16.093,-5.2,,,0,,,,,,,,,,,,,,,,,,,,,,,,,,,,,,,,,,,,,,,,,,,,,,,,,,,,,,,,,,,,,,,,,,,,,,,,,,,,,,,,,,,,,,,,,,,MET09202/08/23 01:54:02 METAR KLNK 080754Z 00000KT 10SM CLR M04/M07 A3022 RMK AO2 SLP243 T10441067,,,,,,,,,,3/26/2007
USW00014939,2023-02-08T02:54:00,40.8508,-96.7475,362.7,"LINCOLN AIRPORT, NE US",FM-15,343,1022.7,-6.1,-3.9,0,,-1,8,85,CLR:00,1023.7,979.6,16.093,-4.6,,,0,,,,,,,,,,,,,,,,,,,,,,,,,,,,,,,,,,,,,,,,,,,,,,,,,,,,,,,,,,,,,,,,,,,,,,,,,,,,,,,,,,,,,,,,,,,MET09802/08/23 02:54:02 METAR KLNK 080854Z 00000KT 10SM CLR M04/M06 A3020 RMK AO2 SLP237 T10391061 58010,,,,,,,,,,3/26/2007
USW00014939,2023-02-08T03:54:00,40.8508,-96.7475,362.7,"LINCOLN AIRPORT, NE US",FM-15,343,1022.7,-6.1,-4.4,0,,,,88,CLR:00,1023.4,979.6,12.875,-5,150,,2.1,,,,,,,,,,,,,,,,,,,,,,,,,,,,,,,,,,,,,,,,,,,,,,,,,,,,,,,,,,,,,,,,,,,,,,,,,,,,,,,,,,,,,,,,,,,MET09702/08/23 03:54:02 METAR KLNK 080954Z 15004KT 8SM CLR M04/M06 A3020 RMK AO2 SLP234 I1001 T10441061,,,,,,,,,,3/26/2007
USW00014939,2023-02-08T04:54:00,40.8508,-96.7475,362.7,"LINCOLN AIRPORT, NE US",FM-15,343,1022.7,-6.1,-4.4,0,,,,88,CLR:00,1023.7,979.6,16.093,-5,170,,2.1,,,,,,,,,,,,,,,,,,,,,,,,,,,,,,,,,,,,,,,,,,,,,,,,,,,,,,,,,,,,,,,,,,,,,,,,,,,,,,,,,,,,,,,,,,,MET09202/08/23 04:54:02 METAR KLNK 081054Z 17004KT 10SM CLR M04/M06 A3020 RMK AO2 SLP237 T10441061,,,,,,,,,,3/26/2007
USW00014939,2023-02-08T05:54:00,40.8508,-96.7475,362.7,"LINCOLN AIRPORT, NE US",FM-15,343,1023,-5.6,-3.9,0,,0.2,3,88,CLR:00,1024.1,979.9,16.093,-4.4,150,,2.6,,,,,,,,,,,,,,,,,,,,,,,,,,,,,,,,,,,,,,,,,,,,,,,,,,,,,,,,,,,,,,,,,,,,,,,,,,,,,,,,,,,,,,,,,,,MET12702/08/23 05:54:02 METAR KLNK 081154Z 15005KT 10SM CLR M04/M06 A3021 RMK AO2 SLP241 I1000 I6001 T10391056 11022 21067 53002 (NU),,,,,,,,,,3/26/2007
USW00014939,2023-02-08T06:00:00,40.8508,-96.7475,362.7,"LINCOLN AIRPORT, NE US",FM-12,223,,-5.6,-3.9,,,0.2,3,88,,1024.1,979.7,,-4.4,150,,2.6,,,,,,,,,,,,,,,,,,,,,,,,,,,,,,,,,,,,,,,,,,,,,,,,,,,,,,,,,,,,,,,,,,,,,,,,,,,,,,,,,,,,,,,,,,,SYN08072551 32966 01505 11039 21056 39797 40241 53002 91154 333 10117 21067 555 90812=,,,,,,,,,,3/26/2007
USW00014939,2023-02-08T06:54:00,40.8508,-96.7475,362.7,"LINCOLN AIRPORT, NE US",FM-15,343,1022,-5.6,-4.4,0,,,,91,CLR:00,1023.3,978.9,14.484,-4.8,,,0,,,,,,,,,,,,,,,,,,,,,,,,,,,,,,,,,,,,,,,,,,,,,,,,,,,,,,,,,,,,,,,,,,,,,,,,,,,,,,,,,,,,,,,,,,,MET10202/08/23 06:54:02 METAR KLNK 081254Z 00000KT 9SM CLR M04/M06 A3018 RMK AO2 SLP233 I1000 T10441056 (NU),,,,,,,,,,3/26/2007
USW00014939,2023-02-08T07:54:00,40.8508,-96.7475,362.7,"LINCOLN AIRPORT, NE US",FM-15,343,1021.7,-6.7,-5.6,0,,,,92,CLR:00,1023.1,978.6,11.265,-5.9,140,,1.5,,,,,,,,,,,,,,,,,,,,,,,,,,,,,,,,,,,,,,,,,,,,,,,,,,,,,,,,,,,,,,,,,,,,,,,,,,,,,,,,,,,,,,,,,,,MET10202/08/23 07:54:02 METAR KLNK 081354Z 14003KT 7SM CLR M06/M07 A3017 RMK AO2 SLP231 I1000 T10561067 (NU),,,,,,,,,,3/26/2007
USW00014939,2023-02-08T08:54:00,40.8508,-96.7475,362.7,"LINCOLN AIRPORT, NE US",FM-15,343,1021.7,-2.8,-1.1,0,,-1.4,6,88,CLR:00,1022.7,978.6,12.875,-1.7,170,,1.5,,,,,,,,,,,,,,,,,,,,,,,,,,,,,,,,,,,,,,,,,,,,,,,,,,,,,,,,,,,,,,,,,,,,,,,,,,,,,,,,,,,,,,,,,,,MET10802/08/23 08:54:02 METAR KLNK 081454Z 17003KT 8SM CLR M01/M03 A3017 RMK AO2 SLP227 I3000 T10111028 56014 (NU),,,,,,,,,,3/26/2007
USW00014939,2023-02-08T09:54:00,40.8508,-96.7475,362.7,"LINCOLN AIRPORT, NE US",FM-15,343,1021.7,-0.6,3.3,0,,,,76,CLR:00,1022.6,978.6,16.093,1.7,160,,4.1,,,,,,,,,,,,,,,,,,,,,,,,,,,,,,,,,,,,,,,,,,,,,,,,,,,,,,,,,,,,,,,,,,,,,,,,,,,,,,,,,,,,,,,,,,,MET09602/08/23 09:54:02 METAR KLNK 081554Z 16008KT 10SM CLR 03/M01 A3017 RMK AO2 SLP226 T00331006 (NU),,,,,,,,,,3/26/2007
USW00014939,2023-02-08T10:54:00,40.8508,-96.7475,362.7,"LINCOLN AIRPORT, NE US",FM-15,343,1020.7,-1.7,8.3,0,,,,50,CLR:00,1021.3,977.6,16.093,4.1,200,,6.2,,,,,,,,,,,,,,,,,,,,,,,,,,,,,,,,,,,,,,,,,,,,,,,,,,,,,,,,,,,,,,,,,,,,,,,,,,,,,,,,,,,,,,,,,,,MET09602/08/23 10:54:02 METAR KLNK 081654Z 20012KT 10SM CLR 08/M02 A3014 RMK AO2 SLP213 T00831017 (NU),,,,,,,,,,3/26/2007
USW00014939,2023-02-08T11:54:00,40.8508,-96.7475,362.7,"LINCOLN AIRPORT, NE US",FM-15,343,1020,-1.7,10,0,,-1.5,8,44,CLR:00,1020.9,977,16.093,5,200,,6.2,,,,,,,,,,,,,,,,,,,,,,,,,,,,,,,,,,,,,,,,,,,,,,,,,,,,,,,,,,,,,,,,,,,,,,,,,,,,,,,,,,,,,,,,,,,MET12002/08/23 11:54:02 METAR KLNK 081754Z 20012KT 10SM CLR 10/M02 A3012 RMK AO2 SLP209 I6000 T01001017 10100 21056 58015 (NU),,,,,,,,,,3/26/2007
USW00014939,2023-02-08T12:00:00,40.8508,-96.7475,362.7,"LINCOLN AIRPORT, NE US",FM-12,223,,-1.7,10,,,-1.5,8,44,,1020.9,976.7,,5,200,,6.2,,,,,,,,,,,,,,,,,,,,,,,,,,,,,,,,,,,,,,,,,,,,,,,,,,,,,,,,,,,,,,,,,,,,,,,,,,,,,,,,,,,,,,,,,,,SYN08072551 32966 02012 10100 21017 39767 40209 58015 91754 333 10100 21056 555 90818=,,,,,,,,,,3/26/2007
USW00014939,2023-02-08T12:54:00,40.8508,-96.7475,362.7,"LINCOLN AIRPORT, NE US",FM-15,343,1018.3,-1.7,11.1,0,,,,41,CLR:00,1019,975.3,16.093,5.6,190,,5.7,,,,,,,,,,,,,,,,,,,,,,,,,,,,,,,,,,,,,,,,,,,,,,,,,,,,,,,,,,,,,,,,,,,,,,,,,,,,,,,,,,,,,,,,,,,MET09602/08/23 12:54:02 METAR KLNK 081854Z 19011KT 10SM CLR 11/M02 A3007 RMK AO2 SLP190 T01111017 (NU),,,,,,,,,,3/26/2007
USW00014939,2023-02-08T13:54:00,40.8508,-96.7475,362.7,"LINCOLN AIRPORT, NE US",FM-15,343,1017.3,-1.7,11.7,0,,,,40,CLR:00,1017.9,974.4,16.093,5.8,200,,4.1,,,,,,,,,,,,,,,,,,,,,,,,,,,,,,,,,,,,,,,,,,,,,,,,,,,,,,,,,,,,,,,,,,,,,,,,,,,,,,,,,,,,,,,,,,,MET09602/08/23 13:54:02 METAR KLNK 081954Z 20008KT 10SM CLR 12/M02 A3004 RMK AO2 SLP179 T01171017 (NU),,,,,,,,,,3/26/2007
USW00014939,2023-02-08T14:54:00,40.8508,-96.7475,362.7,"LINCOLN AIRPORT, NE US",FM-15,343,1015.9,-1.7,12.2,0,,-3.9,6,38,CLR:00,1016.7,973.1,16.093,6.1,230,,3.1,,,,,,,,,,,,,,,,,,,,,,,,,,,,,,,,,,,,,,,,,,,,,,,,,,,,,,,,,,,,,,,,,,,,,,,,,,,,,,,,,,,,,,,,,,,MET10202/08/23 14:54:02 METAR KLNK 082054Z 23006KT 10SM CLR 12/M02 A3000 RMK AO2 SLP167 T01221017 56039 (RC),,,,,,,,,,3/26/2007
USW00014939,2023-02-08T15:54:00,40.8508,-96.7475,362.7,"LINCOLN AIRPORT, NE US",FM-15,343,1015.6,-1.7,11.7,0,,,,40,CLR:00,1016.1,972.7,16.093,5.8,210,,2.1,,,,,,,,,,,,,,,,,,,,,,,,,,,,,,,,,,,,,,,,,,,,,,,,,,,,,,,,,,,,,,,,,,,,,,,,,,,,,,,,,,,,,,,,,,,MET09602/08/23 15:54:02 METAR KLNK 082154Z 21004KT 10SM CLR 12/M02 A2999 RMK AO2 SLP161 T01171017 (RC),,,,,,,,,,3/26/2007
USW00014939,2023-02-08T16:54:00,40.8508,-96.7475,362.7,"LINCOLN AIRPORT, NE US",FM-15,343,1014.6,-1.7,10.6,0,,,,43,CLR:00,1015.4,971.8,16.093,5.3,160,,2.1,,,,,,,,,,,,,,,,,,,,,,,,,,,,,,,,,,,,,,,,,,,,,,,,,,,,,,,,,,,,,,,,,,,,,,,,,,,,,,,,,,,,,,,,,,,MET09602/08/23 16:54:02 METAR KLNK 082254Z 16004KT 10SM CLR 11/M02 A2996 RMK AO2 SLP154 T01061017 (RC),,,,,,,,,,3/26/2007
USW00014939,2023-02-08T17:54:00,40.8508,-96.7475,362.7,"LINCOLN AIRPORT, NE US",FM-15,343,1013.9,-1.7,7.8,0,,-1.9,7,51,CLR:00,1014.9,971.1,16.093,3.8,150,,2.6,,,,,,,,,,,,,,,,,,,,,,,,,,,,,,,,,,,,,,,,,,,,,,,,,,,,,,,,,,,,,,,,,,,,,,,,,,,,,,,,,,,,,,,,,,,MET11402/08/23 17:54:02 METAR KLNK 082354Z 15005KT 10SM CLR 08/M02 A2994 RMK AO2 SLP149 T00781017 10122 20072 57019 (HN),,,,,,,,,,3/26/2007
USW00014939,2023-02-08T18:00:00,40.8508,-96.7475,362.7,"LINCOLN AIRPORT, NE US",FM-12,223,,-1.7,7.8,,,-1.9,7,51,,1014.9,970.9,,3.8,150,,2.6,,,,,,,,,,,,,,,,,,,,,,,,,,,,,,,,,,,,,,,,,,,,,,,,,,,,,,,,,,,,,,,,,,,,,,,,,,,,,,,,,,,,,,,,,,,SYN08072551 32966 01505 10078 21017 39709 40149 57019 92354 333 10122 21066 555 90900=,,,,,,,,,,3/26/2007
USW00014939,2023-02-08T18:54:00,40.8508,-96.7475,362.7,"LINCOLN AIRPORT, NE US",FM-15,343,1013.5,-2.2,6.1,0,,,,56,CLR:00,1014.5,970.8,16.093,2.7,,,0,,,,,,,,,,,,,,,,,,,,,,,,,,,,,,,,,,,,,,,,,,,,,,,,,,,,,,,,,,,,,,,,,,,,,,,,,,,,,,,,,,,,,,,,,,,MET09102/08/23 18:54:01 METAR KLNK 090054Z 00000KT 10SM CLR 06/M02 A2993 RMK AO2 SLP145 T00611022,,,,,,,,,,3/26/2007
USW00014939,2023-02-08T19:54:00,40.8508,-96.7475,362.7,"LINCOLN AIRPORT, NE US",FM-15,343,1013.2,-2.2,3.3,0,,,,68,CLR:00,1014.3,970.4,16.093,1.1,10,,1.5,,,,,,,,,,,,,,,,,,,,,,,,,,,,,,,,,,,,,,,,,,,,,,,,,,,,,,,,,,,,,,,,,,,,,,,,,,,,,,,,,,,,,,,,,,,MET09102/08/23 19:54:01 METAR KLNK 090154Z 01003KT 10SM CLR 03/M02 A2992 RMK AO2 SLP143 T00331022,,,,,,,,,,3/26/2007
USW00014939,2023-02-08T20:54:00,40.8508,-96.7475,362.7,"LINCOLN AIRPORT, NE US",FM-15,343,1012.5,-2.2,3.9,0,,-1.5,8,65,CLR:00,1013.4,969.8,16.093,1.4,160,,1.5,,,,,,,,,,,,,,,,,,,,,,,,,,,,,,,,,,,,,,,,,,,,,,,,,,,,,,,,,,,,,,,,,,,,,,,,,,,,,,,,,,,,,,,,,,,MET09702/08/23 20:54:01 METAR KLNK 090254Z 16003KT 10SM CLR 04/M02 A2990 RMK AO2 SLP134 T00391022 58015,,,,,,,,,,3/26/2007
USW00014939,2023-02-08T21:54:00,40.8508,-96.7475,362.7,"LINCOLN AIRPORT, NE US",FM-15,343,1012.2,-3.3,3.3,0,,,,62,BKN:07 36.58,1012.8,969.5,16.093,0.7,150,,2.6,,,,,,,,,,,,,,,,,,,,,,,,,,,,,,,,,,,,,,,,,,,,,,,,,,,,,,,,,,,,,,,,,,,,,,,,,,,,,,,,,,,,,,,,,,,MET09402/08/23 21:54:02 METAR KLNK 090354Z 15005KT 10SM BKN120 03/M03 A2989 RMK AO2 SLP128 T00331033,,,,,,,,,,3/26/2007
USW00014939,2023-02-08T22:54:00,40.8508,-96.7475,362.7,"LINCOLN AIRPORT, NE US",FM-15,343,1011.2,-4.4,3.3,0,,,,57,BKN:07 33.53,1011.6,968.5,16.093,0.4,,,0,,,,,,,,,,,,,,,,,,,,,,,,,,,,,,,,,,,,,,,,,,,,,,,,,,,,,,,,,,,,,,,,,,,,,,,,,,,,,,,,,,,,,,,,,,,MET09402/08/23 22:54:02 METAR KLNK 090454Z 00000KT 10SM BKN110 03/M04 A2986 RMK AO2 SLP116 T00331044,,,,,,,,,,3/26/2007
USW00014939,2023-02-08T23:54:00,40.8508,-96.7475,362.7,"LINCOLN AIRPORT, NE US",FM-15,343,1011.2,-3.3,3.3,0,,-1.4,6,62,FEW:02 36.58,1011.5,968.5,16.093,0.7,330,,2.6,,,,,,,,,,,,,,,,,,,,,,,,,,,,,,,,,,,,,,,,,,,,,,,,,,,,,,,,,,,,,,,,,,,,,,,,,,,,,,,,,,,,,,,,,,,MET12202/08/23 23:54:02 METAR KLNK 090554Z 33005KT 10SM FEW120 03/M03 A2986 RMK AO2 SLP115 T00331033 10083 20028 401221067 56014,,,,,,,,,,3/26/2007
USW00014939,2023-02-09T00:00:00,40.8508,-96.7475,362.7,"LINCOLN AIRPORT, NE US",FM-12,223,,-3.3,3.3,,,-1.4,6,62,,1011.5,968.2,,0.7,330,,2.6,,,,,,,,,,,,,,,,,,,,,,,,,,,,,,,,,,,,,,,,,,,,,,,,,,,,,,,,,,,,,,,,,,,,,,,,,,,,,,,,,,,,,,,,,,,SYN08072551 35966 23305 10033 21033 39682 40115 56014 90554 333 10083 21066 555 90906=,,,,,,,,,,3/26/2007
USW00014939,2023-02-09T00:00:00,40.8508,-96.7475,362.7,"LINCOLN AIRPORT, NE US",SOD,,,,,,,,,,,,,,,,,,730,1753,-4.4,-0.2,68,1021,978.7,-1.1,7.5,0,2.24,18.5,3.9,-4.3,350,18.8,0,0,0,350,13.9,,,,,,,,,,,,,,,,,,,,,,,,,,,,,,,,,,,,,,,,,,,,,,,,,,,,,,,,,,,,,,,,,,,,,,,,,,,,,,,,3/26/2007
USW00014939,2023-02-09T00:54:00,40.8508,-96.7475,362.7,"LINCOLN AIRPORT, NE US",FM-15,343,1010.2,-3.3,2.8,0,,,,65,CLR:00,1010.6,967.5,16.093,0.4,320,,2.6,,,,,,,,,,,,,,,,,,,,,,,,,,,,,,,,,,,,,,,,,,,,,,,,,,,,,,,,,,,,,,,,,,,,,,,,,,,,,,,,,,,,,,,,,,,MET09102/09/23 00:54:02 METAR KLNK 090654Z 32005KT 10SM CLR 03/M03 A2983 RMK AO2 SLP106 T00281033,,,,,,,,,,3/26/2007
USW00014939,2023-02-09T01:54:00,40.8508,-96.7475,362.7,"LINCOLN AIRPORT, NE US",FM-15,343,1010.5,-3.9,2.8,0,,,,62,SCT:04 36.58,1010.8,967.8,16.093,0.2,330,,2.6,,,,,,,,,,,,,,,,,,,,,,,,,,,,,,,,,,,,,,,,,,,,,,,,,,,,,,,,,,,,,,,,,,,,,,,,,,,,,,,,,,,,,,,,,,,MET09402/09/23 01:54:02 METAR KLNK 090754Z 33005KT 10SM SCT120 03/M04 A2984 RMK AO2 SLP108 T00281039,,,,,,,,,,3/26/2007
USW00014939,2023-02-09T02:54:00,40.8508,-96.7475,362.7,"LINCOLN AIRPORT, NE US",FM-15,343,1010.2,-3.3,1.1,0,,-0.8,6,73,CLR:00,1010.6,967.5,16.093,-0.6,40,,1.5,,,,,,,,,,,,,,,,,,,,,,,,,,,,,,,,,,,,,,,,,,,,,,,,,,,,,,,,,,,,,,,,,,,,,,,,,,,,,,,,,,,,,,,,,,,MET09702/09/23 02:54:02 METAR KLNK 090854Z 04003KT 10SM CLR 01/M03 A2983 RMK AO2 SLP106 T00111033 56008,,,,,,,,,,3/26/2007
USW00014939,2023-02-09T03:54:00,40.8508,-96.7475,362.7,"LINCOLN AIRPORT, NE US",FM-15,343,1010.2,-2.8,2.2,0,,,,70,CLR:00,1010.6,967.5,16.093,0.3,330,,1.5,,,,,,,,,,,,,,,,,,,,,,,,,,,,,,,,,,,,,,,,,,,,,,,,,,,,,,,,,,,,,,,,,,,,,,,,,,,,,,,,,,,,,,,,,,,MET09102/09/23 03:54:02 METAR KLNK 090954Z 33003KT 10SM CLR 02/M03 A2983 RMK AO2 SLP106 T00221028,,,,,,,,,,3/26/2007
USW00014939,2023-02-09T04:54:00,40.8508,-96.7475,362.7,"LINCOLN AIRPORT, NE US",FM-15,343,1010.8,-1.7,2.8,0,,,,73,CLR:00,1011.2,968.2,16.093,1,340,,4.6,,,,,,,,,,,,,,,,,,,,,,,,,,,,,,,,,,,,,,,,,,,,,,,,,,,,,,,,,,,,,,,,,,,,,,,,,,,,,,,,,,,,,,,,,,,MET09102/09/23 04:54:02 METAR KLNK 091054Z 34009KT 10SM CLR 03/M02 A2985 RMK AO2 SLP112 T00281017,,,,,,,,,,3/26/2007
USW00014939,2023-02-09T05:54:00,40.8508,-96.7475,362.7,"LINCOLN AIRPORT, NE US",FM-15,343,1012.2,-2.2,1.7,0,,1.8,3,76,CLR:00,1012.6,969.5,16.093,0.2,330,9.8,5.7,,,,,,,,,,,,,,,,,,,,,,,,,,,,,,,,,,,,,,,,,,,,,,,,,,,,,,,,,,,,,,,,,,,,,,,,,,,,,,,,,,,,,,,,,,,MET11702/09/23 05:54:02 METAR KLNK 091154Z 33011G19KT 10SM CLR 02/M02 A2989 RMK AO2 SLP126 T00171022 10033 20006 53018 (NU),,,,,,,,,,3/26/2007
USW00014939,2023-02-09T06:00:00,40.8508,-96.7475,362.7,"LINCOLN AIRPORT, NE US",FM-12,223,,-2.2,1.7,,,1.8,3,76,,1012.6,969.2,,0.2,330,,5.7,,,,,,,,,,,,,,,,,,,,,,,,,,,,,,,,,,,,,,,,,,,,,,,,,,,,,,,,,,,,,,,,,,,,,,,,,,,,,,,,,,,,,,,,,,,SYN08672551 32966 03311 10017 21022 39692 40126 53018 91154 333 10122 20006 91019 555 90912=,,,,,,,,,,3/26/2007
USW00014939,2023-02-09T06:54:00,40.8508,-96.7475,362.7,"LINCOLN AIRPORT, NE US",FM-15,343,1012.9,-2.2,1.7,0,,,,76,CLR:00,1013.6,970.1,16.093,0.2,340,,5.1,,,,,,,,,,,,,,,,,,,,,,,,,,,,,,,,,,,,,,,,,,,,,,,,,,,,,,,,,,,,,,,,,,,,,,,,,,,,,,,,,,,,,,,,,,,MET09602/09/23 06:54:02 METAR KLNK 091254Z 34010KT 10SM CLR 02/M02 A2991 RMK AO2 SLP136 T00171022 (NU),,,,,,,,,,3/26/2007
USW00014939,2023-02-09T07:54:00,40.8508,-96.7475,362.7,"LINCOLN AIRPORT, NE US",FM-15,343,1013.9,-1.7,2.2,0,,,,76,CLR:00,1014.7,971.1,16.093,0.7,330,,6.7,,,,,,,,,,,,,,,,,,,,,,,,,,,,,,,,,,,,,,,,,,,,,,,,,,,,,,,,,,,,,,,,,,,,,,,,,,,,,,,,,,,,,,,,,,,MET09602/09/23 07:54:02 METAR KLNK 091354Z 33013KT 10SM CLR 02/M02 A2994 RMK AO2 SLP147 T00221017 (NU),,,,,,,,,,3/26/2007
USW00014939,2023-02-09T08:52:00,40.8508,-96.7475,362.7,"LINCOLN AIRPORT, NE US",FM-16,343,1015.6,-2,3,,,,,70,BKN:07 6.4,,972.7,16.093,0.8,330,15.4,10.8,,,,,,,,,,,,,,,,,,,,,,,,,,,,,,,,,,,,,,,,,,,,,,,,,,,,,,,,,,,,,,,,,,,,,,,,,,,,,,,,,,,,,,,,,,,MET10802/09/23 08:52:02 SPECI KLNK 091452Z 33021G30KT 10SM BKN021 03/M02 A2999 RMK AO2 PK WND 32030/1452 FIBI (NU),,,,,,,,,,3/26/2007
USW00014939,2023-02-09T08:54:00,40.8508,-96.7475,362.7,"LINCOLN AIRPORT, NE US",FM-15,343,1015.6,-1.7,3.3,0,,3.3,3,70,BKN:07 6.4,1016.1,972.7,16.093,1.3,330,15.4,8.8,,,,,,,,,,,,,,,,,,,,,,,,,,,,,,,,,,,,,,,,,,,,,,,,,,,,,,,,,,,,,,,,,,,,,,,,,,,,,,,,,,,,,,,,,,,MET12602/09/23 08:54:02 METAR KLNK 091454Z 33017G30KT 10SM BKN021 03/M02 A2999 RMK AO2 PK WND 32030/1452 SLP161 T00331017 53033 (NU),,,,,,,,,,3/26/2007
USW00014939,2023-02-09T09:54:00,40.8508,-96.7475,362.7,"LINCOLN AIRPORT, NE US",FM-15,343,1016.3,-1.7,3.9,0,,,,67,BKN:07 6.1 OVC:08 27.43,1017,973.4,16.093,1.7,340,13.9,9.3,,,,,,,,,,,,,,,,,,,,,,,,,,,,,,,,,,,,,,,,,,,,,,,,,,,,,,,,,,,,,,,,,,,,,,,,,,,,,,,,,,,,,,,,,,,MET12702/09/23 09:54:02 METAR KLNK 091554Z 34018G27KT 10SM BKN020 OVC090 04/M02 A3001 RMK AO2 PK WND 32035/1514 SLP170 T00391017 (NU),,,,,,,,,,3/26/2007
USW00014939,2023-02-09T10:54:00,40.8508,-96.7475,362.7,"LINCOLN AIRPORT, NE US",FM-15,343,1017.9,-1.7,3.3,0,,,,70,OVC:08 5.79,1018.7,975,16.093,1.3,340,16,10.3,,,,,,,,,,,,,,,,,,,,,,,,,,,,,,,,,,,,,,,,,,,,,,,,,,,,,,,,,,,,,,,,,,,,,,,,,,,,,,,,,,,,,,,,,,,MET12002/09/23 10:54:02 METAR KLNK 091654Z 34020G31KT 10SM OVC019 03/M02 A3006 RMK AO2 PK WND 33031/1645 SLP187 T00331017 (NU),,,,,,,,,,3/26/2007
USW00014939,2023-02-09T11:13:00,40.8508,-96.7475,362.7,"LINCOLN AIRPORT, NE US",FM-16,343,1018.6,-1.7,3.3,,,,,70,OVC:08 5.49,,975.7,16.093,1.3,340,16,11.3,,,,,,,,,,,,,,,,,,,,,,,,,,,,,,,,,,,,,,,,,,,,,,,,,,,,,,,,,,,,,,,,,,,,,,,,,,,,,,,,,,,,,,,,,,,MET11302/09/23 11:13:02 SPECI KLNK 091713Z 34022G31KT 10SM OVC018 03/M02 A3008 RMK AO2 PK WND 32031/1700 T00331017 (NU),,,,,,,,,,3/26/2007
USW00014939,2023-02-09T11:54:00,40.8508,-96.7475,362.7,"LINCOLN AIRPORT, NE US",FM-15,343,1019.6,-1.7,2.8,0,,4,3,73,OVC:08 4.88,1020.4,976.7,14.484,1,340,16.5,11.3,,,,,,,,,,,,,,,,,,,,,,,,,,,,,,,,,,,,,,,,,,,,,,,,,,,,,,,,,,,,,,,,,,,,,,,,,,,,,,,,,,,,,,,,,,,MET13702/09/23 11:54:02 METAR KLNK 091754Z 34022G32KT 9SM OVC016 03/M02 A3011 RMK AO2 PK WND 35032/1754 SLP204 T00281017 10039 20017 53040 (NU),,,,,,,,,,3/26/2007
USW00014939,2023-02-09T12:00:00,40.8508,-96.7475,362.7,"LINCOLN AIRPORT, NE US",FM-12,223,,-1.7,2.8,,,4,3,73,,1020.4,976.4,,1,340,,11.3,,,,,,,,,,,,,,,,,,,,,,,,,,,,,,,,,,,,,,,,,,,,,,,,,,,,,,,,,,,,,,,,,,,,,,,,,,,,,,,,,,,,,,,,,,,SYN08672551 32464 83422 10028 21017 39764 40204 53040 91754 333 10039 20017 91032 555 90918=,,,,,,,,,,3/26/2007
USW00014939,2023-02-09T12:54:00,40.8508,-96.7475,362.7,"LINCOLN AIRPORT, NE US",FM-15,343,1020,-1.7,2.8,0,,,,73,OVC:08 4.88,1020.9,977,16.093,1,340,17,13.9,,,,,,,,,,,,,,,,,,,,,,,,,,,,,,,,,,,,,,,,,,,,,,,,,,,,,,,,,,,,,,,,,,,,,,,,,,,,,,,,,,,,,,,,,,,MET12002/09/23 12:54:02 METAR KLNK 091854Z 34027G33KT 10SM OVC016 03/M02 A3012 RMK AO2 PK WND 35033/1854 SLP209 T00281017 (NU),,,,,,,,,,3/26/2007
USW00014939,2023-02-09T13:54:00,40.8508,-96.7475,362.7,"LINCOLN AIRPORT, NE US",FM-15,343,1021,-1.7,2.8,0,,,,73,OVC:08 5.18,1021.8,978,16.093,1,350,17.5,11.3,,,,,,,,,,,,,,,,,,,,,,,,,,,,,,,,,,,,,,,,,,,,,,,,,,,,,,,,,,,,,,,,,,,,,,,,,,,,,,,,,,,,,,,,,,,MET12002/09/23 13:54:02 METAR KLNK 091954Z 35022G34KT 10SM OVC017 03/M02 A3015 RMK AO2 PK WND 34034/1945 SLP218 T00281017 (NU),,,,,,,,,,3/26/2007
USW00014939,2023-02-09T14:54:00,40.8508,-96.7475,362.7,"LINCOLN AIRPORT, NE US",FM-15,343,1021.7,-2.2,2.8,0,,2.1,3,70,OVC:08 4.88,1022.7,978.6,16.093,0.8,340,14.4,9.8,,,,,,,,,,,,,,,,,,,,,,,,,,,,,,,,,,,,,,,,,,,,,,,,,,,,,,,,,,,,,,,,,,,,,,,,,,,,,,,,,,,,,,,,,,,MET12602/09/23 14:54:02 METAR KLNK 092054Z 34019G28KT 10SM OVC016 03/M02 A3017 RMK AO2 PK WND 35031/2000 SLP227 T00281022 53021 (RC),,,,,,,,,,3/26/2007
USW00014939,2023-02-09T15:32:00,40.8508,-96.7475,362.7,"LINCOLN AIRPORT, NE US",FM-16,343,1022.4,-2.8,2.2,,,,,70,OVC:08 5.79,,979.3,16.093,0.3,350,18.5,12.9,,,,,,,,,,,,,,,,,,,,,,,,,,,,,,,,,,,,,,,,,,,,,,,,,,,,,,,,,,,,,,,,,,,,,,,,,,,,,,,,,,,,,,,,,,,MET11302/09/23 15:32:02 SPECI KLNK 092132Z 35025G36KT 10SM OVC019 02/M03 A3019 RMK AO2 PK WND 35036/2132 T00221028 (RC),,,,,,,,,,3/26/2007
USW00014939,2023-02-09T15:52:00,40.8508,-96.7475,362.7,"LINCOLN AIRPORT, NE US",FM-16,343,1022.7,-3,2,,,,,70,OVC:08 5.49,,979.6,16.093,0.3,350,14.9,10.3,,,,,,,,,,,,,,,,,,,,,,,,,,,,,,,,,,,,,,,,,,,,,,,,,,,,,,,,,,,,,,,,,,,,,,,,,,,,,,,,,,,,,,,,,,,MET10802/09/23 15:52:02 SPECI KLNK 092152Z 35020G29KT 10SM OVC018 02/M03 A3020 RMK AO2 PK WND 35036/2132 FIBI (BV),,,,,,,,,,3/26/2007
USW00014939,2023-02-09T15:54:00,40.8508,-96.7475,362.7,"LINCOLN AIRPORT, NE US",FM-15,343,1022.7,-2.8,1.7,0,,,,72,OVC:08 5.49,1023.8,979.6,16.093,0,350,14.9,10.3,,,,,,,,,,,,,,,,,,,,,,,,,,,,,,,,,,,,,,,,,,,,,,,,,,,,,,,,,,,,,,,,,,,,,,,,,,,,,,,,,,,,,,,,,,,MET12002/09/23 15:54:02 METAR KLNK 092154Z 35020G29KT 10SM OVC018 02/M03 A3020 RMK AO2 PK WND 35036/2132 SLP238 T00171028 (BV),,,,,,,,,,3/26/2007
USW00014939,2023-02-09T16:45:00,40.8508,-96.7475,362.7,"LINCOLN AIRPORT, NE US",FM-16,343,1024,-3.3,1.7,,,,,70,OVC:08 5.79,,980.9,16.093,-0.2,340,,9.3,,,,,,,,,,,,,,,,,,,,,,,,,,,,,,,,,,,,,,,,,,,,,,,,,,,,,,,,,,,,,,,,,,,,,,,,,,,,,,,,,,,,,,,,,,,MET11002/09/23 16:45:02 SPECI KLNK 092245Z 34018KT 10SM OVC019 02/M03 A3024 RMK AO2 PK WND 35031/2204 T00171033 (BV),,,,,,,,,,3/26/2007
USW00014939,2023-02-09T16:54:00,40.8508,-96.7475,362.7,"LINCOLN AIRPORT, NE US",FM-15,343,1024.4,-3.3,1.7,0,,,,70,OVC:08 5.79,1025.2,981.2,16.093,-0.2,350,,9.8,,,,,,,,,,,,,,,,,,,,,,,,,,,,,,,,,,,,,,,,,,,,,,,,,,,,,,,,,,,,,,,,,,,,,,,,,,,,,,,,,,,,,,,,,,,MET11702/09/23 16:54:02 METAR KLNK 092254Z 35019KT 10SM OVC019 02/M03 A3025 RMK AO2 PK WND 35031/2204 SLP252 T00171033 (BV),,,,,,,,,,3/26/2007
USW00014939,2023-02-09T17:04:00,40.8508,-96.7475,362.7,"LINCOLN AIRPORT, NE US",FM-16,343,1024.4,-3.3,1.7,,,,,70,OVC:08 5.49,,981.2,16.093,-0.2,350,13.4,10.3,,,,,,,,,,,,,,,,,,,,,,,,,,,,,,,,,,,,,,,,,,,,,,,,,,,,,,,,,,,,,,,,,,,,,,,,,,,,,,,,,,,,,,,,,,,MET11302/09/23 17:04:02 SPECI KLNK 092304Z 35020G26KT 10SM OVC018 02/M03 A3025 RMK AO2 PK WND 33026/2300 T00171033 (BV),,,,,,,,,,3/26/2007
USW00014939,2023-02-09T17:26:00,40.8508,-96.7475,362.7,"LINCOLN AIRPORT, NE US",FM-16,343,1024.7,-4.4,1.1,,,,,67,BKN:07 6.1 OVC:08 7.62,,981.6,16.093,-0.9,360,14.9,10.3,,,,,,,,,,,,,,,,,,,,,,,,,,,,,,,,,,,,,,,,,,,,,,,,,,,,,,,,,,,,,,,,,,,,,,,,,,,,,,,,,,,,,,,,,,,MET12002/09/23 17:26:02 SPECI KLNK 092326Z 36020G29KT 10SM BKN020 OVC025 01/M04 A3026 RMK AO2 PK WND 35029/2323 T00111044 (BV),,,,,,,,,,3/26/2007
USW00014939,2023-02-09T17:54:00,40.8508,-96.7475,362.7,"LINCOLN AIRPORT, NE US",FM-15,343,1025.4,-4.4,1.1,0,,3.5,3,67,SCT:04 7.32 BKN:07 8.53 OVC:08 10.97,1026.5,982.2,16.093,-0.9,350,13.9,8.8,,,,,,,,,,,,,,,,,,,,,,,,,,,,,,,,,,,,,,,,,,,,,,,,,,,,,,,,,,,,,,,,,,,,,,,,,,,,,,,,,,,,,,,,,,,MET15202/09/23 17:54:02 METAR KLNK 092354Z 35017G27KT 10SM SCT024 BKN028 OVC036 01/M04 A3028 RMK AO2 PK WND 36030/2327 SLP265 T00111044 10028 20011 53035 (BV),,,,,,,,,,3/26/2007
USW00014939,2023-02-09T18:00:00,40.8508,-96.7475,362.7,"LINCOLN AIRPORT, NE US",FM-12,223,,-4.4,1.1,,,3.5,3,67,,1026.5,982,,-0.9,350,,8.8,,,,,,,,,,,,,,,,,,,,,,,,,,,,,,,,,,,,,,,,,,,,,,,,,,,,,,,,,,,,,,,,,,,,,,,,,,,,,,,,,,,,,,,,,,,SYN08672551 32566 83517 10011 21044 39820 40265 53035 92354 333 10039 20006 91027 555 91000=,,,,,,,,,,3/26/2007
USW00014939,2023-02-09T18:11:00,40.8508,-96.7475,362.7,"LINCOLN AIRPORT, NE US",FM-16,343,1025.7,-4.4,1.1,,,,,67,SCT:04 7.32 OVC:08 11.89,,982.5,16.093,-0.9,350,12.9,9.8,,,,,,,,,,,,,,,,,,,,,,,,,,,,,,,,,,,,,,,,,,,,,,,,,,,,,,,,,,,,,,,,,,,,,,,,,,,,,,,,,,,,,,,,,,,MET09702/09/23 18:11:01 SPECI KLNK 100011Z 35019G25KT 10SM SCT024 OVC039 01/M04 A3029 RMK AO2 T00111044,,,,,,,,,,3/26/2007
USW00014939,2023-02-09T18:54:00,40.8508,-96.7475,362.7,"LINCOLN AIRPORT, NE US",FM-15,343,1026.4,-7.2,-0.6,0,,,,61,SCT:04 12.5,1027.4,983.2,16.093,-2.8,350,13.4,8.8,,,,,,,,,,,,,,,,,,,,,,,,,,,,,,,,,,,,,,,,,,,,,,,,,,,,,,,,,,,,,,,,,,,,,,,,,,,,,,,,,,,,,,,,,,,MET11602/09/23 18:54:01 METAR KLNK 100054Z 35017G26KT 10SM SCT041 M01/M07 A3031 RMK AO2 PK WND 36029/0015 SLP274 T10061072,,,,,,,,,,3/26/2007
USW00014939,2023-02-09T19:54:00,40.8508,-96.7475,362.7,"LINCOLN AIRPORT, NE US",FM-15,343,1027.1,-8.9,-1.7,0,,,,58,CLR:00,1028.4,983.9,16.093,-4,340,,8.2,,,,,,,,,,,,,,,,,,,,,,,,,,,,,,,,,,,,,,,,,,,,,,,,,,,,,,,,,,,,,,,,,,,,,,,,,,,,,,,,,,,,,,,,,,,MET11002/09/23 19:54:01 METAR KLNK 100154Z 34016KT 10SM CLR M02/M09 A3033 RMK AO2 PK WND 35031/0133 SLP284 T10171089,,,,,,,,,,3/26/2007
USW00014939,2023-02-09T20:54:00,40.8508,-96.7475,362.7,"LINCOLN AIRPORT, NE US",FM-15,343,1028.4,-9.4,-2.8,0,,3,3,61,CLR:00,1029.7,985.2,16.093,-4.9,330,11.3,8.8,,,,,,,,,,,,,,,,,,,,,,,,,,,,,,,,,,,,,,,,,,,,,,,,,,,,,,,,,,,,,,,,,,,,,,,,,,,,,,,,,,,,,,,,,,,MET11902/09/23 20:54:01 METAR KLNK 100254Z 33017G22KT 10SM CLR M03/M09 A3037 RMK AO2 PK WND 35027/0205 SLP297 T10281094 53030,,,,,,,,,,3/26/2007
USW00014939,2023-02-09T21:54:00,40.8508,-96.7475,362.7,"LINCOLN AIRPORT, NE US",FM-15,343,1029.8,-10,-3.3,0,,,,60,FEW:02 33.53,1030.8,986.5,16.093,-5.4,350,,6.7,,,,,,,,,,,,,,,,,,,,,,,,,,,,,,,,,,,,,,,,,,,,,,,,,,,,,,,,,,,,,,,,,,,,,,,,,,,,,,,,,,,,,,,,,,,MET11302/09/23 21:54:02 METAR KLNK 100354Z 35013KT 10SM FEW110 M03/M10 A3041 RMK AO2 PK WND 35026/0312 SLP308 T10331100,,,,,,,,,,3/26/2007
USW00014939,2023-02-09T22:54:00,40.8508,-96.7475,362.7,"LINCOLN AIRPORT, NE US",FM-15,343,1030.1,-10.6,-3.9,0,,,,60,CLR:00,1031.5,986.8,16.093,-5.9,350,,6.2,,,,,,,,,,,,,,,,,,,,,,,,,,,,,,,,,,,,,,,,,,,,,,,,,,,,,,,,,,,,,,,,,,,,,,,,,,,,,,,,,,,,,,,,,,,MET09202/09/23 22:54:02 METAR KLNK 100454Z 35012KT 10SM CLR M04/M11 A3042 RMK AO2 SLP315 T10391106,,,,,,,,,,3/26/2007
USW00014939,2023-02-09T23:54:00,40.8508,-96.7475,362.7,"LINCOLN AIRPORT, NE US",FM-15,343,1030.5,-11.1,-4.4,0,,1.9,1,60,CLR:00,1031.8,987.1,16.093,-6.4,350,,8.2,,,,,,,,,,,,,,,,,,,,,,,,,,,,,,,,,,,,,,,,,,,,,,,,,,,,,,,,,,,,,,,,,,,,,,,,,,,,,,,,,,,,,,,,,,,MET12002/09/23 23:54:02 METAR KLNK 100554Z 35016KT 10SM CLR M04/M11 A3043 RMK AO2 SLP318 T10441111 10011 21044 400391044 51019,,,,,,,,,,3/26/2007
USW00014939,2023-02-10T00:00:00,40.8508,-96.7475,362.7,"LINCOLN AIRPORT, NE US",FM-12,223,,-11.1,-4.4,,,1.9,1,60,,1031.8,986.9,,-6.4,350,,8.2,,,,,,,,,,,,,,,,,,,,,,,,,,,,,,,,,,,,,,,,,,,,,,,,,,,,,,,,,,,,,,,,,,,,,,,,,,,,,,,,,,,,,,,,,,,SYN08072551 35966 03516 11044 21111 39869 40318 51019 90554 333 10033 21044 555 91006=,,,,,,,,,,3/26/2007
USW00014939,2023-02-10T00:00:00,40.8508,-96.7475,362.7,"LINCOLN AIRPORT, NE US",SOD,,,,,,,,,,,,,,,,,,729,1754,-9.4,-1.6,56,1031.5,987.1,-3.9,3,0,0.73,19.9,6.7,-9.9,350,11.2,0,0,0,350,8.9,,,,,,,,,,,,,,,,,,,,,,,,,,,,,,,,,,,,,,,,,,,,,,,,,,,,,,,,,,,,,,,,,,,,,,,,,,,,,,,,3/26/2007
USW00014939,2023-02-10T00:54:00,40.8508,-96.7475,362.7,"LINCOLN AIRPORT, NE US",FM-15,343,1030.8,-11.7,-5,0,,,,60,CLR:00,1032.1,987.4,16.093,-6.9,340,,6.2,,,,,,,,,,,,,,,,,,,,,,,,,,,,,,,,,,,,,,,,,,,,,,,,,,,,,,,,,,,,,,,,,,,,,,,,,,,,,,,,,,,,,,,,,,,MET09202/10/23 00:54:02 METAR KLNK 100654Z 34012KT 10SM CLR M05/M12 A3044 RMK AO2 SLP321 T10501117,,,,,,,,,,3/26/2007
USW00014939,2023-02-10T01:54:00,40.8508,-96.7475,362.7,"LINCOLN AIRPORT, NE US",FM-15,343,1031.2,-10.6,-5.6,0,,,,68,CLR:00,1032.5,987.8,16.093,-7,340,,6.2,,,,,,,,,,,,,,,,,,,,,,,,,,,,,,,,,,,,,,,,,,,,,,,,,,,,,,,,,,,,,,,,,,,,,,,,,,,,,,,,,,,,,,,,,,,MET09202/10/23 01:54:02 METAR KLNK 100754Z 34012KT 10SM CLR M06/M11 A3045 RMK AO2 SLP325 T10561106,,,,,,,,,,3/26/2007
USW00014939,2023-02-10T02:54:00,40.8508,-96.7475,362.7,"LINCOLN AIRPORT, NE US",FM-15,343,1031.2,-11.1,-6.1,0,,0.7,1,68,CLR:00,1032.6,987.8,16.093,-7.5,340,,5.7,,,,,,,,,,,,,,,,,,,,,,,,,,,,,,,,,,,,,,,,,,,,,,,,,,,,,,,,,,,,,,,,,,,,,,,,,,,,,,,,,,,,,,,,,,,MET09802/10/23 02:54:02 METAR KLNK 100854Z 34011KT 10SM CLR M06/M11 A3045 RMK AO2 SLP326 T10611111 51007,,,,,,,,,,3/26/2007
USW00014939,2023-02-10T03:54:00,40.8508,-96.7475,362.7,"LINCOLN AIRPORT, NE US",FM-15,343,1031.2,-10.6,-6.1,0,,,,71,CLR:00,1032.7,987.8,16.093,-7.4,340,,5.1,,,,,,,,,,,,,,,,,,,,,,,,,,,,,,,,,,,,,,,,,,,,,,,,,,,,,,,,,,,,,,,,,,,,,,,,,,,,,,,,,,,,,,,,,,,MET09202/10/23 03:54:02 METAR KLNK 100954Z 34010KT 10SM CLR M06/M11 A3045 RMK AO2 SLP327 T10611106,,,,,,,,,,3/26/2007
USW00014939,2023-02-10T04:54:00,40.8508,-96.7475,362.7,"LINCOLN AIRPORT, NE US",FM-15,343,1031.5,-10.6,-6.7,0,,,,74,CLR:00,1032.9,988.1,16.093,-7.8,350,,5.1,,,,,,,,,,,,,,,,,,,,,,,,,,,,,,,,,,,,,,,,,,,,,,,,,,,,,,,,,,,,,,,,,,,,,,,,,,,,,,,,,,,,,,,,,,,MET09202/10/23 04:54:02 METAR KLNK 101054Z 35010KT 10SM CLR M07/M11 A3046 RMK AO2 SLP329 T10671106,,,,,,,,,,3/26/2007
USW00014939,2023-02-10T05:54:00,40.8508,-96.7475,362.7,"LINCOLN AIRPORT, NE US",FM-15,343,1031.8,-10.6,-7.2,0,,0.6,3,77,CLR:00,1033.3,988.4,16.093,-8.2,340,,4.1,,,,,,,,,,,,,,,,,,,,,,,,,,,,,,,,,,,,,,,,,,,,,,,,,,,,,,,,,,,,,,,,,,,,,,,,,,,,,,,,,,,,,,,,,,,MET11502/10/23 05:54:02 METAR KLNK 101154Z 34008KT 10SM CLR M07/M11 A3047 RMK AO2 SLP333 T10721106 11044 21072 53006 (DS),,,,,,,,,,3/26/2007
USW00014939,2023-02-10T06:00:00,40.8508,-96.7475,362.7,"LINCOLN AIRPORT, NE US",FM-12,223,,-10.6,-7.2,,,0.6,3,77,,1033.3,988.2,,-8.2,340,,4.1,,,,,,,,,,,,,,,,,,,,,,,,,,,,,,,,,,,,,,,,,,,,,,,,,,,,,,,,,,,,,,,,,,,,,,,,,,,,,,,,,,,,,,,,,,,SYN08072551 32966 03408 11072 21106 39882 40333 53006 91154 333 10039 21072 555 91012=,,,,,,,,,,3/26/2007
USW00014939,2023-02-10T06:54:00,40.8508,-96.7475,362.7,"LINCOLN AIRPORT, NE US",FM-15,343,1031.8,-10.6,-6.7,0,,,,74,CLR:00,1033.6,988.4,16.093,-7.8,330,,3.6,,,,,,,,,,,,,,,,,,,,,,,,,,,,,,,,,,,,,,,,,,,,,,,,,,,,,,,,,,,,,,,,,,,,,,,,,,,,,,,,,,,,,,,,,,,MET09702/10/23 06:54:02 METAR KLNK 101254Z 33007KT 10SM CLR M07/M11 A3047 RMK AO2 SLP336 T10671106 (DS),,,,,,,,,,3/26/2007
USW00014939,2023-02-10T07:54:00,40.8508,-96.7475,362.7,"LINCOLN AIRPORT, NE US",FM-15,343,1032.5,-10,-6.7,0,,,,78,CLR:00,1034.2,989.1,16.093,-7.6,330,,3.6,,,,,,,,,,,,,,,,,,,,,,,,,,,,,,,,,,,,,,,,,,,,,,,,,,,,,,,,,,,,,,,,,,,,,,,,,,,,,,,,,,,,,,,,,,,MET09702/10/23 07:54:02 METAR KLNK 101354Z 33007KT 10SM CLR M07/M10 A3049 RMK AO2 SLP342 T10671100 (DS),,,,,,,,,,3/26/2007
USW00014939,2023-02-10T08:54:00,40.8508,-96.7475,362.7,"LINCOLN AIRPORT, NE US",FM-15,343,1033.2,-9.4,-4.4,0,,1.3,3,68,CLR:00,1034.8,989.7,16.093,-6,340,,3.6,,,,,,,,,,,,,,,,,,,,,,,,,,,,,,,,,,,,,,,,,,,,,,,,,,,,,,,,,,,,,,,,,,,,,,,,,,,,,,,,,,,,,,,,,,,MET10302/10/23 08:54:02 METAR KLNK 101454Z 34007KT 10SM CLR M04/M09 A3051 RMK AO2 SLP348 T10441094 53013 (RC),,,,,,,,,,3/26/2007
USW00014939,2023-02-10T09:54:00,40.8508,-96.7475,362.7,"LINCOLN AIRPORT, NE US",FM-15,343,1033.2,-8.9,-2.2,0,,,,60,CLR:00,1034.9,989.7,16.093,-4.3,350,,2.6,,,,,,,,,,,,,,,,,,,,,,,,,,,,,,,,,,,,,,,,,,,,,,,,,,,,,,,,,,,,,,,,,,,,,,,,,,,,,,,,,,,,,,,,,,,MET09702/10/23 09:54:02 METAR KLNK 101554Z 35005KT 10SM CLR M02/M09 A3051 RMK AO2 SLP349 T10221089 (RC),,,,,,,,,,3/26/2007
USW00014939,2023-02-10T10:54:00,40.8508,-96.7475,362.7,"LINCOLN AIRPORT, NE US",FM-15,343,1033.5,-8.3,0.6,0,,,,52,CLR:00,1035,990.1,16.093,-2.4,,,1.5,,,,,,,,,,,,,,,,,,,,,,,,,,,,,,,,,,,,,,,,,,,,,,,,,,,,,,,,,,,,,,,,,,,,,,,,,,,,,,,,,,,,,,,,,,,MET09602/10/23 10:54:02 METAR KLNK 101654Z VRB03KT 10SM CLR 01/M08 A3052 RMK AO2 SLP350 T00061083 (RC),,,,,,,,,,3/26/2007
USW00014939,2023-02-10T11:54:00,40.8508,-96.7475,362.7,"LINCOLN AIRPORT, NE US",FM-15,343,1033.2,-8.3,2.2,0,,0,0,46,CLR:00,1034.5,989.7,16.093,-1.4,,,0,,,,,,,,,,,,,,,,,,,,,,,,,,,,,,,,,,,,,,,,,,,,,,,,,,,,,,,,,,,,,,,,,,,,,,,,,,,,,,,,,,,,,,,,,,,MET11402/10/23 11:54:02 METAR KLNK 101754Z 00000KT 10SM CLR 02/M08 A3051 RMK AO2 SLP345 T00221083 10022 21100 50000 (RC),,,,,,,,,,3/26/2007
USW00014939,2023-02-10T12:00:00,40.8508,-96.7475,362.7,"LINCOLN AIRPORT, NE US",FM-12,223,,-8.3,2.2,,,0,9,46,,1034.5,989.5,,-1.4,,,0,,,,,,,,,,,,,,,,,,,,,,,,,,,,,,,,,,,,,,,,,,,,,,,,,,,,,,,,,,,,,,,,,,,,,,,,,,,,,,,,,,,,,,,,,,,SYN08072551 32966 00000 10022 21083 39895 40345 50000 91754 333 10022 21100 555 91018=,,,,,,,,,,3/26/2007
USW00014939,2023-02-10T12:54:00,40.8508,-96.7475,362.7,"LINCOLN AIRPORT, NE US",FM-15,343,1032.2,-8.9,3.9,0,,,,39,CLR:00,1033.5,988.8,16.093,-0.5,180,,2.1,,,,,,,,,,,,,,,,,,,,,,,,,,,,,,,,,,,,,,,,,,,,,,,,,,,,,,,,,,,,,,,,,,,,,,,,,,,,,,,,,,,,,,,,,,,MET09602/10/23 12:54:02 METAR KLNK 101854Z 18004KT 10SM CLR 04/M09 A3048 RMK AO2 SLP335 T00391089 (RC),,,,,,,,,,3/26/2007
USW00014939,2023-02-10T13:54:00,40.8508,-96.7475,362.7,"LINCOLN AIRPORT, NE US",FM-15,343,1031.5,-9.4,5.6,0,,,,33,CLR:00,1032.7,988.1,16.093,0.3,,,0,,,,,,,,,,,,,,,,,,,,,,,,,,,,,,,,,,,,,,,,,,,,,,,,,,,,,,,,,,,,,,,,,,,,,,,,,,,,,,,,,,,,,,,,,,,MET09602/10/23 13:54:02 METAR KLNK 101954Z 00000KT 10SM CLR 06/M09 A3046 RMK AO2 SLP327 T00561094 (RC),,,,,,,,,,3/26/2007
USW00014939,2023-02-10T14:54:00,40.8508,-96.7475,362.7,"LINCOLN AIRPORT, NE US",FM-15,343,1030.5,-10,5.6,0,,-2.5,8,32,CLR:00,1031.7,987.1,16.093,0.2,,,0,,,,,,,,,,,,,,,,,,,,,,,,,,,,,,,,,,,,,,,,,,,,,,,,,,,,,,,,,,,,,,,,,,,,,,,,,,,,,,,,,,,,,,,,,,,MET10202/10/23 14:54:02 METAR KLNK 102054Z 00000KT 10SM CLR 06/M10 A3043 RMK AO2 SLP317 T00561100 58025 (RC),,,,,,,,,,3/26/2007
USW00014939,2023-02-10T15:54:00,40.8508,-96.7475,362.7,"LINCOLN AIRPORT, NE US",FM-15,343,1029.8,-10.6,6.1,0,,,,29,CLR:00,1031.1,986.5,16.093,0.4,230,,3.6,,,,,,,,,,,,,,,,,,,,,,,,,,,,,,,,,,,,,,,,,,,,,,,,,,,,,,,,,,,,,,,,,,,,,,,,,,,,,,,,,,,,,,,,,,,MET09602/10/23 15:54:02 METAR KLNK 102154Z 23007KT 10SM CLR 06/M11 A3041 RMK AO2 SLP311 T00611106 (RC),,,,,,,,,,3/26/2007
USW00014939,2023-02-10T16:54:00,40.8508,-96.7475,362.7,"LINCOLN AIRPORT, NE US",FM-15,343,1029.5,-10.6,5.6,0,,,,30,CLR:00,1030.8,986.1,16.093,0,230,,3.6,,,,,,,,,,,,,,,,,,,,,,,,,,,,,,,,,,,,,,,,,,,,,,,,,,,,,,,,,,,,,,,,,,,,,,,,,,,,,,,,,,,,,,,,,,,MET09602/10/23 16:54:02 METAR KLNK 102254Z 23007KT 10SM CLR 06/M11 A3040 RMK AO2 SLP308 T00561106 (RC),,,,,,,,,,3/26/2007
USW00014939,2023-02-10T17:54:00,40.8508,-96.7475,362.7,"LINCOLN AIRPORT, NE US",FM-15,343,1029.5,-10,3.9,0,,-0.9,6,36,CLR:00,1030.9,986.1,16.093,-0.8,220,,2.1,,,,,,,,,,,,,,,,,,,,,,,,,,,,,,,,,,,,,,,,,,,,,,,,,,,,,,,,,,,,,,,,,,,,,,,,,,,,,,,,,,,,,,,,,,,MET11402/10/23 17:54:02 METAR KLNK 102354Z 22004KT 10SM CLR 04/M10 A3040 RMK AO2 SLP309 T00391100 10067 20022 56009 (RT),,,,,,,,,,3/26/2007
USW00014939,2023-02-10T18:00:00,40.8508,-96.7475,362.7,"LINCOLN AIRPORT, NE US",FM-12,223,,-10,3.9,,,-0.9,6,36,,1030.9,985.9,,-0.8,220,,2.1,,,,,,,,,,,,,,,,,,,,,,,,,,,,,,,,,,,,,,,,,,,,,,,,,,,,,,,,,,,,,,,,,,,,,,,,,,,,,,,,,,,,,,,,,,,SYN08072551 32966 02204 10039 21100 39859 40309 56009 92354 333 10067 21071 555 91100=,,,,,,,,,,3/26/2007
USW00014939,2023-02-10T18:54:00,40.8508,-96.7475,362.7,"LINCOLN AIRPORT, NE US",FM-15,343,1029.5,-10.6,0,0,,,,45,CLR:00,1031,986.1,16.093,-3.3,210,,2.1,,,,,,,,,,,,,,,,,,,,,,,,,,,,,,,,,,,,,,,,,,,,,,,,,,,,,,,,,,,,,,,,,,,,,,,,,,,,,,,,,,,,,,,,,,,MET09102/10/23 18:54:01 METAR KLNK 110054Z 21004KT 10SM CLR 00/M11 A3040 RMK AO2 SLP310 T00001106,,,,,,,,,,3/26/2007
USW00014939,2023-02-10T19:54:00,40.8508,-96.7475,362.7,"LINCOLN AIRPORT, NE US",FM-15,343,1029.1,-10.6,-2.8,0,,,,55,CLR:00,1030.9,985.8,16.093,-5.1,180,,1.5,,,,,,,,,,,,,,,,,,,,,,,,,,,,,,,,,,,,,,,,,,,,,,,,,,,,,,,,,,,,,,,,,,,,,,,,,,,,,,,,,,,,,,,,,,,MET09202/10/23 19:54:01 METAR KLNK 110154Z 18003KT 10SM CLR M03/M11 A3039 RMK AO2 SLP309 T10281106,,,,,,,,,,3/26/2007
USW00014939,2023-02-10T20:54:00,40.8508,-96.7475,362.7,"LINCOLN AIRPORT, NE US",FM-15,343,1029.1,-10,-3.9,0,,-0.3,6,63,CLR:00,1030.8,985.8,16.093,-5.7,170,,3.6,,,,,,,,,,,,,,,,,,,,,,,,,,,,,,,,,,,,,,,,,,,,,,,,,,,,,,,,,,,,,,,,,,,,,,,,,,,,,,,,,,,,,,,,,,,MET09802/10/23 20:54:01 METAR KLNK 110254Z 17007KT 10SM CLR M04/M10 A3039 RMK AO2 SLP308 T10391100 56003,,,,,,,,,,3/26/2007
USW00014939,2023-02-10T21:54:00,40.8508,-96.7475,362.7,"LINCOLN AIRPORT, NE US",FM-15,343,1029.1,-10,-3.9,0,,,,63,CLR:00,1030.7,985.8,16.093,-5.7,160,,3.1,,,,,,,,,,,,,,,,,,,,,,,,,,,,,,,,,,,,,,,,,,,,,,,,,,,,,,,,,,,,,,,,,,,,,,,,,,,,,,,,,,,,,,,,,,,MET09202/10/23 21:54:02 METAR KLNK 110354Z 16006KT 10SM CLR M04/M10 A3039 RMK AO2 SLP307 T10391100,,,,,,,,,,3/26/2007
USW00014939,2023-02-10T22:54:00,40.8508,-96.7475,362.7,"LINCOLN AIRPORT, NE US",FM-15,343,1029.1,-10,-2.8,0,,,,58,CLR:00,1030.4,985.8,16.093,-5,160,,2.1,,,,,,,,,,,,,,,,,,,,,,,,,,,,,,,,,,,,,,,,,,,,,,,,,,,,,,,,,,,,,,,,,,,,,,,,,,,,,,,,,,,,,,,,,,,MET09202/10/23 22:54:02 METAR KLNK 110454Z 16004KT 10SM CLR M03/M10 A3039 RMK AO2 SLP304 T10281100,,,,,,,,,,3/26/2007
USW00014939,2023-02-10T23:54:00,40.8508,-96.7475,362.7,"LINCOLN AIRPORT, NE US",FM-15,343,1028.8,-10.6,-3.9,0,,-0.4,8,60,CLR:00,1030.1,985.5,16.093,-5.9,160,,2.1,,,,,,,,,,,,,,,,,,,,,,,,,,,,,,,,,,,,,,,,,,,,,,,,,,,,,,,,,,,,,,,,,,,,,,,,,,,,,,,,,,,,,,,,,,,MET12002/10/23 23:54:02 METAR KLNK 110554Z 16004KT 10SM CLR M04/M11 A3038 RMK AO2 SLP301 T10391106 10044 21044 400671100 58004,,,,,,,,,,3/26/2007
USW00014939,2023-02-11T00:00:00,40.8508,-96.7475,362.7,"LINCOLN AIRPORT, NE US",FM-12,223,,-10.6,-3.9,,,-0.4,8,60,,1030.1,985.2,,-5.9,160,,2.1,,,,,,,,,,,,,,,,,,,,,,,,,,,,,,,,,,,,,,,,,,,,,,,,,,,,,,,,,,,,,,,,,,,,,,,,,,,,,,,,,,,,,,,,,,,SYN08072551 35966 01604 11039 21106 39852 40301 58004 90554 333 10044 21072 555 91106=,,,,,,,,,,3/26/2007
USW00014939,2023-02-11T00:00:00,40.8508,-96.7475,362.7,"LINCOLN AIRPORT, NE US",SOD,,,,,,,,,,,,,,,,,,728,1755,-10.6,3.1,42,1024.4,980,-2.2,4.4,0,5.27,15.2,12.2,-6,210,11.6,0,0,0,210,9.4,,,,,,,,,,,,,,,,,,,,,,,,,,,,,,,,,,,,,,,,,,,,,,,,,,,,,,,,,,,,,,,,,,,,,,,,,,,,,,,,3/26/2007
USW00014939,2023-02-11T00:54:00,40.8508,-96.7475,362.7,"LINCOLN AIRPORT, NE US",FM-15,343,1028.4,-11.1,-6.1,0,,,,68,CLR:00,1029.7,985.2,16.093,-7.5,190,,3.1,,,,,,,,,,,,,,,,,,,,,,,,,,,,,,,,,,,,,,,,,,,,,,,,,,,,,,,,,,,,,,,,,,,,,,,,,,,,,,,,,,,,,,,,,,,MET09202/11/23 00:54:02 METAR KLNK 110654Z 19006KT 10SM CLR M06/M11 A3037 RMK AO2 SLP297 T10611111,,,,,,,,,,3/26/2007
USW00014939,2023-02-11T01:54:00,40.8508,-96.7475,362.7,"LINCOLN AIRPORT, NE US",FM-15,343,1027.8,-11.1,-5.6,0,,,,66,CLR:00,1029.1,984.5,16.093,-7.1,180,,3.6,,,,,,,,,,,,,,,,,,,,,,,,,,,,,,,,,,,,,,,,,,,,,,,,,,,,,,,,,,,,,,,,,,,,,,,,,,,,,,,,,,,,,,,,,,,MET09202/11/23 01:54:02 METAR KLNK 110754Z 18007KT 10SM CLR M06/M11 A3035 RMK AO2 SLP291 T10561111,,,,,,,,,,3/26/2007
USW00014939,2023-02-11T02:54:00,40.8508,-96.7475,362.7,"LINCOLN AIRPORT, NE US",FM-15,343,1027.4,-10.6,-5,0,,-1.3,6,65,CLR:00,1028.6,984.2,16.093,-6.6,190,,2.6,,,,,,,,,,,,,,,,,,,,,,,,,,,,,,,,,,,,,,,,,,,,,,,,,,,,,,,,,,,,,,,,,,,,,,,,,,,,,,,,,,,,,,,,,,,MET09802/11/23 02:54:02 METAR KLNK 110854Z 19005KT 10SM CLR M05/M11 A3034 RMK AO2 SLP286 T10501106 56013,,,,,,,,,,3/26/2007
USW00014939,2023-02-11T03:54:00,40.8508,-96.7475,362.7,"LINCOLN AIRPORT, NE US",FM-15,343,1027.1,-10.6,-2.8,0,,,,55,CLR:00,1028,983.9,16.093,-5.1,200,,4.1,,,,,,,,,,,,,,,,,,,,,,,,,,,,,,,,,,,,,,,,,,,,,,,,,,,,,,,,,,,,,,,,,,,,,,,,,,,,,,,,,,,,,,,,,,,MET09202/11/23 03:54:02 METAR KLNK 110954Z 20008KT 10SM CLR M03/M11 A3033 RMK AO2 SLP280 T10281106,,,,,,,,,,3/26/2007
USW00014939,2023-02-11T04:54:00,40.8508,-96.7475,362.7,"LINCOLN AIRPORT, NE US",FM-15,343,1026.4,-11.7,-6.1,0,,,,65,CLR:00,1027.5,983.2,16.093,-7.7,190,,3.6,,,,,,,,,,,,,,,,,,,,,,,,,,,,,,,,,,,,,,,,,,,,,,,,,,,,,,,,,,,,,,,,,,,,,,,,,,,,,,,,,,,,,,,,,,,MET09202/11/23 04:54:02 METAR KLNK 111054Z 19007KT 10SM CLR M06/M12 A3031 RMK AO2 SLP275 T10611117,,,,,,,,,,3/26/2007
USW00014939,2023-02-11T05:54:00,40.8508,-96.7475,362.7,"LINCOLN AIRPORT, NE US",FM-15,343,1026.4,-12.2,-6.1,0,,-1.1,6,62,CLR:00,1027.7,983.2,16.093,-7.8,190,,3.1,,,,,,,,,,,,,,,,,,,,,,,,,,,,,,,,,,,,,,,,,,,,,,,,,,,,,,,,,,,,,,,,,,,,,,,,,,,,,,,,,,,,,,,,,,,MET11002/11/23 05:54:02 METAR KLNK 111154Z 19006KT 10SM CLR M06/M12 A3031 RMK AO2 SLP277 T10611122 11028 21061 56011,,,,,,,,,,3/26/2007
USW00014939,2023-02-11T06:00:00,40.8508,-96.7475,362.7,"LINCOLN AIRPORT, NE US",FM-12,223,,-12.2,-6.1,,,-1.1,6,62,,1027.7,982.9,,-7.8,190,,3.1,,,,,,,,,,,,,,,,,,,,,,,,,,,,,,,,,,,,,,,,,,,,,,,,,,,,,,,,,,,,,,,,,,,,,,,,,,,,,,,,,,,,,,,,,,,SYN08072551 35966 01906 11061 21122 39829 40277 56011 91154 333 10067 21061 555 91112=,,,,,,,,,,3/26/2007
USW00014939,2023-02-11T06:54:00,40.8508,-96.7475,362.7,"LINCOLN AIRPORT, NE US",FM-15,343,1026.8,-12.2,-5,0,,,,57,CLR:00,1028.1,983.5,16.093,-7,200,,2.6,,,,,,,,,,,,,,,,,,,,,,,,,,,,,,,,,,,,,,,,,,,,,,,,,,,,,,,,,,,,,,,,,,,,,,,,,,,,,,,,,,,,,,,,,,,MET09702/11/23 06:54:02 METAR KLNK 111254Z 20005KT 10SM CLR M05/M12 A3032 RMK AO2 SLP281 T10501122 (HN),,,,,,,,,,3/26/2007
USW00014939,2023-02-11T07:54:00,40.8508,-96.7475,362.7,"LINCOLN AIRPORT, NE US",FM-15,343,1026.4,-11.7,-4.4,0,,,,57,CLR:00,1027.8,983.2,16.093,-6.5,200,,2.6,,,,,,,,,,,,,,,,,,,,,,,,,,,,,,,,,,,,,,,,,,,,,,,,,,,,,,,,,,,,,,,,,,,,,,,,,,,,,,,,,,,,,,,,,,,MET09702/11/23 07:54:02 METAR KLNK 111354Z 20005KT 10SM CLR M04/M12 A3031 RMK AO2 SLP278 T10441117 (HN),,,,,,,,,,3/26/2007
USW00014939,2023-02-11T08:54:00,40.8508,-96.7475,362.7,"LINCOLN AIRPORT, NE US",FM-15,343,1026.1,-10.6,-1.1,0,,-0.2,8,49,CLR:00,1027.6,982.9,16.093,-4.1,200,,3.6,,,,,,,,,,,,,,,,,,,,,,,,,,,,,,,,,,,,,,,,,,,,,,,,,,,,,,,,,,,,,,,,,,,,,,,,,,,,,,,,,,,,,,,,,,,MET10302/11/23 08:54:02 METAR KLNK 111454Z 20007KT 10SM CLR M01/M11 A3030 RMK AO2 SLP276 T10111106 58002 (HN),,,,,,,,,,3/26/2007
USW00014939,2023-02-11T09:54:00,40.8508,-96.7475,362.7,"LINCOLN AIRPORT, NE US",FM-15,343,1025.7,-10.6,2.8,0,,,,37,CLR:00,1027.1,982.5,16.093,-1.6,220,,5.1,,,,,,,,,,,,,,,,,,,,,,,,,,,,,,,,,,,,,,,,,,,,,,,,,,,,,,,,,,,,,,,,,,,,,,,,,,,,,,,,,,,,,,,,,,,MET09602/11/23 09:54:02 METAR KLNK 111554Z 22010KT 10SM CLR 03/M11 A3029 RMK AO2 SLP271 T00281106 (HN),,,,,,,,,,3/26/2007
USW00014939,2023-02-11T10:54:00,40.8508,-96.7475,362.7,"LINCOLN AIRPORT, NE US",FM-15,343,1025.4,-9.4,5.6,0,,,,33,CLR:00,1026.5,982.2,16.093,0.3,210,,5.7,,,,,,,,,,,,,,,,,,,,,,,,,,,,,,,,,,,,,,,,,,,,,,,,,,,,,,,,,,,,,,,,,,,,,,,,,,,,,,,,,,,,,,,,,,,MET09602/11/23 10:54:02 METAR KLNK 111654Z 21011KT 10SM CLR 06/M09 A3028 RMK AO2 SLP265 T00561094 (HN),,,,,,,,,,3/26/2007
USW00014939,2023-02-11T11:54:00,40.8508,-96.7475,362.7,"LINCOLN AIRPORT, NE US",FM-15,343,1024.4,-10,8.9,0,,-1.7,8,25,CLR:00,1025.3,981.2,16.093,2.1,210,,6.2,,,,,,,,,,,,,,,,,,,,,,,,,,,,,,,,,,,,,,,,,,,,,,,,,,,,,,,,,,,,,,,,,,,,,,,,,,,,,,,,,,,,,,,,,,,MET10902/11/23 11:54:02 METAR KLNK 111754Z 21012KT 10SM CLR 09/M10 A3025 RMK AO2 SLP253 T00891100 10089 21061 58017,,,,,,,,,,3/26/2007
USW00014939,2023-02-11T12:00:00,40.8508,-96.7475,362.7,"LINCOLN AIRPORT, NE US",FM-12,223,,-10,8.9,,,-1.7,8,25,,1025.3,981,,2.1,210,,6.2,,,,,,,,,,,,,,,,,,,,,,,,,,,,,,,,,,,,,,,,,,,,,,,,,,,,,,,,,,,,,,,,,,,,,,,,,,,,,,,,,,,,,,,,,,,SYN08072551 32966 02112 10089 21100 39810 40253 58017 91754 333 10089 21061 555 91118=,,,,,,,,,,3/26/2007
USW00014939,2023-02-11T12:54:00,40.8508,-96.7475,362.7,"LINCOLN AIRPORT, NE US",FM-15,343,1023.4,-9.4,10,0,,,,25,CLR:00,1024.1,980.3,16.093,2.8,210,9.8,7.7,,,,,,,,,,,,,,,,,,,,,,,,,,,,,,,,,,,,,,,,,,,,,,,,,,,,,,,,,,,,,,,,,,,,,,,,,,,,,,,,,,,,,,,,,,,MET09402/11/23 12:54:02 METAR KLNK 111854Z 21015G19KT 10SM CLR 10/M09 A3022 RMK AO2 SLP241 T01001094,,,,,,,,,,3/26/2007
USW00014939,2023-02-11T13:54:00,40.8508,-96.7475,362.7,"LINCOLN AIRPORT, NE US",FM-15,343,1021.7,-10.6,11.1,0,,,,21,CLR:00,1022.7,978.6,16.093,3.1,200,,8.2,,,,,,,,,,,,,,,,,,,,,,,,,,,,,,,,,,,,,,,,,,,,,,,,,,,,,,,,,,,,,,,,,,,,,,,,,,,,,,,,,,,,,,,,,,,MET09102/11/23 13:54:02 METAR KLNK 111954Z 20016KT 10SM CLR 11/M11 A3017 RMK AO2 SLP227 T01111106,,,,,,,,,,3/26/2007
USW00014939,2023-02-11T14:54:00,40.8508,-96.7475,362.7,"LINCOLN AIRPORT, NE US",FM-15,343,1021,-11.1,12.2,0,,-3.4,6,19,CLR:00,1021.6,978,16.093,3.6,210,,7.2,,,,,,,,,,,,,,,,,,,,,,,,,,,,,,,,,,,,,,,,,,,,,,,,,,,,,,,,,,,,,,,,,,,,,,,,,,,,,,,,,,,,,,,,,,,MET09702/11/23 14:54:02 METAR KLNK 112054Z 21014KT 10SM CLR 12/M11 A3015 RMK AO2 SLP216 T01221111 56034,,,,,,,,,,3/26/2007
USW00014939,2023-02-11T15:54:00,40.8508,-96.7475,362.7,"LINCOLN AIRPORT, NE US",FM-15,343,1020.3,-10.6,12.2,0,,,,19,CLR:00,1021,977.3,16.093,3.7,190,,6.7,,,,,,,,,,,,,,,,,,,,,,,,,,,,,,,,,,,,,,,,,,,,,,,,,,,,,,,,,,,,,,,,,,,,,,,,,,,,,,,,,,,,,,,,,,,MET09102/11/23 15:54:02 METAR KLNK 112154Z 19013KT 10SM CLR 12/M11 A3013 RMK AO2 SLP210 T01221106,,,,,,,,,,3/26/2007
USW00014939,2023-02-11T16:54:00,40.8508,-96.7475,362.7,"LINCOLN AIRPORT, NE US",FM-15,343,1020,-11.1,11.1,0,,,,20,CLR:00,1020.9,977,16.093,3,200,,5.7,,,,,,,,,,,,,,,,,,,,,,,,,,,,,,,,,,,,,,,,,,,,,,,,,,,,,,,,,,,,,,,,,,,,,,,,,,,,,,,,,,,,,,,,,,,MET09102/11/23 16:54:02 METAR KLNK 112254Z 20011KT 10SM CLR 11/M11 A3012 RMK AO2 SLP209 T01111111,,,,,,,,,,3/26/2007
USW00014939,2023-02-11T17:54:00,40.8508,-96.7475,362.7,"LINCOLN AIRPORT, NE US",FM-15,343,1020,-10.6,6.7,0,,-1,6,28,CLR:00,1021,977,16.093,0.7,190,,5.1,,,,,,,,,,,,,,,,,,,,,,,,,,,,,,,,,,,,,,,,,,,,,,,,,,,,,,,,,,,,,,,,,,,,,,,,,,,,,,,,,,,,,,,,,,,MET10902/11/23 17:54:02 METAR KLNK 112354Z 19010KT 10SM CLR 07/M11 A3012 RMK AO2 SLP210 T00671106 10122 20067 56010,,,,,,,,,,3/26/2007
USW00014939,2023-02-11T18:00:00,40.8508,-96.7475,362.7,"LINCOLN AIRPORT, NE US",FM-12,223,,-10.6,6.7,,,-1,6,28,,1021,976.7,,0.7,190,,5.1,,,,,,,,,,,,,,,,,,,,,,,,,,,,,,,,,,,,,,,,,,,,,,,,,,,,,,,,,,,,,,,,,,,,,,,,,,,,,,,,,,,,,,,,,,,SYN08072551 32966 01910 10067 21106 39767 40210 56010 92354 333 10122 21060 555 91200=,,,,,,,,,,3/26/2007
USW00014939,2023-02-11T18:54:00,40.8508,-96.7475,362.7,"LINCOLN AIRPORT, NE US",FM-15,343,1020,-10.6,3.3,0,,,,36,CLR:00,1021.1,977,16.093,-1.3,170,,3.6,,,,,,,,,,,,,,,,,,,,,,,,,,,,,,,,,,,,,,,,,,,,,,,,,,,,,,,,,,,,,,,,,,,,,,,,,,,,,,,,,,,,,,,,,,,MET09602/11/23 18:54:03 METAR KLNK 120054Z 17007KT 10SM CLR 03/M11 A3012 RMK AO2 SLP211 T00331106 (BV),,,,,,,,,,3/26/2007
USW00014939,2023-02-11T19:54:00,40.8508,-96.7475,362.7,"LINCOLN AIRPORT, NE US",FM-15,343,1019.3,-11.1,-1.7,0,,,,49,CLR:00,1020.8,976.3,16.093,-4.6,180,,4.6,,,,,,,,,,,,,,,,,,,,,,,,,,,,,,,,,,,,,,,,,,,,,,,,,,,,,,,,,,,,,,,,,,,,,,,,,,,,,,,,,,,,,,,,,,,MET10202/11/23 19:54:03 METAR KLNK 120154Z 18009KT 10SM CLR M02/M11 A3010 RMK AO2 SLP208 T10171111 FIBI (BV),,,,,,,,,,3/26/2007
USW00014939,2023-02-11T20:54:00,40.8508,-96.7475,362.7,"LINCOLN AIRPORT, NE US",FM-15,343,1018.6,-10.6,0,0,,-1.2,8,45,CLR:00,1019.9,975.7,16.093,-3.4,180,,3.1,,,,,,,,,,,,,,,,,,,,,,,,,,,,,,,,,,,,,,,,,,,,,,,,,,,,,,,,,,,,,,,,,,,,,,,,,,,,,,,,,,,,,,,,,,,MET09702/11/23 20:54:01 METAR KLNK 120254Z 18006KT 10SM CLR 00/M11 A3008 RMK AO2 SLP199 T00001106 58012,,,,,,,,,,3/26/2007
USW00014939,2023-02-11T21:54:00,40.8508,-96.7475,362.7,"LINCOLN AIRPORT, NE US",FM-15,343,1018.3,-10.6,0.6,0,,,,43,CLR:00,1019.2,975.3,16.093,-3,170,,3.1,,,,,,,,,,,,,,,,,,,,,,,,,,,,,,,,,,,,,,,,,,,,,,,,,,,,,,,,,,,,,,,,,,,,,,,,,,,,,,,,,,,,,,,,,,,MET09102/11/23 21:54:01 METAR KLNK 120354Z 17006KT 10SM CLR 01/M11 A3007 RMK AO2 SLP192 T00061106,,,,,,,,,,3/26/2007
USW00014939,2023-02-11T22:54:00,40.8508,-96.7475,362.7,"LINCOLN AIRPORT, NE US",FM-15,343,1017.9,-10.6,0.6,0,,,,43,CLR:00,1018.8,975,16.093,-3,170,,2.6,,,,,,,,,,,,,,,,,,,,,,,,,,,,,,,,,,,,,,,,,,,,,,,,,,,,,,,,,,,,,,,,,,,,,,,,,,,,,,,,,,,,,,,,,,,MET09102/11/23 22:54:01 METAR KLNK 120454Z 17005KT 10SM CLR 01/M11 A3006 RMK AO2 SLP188 T00061106,,,,,,,,,,3/26/2007
USW00014939,2023-02-11T23:54:00,40.8508,-96.7475,362.7,"LINCOLN AIRPORT, NE US",FM-15,343,1017.6,-10.6,1.1,0,,-0.9,6,42,CLR:00,1018.3,974.7,16.093,-2.7,160,,2.6,,,,,,,,,,,,,,,,,,,,,,,,,,,,,,,,,,,,,,,,,,,,,,,,,,,,,,,,,,,,,,,,,,,,,,,,,,,,,,,,,,,,,,,,,,,MET11902/11/23 23:54:01 METAR KLNK 120554Z 16005KT 10SM CLR 01/M11 A3005 RMK AO2 SLP183 T00111106 10061 21017 401221061 56009,,,,,,,,,,3/26/2007
USW00014939,2023-02-12T00:00:00,40.8508,-96.7475,362.7,"LINCOLN AIRPORT, NE US",FM-12,223,,-10.6,1.1,,,-0.9,6,42,,1018.3,974.4,,-2.7,160,,2.6,,,,,,,,,,,,,,,,,,,,,,,,,,,,,,,,,,,,,,,,,,,,,,,,,,,,,,,,,,,,,,,,,,,,,,,,,,,,,,,,,,,,,,,,,,,SYN08072551 35966 01605 10011 21106 39744 40183 56009 90554 333 10061 21061 555 91206=,,,,,,,,,,3/26/2007
USW00014939,2023-02-12T00:00:00,40.8508,-96.7475,362.7,"LINCOLN AIRPORT, NE US",SOD,,,,,,,,,,,,,,,,,,727,1757,-5.6,2.6,58,1015.9,971.2,-0.6,2.2,0,4.6,15.7,10.6,-5.5,350,9.4,0,0,0,10,7.2,,,,,,,,,,,,,,,,,,,,,,,,,,,,,,,,,,,,,,,,,,,,,,,,,,,,,,,,,,,,,,,,,,,,,,,,,,,,,,,,3/26/2007
USW00014939,2023-02-12T00:54:00,40.8508,-96.7475,362.7,"LINCOLN AIRPORT, NE US",FM-15,343,1017.6,-10,0.6,0,,,,45,CLR:00,1018,974.7,16.093,-2.9,130,,2.1,,,,,,,,,,,,,,,,,,,,,,,,,,,,,,,,,,,,,,,,,,,,,,,,,,,,,,,,,,,,,,,,,,,,,,,,,,,,,,,,,,,,,,,,,,,MET09102/12/23 00:54:02 METAR KLNK 120654Z 13004KT 10SM CLR 01/M10 A3005 RMK AO2 SLP180 T00061100,,,,,,,,,,3/26/2007
USW00014939,2023-02-12T01:54:00,40.8508,-96.7475,362.7,"LINCOLN AIRPORT, NE US",FM-15,343,1016.6,-10,-0.6,0,,,,49,CLR:00,1017.3,973.7,16.093,-3.6,150,,3.1,,,,,,,,,,,,,,,,,,,,,,,,,,,,,,,,,,,,,,,,,,,,,,,,,,,,,,,,,,,,,,,,,,,,,,,,,,,,,,,,,,,,,,,,,,,MET09202/12/23 01:54:02 METAR KLNK 120754Z 15006KT 10SM CLR M01/M10 A3002 RMK AO2 SLP173 T10061100,,,,,,,,,,3/26/2007
USW00014939,2023-02-12T02:54:00,40.8508,-96.7475,362.7,"LINCOLN AIRPORT, NE US",FM-15,343,1016.3,-9.4,-2.2,0,,-1.5,8,58,CLR:00,1016.8,973.4,16.093,-4.5,170,,3.1,,,,,,,,,,,,,,,,,,,,,,,,,,,,,,,,,,,,,,,,,,,,,,,,,,,,,,,,,,,,,,,,,,,,,,,,,,,,,,,,,,,,,,,,,,,MET09802/12/23 02:54:02 METAR KLNK 120854Z 17006KT 10SM CLR M02/M09 A3001 RMK AO2 SLP168 T10221094 58015,,,,,,,,,,3/26/2007
USW00014939,2023-02-12T03:54:00,40.8508,-96.7475,362.7,"LINCOLN AIRPORT, NE US",FM-15,343,1015.2,-9.4,-1.7,0,,,,56,CLR:00,1015.9,972.4,16.093,-4.1,150,,2.6,,,,,,,,,,,,,,,,,,,,,,,,,,,,,,,,,,,,,,,,,,,,,,,,,,,,,,,,,,,,,,,,,,,,,,,,,,,,,,,,,,,,,,,,,,,MET09202/12/23 03:54:02 METAR KLNK 120954Z 15005KT 10SM CLR M02/M09 A2998 RMK AO2 SLP159 T10171094,,,,,,,,,,3/26/2007
USW00014939,2023-02-12T04:54:00,40.8508,-96.7475,362.7,"LINCOLN AIRPORT, NE US",FM-15,343,1014.9,-8.9,0.6,0,,,,49,CLR:00,1015.4,972.1,16.093,-2.6,180,,1.5,,,,,,,,,,,,,,,,,,,,,,,,,,,,,,,,,,,,,,,,,,,,,,,,,,,,,,,,,,,,,,,,,,,,,,,,,,,,,,,,,,,,,,,,,,,MET09102/12/23 04:54:02 METAR KLNK 121054Z 18003KT 10SM CLR 01/M09 A2997 RMK AO2 SLP154 T00061089,,,,,,,,,,3/26/2007
USW00014939,2023-02-12T05:54:00,40.8508,-96.7475,362.7,"LINCOLN AIRPORT, NE US",FM-15,343,1014.9,-8.3,-0.6,0,,-1.3,6,56,CLR:00,1015.6,972.1,16.093,-3.1,,,0,,,,,,,,,,,,,,,,,,,,,,,,,,,,,,,,,,,,,,,,,,,,,,,,,,,,,,,,,,,,,,,,,,,,,,,,,,,,,,,,,,,,,,,,,,,MET11502/12/23 05:54:02 METAR KLNK 121154Z 00000KT 10SM CLR M01/M08 A2997 RMK AO2 SLP156 T10061083 10011 21033 56013 (CD),,,,,,,,,,3/26/2007
USW00014939,2023-02-12T06:00:00,40.8508,-96.7475,362.7,"LINCOLN AIRPORT, NE US",FM-12,223,,-8.3,-0.6,,,-1.3,6,56,,1015.6,971.8,,-3.1,,,0,,,,,,,,,,,,,,,,,,,,,,,,,,,,,,,,,,,,,,,,,,,,,,,,,,,,,,,,,,,,,,,,,,,,,,,,,,,,,,,,,,,,,,,,,,,SYN08072551 32966 00000 11006 21083 39718 40156 56013 91154 333 10122 21033 555 91212=,,,,,,,,,,3/26/2007
USW00014939,2023-02-12T06:54:00,40.8508,-96.7475,362.7,"LINCOLN AIRPORT, NE US",FM-15,343,1014.6,-8.9,-2.8,0,,,,63,CLR:00,1015.7,971.8,16.093,-4.7,,,0,,,,,,,,,,,,,,,,,,,,,,,,,,,,,,,,,,,,,,,,,,,,,,,,,,,,,,,,,,,,,,,,,,,,,,,,,,,,,,,,,,,,,,,,,,,MET09702/12/23 06:54:02 METAR KLNK 121254Z 00000KT 10SM CLR M03/M09 A2996 RMK AO2 SLP157 T10281089 (CD),,,,,,,,,,3/26/2007
USW00014939,2023-02-12T07:54:00,40.8508,-96.7475,362.7,"LINCOLN AIRPORT, NE US",FM-15,343,1015.2,-9.4,-4.4,0,,,,68,CLR:00,1016.5,972.4,16.093,-6,,,0,,,,,,,,,,,,,,,,,,,,,,,,,,,,,,,,,,,,,,,,,,,,,,,,,,,,,,,,,,,,,,,,,,,,,,,,,,,,,,,,,,,,,,,,,,,MET09702/12/23 07:54:02 METAR KLNK 121354Z 00000KT 10SM CLR M04/M09 A2998 RMK AO2 SLP165 T10441094 (CD),,,,,,,,,,3/26/2007
USW00014939,2023-02-12T08:54:00,40.8508,-96.7475,362.7,"LINCOLN AIRPORT, NE US",FM-15,343,1014.6,-6.7,1.1,0,,-0.1,8,56,CLR:00,1015.7,971.8,16.093,-1.6,,,0,,,,,,,,,,,,,,,,,,,,,,,,,,,,,,,,,,,,,,,,,,,,,,,,,,,,,,,,,,,,,,,,,,,,,,,,,,,,,,,,,,,,,,,,,,,MET10202/12/23 08:54:02 METAR KLNK 121454Z 00000KT 10SM CLR 01/M07 A2996 RMK AO2 SLP157 T00111067 58001 (CD),,,,,,,,,,3/26/2007
USW00014939,2023-02-12T09:54:00,40.8508,-96.7475,362.7,"LINCOLN AIRPORT, NE US",FM-15,343,1014.2,-6.1,3.3,0,,,,51,CLR:00,1015,971.4,16.093,-0.1,,,0,,,,,,,,,,,,,,,,,,,,,,,,,,,,,,,,,,,,,,,,,,,,,,,,,,,,,,,,,,,,,,,,,,,,,,,,,,,,,,,,,,,,,,,,,,,MET09602/12/23 09:54:02 METAR KLNK 121554Z 00000KT 10SM CLR 03/M06 A2995 RMK AO2 SLP150 T00331061 (CD),,,,,,,,,,3/26/2007
USW00014939,2023-02-12T10:54:00,40.8508,-96.7475,362.7,"LINCOLN AIRPORT, NE US",FM-15,343,1013.9,-5.6,6.1,0,,,,43,CLR:00,1014.7,971.1,16.093,1.6,,,0,,,,,,,,,,,,,,,,,,,,,,,,,,,,,,,,,,,,,,,,,,,,,,,,,,,,,,,,,,,,,,,,,,,,,,,,,,,,,,,,,,,,,,,,,,,MET09602/12/23 10:54:02 METAR KLNK 121654Z 00000KT 10SM CLR 06/M06 A2994 RMK AO2 SLP147 T00611056 (CD),,,,,,,,,,3/26/2007
USW00014939,2023-02-12T11:54:00,40.8508,-96.7475,362.7,"LINCOLN AIRPORT, NE US",FM-15,343,1013.5,-6.1,8.9,0,,-1.3,7,34,CLR:00,1013.9,970.8,16.093,3,360,,2.6,,,,,,,,,,,,,,,,,,,,,,,,,,,,,,,,,,,,,,,,,,,,,,,,,,,,,,,,,,,,,,,,,,,,,,,,,,,,,,,,,,,,,,,,,,,MET11402/12/23 11:54:02 METAR KLNK 121754Z 36005KT 10SM CLR 09/M06 A2993 RMK AO2 SLP139 T00891061 10089 21056 57013 (CD),,,,,,,,,,3/26/2007
USW00014939,2023-02-12T12:00:00,40.8508,-96.7475,362.7,"LINCOLN AIRPORT, NE US",FM-12,223,,-6.1,8.9,,,-1.3,7,34,,1013.9,970.5,,3,360,,2.6,,,,,,,,,,,,,,,,,,,,,,,,,,,,,,,,,,,,,,,,,,,,,,,,,,,,,,,,,,,,,,,,,,,,,,,,,,,,,,,,,,,,,,,,,,,SYN08072551 32966 03605 10089 21061 39705 40139 57013 91754 333 10089 21056 555 91218=,,,,,,,,,,3/26/2007
USW00014939,2023-02-12T12:54:00,40.8508,-96.7475,362.7,"LINCOLN AIRPORT, NE US",FM-15,343,1012.5,-5.6,10.6,0,,,,32,CLR:00,1013.1,969.8,16.093,4.1,310,,2.1,,,,,,,,,,,,,,,,,,,,,,,,,,,,,,,,,,,,,,,,,,,,,,,,,,,,,,,,,,,,,,,,,,,,,,,,,,,,,,,,,,,,,,,,,,,MET09602/12/23 12:54:02 METAR KLNK 121854Z 31004KT 10SM CLR 11/M06 A2990 RMK AO2 SLP131 T01061056 (CD),,,,,,,,,,3/26/2007
USW00014939,2023-02-12T13:54:00,40.8508,-96.7475,362.7,"LINCOLN AIRPORT, NE US",FM-15,343,1012.5,-4.4,10.6,0,,,,35,CLR:00,1012.9,969.8,16.093,4.4,20,,4.6,,,,,,,,,,,,,,,,,,,,,,,,,,,,,,,,,,,,,,,,,,,,,,,,,,,,,,,,,,,,,,,,,,,,,,,,,,,,,,,,,,,,,,,,,,,MET09602/12/23 13:54:02 METAR KLNK 121954Z 02009KT 10SM CLR 11/M04 A2990 RMK AO2 SLP129 T01061044 (CD),,,,,,,,,,3/26/2007
USW00014939,2023-02-12T14:54:00,40.8508,-96.7475,362.7,"LINCOLN AIRPORT, NE US",FM-15,343,1012.9,-1.7,9.4,0,,-0.5,5,46,CLR:00,1013.5,970.1,16.093,4.7,360,,4.1,,,,,,,,,,,,,,,,,,,,,,,,,,,,,,,,,,,,,,,,,,,,,,,,,,,,,,,,,,,,,,,,,,,,,,,,,,,,,,,,,,,,,,,,,,,MET10202/12/23 14:54:02 METAR KLNK 122054Z 36008KT 10SM CLR 09/M02 A2991 RMK AO2 SLP135 T00941017 55005 (CO),,,,,,,,,,3/26/2007
USW00014939,2023-02-12T15:54:00,40.8508,-96.7475,362.7,"LINCOLN AIRPORT, NE US",FM-15,343,1012.5,-1.1,7.2,0,,,,56,CLR:00,1013.4,969.8,16.093,3.7,360,,6.7,,,,,,,,,,,,,,,,,,,,,,,,,,,,,,,,,,,,,,,,,,,,,,,,,,,,,,,,,,,,,,,,,,,,,,,,,,,,,,,,,,,,,,,,,,,MET09602/12/23 15:54:02 METAR KLNK 122154Z 36013KT 10SM CLR 07/M01 A2990 RMK AO2 SLP134 T00721011 (JJ),,,,,,,,,,3/26/2007
USW00014939,2023-02-12T16:54:00,40.8508,-96.7475,362.7,"LINCOLN AIRPORT, NE US",FM-15,343,1013.2,-1.1,6.1,0,,,,60,CLR:00,1013.9,970.4,16.093,3.1,10,,4.6,,,,,,,,,,,,,,,,,,,,,,,,,,,,,,,,,,,,,,,,,,,,,,,,,,,,,,,,,,,,,,,,,,,,,,,,,,,,,,,,,,,,,,,,,,,MET09602/12/23 16:54:02 METAR KLNK 122254Z 01009KT 10SM CLR 06/M01 A2992 RMK AO2 SLP139 T00611011 (JJ),,,,,,,,,,3/26/2007
USW00014939,2023-02-12T17:54:00,40.8508,-96.7475,362.7,"LINCOLN AIRPORT, NE US",FM-15,343,1013.5,-1.1,4.4,0,,0.5,3,68,CLR:00,1014.2,970.8,16.093,2.2,360,,4.1,,,,,,,,,,,,,,,,,,,,,,,,,,,,,,,,,,,,,,,,,,,,,,,,,,,,,,,,,,,,,,,,,,,,,,,,,,,,,,,,,,,,,,,,,,,MET11402/12/23 17:54:02 METAR KLNK 122354Z 36008KT 10SM CLR 04/M01 A2993 RMK AO2 SLP142 T00441011 10106 20044 53005 (JJ),,,,,,,,,,3/26/2007
USW00014939,2023-02-12T18:00:00,40.8508,-96.7475,362.7,"LINCOLN AIRPORT, NE US",FM-12,223,,-1.1,4.4,,,0.5,3,68,,1014.2,970.5,,2.2,360,,4.1,,,,,,,,,,,,,,,,,,,,,,,,,,,,,,,,,,,,,,,,,,,,,,,,,,,,,,,,,,,,,,,,,,,,,,,,,,,,,,,,,,,,,,,,,,,SYN08072551 32966 03608 10044 21011 39705 40142 53005 92354 333 10106 21032 555 91300=,,,,,,,,,,3/26/2007
USW00014939,2023-02-12T18:54:00,40.8508,-96.7475,362.7,"LINCOLN AIRPORT, NE US",FM-15,343,1014.6,-1.7,4.4,0,,,,65,CLR:00,1015.5,971.8,16.093,2,350,,4.1,,,,,,,,,,,,,,,,,,,,,,,,,,,,,,,,,,,,,,,,,,,,,,,,,,,,,,,,,,,,,,,,,,,,,,,,,,,,,,,,,,,,,,,,,,,MET09102/12/23 18:54:01 METAR KLNK 130054Z 35008KT 10SM CLR 04/M02 A2996 RMK AO2 SLP155 T00441017,,,,,,,,,,3/26/2007
USW00014939,2023-02-12T19:54:00,40.8508,-96.7475,362.7,"LINCOLN AIRPORT, NE US",FM-15,343,1015.2,-2.2,2.8,0,,,,70,CLR:00,1016.4,972.4,16.093,0.8,340,,4.1,,,,,,,,,,,,,,,,,,,,,,,,,,,,,,,,,,,,,,,,,,,,,,,,,,,,,,,,,,,,,,,,,,,,,,,,,,,,,,,,,,,,,,,,,,,MET09102/12/23 19:54:01 METAR KLNK 130154Z 34008KT 10SM CLR 03/M02 A2998 RMK AO2 SLP164 T00281022,,,,,,,,,,3/26/2007
USW00014939,2023-02-12T20:54:00,40.8508,-96.7475,362.7,"LINCOLN AIRPORT, NE US",FM-15,343,1015.2,-2.8,1.7,0,,1.7,0,72,CLR:00,1016.1,972.4,16.093,0,300,,2.1,,,,,,,,,,,,,,,,,,,,,,,,,,,,,,,,,,,,,,,,,,,,,,,,,,,,,,,,,,,,,,,,,,,,,,,,,,,,,,,,,,,,,,,,,,,MET09702/12/23 20:54:01 METAR KLNK 130254Z 30004KT 10SM CLR 02/M03 A2998 RMK AO2 SLP161 T00171028 50017,,,,,,,,,,3/26/2007
USW00014939,2023-02-12T21:54:00,40.8508,-96.7475,362.7,"LINCOLN AIRPORT, NE US",FM-15,343,1015.2,-3.3,0,0,,,,79,CLR:00,1016.1,972.4,16.093,-1.2,320,,2.1,,,,,,,,,,,,,,,,,,,,,,,,,,,,,,,,,,,,,,,,,,,,,,,,,,,,,,,,,,,,,,,,,,,,,,,,,,,,,,,,,,,,,,,,,,,MET09102/12/23 21:54:01 METAR KLNK 130354Z 32004KT 10SM CLR 00/M03 A2998 RMK AO2 SLP161 T00001033,,,,,,,,,,3/26/2007
USW00014939,2023-02-12T22:54:00,40.8508,-96.7475,362.7,"LINCOLN AIRPORT, NE US",FM-15,343,1014.9,-5.6,-3.3,0,,,,84,CLR:00,1016,972.1,16.093,-4.1,,,0,,,,,,,,,,,,,,,,,,,,,,,,,,,,,,,,,,,,,,,,,,,,,,,,,,,,,,,,,,,,,,,,,,,,,,,,,,,,,,,,,,,,,,,,,,,MET09202/12/23 22:54:01 METAR KLNK 130454Z 00000KT 10SM CLR M03/M06 A2997 RMK AO2 SLP160 T10331056,,,,,,,,,,3/26/2007
USW00014939,2023-02-12T23:54:00,40.8508,-96.7475,362.7,"LINCOLN AIRPORT, NE US",FM-15,343,1015.2,-5.6,-3.9,0,,0.1,3,88,CLR:00,1016.1,972.4,16.093,-4.5,,,0,,,,,,,,,,,,,,,,,,,,,,,,,,,,,,,,,,,,,,,,,,,,,,,,,,,,,,,,,,,,,,,,,,,,,,,,,,,,,,,,,,,,,,,,,,,MET12002/12/23 23:54:01 METAR KLNK 130554Z 00000KT 10SM CLR M04/M06 A2998 RMK AO2 SLP161 T10391056 10050 21050 401061056 53001,,,,,,,,,,3/26/2007
USW00014939,2023-02-13T00:00:00,40.8508,-96.7475,362.7,"LINCOLN AIRPORT, NE US",FM-12,223,,-5.6,-3.9,,,0.1,3,88,,1016.1,972.2,,-4.5,,,0,,,,,,,,,,,,,,,,,,,,,,,,,,,,,,,,,,,,,,,,,,,,,,,,,,,,,,,,,,,,,,,,,,,,,,,,,,,,,,,,,,,,,,,,,,,SYN08072551 35966 00000 11039 21056 39722 40161 53001 90554 333 10050 21050 555 91306=,,,,,,,,,,3/26/2007
USW00014939,2023-02-13T00:00:00,40.8508,-96.7475,362.7,"LINCOLN AIRPORT, NE US",SOD,,,,,,,,,,,,,,,,,,725,1758,-4.4,4.8,57,1011.5,966.1,1.1,3.7,0,6.63,13.5,16.7,-7.1,190,13,0,0,0,210,9.8,,,,,,,,,,,,,,,,,,,,,,,,,,,,,,,,,,,,,,,,,,,,,,,,,,,,,,,,,,,,,,,,,,,,,,,,,,,,,,,,3/26/2007
USW00014939,2023-02-13T00:54:00,40.8508,-96.7475,362.7,"LINCOLN AIRPORT, NE US",FM-15,343,1015.2,-6.7,-4.4,0,,,,84,CLR:00,1016,972.4,16.093,-5.2,,,0,,,,,,,,,,,,,,,,,,,,,,,,,,,,,,,,,,,,,,,,,,,,,,,,,,,,,,,,,,,,,,,,,,,,,,,,,,,,,,,,,,,,,,,,,,,MET09202/13/23 00:54:02 METAR KLNK 130654Z 00000KT 10SM CLR M04/M07 A2998 RMK AO2 SLP160 T10441067,,,,,,,,,,3/26/2007
USW00014939,2023-02-13T01:54:00,40.8508,-96.7475,362.7,"LINCOLN AIRPORT, NE US",FM-15,343,1015.2,-6.7,-5,0,,,,88,CLR:00,1016.2,972.4,16.093,-5.5,,,0,,,,,,,,,,,,,,,,,,,,,,,,,,,,,,,,,,,,,,,,,,,,,,,,,,,,,,,,,,,,,,,,,,,,,,,,,,,,,,,,,,,,,,,,,,,MET09202/13/23 01:54:02 METAR KLNK 130754Z 00000KT 10SM CLR M05/M07 A2998 RMK AO2 SLP162 T10501067,,,,,,,,,,3/26/2007
USW00014939,2023-02-13T02:54:00,40.8508,-96.7475,362.7,"LINCOLN AIRPORT, NE US",FM-15,343,1014.9,-7.2,-5,0,,-0.1,8,85,CLR:00,1015.9,972.1,16.093,-5.7,170,,1.5,,,,,,,,,,,,,,,,,,,,,,,,,,,,,,,,,,,,,,,,,,,,,,,,,,,,,,,,,,,,,,,,,,,,,,,,,,,,,,,,,,,,,,,,,,,MET09802/13/23 02:54:02 METAR KLNK 130854Z 17003KT 10SM CLR M05/M07 A2997 RMK AO2 SLP159 T10501072 58001,,,,,,,,,,3/26/2007
USW00014939,2023-02-13T03:54:00,40.8508,-96.7475,362.7,"LINCOLN AIRPORT, NE US",FM-15,343,1014.9,-6.1,-3.3,0,,,,81,CLR:00,1015.9,972.1,16.093,-4.3,,,0,,,,,,,,,,,,,,,,,,,,,,,,,,,,,,,,,,,,,,,,,,,,,,,,,,,,,,,,,,,,,,,,,,,,,,,,,,,,,,,,,,,,,,,,,,,MET09202/13/23 03:54:02 METAR KLNK 130954Z 00000KT 10SM CLR M03/M06 A2997 RMK AO2 SLP159 T10331061,,,,,,,,,,3/26/2007
USW00014939,2023-02-13T04:54:00,40.8508,-96.7475,362.7,"LINCOLN AIRPORT, NE US",FM-15,343,1014.9,-7.2,-5.6,0,,,,89,CLR:00,1015.9,972.1,16.093,-6.1,,,0,,,,,,,,,,,,,,,,,,,,,,,,,,,,,,,,,,,,,,,,,,,,,,,,,,,,,,,,,,,,,,,,,,,,,,,,,,,,,,,,,,,,,,,,,,,MET09202/13/23 04:54:02 METAR KLNK 131054Z 00000KT 10SM CLR M06/M07 A2997 RMK AO2 SLP159 T10561072,,,,,,,,,,3/26/2007
USW00014939,2023-02-13T05:54:00,40.8508,-96.7475,362.7,"LINCOLN AIRPORT, NE US",FM-15,343,1014.6,-7.8,-6.1,0,,-0.6,8,88,CLR:00,1015.6,971.8,16.093,-6.6,180,,1.5,,,,,,,,,,,,,,,,,,,,,,,,,,,,,,,,,,,,,,,,,,,,,,,,,,,,,,,,,,,,,,,,,,,,,,,,,,,,,,,,,,,,,,,,,,,MET12702/13/23 05:54:02 METAR KLNK 131154Z 18003KT 10SM CLR M06/M08 A2996 RMK AO2 SLP156 I1000 I6000 T10611078 11033 21072 58006 (CD),,,,,,,,,,3/26/2007
USW00014939,2023-02-13T06:00:00,40.8508,-96.7475,362.7,"LINCOLN AIRPORT, NE US",FM-12,223,,-7.8,-6.1,,,-0.6,8,88,,1015.6,971.5,,-6.6,180,,1.5,,,,,,,,,,,,,,,,,,,,,,,,,,,,,,,,,,,,,,,,,,,,,,,,,,,,,,,,,,,,,,,,,,,,,,,,,,,,,,,,,,,,,,,,,,,SYN08072551 32966 01803 11061 21078 39715 40156 58006 91154 333 10106 21072 555 91312=,,,,,,,,,,3/26/2007
USW00014939,2023-02-13T06:54:00,40.8508,-96.7475,362.7,"LINCOLN AIRPORT, NE US",FM-15,343,1014.2,-7.8,-5.6,0,,,,85,CLR:00,1015.5,971.4,16.093,-6.2,190,,2.1,,,,,,,,,,,,,,,,,,,,,,,,,,,,,,,,,,,,,,,,,,,,,,,,,,,,,,,,,,,,,,,,,,,,,,,,,,,,,,,,,,,,,,,,,,,MET09702/13/23 06:54:02 METAR KLNK 131254Z 19004KT 10SM CLR M06/M08 A2995 RMK AO2 SLP155 T10561078 (CD),,,,,,,,,,3/26/2007
USW00014939,2023-02-13T07:54:00,40.8508,-96.7475,362.7,"LINCOLN AIRPORT, NE US",FM-15,343,1014.6,-7.2,-5.6,0,,,,89,CLR:00,1015.7,971.8,16.093,-6.1,160,,2.1,,,,,,,,,,,,,,,,,,,,,,,,,,,,,,,,,,,,,,,,,,,,,,,,,,,,,,,,,,,,,,,,,,,,,,,,,,,,,,,,,,,,,,,,,,,MET09702/13/23 07:54:02 METAR KLNK 131354Z 16004KT 10SM CLR M06/M07 A2996 RMK AO2 SLP157 T10561072 (CD),,,,,,,,,,3/26/2007
USW00014939,2023-02-13T08:54:00,40.8508,-96.7475,362.7,"LINCOLN AIRPORT, NE US",FM-15,343,1014.6,-2.8,-0.6,0,,0.2,3,85,CLR:00,1015.7,971.8,16.093,-1.4,190,,1.5,,,,,,,,,,,,,,,,,,,,,,,,,,,,,,,,,,,,,,,,,,,,,,,,,,,,,,,,,,,,,,,,,,,,,,,,,,,,,,,,,,,,,,,,,,,MET10302/13/23 08:54:02 METAR KLNK 131454Z 19003KT 10SM CLR M01/M03 A2996 RMK AO2 SLP157 T10061028 53002 (CD),,,,,,,,,,3/26/2007
USW00014939,2023-02-13T09:54:00,40.8508,-96.7475,362.7,"LINCOLN AIRPORT, NE US",FM-15,343,1014.6,-1.7,2.8,0,,,,73,CLR:00,1015.4,971.8,16.093,1,,,2.1,,,,,,,,,,,,,,,,,,,,,,,,,,,,,,,,,,,,,,,,,,,,,,,,,,,,,,,,,,,,,,,,,,,,,,,,,,,,,,,,,,,,,,,,,,,MET09602/13/23 09:54:02 METAR KLNK 131554Z VRB04KT 10SM CLR 03/M02 A2996 RMK AO2 SLP154 T00281017 (CD),,,,,,,,,,3/26/2007
USW00014939,2023-02-13T10:54:00,40.8508,-96.7475,362.7,"LINCOLN AIRPORT, NE US",FM-15,343,1013.5,-0.6,8.3,0,,,,54,CLR:00,1014.5,970.8,16.093,4.5,200,,2.6,,,,,,,,,,,,,,,,,,,,,,,,,,,,,,,,,,,,,,,,,,,,,,,,,,,,,,,,,,,,,,,,,,,,,,,,,,,,,,,,,,,,,,,,,,,MET09602/13/23 10:54:02 METAR KLNK 131654Z 20005KT 10SM CLR 08/M01 A2993 RMK AO2 SLP145 T00831006 (CD),,,,,,,,,,3/26/2007
USW00014939,2023-02-13T11:54:00,40.8508,-96.7475,362.7,"LINCOLN AIRPORT, NE US",FM-15,343,1012.9,-2.8,12.8,0,,-1.9,8,34,CLR:00,1013.3,970.1,16.093,6,210,,6.7,,,,,,,,,,,,,,,,,,,,,,,,,,,,,,,,,,,,,,,,,,,,,,,,,,,,,,,,,,,,,,,,,,,,,,,,,,,,,,,,,,,,,,,,,,,MET11402/13/23 11:54:02 METAR KLNK 131754Z 21013KT 10SM CLR 13/M03 A2991 RMK AO2 SLP133 T01281028 10128 21061 58019 (CD),,,,,,,,,,3/26/2007
USW00014939,2023-02-13T12:00:00,40.8508,-96.7475,362.7,"LINCOLN AIRPORT, NE US",FM-12,223,,-2.8,12.8,,,-1.9,8,34,,1013.3,969.9,,6,210,,6.7,,,,,,,,,,,,,,,,,,,,,,,,,,,,,,,,,,,,,,,,,,,,,,,,,,,,,,,,,,,,,,,,,,,,,,,,,,,,,,,,,,,,,,,,,,,SYN08072551 32966 02113 10128 21028 39699 40133 58019 91754 333 10128 21061 555 91318=,,,,,,,,,,3/26/2007
USW00014939,2023-02-13T12:54:00,40.8508,-96.7475,362.7,"LINCOLN AIRPORT, NE US",FM-15,343,1011.2,-2.8,15,0,,,,29,CLR:00,1011.7,968.5,16.093,7.1,210,,7.2,,,,,,,,,,,,,,,,,,,,,,,,,,,,,,,,,,,,,,,,,,,,,,,,,,,,,,,,,,,,,,,,,,,,,,,,,,,,,,,,,,,,,,,,,,,MET09602/13/23 12:54:02 METAR KLNK 131854Z 21014KT 10SM CLR 15/M03 A2986 RMK AO2 SLP117 T01501028 (CK),,,,,,,,,,3/26/2007
USW00014939,2023-02-13T13:54:00,40.8508,-96.7475,362.7,"LINCOLN AIRPORT, NE US",FM-15,343,1009.8,-2.8,15.6,0,,,,28,CLR:00,1010.4,967.2,16.093,7.4,220,12.4,7.2,,,,,,,,,,,,,,,,,,,,,,,,,,,,,,,,,,,,,,,,,,,,,,,,,,,,,,,,,,,,,,,,,,,,,,,,,,,,,,,,,,,,,,,,,,,MET09902/13/23 13:54:02 METAR KLNK 131954Z 22014G24KT 10SM CLR 16/M03 A2982 RMK AO2 SLP104 T01561028 (CK),,,,,,,,,,3/26/2007
USW00014939,2023-02-13T14:54:00,40.8508,-96.7475,362.7,"LINCOLN AIRPORT, NE US",FM-15,343,1008.8,-3.9,16.7,0,,-3.8,6,24,CLR:00,1009.1,966.2,16.093,7.6,200,,9.3,,,,,,,,,,,,,,,,,,,,,,,,,,,,,,,,,,,,,,,,,,,,,,,,,,,,,,,,,,,,,,,,,,,,,,,,,,,,,,,,,,,,,,,,,,,MET10202/13/23 14:54:02 METAR KLNK 132054Z 20018KT 10SM CLR 17/M04 A2979 RMK AO2 SLP091 T01671039 56038 (NU),,,,,,,,,,3/26/2007
USW00014939,2023-02-13T15:54:00,40.8508,-96.7475,362.7,"LINCOLN AIRPORT, NE US",FM-15,343,1007.8,-3.9,16.7,0,,,,24,CLR:00,1008.1,965.2,16.093,7.6,190,,7.2,,,,,,,,,,,,,,,,,,,,,,,,,,,,,,,,,,,,,,,,,,,,,,,,,,,,,,,,,,,,,,,,,,,,,,,,,,,,,,,,,,,,,,,,,,,MET09602/13/23 15:54:02 METAR KLNK 132154Z 19014KT 10SM CLR 17/M04 A2976 RMK AO2 SLP081 T01671039 (NU),,,,,,,,,,3/26/2007
USW00014939,2023-02-13T16:54:00,40.8508,-96.7475,362.7,"LINCOLN AIRPORT, NE US",FM-15,343,1007.1,-2.8,15,0,,,,29,CLR:00,1007.4,964.6,16.093,7.1,190,,6.2,,,,,,,,,,,,,,,,,,,,,,,,,,,,,,,,,,,,,,,,,,,,,,,,,,,,,,,,,,,,,,,,,,,,,,,,,,,,,,,,,,,,,,,,,,,MET09602/13/23 16:54:02 METAR KLNK 132254Z 19012KT 10SM CLR 15/M03 A2974 RMK AO2 SLP074 T01501028 (NU),,,,,,,,,,3/26/2007
USW00014939,2023-02-13T17:54:00,40.8508,-96.7475,362.7,"LINCOLN AIRPORT, NE US",FM-15,343,1006.8,-3.3,11.1,0,,-2,6,37,CLR:00,1007.4,964.2,16.093,5,180,,5.7,,,,,,,,,,,,,,,,,,,,,,,,,,,,,,,,,,,,,,,,,,,,,,,,,,,,,,,,,,,,,,,,,,,,,,,,,,,,,,,,,,,,,,,,,,,MET11402/13/23 17:54:02 METAR KLNK 132354Z 18011KT 10SM CLR 11/M03 A2973 RMK AO2 SLP074 T01111033 10167 20111 56020 (NU),,,,,,,,,,3/26/2007
USW00014939,2023-02-13T18:00:00,40.8508,-96.7475,362.7,"LINCOLN AIRPORT, NE US",FM-12,223,,-3.3,11.1,,,-2,6,37,,1007.4,964,,5,180,,5.7,,,,,,,,,,,,,,,,,,,,,,,,,,,,,,,,,,,,,,,,,,,,,,,,,,,,,,,,,,,,,,,,,,,,,,,,,,,,,,,,,,,,,,,,,,,SYN08072551 32966 01811 10111 21033 39640 40074 56020 92354 333 10167 21071 555 91400=,,,,,,,,,,3/26/2007
USW00014939,2023-02-13T18:54:00,40.8508,-96.7475,362.7,"LINCOLN AIRPORT, NE US",FM-15,343,1006.4,-4.4,7.2,0,,,,44,CLR:00,1007.3,963.9,16.093,2.6,160,,4.1,,,,,,,,,,,,,,,,,,,,,,,,,,,,,,,,,,,,,,,,,,,,,,,,,,,,,,,,,,,,,,,,,,,,,,,,,,,,,,,,,,,,,,,,,,,MET09102/13/23 18:54:01 METAR KLNK 140054Z 16008KT 10SM CLR 07/M04 A2972 RMK AO2 SLP073 T00721044,,,,,,,,,,3/26/2007
USW00014939,2023-02-13T19:54:00,40.8508,-96.7475,362.7,"LINCOLN AIRPORT, NE US",FM-15,343,1005.8,-5,5,0,,,,49,CLR:00,1006.5,963.2,16.093,1.2,160,,4.6,,,,,,,,,,,,,,,,,,,,,,,,,,,,,,,,,,,,,,,,,,,,,,,,,,,,,,,,,,,,,,,,,,,,,,,,,,,,,,,,,,,,,,,,,,,MET09102/13/23 19:54:01 METAR KLNK 140154Z 16009KT 10SM CLR 05/M05 A2970 RMK AO2 SLP065 T00501050,,,,,,,,,,3/26/2007
USW00014939,2023-02-13T20:54:00,40.8508,-96.7475,362.7,"LINCOLN AIRPORT, NE US",FM-15,343,1004.7,-5,3.9,0,,-1.7,8,53,CLR:00,1005.7,962.3,16.093,0.5,170,,4.1,,,,,,,,,,,,,,,,,,,,,,,,,,,,,,,,,,,,,,,,,,,,,,,,,,,,,,,,,,,,,,,,,,,,,,,,,,,,,,,,,,,,,,,,,,,MET09702/13/23 20:54:01 METAR KLNK 140254Z 17008KT 10SM CLR 04/M05 A2967 RMK AO2 SLP057 T00391050 58017,,,,,,,,,,3/26/2007
USW00014939,2023-02-13T21:54:00,40.8508,-96.7475,362.7,"LINCOLN AIRPORT, NE US",FM-15,343,1004.7,-3.9,5,0,,,,53,CLR:00,1005.3,962.3,16.093,1.5,190,,3.1,,,,,,,,,,,,,,,,,,,,,,,,,,,,,,,,,,,,,,,,,,,,,,,,,,,,,,,,,,,,,,,,,,,,,,,,,,,,,,,,,,,,,,,,,,,MET09102/13/23 21:54:01 METAR KLNK 140354Z 19006KT 10SM CLR 05/M04 A2967 RMK AO2 SLP053 T00501039,,,,,,,,,,3/26/2007
USW00014939,2023-02-13T22:54:00,40.8508,-96.7475,362.7,"LINCOLN AIRPORT, NE US",FM-15,343,1003.4,-2.2,8.3,0,,,,48,CLR:00,1003.6,961,16.093,3.9,180,,5.7,,,,,,,,,,,,,,,,,,,,,,,,,,,,,,,,,,,,,,,,,,,,,,,,,,,,,,,,,,,,,,,,,,,,,,,,,,,,,,,,,,,,,,,,,,,MET09102/13/23 22:54:01 METAR KLNK 140454Z 18011KT 10SM CLR 08/M02 A2963 RMK AO2 SLP036 T00831022,,,,,,,,,,3/26/2007
USW00014939,2023-02-13T23:54:00,40.8508,-96.7475,362.7,"LINCOLN AIRPORT, NE US",FM-15,343,1002.7,-2.2,8.3,0,,-2.1,8,48,OVC:08 33.53,1002.7,960.3,16.093,3.9,180,,5.1,,,,,,,,,,,,,,,,,,,,,,,,,,,,,,,,,,,,,,,,,,,,,,,,,,,,,,,,,,,,,,,,,,,,,,,,,,,,,,,,,,,,,,,,,,,MET12202/13/23 23:54:01 METAR KLNK 140554Z 18010KT 10SM OVC110 08/M02 A2961 RMK AO2 SLP027 T00831022 10111 20033 401671072 58021,,,,,,,,,,3/26/2007
USW00014939,2023-02-14T00:00:00,40.8508,-96.7475,362.7,"LINCOLN AIRPORT, NE US",FM-12,223,,-2.2,8.3,,,-2.1,8,48,,1002.7,960.1,,3.9,180,,5.1,,,,,,,,,,,,,,,,,,,,,,,,,,,,,,,,,,,,,,,,,,,,,,,,,,,,,,,,,,,,,,,,,,,,,,,,,,,,,,,,,,,,,,,,,,,SYN08072551 35966 81810 10083 21022 39601 40027 58021 90554 333 10111 21071 555 91406=,,,,,,,,,,3/26/2007
USW00014939,2023-02-14T00:00:00,40.8508,-96.7475,362.7,"LINCOLN AIRPORT, NE US",SOD,,,,,,,,,,,,,,,,,,724,1759,3.3,6.4,82,993.9,949.9,5,5.8,0,8.07,11.9,10,2.8,180,18.3,8.1,0,0,180,13,BR RA TS,,,,,,,,,,,,,,,,,,,,,,,,,,,,,,,,,,,,,,,,,,,,,,,,,,,,,,,,,,,,,,,,,,,,,,,,,,,,,,,3/26/2007
USW00014939,2023-02-14T00:54:00,40.8508,-96.7475,362.7,"LINCOLN AIRPORT, NE US",FM-15,343,1001.7,-1.7,8.3,0,,,,50,FEW:02 36.58,1001.5,959.3,16.093,4.1,180,,6.2,,,,,,,,,,,,,,,,,,,,,,,,,,,,,,,,,,,,,,,,,,,,,,,,,,,,,,,,,,,,,,,,,,,,,,,,,,,,,,,,,,,,,,,,,,,MET09402/14/23 00:54:02 METAR KLNK 140654Z 18012KT 10SM FEW120 08/M02 A2958 RMK AO2 SLP015 T00831017,,,,,,,,,,3/26/2007
USW00014939,2023-02-14T01:54:00,40.8508,-96.7475,362.7,"LINCOLN AIRPORT, NE US",FM-15,343,999.7,-1.1,7.8,T,,,,54,SCT:04 33.53,999.4,957.4,16.093,4,170,,6.2,,,,,,,,,,,,,,,,,,,,,,,,,,,,,,,,,,,,,,,,,,,,,,,,,,,,,,,,,,,,,,,,,,,,,,,,,,,,,,,,,,,,,,,,,,,MET10902/14/23 01:54:02 METAR KLNK 140754Z 17012KT 10SM SCT110 08/M01 A2952 RMK AO2 RAB18E27 SLP994 P0000 T00781011,,,,,,,,,,3/26/2007
USW00014939,2023-02-14T02:54:00,40.8508,-96.7475,362.7,"LINCOLN AIRPORT, NE US",FM-15,343,999.3,-0.6,8.9,0,,-3.2,6,52,BKN:07 28.96,999.1,957,16.093,4.8,190,,5.7,,,,,,,,,,,,,,,,,,,,,,,,,,,,,,,,,,,,,,,,,,,,,,,,,,,,,,,,,,,,,,,,,,,,,,,,,,,,,,,,,,,,,,,,,,,MET10602/14/23 02:54:02 METAR KLNK 140854Z 19011KT 10SM BKN095 09/M01 A2951 RMK AO2 SLP991 60000 T00891006 56032,,,,,,,,,,3/26/2007
USW00014939,2023-02-14T03:54:00,40.8508,-96.7475,362.7,"LINCOLN AIRPORT, NE US",FM-15,343,997.6,1.1,8.9,T,-RA:02 |RA |RA,,,58,BKN:07 24.38 OVC:08 33.53,997.3,955.4,16.093,5.4,170,,6.7,,,,,,,,,,,,,,,,,,,,,,,,,,,,,,,,,,,,,,,,,,,,,,,,,,,,,,,,,,,,,,,,,,,,,,,,,,,,,,,,,,,,,,,,,,,MET11602/14/23 03:54:02 METAR KLNK 140954Z 17013KT 10SM -RA BKN080 OVC110 09/01 A2946 RMK AO2 RAB50 SLP973 P0000 T00890011,,,,,,,,,,3/26/2007
USW00014939,2023-02-14T04:54:00,40.8508,-96.7475,362.7,"LINCOLN AIRPORT, NE US",FM-15,343,997,3.9,7.2,1,-RA:02 |RA |RA,,,80,OVC:08 21.34,996.9,954.7,11.265,5.7,180,13.9,9.8,,,,,,,,,,,,,,,,,,,,,,,,,,,,,,,,,,,,,,,,,,,,,,,,,,,,,,,,,,,,,,,,,,,,,,,,,,,,,,,,,,,,,,,,,,,MET12302/14/23 04:54:02 METAR KLNK 141054Z 18019G27KT 7SM -RA OVC070 07/04 A2944 RMK AO2 PK WND 18035/1026 SLP969 P0003 T00720039,,,,,,,,,,3/26/2007
USW00014939,2023-02-14T05:54:00,40.8508,-96.7475,362.7,"LINCOLN AIRPORT, NE US",FM-15,343,995.9,5,7.2,1.8,RA:02 BR:1 |RA BR |RA,-3.5,6,86,OVC:08 22.86,995.8,953.8,9.656,6.2,170,11.3,6.7,,,,,,,,,,,,,,,,,,,,,,,,,,,,,,,,,,,,,,,,,,,,,,,,,,,,,,,,,,,,,,,,,,,,,,,,,,,,,,,,,,,,,,,,,,,MET13702/14/23 05:54:02 METAR KLNK 141154Z 17013G22KT 6SM RA BR OVC075 07/05 A2941 RMK AO2 SLP958 P0007 60010 70010 T00720050 10094 20067 56035,,,,,,,,,,3/26/2007
USW00014939,2023-02-14T06:00:00,40.8508,-96.7475,362.7,"LINCOLN AIRPORT, NE US",FM-12,223,,5,7.2,,|RA |,-3.5,6,86,,995.8,953.5,,6.2,170,,6.7,,,,,,,,,,,,,,,,,,,,,,,,,,,,,,,,,,,,,,,,,,,,,,,,,,,,,,,,,,,,,,,,,,,,,,,,,,,,,,,,,,,,,,,,,,,SYN11072551 17859 81713 10072 20050 39535 49958 56035 60031 762// 91154 333 10167 20033 70025 91022 96010 555 91412=,,,,,,,,,,3/26/2007
USW00014939,2023-02-14T06:54:00,40.8508,-96.7475,362.7,"LINCOLN AIRPORT, NE US",FM-15,343,994.6,4.4,6.7,0.8,,,,85,BKN:07 11.89 BKN:07 16.76 OVC:08 28.96,994.9,952.5,16.093,5.6,160,,6.2,,,,,,,,,,,,,,,,,,,,,,,,,,,,,,,,,,,,,,,,,,,,,,,,,,,,,,,,,,,,,,,,,,,,,,,,,,,,,,,,,,,,,,,,,,,MET12402/14/23 06:54:02 METAR KLNK 141254Z 16012KT 10SM BKN039 BKN055 OVC095 07/04 A2937 RMK AO2 RAE53 SLP949 P0004 T00670044 (RT),,,,,,,,,,3/26/2007
USW00014939,2023-02-14T07:09:00,40.8508,-96.7475,362.7,"LINCOLN AIRPORT, NE US",FM-16,343,994.6,4.4,6.7,,,,,85,BKN:07 7.62 BKN:07 12.8 OVC:08 27.43,,952.5,16.093,5.6,170,,7.2,,,,,,,,,,,,,,,,,,,,,,,,,,,,,,,,,,,,,,,,,,,,,,,,,,,,,,,,,,,,,,,,,,,,,,,,,,,,,,,,,,,,,,,,,,,MET10502/14/23 07:09:02 SPECI KLNK 141309Z 17014KT 10SM BKN025 BKN042 OVC090 07/04 A2937 RMK AO2 T00670044 (RT),,,,,,,,,,3/26/2007
USW00014939,2023-02-14T07:54:00,40.8508,-96.7475,362.7,"LINCOLN AIRPORT, NE US",FM-15,343,993.9,5,6.7,T,-RA:02 |RA |RA,,,89,OVC:08 7.62,994.3,951.8,14.484,5.9,160,,4.6,,,,,,,,,,,,,,,,,,,,,,,,,,,,,,,,,,,,,,,,,,,,,,,,,,,,,,,,,,,,,,,,,,,,,,,,,,,,,,,,,,,,,,,,,,,MET11302/14/23 07:54:02 METAR KLNK 141354Z 16009KT 9SM -RA OVC025 07/05 A2935 RMK AO2 RAB52 SLP943 P0000 T00670050 (HT),,,,,,,,,,3/26/2007
USW00014939,2023-02-14T08:52:00,40.8508,-96.7475,362.7,"LINCOLN AIRPORT, NE US",FM-16,343,993.6,5,7,,-RA:02 BR:1 |RA BR |RA,,,87,SCT:04 3.05 BKN:07 4.57 OVC:08 8.84,,951.5,9.656,6.2,150,,5.7,,,,,,,,,,,,,,,,,,,,,,,,,,,,,,,,,,,,,,,,,,,,,,,,,,,,,,,,,,,,,,,,,,,,,,,,,,,,,,,,,,,,,,,,,,,MET11202/14/23 08:52:02 SPECI KLNK 141452Z 15011KT 6SM -RA BR SCT010 BKN015 OVC029 07/05 A2934 RMK AO2 P0005 FIBI (HT),,,,,,,,,,3/26/2007
USW00014939,2023-02-14T08:54:00,40.8508,-96.7475,362.7,"LINCOLN AIRPORT, NE US",FM-15,343,993.6,5,6.7,1.3,-RA:02 BR:1 |RA BR |RA,-2.1,6,89,SCT:04 3.05 BKN:07 4.57 OVC:08 9.75,993.9,951.5,9.656,5.9,150,,6.2,,,,,,,,,,,,,,,,,,,,,,,,,,,,,,,,,,,,,,,,,,,,,,,,,,,,,,,,,,,,,,,,,,,,,,,,,,,,,,,,,,,,,,,,,,,MET13102/14/23 08:54:02 METAR KLNK 141454Z 15012KT 6SM -RA BR SCT010 BKN015 OVC032 07/05 A2934 RMK AO2 SLP939 P0005 60009 T00670050 56021,,,,,,,,,,3/26/2007
USW00014939,2023-02-14T08:57:00,40.8508,-96.7475,362.7,"LINCOLN AIRPORT, NE US",FM-16,343,993.6,5,6.7,T,-RA:02 BR:1 |RA BR |RA,,,89,BKN:07 2.44 BKN:07 4.57 OVC:08 9.14,,951.5,9.656,5.9,150,,6.2,,,,,,,,,,,,,,,,,,,,,,,,,,,,,,,,,,,,,,,,,,,,,,,,,,,,,,,,,,,,,,,,,,,,,,,,,,,,,,,,,,,,,,,,,,,MET12402/14/23 08:57:02 SPECI KLNK 141457Z 15012KT 6SM -RA BR BKN008 BKN015 OVC030 07/05 A2934 RMK AO2 CIG 006V013 P0000 T00670050,,,,,,,,,,3/26/2007
USW00014939,2023-02-14T09:05:00,40.8508,-96.7475,362.7,"LINCOLN AIRPORT, NE US",FM-16,343,993.6,5,6.7,T,-RA:02 BR:1 |RA BR |RA,,,89,BKN:07 3.05 BKN:07 4.57 OVC:08 8.84,,951.5,6.437,5.9,150,,6.2,,,,,,,,,,,,,,,,,,,,,,,,,,,,,,,,,,,,,,,,,,,,,,,,,,,,,,,,,,,,,,,,,,,,,,,,,,,,,,,,,,,,,,,,,,,MET12402/14/23 09:05:02 SPECI KLNK 141505Z 15012KT 4SM -RA BR BKN010 BKN015 OVC029 07/05 A2934 RMK AO2 CIG 006V012 P0000 T00670050,,,,,,,,,,3/26/2007
USW00014939,2023-02-14T09:23:00,40.8508,-96.7475,362.7,"LINCOLN AIRPORT, NE US",FM-16,343,992.9,5.6,7.2,0.5,-RA:02 BR:1 |RA BR |RA,,,90,OVC:08 2.44,,950.8,6.437,6.4,150,,4.6,,,,,,,,,,,,,,,,,,,,,,,,,,,,,,,,,,,,,,,,,,,,,,,,,,,,,,,,,,,,,,,,,,,,,,,,,,,,,,,,,,,,,,,,,,,MET11002/14/23 09:23:02 SPECI KLNK 141523Z 15009KT 4SM -RA BR OVC008 07/06 A2932 RMK AO2 CIG 006V012 P0002 T00720056,,,,,,,,,,3/26/2007
USW00014939,2023-02-14T09:54:00,40.8508,-96.7475,362.7,"LINCOLN AIRPORT, NE US",FM-15,343,991.9,6.1,7.2,1,-RA:02 BR:1 |RA BR |RA,,,93,OVC:08 2.13,992,949.8,6.437,6.7,160,,3.6,,,,,,,,,,,,,,,,,,,,,,,,,,,,,,,,,,,,,,,,,,,,,,,,,,,,,,,,,,,,,,,,,,,,,,,,,,,,,,,,,,,,,,,,,,,MET11202/14/23 09:54:02 METAR KLNK 141554Z 16007KT 4SM -RA BR OVC007 07/06 A2929 RMK AO2 PRESFR SLP920 P0004 T00720061,,,,,,,,,,3/26/2007
USW00014939,2023-02-14T10:54:00,40.8508,-96.7475,362.7,"LINCOLN AIRPORT, NE US",FM-15,343,990.9,6.7,7.8,0.3,-RA:02 |RA |RA,,,93,OVC:08 2.44,991,948.9,12.875,7.2,160,,3.6,,,,,,,,,,,,,,,,,,,,,,,,,,,,,,,,,,,,,,,,,,,,,,,,,,,,,,,,,,,,,,,,,,,,,,,,,,,,,,,,,,,,,,,,,,,MET10202/14/23 10:54:02 METAR KLNK 141654Z 16007KT 8SM -RA OVC008 08/07 A2926 RMK AO2 SLP910 P0001 T00780067,,,,,,,,,,3/26/2007
USW00014939,2023-02-14T11:54:00,40.8508,-96.7475,362.7,"LINCOLN AIRPORT, NE US",FM-15,343,989.8,6.7,8.3,0.8,-RA:02 |RA |RA,-3.7,6,90,OVC:08 2.74,989.8,947.9,14.484,7.5,160,,4.6,,,,,,,,,,,,,,,,,,,,,,,,,,,,,,,,,,,,,,,,,,,,,,,,,,,,,,,,,,,,,,,,,,,,,,,,,,,,,,,,,,,,,,,,,,,MET13802/14/23 11:54:02 METAR KLNK 141754Z 16009KT 9SM -RA OVC009 08/07 A2923 RMK AO2 CIG 007V012 SLP898 P0003 60017 T00830067 10083 20067 56037,,,,,,,,,,3/26/2007
USW00014939,2023-02-14T12:00:00,40.8508,-96.7475,362.7,"LINCOLN AIRPORT, NE US",FM-12,223,,6.7,8.3,,||RA,-3.7,6,90,,989.8,947.6,,7.5,160,,4.6,,,,,,,,,,,,,,,,,,,,,,,,,,,,,,,,,,,,,,,,,,,,,,,,,,,,,,,,,,,,,,,,,,,,,,,,,,,,,,,,,,,,,,,,,,,SYN09272551 11364 81609 10083 20067 39476 49898 56037 60041 761// 91754 333 10094 20067 555 91418=,,,,,,,,,,3/26/2007
USW00014939,2023-02-14T12:54:00,40.8508,-96.7475,362.7,"LINCOLN AIRPORT, NE US",FM-15,343,988.1,6.7,8.3,T,,,,90,OVC:08 1.83,988.2,946.2,14.484,7.5,170,,3.6,,,,,,,,,,,,,,,,,,,,,,,,,,,,,,,,,,,,,,,,,,,,,,,,,,,,,,,,,,,,,,,,,,,,,,,,,,,,,,,,,,,,,,,,,,,MET10402/14/23 12:54:02 METAR KLNK 141854Z 17007KT 9SM OVC006 08/07 A2918 RMK AO2 RAE14 SLP882 P0000 T00830067,,,,,,,,,,3/26/2007
USW00014939,2023-02-14T13:33:00,40.8508,-96.7475,362.7,"LINCOLN AIRPORT, NE US",FM-16,343,987.1,7.2,8.3,0.2,-RA:02 |RA |RA,,,93,SCT:04 2.13 OVC:08 3.66,,945.3,11.265,7.8,180,,4.1,,,,,,,,,,,,,,,,,,,,,,,,,,,,,,,,,,,,,,,,,,,,,,,,,,,,,,,,,,,,,,,,,,,,,,,,,,,,,,,,,,,,,,,,,,,MET10802/14/23 13:33:02 SPECI KLNK 141933Z 18008KT 7SM -RA SCT007 OVC012 08/07 A2915 RMK AO2 RAB11 P0001 T00830072,,,,,,,,,,3/26/2007
USW00014939,2023-02-14T13:54:00,40.8508,-96.7475,362.7,"LINCOLN AIRPORT, NE US",FM-15,343,986.8,7.2,8.3,0.3,-RA:02 |RA |RA,,,93,OVC:08 3.96,986.9,944.9,14.484,7.8,190,,3.6,,,,,,,,,,,,,,,,,,,,,,,,,,,,,,,,,,,,,,,,,,,,,,,,,,,,,,,,,,,,,,,,,,,,,,,,,,,,,,,,,,,,,,,,,,,MET10802/14/23 13:54:02 METAR KLNK 141954Z 19007KT 9SM -RA OVC013 08/07 A2914 RMK AO2 RAB11 SLP869 P0001 T00830072,,,,,,,,,,3/26/2007
USW00014939,2023-02-14T14:13:00,40.8508,-96.7475,362.7,"LINCOLN AIRPORT, NE US",FM-16,343,986.5,7.8,8.9,T,-RA:02 |RA |RA,,,93,SCT:04 3.96 BKN:07 10.36 OVC:08 22.86,,944.6,16.093,8.3,180,,4.6,,,,,,,,,,,,,,,,,,,,,,,,,,,,,,,,,,,,,,,,,,,,,,,,,,,,,,,,,,,,,,,,,,,,,,,,,,,,,,,,,,,,,,,,,,,MET11002/14/23 14:13:02 SPECI KLNK 142013Z 18009KT 10SM -RA SCT013 BKN034 OVC075 09/08 A2913 RMK AO2 P0000 T00890078,,,,,,,,,,3/26/2007
USW00014939,2023-02-14T14:54:00,40.8508,-96.7475,362.7,"LINCOLN AIRPORT, NE US",FM-15,343,986.5,7.8,9.4,T,,-3.3,6,90,SCT:04 6.1 BKN:07 9.14 OVC:08 28.96,986.3,944.6,16.093,8.6,210,,1.5,,,,,,,,,,,,,,,,,,,,,,,,,,,,,,,,,,,,,,,,,,,,,,,,,,,,,,,,,,,,,,,,,,,,,,,,,,,,,,,,,,,,,,,,,,,MET13102/14/23 14:54:02 METAR KLNK 142054Z 21003KT 10SM SCT020 BKN030 OVC095 09/08 A2913 RMK AO2 RAE34 SLP863 P0000 60001 T00940078 56033,,,,,,,,,,3/26/2007
USW00014939,2023-02-14T15:07:00,40.8508,-96.7475,362.7,"LINCOLN AIRPORT, NE US",FM-16,343,986.5,8.3,10,,,,,89,SCT:04 4.57 BKN:07 7.01 OVC:08 9.75,,944.6,16.093,9.1,,,0,,,,,,,,,,,,,,,,,,,,,,,,,,,,,,,,,,,,,,,,,,,,,,,,,,,,,,,,,,,,,,,,,,,,,,,,,,,,,,,,,,,,,,,,,,,MET10002/14/23 15:07:02 SPECI KLNK 142107Z 00000KT 10SM SCT015 BKN023 OVC032 10/08 A2913 RMK AO2 T01000083,,,,,,,,,,3/26/2007
USW00014939,2023-02-14T15:16:00,40.8508,-96.7475,362.7,"LINCOLN AIRPORT, NE US",FM-16,343,986.5,7.8,9.4,,,,,90,BKN:07 3.96 BKN:07 6.1 OVC:08 9.14,,944.6,16.093,8.6,290,,2.1,,,,,,,,,,,,,,,,,,,,,,,,,,,,,,,,,,,,,,,,,,,,,,,,,,,,,,,,,,,,,,,,,,,,,,,,,,,,,,,,,,,,,,,,,,,MET10002/14/23 15:16:02 SPECI KLNK 142116Z 29004KT 10SM BKN013 BKN020 OVC030 09/08 A2913 RMK AO2 T00940078,,,,,,,,,,3/26/2007
USW00014939,2023-02-14T15:27:00,40.8508,-96.7475,362.7,"LINCOLN AIRPORT, NE US",FM-16,343,986.5,7.8,9.4,T,-RA:02 |RA |RA,,,90,BKN:07 4.57 OVC:08 6.4,,944.6,16.093,8.6,280,,2.1,,,,,,,,,,,,,,,,,,,,,,,,,,,,,,,,,,,,,,,,,,,,,,,,,,,,,,,,,,,,,,,,,,,,,,,,,,,,,,,,,,,,,,,,,,,MET10902/14/23 15:27:02 SPECI KLNK 142127Z 28004KT 10SM -RA BKN015 OVC021 09/08 A2913 RMK AO2 RAB26 P0000 T00940078,,,,,,,,,,3/26/2007
USW00014939,2023-02-14T15:43:00,40.8508,-96.7475,362.7,"LINCOLN AIRPORT, NE US",FM-16,343,986.5,7.8,9.4,0.5,-RA:02 |RA |RA,,,90,SCT:04 3.66 SCT:04 5.49 BKN:07 12.8,,944.6,16.093,8.6,,,0,,,,,,,,,,,,,,,,,,,,,,,,,,,,,,,,,,,,,,,,,,,,,,,,,,,,,,,,,,,,,,,,,,,,,,,,,,,,,,,,,,,,,,,,,,,MET11602/14/23 15:43:02 SPECI KLNK 142143Z 00000KT 10SM -RA SCT012 SCT018 BKN042 09/08 A2913 RMK AO2 RAB26 P0002 T00940078,,,,,,,,,,3/26/2007
USW00014939,2023-02-14T15:52:00,40.8508,-96.7475,362.7,"LINCOLN AIRPORT, NE US",FM-16,343,986.8,8,9,,VCTS ||,,,94,FEW:02 4.27 SCT:04 11.28 SCT:04 36.58,,944.9,16.093,8.3,,,0,,,,,,,,,,,,,,,,,,,,,,,,,,,,,,,,,,,,,,,,,,,,,,,,,,,,,,,,,,,,,,,,,,,,,,,,,,,,,,,,,,,,,,,,,,,MET13102/14/23 15:52:02 SPECI KLNK 142152Z 00000KT 10SM VCTS FEW014 SCT037 SCT120 09/08 A2914 RMK AO2 LTG DSNT S RAB26E48 P0002 FIBI (NU),,,,,,,,,,3/26/2007
USW00014939,2023-02-14T15:54:00,40.8508,-96.7475,362.7,"LINCOLN AIRPORT, NE US",FM-15,343,986.8,7.8,9.4,0.5,VCTS |12 |,,,90,FEW:02 3.96 FEW:02 10.67 SCT:04 36.58,986.6,944.9,16.093,8.6,280,,1.5,,,,,,,,,,,,,,,,,,,,,,,,,,,,,,,,,,,,,,,,,,,,,,,,,,,,,,,,,,,,,,,,,,,,,,,,,,,,,,,,,,,,,,,,,,,MET13802/14/23 15:54:02 METAR KLNK 142154Z 28003KT 10SM VCTS FEW013 FEW035 SCT120 09/08 A2914 RMK AO2 LTG DSNT S RAB26E48 SLP866 P0002 T00940078,,,,,,,,,,3/26/2007
USW00014939,2023-02-14T16:10:00,40.8508,-96.7475,362.7,"LINCOLN AIRPORT, NE US",FM-16,343,986.8,7.8,9.4,,,,,90,FEW:02 36.58,,944.9,16.093,8.6,,,0,,,,,,,,,,,,,,,,,,,,,,,,,,,,,,,,,,,,,,,,,,,,,,,,,,,,,,,,,,,,,,,,,,,,,,,,,,,,,,,,,,,,,,,,,,,MET09902/14/23 16:10:02 SPECI KLNK 142210Z 00000KT 10SM FEW120 09/08 A2914 RMK AO2 LTG DSNT E-S T00940078,,,,,,,,,,3/26/2007
USW00014939,2023-02-14T16:54:00,40.8508,-96.7475,362.7,"LINCOLN AIRPORT, NE US",FM-15,343,987.1,7.8,10,0,,,,86,FEW:02 10.36 BKN:07 13.11 BKN:07 16.76,987,945.3,16.093,8.9,300,,1.5,,,,,,,,,,,,,,,,,,,,,,,,,,,,,,,,,,,,,,,,,,,,,,,,,,,,,,,,,,,,,,,,,,,,,,,,,,,,,,,,,,,,,,,,,,,MET12502/14/23 16:54:02 METAR KLNK 142254Z 30003KT 10SM FEW034 BKN043 BKN055 10/08 A2915 RMK AO2 LTG DSNT E AND SE SLP870 T01000078,,,,,,,,,,3/26/2007
USW00014939,2023-02-14T17:31:00,40.8508,-96.7475,362.7,"LINCOLN AIRPORT, NE US",FM-16,343,988.1,5.6,8.9,,,,,80,SCT:04 6.1 BKN:07 7.92 BKN:07 13.11,,946.2,16.093,7.3,270,12.9,8.2,,,,,,,,,,,,,,,,,,,,,,,,,,,,,,,,,,,,,,,,,,,,,,,,,,,,,,,,,,,,,,,,,,,,,,,,,,,,,,,,,,,,,,,,,,,MET10302/14/23 17:31:02 SPECI KLNK 142331Z 27016G25KT 10SM SCT020 BKN026 BKN043 09/06 A2918 RMK AO2 T00890056,,,,,,,,,,3/26/2007
USW00014939,2023-02-14T17:46:00,40.8508,-96.7475,362.7,"LINCOLN AIRPORT, NE US",FM-16,343,988.5,5,7.8,,,,,83,FEW:02 6.1 BKN:07 9.45,,946.6,16.093,6.5,290,11.3,7.7,,,,,,,,,,,,,,,,,,,,,,,,,,,,,,,,,,,,,,,,,,,,,,,,,,,,,,,,,,,,,,,,,,,,,,,,,,,,,,,,,,,,,,,,,,,MET09602/14/23 17:46:02 SPECI KLNK 142346Z 29015G22KT 10SM FEW020 BKN031 08/05 A2919 RMK AO2 T00780050,,,,,,,,,,3/26/2007
USW00014939,2023-02-14T17:54:00,40.8508,-96.7475,362.7,"LINCOLN AIRPORT, NE US",FM-15,343,988.5,5,7.8,0,,2.1,3,83,FEW:02 4.27 SCT:04 8.84 BKN:07 11.58,988.7,946.6,16.093,6.5,280,10.3,5.1,,,,,,,,,,,,,,,,,,,,,,,,,,,,,,,,,,,,,,,,,,,,,,,,,,,,,,,,,,,,,,,,,,,,,,,,,,,,,,,,,,,,,,,,,,,MET13402/14/23 17:54:02 METAR KLNK 142354Z 28010G20KT 10SM FEW014 SCT029 BKN038 08/05 A2919 RMK AO2 SLP887 60003 T00780050 10100 20078 53021,,,,,,,,,,3/26/2007
USW00014939,2023-02-14T18:00:00,40.8508,-96.7475,362.7,"LINCOLN AIRPORT, NE US",FM-12,223,,5,7.8,,,2.1,3,83,,988.7,946.3,,6.4,280,,5.1,,,,,,,,,,,,,,,,,,,,,,,,,,,,,,,,,,,,,,,,,,,,,,,,,,,,,,,,,,,,,,,,,,,,,,,,,,,,,,,,,,,,,,,,,,,SYN09272551 12466 62810 10078 20050 39463 49887 53021 69981 92354 333 10100 20067 91020 555 91500=,,,,,,,,,,3/26/2007
USW00014939,2023-02-14T18:43:00,40.8508,-96.7475,362.7,"LINCOLN AIRPORT, NE US",FM-16,343,990.2,2.8,5.6,,,,,82,BKN:07 4.57 OVC:08 22.86,,948.2,16.093,4.3,290,,6.7,,,,,,,,,,,,,,,,,,,,,,,,,,,,,,,,,,,,,,,,,,,,,,,,,,,,,,,,,,,,,,,,,,,,,,,,,,,,,,,,,,,,,,,,,,,MET09302/14/23 18:43:01 SPECI KLNK 150043Z 29013KT 10SM BKN015 OVC075 06/03 A2924 RMK AO2 T00560028,,,,,,,,,,3/26/2007
USW00014939,2023-02-14T18:52:00,40.8508,-96.7475,362.7,"LINCOLN AIRPORT, NE US",FM-16,343,990.5,2,5,,,,,81,SCT:04 4.57 BKN:07 11.89 OVC:08 22.86,,948.5,16.093,3.8,290,13.4,8.2,,,,,,,,,,,,,,,,,,,,,,,,,,,,,,,,,,,,,,,,,,,,,,,,,,,,,,,,,,,,,,,,,,,,,,,,,,,,,,,,,,,,,,,,,,,MET12802/14/23 18:52:03 SPECI KLNK 150052Z 29016G26KT 10SM SCT015 BKN039 OVC075 05/02 A2925 RMK AO2 PK WND 29026/0049 PRESRR FIBI (NU),,,,,,,,,,3/26/2007
USW00014939,2023-02-14T18:54:00,40.8508,-96.7475,362.7,"LINCOLN AIRPORT, NE US",FM-15,343,990.5,1.7,5,0,,,,79,SCT:04 4.57 BKN:07 11.89 OVC:08 22.86,990.9,948.5,16.093,3.5,290,13.4,8.2,,,,,,,,,,,,,,,,,,,,,,,,,,,,,,,,,,,,,,,,,,,,,,,,,,,,,,,,,,,,,,,,,,,,,,,,,,,,,,,,,,,,,,,,,,,MET13502/14/23 18:54:01 METAR KLNK 150054Z 29016G26KT 10SM SCT015 BKN039 OVC075 05/02 A2925 RMK AO2 PK WND 29026/0049 PRESRR SLP909 T00500017,,,,,,,,,,3/26/2007
USW00014939,2023-02-14T19:03:00,40.8508,-96.7475,362.7,"LINCOLN AIRPORT, NE US",FM-16,343,990.9,1.7,5,,,,,79,BKN:07 5.18 OVC:08 11.89,,948.9,16.093,3.5,290,12.4,9.3,,,,,,,,,,,,,,,,,,,,,,,,,,,,,,,,,,,,,,,,,,,,,,,,,,,,,,,,,,,,,,,,,,,,,,,,,,,,,,,,,,,,,,,,,,,MET09602/14/23 19:03:01 SPECI KLNK 150103Z 29018G24KT 10SM BKN017 OVC039 05/02 A2926 RMK AO2 T00500017,,,,,,,,,,3/26/2007
USW00014939,2023-02-14T19:54:00,40.8508,-96.7475,362.7,"LINCOLN AIRPORT, NE US",FM-15,343,992.2,0.6,3.9,0,,,,79,OVC:08 4.88,992.5,950.2,16.093,2.5,280,13.9,8.2,,,,,,,,,,,,,,,,,,,,,,,,,,,,,,,,,,,,,,,,,,,,,,,,,,,,,,,,,,,,,,,,,,,,,,,,,,,,,,,,,,,,,,,,,,,MET11402/14/23 19:54:01 METAR KLNK 150154Z 28016G27KT 10SM OVC016 04/01 A2930 RMK AO2 PK WND 28027/0151 SLP925 T00390006,,,,,,,,,,3/26/2007
USW00014939,2023-02-14T20:54:00,40.8508,-96.7475,362.7,"LINCOLN AIRPORT, NE US",FM-15,343,993.6,0.6,2.8,0.3,-RA:02 |RA |RA,4.9,1,86,BKN:07 5.18 OVC:08 10.06,994,951.5,16.093,1.8,280,,7.2,,,,,,,,,,,,,,,,,,,,,,,,,,,,,,,,,,,,,,,,,,,,,,,,,,,,,,,,,,,,,,,,,,,,,,,,,,,,,,,,,,,,,,,,,,,MET12802/14/23 20:54:01 METAR KLNK 150254Z 28014KT 10SM -RA BKN017 OVC033 03/01 A2934 RMK AO2 RAB16 SLP940 P0000 60000 T00280006 51049,,,,,,,,,,3/26/2007
USW00014939,2023-02-14T20:57:00,40.8508,-96.7475,362.7,"LINCOLN AIRPORT, NE US",FM-16,343,993.9,0.6,2.8,T,-RA:02 |RA |RA,,,86,SCT:04 5.18 OVC:08 9.45,,951.8,14.484,1.8,280,,8.2,,,,,,,,,,,,,,,,,,,,,,,,,,,,,,,,,,,,,,,,,,,,,,,,,,,,,,,,,,,,,,,,,,,,,,,,,,,,,,,,,,,,,,,,,,,MET10202/14/23 20:57:01 SPECI KLNK 150257Z 28016KT 9SM -RA SCT017 OVC031 03/01 A2935 RMK AO2 P0000 T00280006,,,,,,,,,,3/26/2007
USW00014939,2023-02-14T21:04:00,40.8508,-96.7475,362.7,"LINCOLN AIRPORT, NE US",FM-16,343,993.9,0.6,2.8,0.2,-RA:02 |RA |RA,,,86,BKN:07 4.57 OVC:08 9.45,,951.8,12.875,1.8,280,11.8,7.2,,,,,,,,,,,,,,,,,,,,,,,,,,,,,,,,,,,,,,,,,,,,,,,,,,,,,,,,,,,,,,,,,,,,,,,,,,,,,,,,,,,,,,,,,,,MET10502/14/23 21:04:01 SPECI KLNK 150304Z 28014G23KT 8SM -RA BKN015 OVC031 03/01 A2935 RMK AO2 P0001 T00280006,,,,,,,,,,3/26/2007
USW00014939,2023-02-14T21:54:00,40.8508,-96.7475,362.7,"LINCOLN AIRPORT, NE US",FM-15,343,995.3,0.6,2.8,0.3,-RA:02 |RA |RA,,,86,BKN:07 5.18 BKN:07 8.23 OVC:08 15.24,995.6,953.1,16.093,1.8,310,13.4,8.8,,,,,,,,,,,,,,,,,,,,,,,,,,,,,,,,,,,,,,,,,,,,,,,,,,,,,,,,,,,,,,,,,,,,,,,,,,,,,,,,,,,,,,,,,,,MET13802/14/23 21:54:01 METAR KLNK 150354Z 31017G26KT 10SM -RA BKN017 BKN027 OVC050 03/01 A2939 RMK AO2 PK WND 26030/0339 SLP956 P0002 T00280006,,,,,,,,,,3/26/2007
USW00014939,2023-02-14T21:58:00,40.8508,-96.7475,362.7,"LINCOLN AIRPORT, NE US",FM-16,343,995.6,0,2.8,T,,,,82,SCT:04 4.88 SCT:04 8.84 OVC:08 16.76,,953.4,16.093,1.6,300,13.4,8.2,,,,,,,,,,,,,,,,,,,,,,,,,,,,,,,,,,,,,,,,,,,,,,,,,,,,,,,,,,,,,,,,,,,,,,,,,,,,,,,,,,,,,,,,,,,MET13302/14/23 21:58:01 SPECI KLNK 150358Z 30016G26KT 10SM SCT016 SCT029 OVC055 03/00 A2940 RMK AO2 PK WND 29026/0356 RAE58 P0000 T00280000,,,,,,,,,,3/26/2007
USW00014939,2023-02-14T22:31:00,40.8508,-96.7475,362.7,"LINCOLN AIRPORT, NE US",FM-16,343,997.3,0,2.8,T,,,,82,BKN:07 5.49 OVC:08 18.29,,955.1,16.093,1.6,280,12.4,6.7,,,,,,,,,,,,,,,,,,,,,,,,,,,,,,,,,,,,,,,,,,,,,,,,,,,,,,,,,,,,,,,,,,,,,,,,,,,,,,,,,,,,,,,,,,,MET13502/14/23 22:31:01 SPECI KLNK 150431Z 28013G24KT 10SM BKN018 OVC060 03/00 A2945 RMK AO2 PK WND 30029/0403 RAE0358 PRESRR P0000 T00280000,,,,,,,,,,3/26/2007
USW00014939,2023-02-14T22:54:00,40.8508,-96.7475,362.7,"LINCOLN AIRPORT, NE US",FM-15,343,997.3,0,3.3,0,,,,79,OVC:08 5.49,997.6,955.1,16.093,1.9,300,12.4,8.8,,,,,,,,,,,,,,,,,,,,,,,,,,,,,,,,,,,,,,,,,,,,,,,,,,,,,,,,,,,,,,,,,,,,,,,,,,,,,,,,,,,,,,,,,,,MET12802/14/23 22:54:01 METAR KLNK 150454Z 30017G24KT 10SM OVC018 03/00 A2945 RMK AO2 PK WND 30029/0403 RAE0358 SLP976 P0000 T00330000,,,,,,,,,,3/26/2007
USW00014939,2023-02-14T23:37:00,40.8508,-96.7475,362.7,"LINCOLN AIRPORT, NE US",FM-16,343,998.6,0,3.3,,,,,79,OVC:08 4.27,,956.4,16.093,1.9,300,14.9,10.8,,,,,,,,,,,,,,,,,,,,,,,,,,,,,,,,,,,,,,,,,,,,,,,,,,,,,,,,,,,,,,,,,,,,,,,,,,,,,,,,,,,,,,,,,,,MET11402/14/23 23:37:01 SPECI KLNK 150537Z 30021G29KT 10SM OVC014 03/00 A2949 RMK AO2 PK WND 31030/0521 PRESRR T00330000,,,,,,,,,,3/26/2007
USW00014939,2023-02-14T23:54:00,40.8508,-96.7475,362.7,"LINCOLN AIRPORT, NE US",FM-15,343,999.7,0,3.3,0,,6,3,79,OVC:08 4.27,1000.1,957.4,16.093,1.9,300,16.5,10.8,,,,,,,,,,,,,,,,,,,,,,,,,,,,,,,,,,,,,,,,,,,,,,,,,,,,,,,,,,,,,,,,,,,,,,,,,,,,,,,,,,,,,,,,,,,MET15502/14/23 23:54:01 METAR KLNK 150554Z 30021G32KT 10SM OVC014 03/00 A2952 RMK AO2 PK WND 30032/0548 PRESRR SLP001 60002 T00330000 10078 20028 401000028 53060,,,,,,,,,,3/26/2007
USW00014939,2023-02-15T00:00:00,40.8508,-96.7475,362.7,"LINCOLN AIRPORT, NE US",FM-12,223,,0,3.3,,,6,3,79,,1000.1,957.1,,1.9,300,,10.8,,,,,,,,,,,,,,,,,,,,,,,,,,,,,,,,,,,,,,,,,,,,,,,,,,,,,,,,,,,,,,,,,,,,,,,,,,,,,,,,,,,,,,,,,,,SYN09272551 15466 83021 10033 20000 39571 40001 53060 69951 90554 333 10094 20028 91032 555 91506=,,,,,,,,,,3/26/2007
USW00014939,2023-02-15T00:00:00,40.8508,-96.7475,362.7,"LINCOLN AIRPORT, NE US",SOD,,,,,,,,,,,,,,,,,,723,1800,-7.2,-1.9,72,1016.3,973.2,-3.9,8.2,0,-0.4,20.2,3.3,-7.1,320,18.3,T,0,T,340,13.4,HZ SN,,,,,,,,,,,,,,,,,,,,,,,,,,,,,,,,,,,,,,,,,,,,,,,,,,,,,,,,,,,,,,,,,,,,,,,,,,,,,,,3/26/2007
USW00014939,2023-02-15T00:10:00,40.8508,-96.7475,362.7,"LINCOLN AIRPORT, NE US",FM-16,343,1000.3,0,3.3,,,,,79,OVC:08 4.57,,958,16.093,1.9,320,17,11.3,,,,,,,,,,,,,,,,,,,,,,,,,,,,,,,,,,,,,,,,,,,,,,,,,,,,,,,,,,,,,,,,,,,,,,,,,,,,,,,,,,,,,,,,,,,MET10702/15/23 00:10:02 SPECI KLNK 150610Z 32022G33KT 10SM OVC015 03/00 A2954 RMK AO2 PK WND 32033/0600 T00330000,,,,,,,,,,3/26/2007
USW00014939,2023-02-15T00:54:00,40.8508,-96.7475,362.7,"LINCOLN AIRPORT, NE US",FM-15,343,1002,-0.6,3.3,0,,,,76,OVC:08 5.18,1002.4,959.7,16.093,1.7,310,11.8,7.7,,,,,,,,,,,,,,,,,,,,,,,,,,,,,,,,,,,,,,,,,,,,,,,,,,,,,,,,,,,,,,,,,,,,,,,,,,,,,,,,,,,,,,,,,,,MET12202/15/23 00:54:02 METAR KLNK 150654Z 31015G23KT 10SM OVC017 03/M01 A2959 RMK AO2 PK WND 32033/0600 PRESRR SLP024 T00331006,,,,,,,,,,3/26/2007
USW00014939,2023-02-15T01:54:00,40.8508,-96.7475,362.7,"LINCOLN AIRPORT, NE US",FM-15,343,1004.7,-1.1,2.8,0,,,,76,OVC:08 5.49,1005.4,962.3,16.093,1.2,310,13.4,8.2,,,,,,,,,,,,,,,,,,,,,,,,,,,,,,,,,,,,,,,,,,,,,,,,,,,,,,,,,,,,,,,,,,,,,,,,,,,,,,,,,,,,,,,,,,,MET12202/15/23 01:54:02 METAR KLNK 150754Z 31016G26KT 10SM OVC018 03/M01 A2967 RMK AO2 PK WND 31030/0726 PRESRR SLP054 T00281011,,,,,,,,,,3/26/2007
USW00014939,2023-02-15T02:07:00,40.8508,-96.7475,362.7,"LINCOLN AIRPORT, NE US",FM-16,343,1005.1,-1.1,2.8,,,,,76,OVC:08 5.79,,962.6,16.093,1.2,310,11.3,7.2,,,,,,,,,,,,,,,,,,,,,,,,,,,,,,,,,,,,,,,,,,,,,,,,,,,,,,,,,,,,,,,,,,,,,,,,,,,,,,,,,,,,,,,,,,,MET09002/15/23 02:07:02 SPECI KLNK 150807Z 31014G22KT 10SM OVC019 03/M01 A2968 RMK AO2 T00281011,,,,,,,,,,3/26/2007
USW00014939,2023-02-15T02:54:00,40.8508,-96.7475,362.7,"LINCOLN AIRPORT, NE US",FM-15,343,1006.8,-2.2,1.7,0,,6.7,1,76,OVC:08 7.01,1007.2,964.2,16.093,0.1,290,15.4,8.2,,,,,,,,,,,,,,,,,,,,,,,,,,,,,,,,,,,,,,,,,,,,,,,,,,,,,,,,,,,,,,,,,,,,,,,,,,,,,,,,,,,,,,,,,,,MET12102/15/23 02:54:02 METAR KLNK 150854Z 29016G30KT 10SM OVC023 02/M02 A2973 RMK AO2 PK WND 29030/0850 SLP072 T00171022 51067,,,,,,,,,,3/26/2007
USW00014939,2023-02-15T03:54:00,40.8508,-96.7475,362.7,"LINCOLN AIRPORT, NE US",FM-15,343,1008.1,-3.3,0.6,0,,,,75,OVC:08 5.79,1008.8,965.5,16.093,-0.9,320,12.4,8.2,,,,,,,,,,,,,,,,,,,,,,,,,,,,,,,,,,,,,,,,,,,,,,,,,,,,,,,,,,,,,,,,,,,,,,,,,,,,,,,,,,,,,,,,,,,MET11502/15/23 03:54:02 METAR KLNK 150954Z 32016G24KT 10SM OVC019 01/M03 A2977 RMK AO2 PK WND 30034/0922 SLP088 T00061033,,,,,,,,,,3/26/2007
USW00014939,2023-02-15T04:14:00,40.8508,-96.7475,362.7,"LINCOLN AIRPORT, NE US",FM-16,343,1008.8,-4.4,0,,,,,73,OVC:08 5.49,,966.2,16.093,-1.6,300,15.4,11.8,,,,,,,,,,,,,,,,,,,,,,,,,,,,,,,,,,,,,,,,,,,,,,,,,,,,,,,,,,,,,,,,,,,,,,,,,,,,,,,,,,,,,,,,,,,MET10802/15/23 04:14:02 SPECI KLNK 151014Z 30023G30KT 10SM OVC018 00/M04 A2979 RMK AO2 PK WND 30030/1014 T00001044,,,,,,,,,,3/26/2007
USW00014939,2023-02-15T04:54:00,40.8508,-96.7475,362.7,"LINCOLN AIRPORT, NE US",FM-15,343,1009.5,-5,-0.6,0,,,,72,OVC:08 5.49,1009.9,966.8,16.093,-2.1,310,14.9,9.8,,,,,,,,,,,,,,,,,,,,,,,,,,,,,,,,,,,,,,,,,,,,,,,,,,,,,,,,,,,,,,,,,,,,,,,,,,,,,,,,,,,,,,,,,,,MET11602/15/23 04:54:02 METAR KLNK 151054Z 31019G29KT 10SM OVC018 M01/M05 A2981 RMK AO2 PK WND 30030/1016 SLP099 T10061050,,,,,,,,,,3/26/2007
USW00014939,2023-02-15T05:54:00,40.8508,-96.7475,362.7,"LINCOLN AIRPORT, NE US",FM-15,343,1010.8,-5.6,-1.7,0,,3.9,1,75,OVC:08 4.88,1011.5,968.2,16.093,-3,320,14.9,9.3,,,,,,,,,,,,,,,,,,,,,,,,,,,,,,,,,,,,,,,,,,,,,,,,,,,,,,,,,,,,,,,,,,,,,,,,,,,,,,,,,,,,,,,,,,,MET14002/15/23 05:54:02 METAR KLNK 151154Z 32018G29KT 10SM OVC016 M02/M06 A2985 RMK AO2 PK WND 32036/1138 SLP115 70022 T10171056 10033 21017 51039,,,,,,,,,,3/26/2007
USW00014939,2023-02-15T06:00:00,40.8508,-96.7475,362.7,"LINCOLN AIRPORT, NE US",FM-12,223,,-5.6,-1.7,,,3.9,1,75,,1011.5,967.9,,-3,320,,9.3,,,,,,,,,,,,,,,,,,,,,,,,,,,,,,,,,,,,,,,,,,,,,,,,,,,,,,,,,,,,,,,,,,,,,,,,,,,,,,,,,,,,,,,,,,,SYN09272551 35466 83218 11017 21056 39679 40115 51039 91154 333 10100 21017 70056 91029 555 91512=,,,,,,,,,,3/26/2007
USW00014939,2023-02-15T06:54:00,40.8508,-96.7475,362.7,"LINCOLN AIRPORT, NE US",FM-15,343,1011.9,-6.1,-2.2,0,,,,75,OVC:08 4.88,1012.9,969.1,16.093,-3.5,330,13.4,8.8,,,,,,,,,,,,,,,,,,,,,,,,,,,,,,,,,,,,,,,,,,,,,,,,,,,,,,,,,,,,,,,,,,,,,,,,,,,,,,,,,,,,,,,,,,,MET12102/15/23 06:54:02 METAR KLNK 151254Z 33017G26KT 10SM OVC016 M02/M06 A2988 RMK AO2 PK WND 33031/1157 SLP129 T10221061 (HT),,,,,,,,,,3/26/2007
USW00014939,2023-02-15T07:54:00,40.8508,-96.7475,362.7,"LINCOLN AIRPORT, NE US",FM-15,343,1013.5,-6.7,-2.2,0,,,,72,OVC:08 5.18,1014.6,970.8,16.093,-3.7,340,13.9,8.8,,,,,,,,,,,,,,,,,,,,,,,,,,,,,,,,,,,,,,,,,,,,,,,,,,,,,,,,,,,,,,,,,,,,,,,,,,,,,,,,,,,,,,,,,,,MET12102/15/23 07:54:02 METAR KLNK 151354Z 34017G27KT 10SM OVC017 M02/M07 A2993 RMK AO2 PK WND 33033/1312 SLP146 T10221067 (HT),,,,,,,,,,3/26/2007
USW00014939,2023-02-15T08:54:00,40.8508,-96.7475,362.7,"LINCOLN AIRPORT, NE US",FM-15,343,1015.9,-6.7,-2.2,0,,4.9,3,72,OVC:08 5.18,1017,973.1,16.093,-3.7,330,10.8,6.2,,,,,,,,,,,,,,,,,,,,,,,,,,,,,,,,,,,,,,,,,,,,,,,,,,,,,,,,,,,,,,,,,,,,,,,,,,,,,,,,,,,,,,,,,,,MET13402/15/23 08:54:02 METAR KLNK 151454Z 33012G21KT 10SM OVC017 M02/M07 A3000 RMK AO2 PK WND 33032/1358 PRESRR SLP170 T10221067 53049 (HT),,,,,,,,,,3/26/2007
USW00014939,2023-02-15T09:54:00,40.8508,-96.7475,362.7,"LINCOLN AIRPORT, NE US",FM-15,343,1016.3,-6.7,-2.2,0,,,,72,OVC:08 4.88,1017.4,973.4,16.093,-3.7,350,11.8,8.8,,,,,,,,,,,,,,,,,,,,,,,,,,,,,,,,,,,,,,,,,,,,,,,,,,,,,,,,,,,,,,,,,,,,,,,,,,,,,,,,,,,,,,,,,,,MET10302/15/23 09:54:02 METAR KLNK 151554Z 35017G23KT 10SM OVC016 M02/M07 A3001 RMK AO2 SLP174 T10221067 (HT),,,,,,,,,,3/26/2007
USW00014939,2023-02-15T10:54:00,40.8508,-96.7475,362.7,"LINCOLN AIRPORT, NE US",FM-15,343,1017.6,-6.7,-1.7,0,,,,69,OVC:08 5.18,1018.6,974.7,16.093,-3.4,360,,7.7,,,,,,,,,,,,,,,,,,,,,,,,,,,,,,,,,,,,,,,,,,,,,,,,,,,,,,,,,,,,,,,,,,,,,,,,,,,,,,,,,,,,,,,,,,,MET10002/15/23 10:54:02 METAR KLNK 151654Z 36015KT 10SM OVC017 M02/M07 A3005 RMK AO2 SLP186 T10171067 (HT),,,,,,,,,,3/26/2007
USW00014939,2023-02-15T11:31:00,40.8508,-96.7475,362.7,"LINCOLN AIRPORT, NE US",FM-16,343,1017.9,-7.2,-2.2,,,,,69,OVC:08 5.79,,975,16.093,-3.9,340,,9.3,,,,,,,,,,,,,,,,,,,,,,,,,,,,,,,,,,,,,,,,,,,,,,,,,,,,,,,,,,,,,,,,,,,,,,,,,,,,,,,,,,,,,,,,,,,MET09302/15/23 11:31:02 SPECI KLNK 151731Z 34018KT 10SM OVC019 M02/M07 A3006 RMK AO2 T10221072 (HT),,,,,,,,,,3/26/2007
USW00014939,2023-02-15T11:52:00,40.8508,-96.7475,362.7,"LINCOLN AIRPORT, NE US",FM-16,343,1018.3,-7,-2,,,,,69,OVC:08 5.49,,975.3,16.093,-3.9,350,11.3,8.2,,,,,,,,,,,,,,,,,,,,,,,,,,,,,,,,,,,,,,,,,,,,,,,,,,,,,,,,,,,,,,,,,,,,,,,,,,,,,,,,,,,,,,,,,,,MET09102/15/23 11:52:02 SPECI KLNK 151752Z 35016G22KT 10SM OVC018 M02/M07 A3007 RMK AO2 FIBI (HT),,,,,,,,,,3/26/2007
USW00014939,2023-02-15T11:54:00,40.8508,-96.7475,362.7,"LINCOLN AIRPORT, NE US",FM-15,343,1018.3,-7.2,-1.7,0,,2.2,3,66,OVC:08 5.49,1019.2,975.3,16.093,-3.5,350,11.3,8.8,,,,,,,,,,,,,,,,,,,,,,,,,,,,,,,,,,,,,,,,,,,,,,,,,,,,,,,,,,,,,,,,,,,,,,,,,,,,,,,,,,,,,,,,,,,MET12102/15/23 11:54:02 METAR KLNK 151754Z 35017G22KT 10SM OVC018 M02/M07 A3007 RMK AO2 SLP192 T10171072 11011 21022 53022 (HT),,,,,,,,,,3/26/2007
USW00014939,2023-02-15T12:00:00,40.8508,-96.7475,362.7,"LINCOLN AIRPORT, NE US",FM-12,223,,-7.2,-1.7,,,2.2,3,66,,1019.2,975.1,,-3.5,350,,8.8,,,,,,,,,,,,,,,,,,,,,,,,,,,,,,,,,,,,,,,,,,,,,,,,,,,,,,,,,,,,,,,,,,,,,,,,,,,,,,,,,,,,,,,,,,,SYN08672551 32466 83517 11017 21072 39751 40192 53022 91754 333 10033 21022 91022 555 91518=,,,,,,,,,,3/26/2007
USW00014939,2023-02-15T12:54:00,40.8508,-96.7475,362.7,"LINCOLN AIRPORT, NE US",FM-15,343,1017.9,-7.2,-2.2,0,,,,69,OVC:08 5.49,1019.2,975,16.093,-3.9,340,,7.7,,,,,,,,,,,,,,,,,,,,,,,,,,,,,,,,,,,,,,,,,,,,,,,,,,,,,,,,,,,,,,,,,,,,,,,,,,,,,,,,,,,,,,,,,,,MET10002/15/23 12:54:02 METAR KLNK 151854Z 34015KT 10SM OVC018 M02/M07 A3006 RMK AO2 SLP192 T10221072 (AC),,,,,,,,,,3/26/2007
USW00014939,2023-02-15T13:54:00,40.8508,-96.7475,362.7,"LINCOLN AIRPORT, NE US",FM-15,343,1016.9,-7.2,-2.2,0,,,,69,OVC:08 5.49,1018,974,16.093,-3.9,360,,9.3,,,,,,,,,,,,,,,,,,,,,,,,,,,,,,,,,,,,,,,,,,,,,,,,,,,,,,,,,,,,,,,,,,,,,,,,,,,,,,,,,,,,,,,,,,,MET11802/15/23 13:54:02 METAR KLNK 151954Z 36018KT 10SM OVC018 M02/M07 A3003 RMK AO2 PK WND 35026/1942 SLP180 T10221072 (AC),,,,,,,,,,3/26/2007
USW00014939,2023-02-15T14:54:00,40.8508,-96.7475,362.7,"LINCOLN AIRPORT, NE US",FM-15,343,1018.3,-7.8,-2.8,0,,-0.1,5,69,OVC:08 5.18,1019.4,975.3,16.093,-4.4,350,,7.2,,,,,,,,,,,,,,,,,,,,,,,,,,,,,,,,,,,,,,,,,,,,,,,,,,,,,,,,,,,,,,,,,,,,,,,,,,,,,,,,,,,,,,,,,,,MET10602/15/23 14:54:02 METAR KLNK 152054Z 35014KT 10SM OVC017 M03/M08 A3007 RMK AO2 SLP194 T10281078 55001 (AC),,,,,,,,,,3/26/2007
USW00014939,2023-02-15T15:54:00,40.8508,-96.7475,362.7,"LINCOLN AIRPORT, NE US",FM-15,343,1019,-8.3,-3.3,0,,,,69,OVC:08 5.49,1020.1,976,16.093,-4.9,360,,7.7,,,,,,,,,,,,,,,,,,,,,,,,,,,,,,,,,,,,,,,,,,,,,,,,,,,,,,,,,,,,,,,,,,,,,,,,,,,,,,,,,,,,,,,,,,,MET10002/15/23 15:54:02 METAR KLNK 152154Z 36015KT 10SM OVC018 M03/M08 A3009 RMK AO2 SLP201 T10331083 (AC),,,,,,,,,,3/26/2007
USW00014939,2023-02-15T16:01:00,40.8508,-96.7475,362.7,"LINCOLN AIRPORT, NE US",FM-16,343,1018.6,-8.3,-3.3,,,,,69,OVC:08 5.79,,975.7,16.093,-4.9,350,,8.8,,,,,,,,,,,,,,,,,,,,,,,,,,,,,,,,,,,,,,,,,,,,,,,,,,,,,,,,,,,,,,,,,,,,,,,,,,,,,,,,,,,,,,,,,,,MET09302/15/23 16:01:02 SPECI KLNK 152201Z 35017KT 10SM OVC019 M03/M08 A3008 RMK AO2 T10331083 (AC),,,,,,,,,,3/26/2007
USW00014939,2023-02-15T16:11:00,40.8508,-96.7475,362.7,"LINCOLN AIRPORT, NE US",FM-16,343,1019,-8.3,-3.3,,,,,69,BKN:07 5.49 OVC:08 18.29,,976,16.093,-4.9,10,,8.2,,,,,,,,,,,,,,,,,,,,,,,,,,,,,,,,,,,,,,,,,,,,,,,,,,,,,,,,,,,,,,,,,,,,,,,,,,,,,,,,,,,,,,,,,,,MET10002/15/23 16:11:02 SPECI KLNK 152211Z 01016KT 10SM BKN018 OVC060 M03/M08 A3009 RMK AO2 T10331083 (AC),,,,,,,,,,3/26/2007
USW00014939,2023-02-15T16:38:00,40.8508,-96.7475,362.7,"LINCOLN AIRPORT, NE US",FM-16,343,1018.6,-8.3,-3.9,,,,,72,BKN:07 5.79 OVC:08 16.76,,975.7,16.093,-5.3,360,,7.2,,,,,,,,,,,,,,,,,,,,,,,,,,,,,,,,,,,,,,,,,,,,,,,,,,,,,,,,,,,,,,,,,,,,,,,,,,,,,,,,,,,,,,,,,,,MET10002/15/23 16:38:02 SPECI KLNK 152238Z 36014KT 10SM BKN019 OVC055 M04/M08 A3008 RMK AO2 T10391083 (AC),,,,,,,,,,3/26/2007
USW00014939,2023-02-15T16:54:00,40.8508,-96.7475,362.7,"LINCOLN AIRPORT, NE US",FM-15,343,1019,-8.3,-3.9,0,,,,72,BKN:07 5.79 OVC:08 15.24,1020.2,976,16.093,-5.3,360,,7.7,,,,,,,,,,,,,,,,,,,,,,,,,,,,,,,,,,,,,,,,,,,,,,,,,,,,,,,,,,,,,,,,,,,,,,,,,,,,,,,,,,,,,,,,,,,MET10702/15/23 16:54:02 METAR KLNK 152254Z 36015KT 10SM BKN019 OVC050 M04/M08 A3009 RMK AO2 SLP202 T10391083 (AC),,,,,,,,,,3/26/2007
USW00014939,2023-02-15T17:08:00,40.8508,-96.7475,362.7,"LINCOLN AIRPORT, NE US",FM-16,343,1018.6,-8.9,-3.9,,,,,69,SCT:04 5.79 OVC:08 15.24,,975.7,14.484,-5.4,10,,7.7,,,,,,,,,,,,,,,,,,,,,,,,,,,,,,,,,,,,,,,,,,,,,,,,,,,,,,,,,,,,,,,,,,,,,,,,,,,,,,,,,,,,,,,,,,,MET09902/15/23 17:08:02 SPECI KLNK 152308Z 01015KT 9SM SCT019 OVC050 M04/M09 A3008 RMK AO2 T10391089 (CR),,,,,,,,,,3/26/2007
USW00014939,2023-02-15T17:24:00,40.8508,-96.7475,362.7,"LINCOLN AIRPORT, NE US",FM-16,343,1019,-8.3,-3.9,,,,,72,BKN:07 5.49 OVC:08 15.24,,976,14.484,-5.3,360,,6.7,,,,,,,,,,,,,,,,,,,,,,,,,,,,,,,,,,,,,,,,,,,,,,,,,,,,,,,,,,,,,,,,,,,,,,,,,,,,,,,,,,,,,,,,,,,MET09902/15/23 17:24:02 SPECI KLNK 152324Z 36013KT 9SM BKN018 OVC050 M04/M08 A3009 RMK AO2 T10391083 (CR),,,,,,,,,,3/26/2007
USW00014939,2023-02-15T17:46:00,40.8508,-96.7475,362.7,"LINCOLN AIRPORT, NE US",FM-16,343,1019.3,-9.4,-5,,,,,72,SCT:04 5.49 OVC:08 19.81,,976.3,16.093,-6.3,10,,8.8,,,,,,,,,,,,,,,,,,,,,,,,,,,,,,,,,,,,,,,,,,,,,,,,,,,,,,,,,,,,,,,,,,,,,,,,,,,,,,,,,,,,,,,,,,,MET10002/15/23 17:46:02 SPECI KLNK 152346Z 01017KT 10SM SCT018 OVC065 M05/M09 A3010 RMK AO2 T10501094 (CR),,,,,,,,,,3/26/2007
USW00014939,2023-02-15T17:54:00,40.8508,-96.7475,362.7,"LINCOLN AIRPORT, NE US",FM-15,343,1019.3,-9.4,-5,0,,1.1,1,72,FEW:02 5.49 OVC:08 19.81,1020.8,976.3,16.093,-6.3,10,,7.7,,,,,,,,,,,,,,,,,,,,,,,,,,,,,,,,,,,,,,,,,,,,,,,,,,,,,,,,,,,,,,,,,,,,,,,,,,,,,,,,,,,,,,,,,,,MET12502/15/23 17:54:02 METAR KLNK 152354Z 01015KT 10SM FEW018 OVC065 M05/M09 A3010 RMK AO2 SLP208 T10501094 11017 21050 51011 (CR),,,,,,,,,,3/26/2007
USW00014939,2023-02-15T18:00:00,40.8508,-96.7475,362.7,"LINCOLN AIRPORT, NE US",FM-12,223,,-9.4,-5,,,1.1,1,72,,1020.8,976.1,,-6.3,10,,7.7,,,,,,,,,,,,,,,,,,,,,,,,,,,,,,,,,,,,,,,,,,,,,,,,,,,,,,,,,,,,,,,,,,,,,,,,,,,,,,,,,,,,,,,,,,,SYN08072551 32466 80115 11050 21094 39761 40208 51011 92354 333 11011 21050 555 91600=,,,,,,,,,,3/26/2007
USW00014939,2023-02-15T18:44:00,40.8508,-96.7475,362.7,"LINCOLN AIRPORT, NE US",FM-16,343,1020,-10,-5.6,,,,,71,BKN:07 5.49 OVC:08 21.34,,977,16.093,-6.9,360,,8.2,,,,,,,,,,,,,,,,,,,,,,,,,,,,,,,,,,,,,,,,,,,,,,,,,,,,,,,,,,,,,,,,,,,,,,,,,,,,,,,,,,,,,,,,,,,MET11302/15/23 18:44:01 SPECI KLNK 160044Z 36016KT 10SM BKN018 OVC070 M06/M10 A3012 RMK AO2 PK WND 01027/0019 T10561100,,,,,,,,,,3/26/2007
USW00014939,2023-02-15T18:54:00,40.8508,-96.7475,362.7,"LINCOLN AIRPORT, NE US",FM-15,343,1020,-10.6,-6.1,0,,,,71,BKN:07 5.49 OVC:08 19.81,1021.5,977,16.093,-7.4,360,,9.3,,,,,,,,,,,,,,,,,,,,,,,,,,,,,,,,,,,,,,,,,,,,,,,,,,,,,,,,,,,,,,,,,,,,,,,,,,,,,,,,,,,,,,,,,,,MET12002/15/23 18:54:01 METAR KLNK 160054Z 36018KT 10SM BKN018 OVC065 M06/M11 A3012 RMK AO2 PK WND 01027/0019 SLP215 T10611106,,,,,,,,,,3/26/2007
USW00014939,2023-02-15T19:14:00,40.8508,-96.7475,362.7,"LINCOLN AIRPORT, NE US",FM-16,343,1019.3,-10.6,-6.1,,,,,71,SCT:04 5.49 BKN:07 15.24 OVC:08 21.34,,976.3,16.093,-7.4,360,13.9,10.8,,,,,,,,,,,,,,,,,,,,,,,,,,,,,,,,,,,,,,,,,,,,,,,,,,,,,,,,,,,,,,,,,,,,,,,,,,,,,,,,,,,,,,,,,,,MET12302/15/23 19:14:01 SPECI KLNK 160114Z 36021G27KT 10SM SCT018 BKN050 OVC070 M06/M11 A3010 RMK AO2 PK WND 35027/0107 T10611106,,,,,,,,,,3/26/2007
USW00014939,2023-02-15T19:54:00,40.8508,-96.7475,362.7,"LINCOLN AIRPORT, NE US",FM-15,343,1019.6,-11.1,-6.1,0,,,,68,BKN:07 18.29 OVC:08 21.34,1021.3,976.7,16.093,-7.5,360,,8.8,,,,,,,,,,,,,,,,,,,,,,,,,,,,,,,,,,,,,,,,,,,,,,,,,,,,,,,,,,,,,,,,,,,,,,,,,,,,,,,,,,,,,,,,,,,MET12002/15/23 19:54:01 METAR KLNK 160154Z 36017KT 10SM BKN060 OVC070 M06/M11 A3011 RMK AO2 PK WND 01029/0126 SLP213 T10611111,,,,,,,,,,3/26/2007
USW00014939,2023-02-15T20:54:00,40.8508,-96.7475,362.7,"LINCOLN AIRPORT, NE US",FM-15,343,1020.3,-11.1,-6.7,T,HZ:7 |FU |HZ,0.9,1,71,SCT:04 15.24 BKN:07 22.86 OVC:08 27.43,1021.9,977.3,8.047,-7.9,10,,8.8,,,,,,,,,,,,,,,,,,,,,,,,,,,,,,,,,,,,,,,,,,,,,,,,,,,,,,,,,,,,,,,,,,,,,,,,,,,,,,,,,,,,,,,,,,,MET15602/15/23 20:54:01 METAR KLNK 160254Z 01017KT 5SM HZ SCT050 BKN075 OVC090 M07/M11 A3013 RMK AO2 PK WND 36028/0157 SNB43E48 SLP219 P0000 60000 T10671111 51009,,,,,,,,,,3/26/2007
USW00014939,2023-02-15T21:54:00,40.8508,-96.7475,362.7,"LINCOLN AIRPORT, NE US",FM-15,343,1020.3,-10.6,-7.2,T,-SN:03 |SN |SN,,,77,FEW:02 10.67 OVC:08 15.24,1021.9,977.3,4.828,-8.2,10,11.8,6.2,,,,,,,,,,,,,,,,,,,,,,,,,,,,,,,,,,,,,,,,,,,,,,,,,,,,,,,,,,,,,,,,,,,,,,,,,,,,,,,,,,,,,,,,,,,MET12002/15/23 21:54:01 METAR KLNK 160354Z 01012G23KT 3SM -SN FEW035 OVC050 M07/M11 A3013 RMK AO2 SNB24 SLP219 P0000 T10721106,,,,,,,,,,3/26/2007
USW00014939,2023-02-15T22:54:00,40.8508,-96.7475,362.7,"LINCOLN AIRPORT, NE US",FM-15,343,1019,-11.1,-7.2,T,,,,74,FEW:02 4.88 FEW:02 13.11 OVC:08 15.24,1020.5,976,12.875,-8.3,20,,8.8,,,,,,,,,,,,,,,,,,,,,,,,,,,,,,,,,,,,,,,,,,,,,,,,,,,,,,,,,,,,,,,,,,,,,,,,,,,,,,,,,,,,,,,,,,,MET13802/15/23 22:54:01 METAR KLNK 160454Z 02017KT 8SM FEW016 FEW043 OVC050 M07/M11 A3009 RMK AO2 PK WND 02026/0443 SNE46 SLP205 P0000 T10721111,,,,,,,,,,3/26/2007
USW00014939,2023-02-15T23:54:00,40.8508,-96.7475,362.7,"LINCOLN AIRPORT, NE US",FM-15,343,1016.6,-11.7,-7.2,0,,-3.4,8,71,OVC:08 15.24,1018.3,973.7,16.093,-8.4,10,14.4,8.8,,,,,,,,,,,,,,,,,,,,,,,,,,,,,,,,,,,,,,,,,,,,,,,,,,,,,,,,,,,,,,,,,,,,,,,,,,,,,,,,,,,,,,,,,,,MET15002/15/23 23:54:01 METAR KLNK 160554Z 01017G28KT 10SM OVC050 M07/M12 A3002 RMK AO2 PK WND 02028/0550 SLP183 60000 T10721117 11050 21072 400331072 58034,,,,,,,,,,3/26/2007
USW00014939,2023-02-16T00:00:00,40.8508,-96.7475,362.7,"LINCOLN AIRPORT, NE US",FM-12,223,,-11.7,-7.2,,,-3.4,8,71,,1018.3,973.5,,-8.4,10,,8.8,,,,,,,,,,,,,,,,,,,,,,,,,,,,,,,,,,,,,,,,,,,,,,,,,,,,,,,,,,,,,,,,,,,,,,,,,,,,,,,,,,,,,,,,,,,SYN09272551 15766 80117 11072 21117 39735 40183 58034 69901 90554 333 10033 21072 91028 555 91606=,,,,,,,,,,3/26/2007
USW00014939,2023-02-16T00:00:00,40.8508,-96.7475,362.7,"LINCOLN AIRPORT, NE US",SOD,,,,,,,,,,,,,,,,,,722,1802,-11.1,-10.4,80,1023,979.7,-8.9,6.3,0,-9.07,28.7,-2.7,-18.2,360,17.4,15,200,224,360,13.4,BR FG HZ FZFG SN UP,,,,,,,,,,,,,,,,,,,,,,,,,,,,,,,,,,,,,,,,,,,,,,,,,,,,,,,,,,,,,,,,,,,,,,,,,,,,,,,3/26/2007
USW00014939,2023-02-16T00:54:00,40.8508,-96.7475,362.7,"LINCOLN AIRPORT, NE US",FM-15,343,1017.9,-12.2,-7.2,0,,,,68,BKN:07 13.72 OVC:08 15.24,1019.7,975,16.093,-8.6,20,11.8,8.2,,,,,,,,,,,,,,,,,,,,,,,,,,,,,,,,,,,,,,,,,,,,,,,,,,,,,,,,,,,,,,,,,,,,,,,,,,,,,,,,,,,,,,,,,,,MET12302/16/23 00:54:02 METAR KLNK 160654Z 02016G23KT 10SM BKN045 OVC050 M07/M12 A3006 RMK AO2 PK WND 01030/0600 SLP197 T10721122,,,,,,,,,,3/26/2007
USW00014939,2023-02-16T01:42:00,40.8508,-96.7475,362.7,"LINCOLN AIRPORT, NE US",FM-16,343,1017.3,-11.7,-7.8,T,-SN:03 |SN |SN,,,74,OVC:08 9.14,,974.4,4.023,-8.8,10,13.4,6.2,,,,,,,,,,,,,,,,,,,,,,,,,,,,,,,,,,,,,,,,,,,,,,,,,,,,,,,,,,,,,,,,,,,,,,,,,,,,,,,,,,,,,,,,,,,MET12802/16/23 01:42:02 SPECI KLNK 160742Z 01012G26KT 2 1/2SM -SN OVC030 M08/M12 A3004 RMK AO2 PK WND 02026/0734 SNB15 P0000 T10781117,,,,,,,,,,3/26/2007
USW00014939,2023-02-16T01:50:00,40.8508,-96.7475,362.7,"LINCOLN AIRPORT, NE US",FM-16,343,1017.3,-11,-8,T,-SN:03 |SN |SN,,,79,OVC:08 7.92,,974.4,2.816,-8.7,10,,7.7,,,,,,,,,,,,,,,,,,,,,,,,,,,,,,,,,,,,,,,,,,,,,,,,,,,,,,,,,,,,,,,,,,,,,,,,,,,,,,,,,,,,,,,,,,,MET11502/16/23 01:50:02 SPECI KLNK 160750Z 01015KT 1 3/4SM -SN OVC026 M08/M11 A3004 RMK AO2 PK WND 02026/0734 SNB15 P0000,,,,,,,,,,3/26/2007
USW00014939,2023-02-16T01:54:00,40.8508,-96.7475,362.7,"LINCOLN AIRPORT, NE US",FM-15,343,1017.6,-11.1,-7.8,T,-SN:03 |SN |SN,,,77,OVC:08 6.71,1019.2,974.7,2.816,-8.7,360,11.3,7.2,,,,,,,,,,,,,,,,,,,,,,,,,,,,,,,,,,,,,,,,,,,,,,,,,,,,,,,,,,,,,,,,,,,,,,,,,,,,,,,,,,,,,,,,,,,MET14202/16/23 01:54:02 METAR KLNK 160754Z 36014G22KT 1 3/4SM -SN OVC022 M08/M11 A3005 RMK AO2 PK WND 02026/0734 SNB15 PRESRR SLP192 P0000 T10781111,,,,,,,,,,3/26/2007
USW00014939,2023-02-16T02:09:00,40.8508,-96.7475,362.7,"LINCOLN AIRPORT, NE US",FM-16,343,1017.6,-11.1,-7.8,T,-SN:03 |SN |SN,,,77,OVC:08 4.88,,974.7,2.012,-8.7,10,,7.7,,,,,,,,,,,,,,,,,,,,,,,,,,,,,,,,,,,,,,,,,,,,,,,,,,,,,,,,,,,,,,,,,,,,,,,,,,,,,,,,,,,,,,,,,,,MET11802/16/23 02:09:02 SPECI KLNK 160809Z 01015KT 1 1/4SM R36/6000VP6000FT -SN OVC016 M08/M11 A3005 RMK AO2 P0000 T10781111,,,,,,,,,,3/26/2007
USW00014939,2023-02-16T02:20:00,40.8508,-96.7475,362.7,"LINCOLN AIRPORT, NE US",FM-16,343,1016.9,-10.6,-7.8,0.2,-SN:03 |SN |SN,,,81,VV:09 3.96,,974,1.609,-8.6,20,,7.2,,,,,,,,,,,,,,,,,,,,,,,,,,,,,,,,,,,,,,,,,,,,,,,,,,,,,,,,,,,,,,,,,,,,,,,,,,,,,,,,,,,,,,,,,,,MET11302/16/23 02:20:02 SPECI KLNK 160820Z 02014KT 1SM R36/5500VP6000FT -SN VV013 M08/M11 A3003 RMK AO2 P0001 T10781106,,,,,,,,,,3/26/2007
USW00014939,2023-02-16T02:41:00,40.8508,-96.7475,362.7,"LINCOLN AIRPORT, NE US",FM-16,343,1016.6,-10.6,-7.8,0.2,-SN:03 |SN |SN,,,81,OVC:08 4.57,,973.7,2.012,-8.6,20,,6.7,,,,,,,,,,,,,,,,,,,,,,,,,,,,,,,,,,,,,,,,,,,,,,,,,,,,,,,,,,,,,,,,,,,,,,,,,,,,,,,,,,,,,,,,,,,MET10102/16/23 02:41:02 SPECI KLNK 160841Z 02013KT 1 1/4SM -SN OVC015 M08/M11 A3002 RMK AO2 P0001 T10781106,,,,,,,,,,3/26/2007
USW00014939,2023-02-16T02:54:00,40.8508,-96.7475,362.7,"LINCOLN AIRPORT, NE US",FM-15,343,1016.9,-10,-7.8,0.8,-SN:03 BR:1 |SN BR |SN,-1.1,6,84,BKN:07 6.1 OVC:08 14.33,1018.5,974,2.816,-8.4,10,,6.2,,,,,,,,,,,,,,,,,,,,,,,,,,,,,,,,,,,,,,,,,,,,,,,,,,,,,,,,,,,,,,,,,,,,,,,,,,,,,,,,,,,,,,,,,,,MET13002/16/23 02:54:02 METAR KLNK 160854Z 01012KT 1 3/4SM -SN BR BKN020 OVC047 M08/M10 A3003 RMK AO2 SLP185 P0003 60003 T10781100 56011,,,,,,,,,,3/26/2007
USW00014939,2023-02-16T03:03:00,40.8508,-96.7475,362.7,"LINCOLN AIRPORT, NE US",FM-16,343,1016.6,-10,-7.8,T,-SN:03 BR:1 |SN BR |SN,,,84,OVC:08 6.71,,973.7,3.219,-8.4,10,,6.7,,,,,,,,,,,,,,,,,,,,,,,,,,,,,,,,,,,,,,,,,,,,,,,,,,,,,,,,,,,,,,,,,,,,,,,,,,,,,,,,,,,,,,,,,,,MET10002/16/23 03:03:02 SPECI KLNK 160903Z 01013KT 2SM -SN BR OVC022 M08/M10 A3002 RMK AO2 P0000 T10781100,,,,,,,,,,3/26/2007
USW00014939,2023-02-16T03:15:00,40.8508,-96.7475,362.7,"LINCOLN AIRPORT, NE US",FM-16,343,1016.3,-10,-7.8,T,-SN:03 BR:1 |SN BR |SN,,,84,FEW:02 3.96 OVC:08 5.49,,973.4,2.012,-8.4,10,,5.1,,,,,,,,,,,,,,,,,,,,,,,,,,,,,,,,,,,,,,,,,,,,,,,,,,,,,,,,,,,,,,,,,,,,,,,,,,,,,,,,,,,,,,,,,,,MET13502/16/23 03:15:02 SPECI KLNK 160915Z 01010KT 1 1/4SM R36/5500VP6000FT -SN BR FEW013 OVC018 M08/M10 A3001 RMK AO2 PRESFR P0000 T10781100,,,,,,,,,,3/26/2007
USW00014939,2023-02-16T03:30:00,40.8508,-96.7475,362.7,"LINCOLN AIRPORT, NE US",FM-16,343,1017.3,-10,-7.8,0.2,SN:03 FZFG:2 |SN FG |SN,,,84,VV:09 3.05,,974.4,0.805,-8.4,350,,6.7,,,,,,,,,,,,,,,,,,,,,,,,,,,,,,,,,,,,,,,,,,,,,,,,,,,,,,,,,,,,,,,,,,,,,,,,,,,,,,,,,,,,,,,,,,,MET11802/16/23 03:30:02 SPECI KLNK 160930Z 35013KT 1/2SM R36/3000V4500FT SN FZFG VV010 M08/M10 A3004 RMK AO2 P0001 T10781100,,,,,,,,,,3/26/2007
USW00014939,2023-02-16T03:38:00,40.8508,-96.7475,362.7,"LINCOLN AIRPORT, NE US",FM-16,343,1017.3,-10,-7.8,0.7,SN:03 FZFG:2 |SN FG |SN,,,84,VV:09 2.13,,974.4,0.805,-8.4,350,,6.7,,,,,,,,,,,,,,,,,,,,,,,,,,,,,,,,,,,,,,,,,,,,,,,,,,,,,,,,,,,,,,,,,,,,,,,,,,,,,,,,,,,,,,,,,,,MET11802/16/23 03:38:02 SPECI KLNK 160938Z 35013KT 1/2SM R36/2800V3500FT SN FZFG VV007 M08/M10 A3004 RMK AO2 P0003 T10781100,,,,,,,,,,3/26/2007
USW00014939,2023-02-16T03:54:00,40.8508,-96.7475,362.7,"LINCOLN AIRPORT, NE US",FM-15,343,1017.3,-10,-7.8,1.8,SN:03 FZFG:2 |SN FG |SN,,,84,VV:09 1.52,1019,974.4,0.805,-8.4,340,,6.7,,,,,,,,,,,,,,,,,,,,,,,,,,,,,,,,,,,,,,,,,,,,,,,,,,,,,,,,,,,,,,,,,,,,,,,,,,,,,,,,,,,,,,,,,,,MET12502/16/23 03:54:02 METAR KLNK 160954Z 34013KT 1/2SM R36/3000V3500FT SN FZFG VV005 M08/M10 A3004 RMK AO2 SLP190 P0006 T10781100,,,,,,,,,,3/26/2007
USW00014939,2023-02-16T04:47:00,40.8508,-96.7475,362.7,"LINCOLN AIRPORT, NE US",FM-16,343,1016.9,-10,-8.3,2.7,SN:03 FZFG:2 |SN FG |SN,,,88,VV:09 1.22,,974,0.805,-8.8,350,11.3,9.3,,,,,,,,,,,,,,,,,,,,,,,,,,,,,,,,,,,,,,,,,,,,,,,,,,,,,,,,,,,,,,,,,,,,,,,,,,,,,,,,,,,,,,,,,,,MET12102/16/23 04:47:02 SPECI KLNK 161047Z 35018G22KT 1/2SM R36/2800V3500FT SN FZFG VV004 M08/M10 A3003 RMK AO2 P0011 T10831100,,,,,,,,,,3/26/2007
USW00014939,2023-02-16T04:54:00,40.8508,-96.7475,362.7,"LINCOLN AIRPORT, NE US",FM-15,343,1017.3,-10,-8.3,2.8,SN:03 FZFG:2 |SN FG |SN,,,88,VV:09 1.22,1019.1,974.4,0.805,-8.8,350,,7.7,,,,,,,,,,,,,,,,,,,,,,,,,,,,,,,,,,,,,,,,,,,,,,,,,,,,,,,,,,,,,,,,,,,,,,,,,,,,,,,,,,,,,,,,,,,MET12502/16/23 04:54:02 METAR KLNK 161054Z 35015KT 1/2SM R36/3000V4000FT SN FZFG VV004 M08/M10 A3004 RMK AO2 SLP191 P0012 T10831100,,,,,,,,,,3/26/2007
USW00014939,2023-02-16T05:03:00,40.8508,-96.7475,362.7,"LINCOLN AIRPORT, NE US",FM-16,343,1017.6,-10,-7.8,T,FZFG:2 |FG |,,,84,VV:09 1.52,,974.7,0.805,-8.4,360,,8.8,,,,,,,,,,,,,,,,,,,,,,,,,,,,,,,,,,,,,,,,,,,,,,,,,,,,,,,,,,,,,,,,,,,,,,,,,,,,,,,,,,,,,,,,,,,MET13602/16/23 05:03:02 SPECI KLNK 161103Z 36017KT 1/2SM R36/3500V4000FT FZFG VV005 M08/M10 A3005 RMK AO2 SNEMM P0000 T10781100 PWINO FZRANO $,,,,,,,,,,3/26/2007
USW00014939,2023-02-16T05:54:00,40.8508,-96.7475,362.7,"LINCOLN AIRPORT, NE US",FM-15,343,1017.9,-10,-7.8,0.8,FZFG:2 |FG |,0.3,3,84,VV:09 1.83,1019.6,975,0.805,-8.4,360,,9.8,,,,,,,,,,,,,,,,,,,,,,,,,,,,,,,,,,,,,,,,,,,,,,,,,,,,,,,,,,,,,,,,,,,,,,,,,,,,,,,,,,,,,,,,,,,MET16302/16/23 05:54:02 METAR KLNK 161154Z 36019KT 1/2SM R36/3000V4000FT FZFG VV006 M08/M10 A3006 RMK AO2 SNEMM SLP196 P0003 60024 70024 T10781100 11072 21083 53003 (NU),,,,,,,,,,3/26/2007
USW00014939,2023-02-16T06:00:00,40.8508,-96.7475,362.7,"LINCOLN AIRPORT, NE US",FM-12,223,,-10,-7.8,,||FG,0.3,3,84,,1019.6,974.8,,-8.4,360,,9.8,,,,,,,,,,,,,,,,,,,,,,,,,,,,,,,,,,,,,,,,,,,,,,,,,,,,,,,,,,,,,,,,,,,,,,,,,,,,,,,,,,,,,,,,,,,SYN09872551 11208 93619 11078 21100 39748 40196 53003 60061 741// 91154 333 10033 21083 70061 555 91612=,,,,,,,,,,3/26/2007
USW00014939,2023-02-16T06:17:00,40.8508,-96.7475,362.7,"LINCOLN AIRPORT, NE US",FM-16,343,1017.9,-10,-7.8,0.2,FZFG:2 |FG |,,,84,VV:09 1.22,,975,0.805,-8.4,360,13.4,10.3,,,,,,,,,,,,,,,,,,,,,,,,,,,,,,,,,,,,,,,,,,,,,,,,,,,,,,,,,,,,,,,,,,,,,,,,,,,,,,,,,,,,,,,,,,,MET14102/16/23 06:17:02 SPECI KLNK 161217Z 36020G26KT 1/2SM R36/1800V2400FT FZFG VV004 M08/M10 A3006 RMK AO2 PK WND 35026/1210 P0001 T10781100 (NU),,,,,,,,,,3/26/2007
USW00014939,2023-02-16T06:32:00,40.8508,-96.7475,362.7,"LINCOLN AIRPORT, NE US",FM-16,343,1017.9,-10,-8.3,0.2,FZFG:2 |FG |,,,88,VV:09 0.91,,975,0.402,-8.8,350,14.4,11.3,,,,,,,,,,,,,,,,,,,,,,,,,,,,,,,,,,,,,,,,,,,,,,,,,,,,,,,,,,,,,,,,,,,,,,,,,,,,,,,,,,,,,,,,,,,MET14102/16/23 06:32:02 SPECI KLNK 161232Z 35022G28KT 1/4SM R36/1800V2200FT FZFG VV003 M08/M10 A3006 RMK AO2 PK WND 36028/1232 P0001 T10831100 (NU),,,,,,,,,,3/26/2007
USW00014939,2023-02-16T06:37:00,40.8508,-96.7475,362.7,"LINCOLN AIRPORT, NE US",FM-16,343,1017.9,-10,-8.3,0.2,FZFG:2 |FG |,,,88,VV:09 1.22,,975,0.805,-8.8,360,,10.3,,,,,,,,,,,,,,,,,,,,,,,,,,,,,,,,,,,,,,,,,,,,,,,,,,,,,,,,,,,,,,,,,,,,,,,,,,,,,,,,,,,,,,,,,,,MET13802/16/23 06:37:02 SPECI KLNK 161237Z 36020KT 1/2SM R36/1800V2800FT FZFG VV004 M08/M10 A3006 RMK AO2 PK WND 36028/1232 P0001 T10831100 (NU),,,,,,,,,,3/26/2007
USW00014939,2023-02-16T06:49:00,40.8508,-96.7475,362.7,"LINCOLN AIRPORT, NE US",FM-16,343,1017.9,-10,-8,0.2,FZFG:2 |FG |,,,86,VV:09 1.83,,975,0.805,-8.4,360,,11.3,,,,,,,,,,,,,,,,,,,,,,,,,,,,,,,,,,,,,,,,,,,,,,,,,,,,,,,,,,,,,,,,,,,,,,,,,,,,,,,,,,,,,,,,,,,MET12802/16/23 06:49:02 SPECI KLNK 161249Z 36022KT 1/2SM R36/2800V5000FT FZFG VV006 M08/M10 A3006 RMK AO2 PK WND 36028/1232 P0001 (NU),,,,,,,,,,3/26/2007
USW00014939,2023-02-16T06:54:00,40.8508,-96.7475,362.7,"LINCOLN AIRPORT, NE US",FM-15,343,1017.9,-10.6,-8.3,0.3,BR:1 |BR |,,,84,VV:09 2.13,1019.9,975,1.207,-8.9,360,14.4,10.8,,,,,,,,,,,,,,,,,,,,,,,,,,,,,,,,,,,,,,,,,,,,,,,,,,,,,,,,,,,,,,,,,,,,,,,,,,,,,,,,,,,,,,,,,,,MET14602/16/23 06:54:02 METAR KLNK 161254Z 36021G28KT 3/4SM R36/4000V5000FT BR VV007 M08/M11 A3006 RMK AO2 PK WND 36028/1232 SLP199 P0001 T10831106 (NU),,,,,,,,,,3/26/2007
USW00014939,2023-02-16T07:35:00,40.8508,-96.7475,362.7,"LINCOLN AIRPORT, NE US",FM-16,343,1018.3,-10,-7.8,,FZFG:2 |FG |,,,84,VV:09 3.35,,975.3,0.805,-8.4,360,17.5,11.8,,,,,,,,,,,,,,,,,,,,,,,,,,,,,,,,,,,,,,,,,,,,,,,,,,,,,,,,,,,,,,,,,,,,,,,,,,,,,,,,,,,,,,,,,,,MET13502/16/23 07:35:02 SPECI KLNK 161335Z 36023G34KT 1/2SM R36/2600V3500FT FZFG VV011 M08/M10 A3007 RMK AO2 PK WND 01034/1330 T10781100 (NU),,,,,,,,,,3/26/2007
USW00014939,2023-02-16T07:54:00,40.8508,-96.7475,362.7,"LINCOLN AIRPORT, NE US",FM-15,343,1018.3,-10,-7.8,0,FZFG:2 |FG |,,,84,VV:09 3.35,1020.1,975.3,0.805,-8.4,10,17.5,12.9,,,,,,,,,,,,,,,,,,,,,,,,,,,,,,,,,,,,,,,,,,,,,,,,,,,,,,,,,,,,,,,,,,,,,,,,,,,,,,,,,,,,,,,,,,,MET14202/16/23 07:54:02 METAR KLNK 161354Z 01025G34KT 1/2SM R36/2000V2600FT FZFG VV011 M08/M10 A3007 RMK AO2 PK WND 36034/1348 SLP201 T10781100 (NU),,,,,,,,,,3/26/2007
USW00014939,2023-02-16T08:42:00,40.8508,-96.7475,362.7,"LINCOLN AIRPORT, NE US",FM-16,343,1019.3,-9.4,-7.2,,FZFG:2 |FG |,,,84,VV:09 3.35,,976.3,0.402,-7.9,360,16,11.3,,,,,,,,,,,,,,,,,,,,,,,,,,,,,,,,,,,,,,,,,,,,,,,,,,,,,,,,,,,,,,,,,,,,,,,,,,,,,,,,,,,,,,,,,,,MET13502/16/23 08:42:02 SPECI KLNK 161442Z 36022G31KT 1/4SM R36/2200V2600FT FZFG VV011 M07/M09 A3010 RMK AO2 PK WND 36031/1418 T10721094 (NU),,,,,,,,,,3/26/2007
USW00014939,2023-02-16T08:54:00,40.8508,-96.7475,362.7,"LINCOLN AIRPORT, NE US",FM-15,343,1019.3,-9.4,-7.8,0,FZFG:2 |FG |,1.4,3,88,VV:09 3.66,1021.4,976.3,0.402,-8.3,360,15.4,10.8,,,,,,,,,,,,,,,,,,,,,,,,,,,,,,,,,,,,,,,,,,,,,,,,,,,,,,,,,,,,,,,,,,,,,,,,,,,,,,,,,,,,,,,,,,,MET15402/16/23 08:54:02 METAR KLNK 161454Z 36021G30KT 1/4SM R36/2200V2800FT FZFG VV012 M08/M09 A3010 RMK AO2 PK WND 36031/1418 SLP214 60001 T10781094 53014 (NU),,,,,,,,,,3/26/2007
USW00014939,2023-02-16T09:01:00,40.8508,-96.7475,362.7,"LINCOLN AIRPORT, NE US",FM-16,343,1019.3,-10,-7.8,,FZFG:2 |FG |,,,84,VV:09 3.66,,976.3,0.805,-8.4,360,15.4,11.3,,,,,,,,,,,,,,,,,,,,,,,,,,,,,,,,,,,,,,,,,,,,,,,,,,,,,,,,,,,,,,,,,,,,,,,,,,,,,,,,,,,,,,,,,,,MET13502/16/23 09:01:02 SPECI KLNK 161501Z 36022G30KT 1/2SM R36/2200V2800FT FZFG VV012 M08/M10 A3010 RMK AO2 PK WND 36030/1501 T10781100 (NU),,,,,,,,,,3/26/2007
USW00014939,2023-02-16T09:31:00,40.8508,-96.7475,362.7,"LINCOLN AIRPORT, NE US",FM-16,343,1020,-10,-7.8,,FZFG:2 |FG |,,,84,VV:09 4.88,,977,0.805,-8.4,360,,11.8,,,,,,,,,,,,,,,,,,,,,,,,,,,,,,,,,,,,,,,,,,,,,,,,,,,,,,,,,,,,,,,,,,,,,,,,,,,,,,,,,,,,,,,,,,,MET13202/16/23 09:31:02 SPECI KLNK 161531Z 36023KT 1/2SM R36/2800V3000FT FZFG VV016 M08/M10 A3012 RMK AO2 PK WND 36030/1501 T10781100 (NU),,,,,,,,,,3/26/2007
USW00014939,2023-02-16T09:52:00,40.8508,-96.7475,362.7,"LINCOLN AIRPORT, NE US",FM-16,343,1020.3,-10,-8,,FZFG:2 |FG |,,,86,BKN:07 6.71 OVC:08 10.06,,977.3,0.805,-8.4,360,,12.9,,,,,,,,,,,,,,,,,,,,,,,,,,,,,,,,,,,,,,,,,,,,,,,,,,,,,,,,,,,,,,,,,,,,,,,,,,,,,,,,,,,,,,,,,,,MET13502/16/23 09:52:02 SPECI KLNK 161552Z 36025KT 1/2SM R36/3500V5500FT FZFG BKN022 OVC033 M08/M10 A3013 RMK AO2 PK WND 36030/1536 FIBI (NU),,,,,,,,,,3/26/2007
USW00014939,2023-02-16T09:54:00,40.8508,-96.7475,362.7,"LINCOLN AIRPORT, NE US",FM-15,343,1020.3,-10,-7.8,0,FZFG:2 |FG |,,,84,BKN:07 7.32 OVC:08 10.67,1022.2,977.3,0.805,-8.4,360,,11.8,,,,,,,,,,,,,,,,,,,,,,,,,,,,,,,,,,,,,,,,,,,,,,,,,,,,,,,,,,,,,,,,,,,,,,,,,,,,,,,,,,,,,,,,,,,MET14702/16/23 09:54:02 METAR KLNK 161554Z 36023KT 1/2SM R36/3500V5500FT FZFG BKN024 OVC035 M08/M10 A3013 RMK AO2 PK WND 36030/1536 SLP222 T10781100 (NU),,,,,,,,,,3/26/2007
USW00014939,2023-02-16T10:12:00,40.8508,-96.7475,362.7,"LINCOLN AIRPORT, NE US",FM-16,343,1020.7,-10,-7.2,,HZ:7 |FU |HZ,,,81,BKN:07 9.75 OVC:08 12.19,,977.6,1.207,-8,360,,12.4,,,,,,,,,,,,,,,,,,,,,,,,,,,,,,,,,,,,,,,,,,,,,,,,,,,,,,,,,,,,,,,,,,,,,,,,,,,,,,,,,,,,,,,,,,,MET13902/16/23 10:12:02 SPECI KLNK 161612Z 36024KT 3/4SM R36/3500VP6000FT HZ BKN032 OVC040 M07/M10 A3014 RMK AO2 PK WND 35030/1559 T10721100 (NU),,,,,,,,,,3/26/2007
USW00014939,2023-02-16T10:36:00,40.8508,-96.7475,362.7,"LINCOLN AIRPORT, NE US",FM-16,343,1021.3,-10,-7.2,,HZ:7 |FU |HZ,,,81,BKN:07 8.53 OVC:08 10.97,,978.3,1.207,-8,360,,11.8,,,,,,,,,,,,,,,,,,,,,,,,,,,,,,,,,,,,,,,,,,,,,,,,,,,,,,,,,,,,,,,,,,,,,,,,,,,,,,,,,,,,,,,,,,,MET13902/16/23 10:36:02 SPECI KLNK 161636Z 36023KT 3/4SM R36/5000VP6000FT HZ BKN028 OVC036 M07/M10 A3016 RMK AO2 PK WND 35030/1559 T10721100 (NU),,,,,,,,,,3/26/2007
USW00014939,2023-02-16T10:54:00,40.8508,-96.7475,362.7,"LINCOLN AIRPORT, NE US",FM-15,343,1021.7,-9.4,-6.7,0,HZ:7 |FU |HZ,,,81,BKN:07 6.71 OVC:08 8.23,1023.5,978.6,1.207,-7.5,350,13.9,10.8,,,,,,,,,,,,,,,,,,,,,,,,,,,,,,,,,,,,,,,,,,,,,,,,,,,,,,,,,,,,,,,,,,,,,,,,,,,,,,,,,,,,,,,,,,,MET14902/16/23 10:54:02 METAR KLNK 161654Z 35021G27KT 3/4SM R36/3500VP6000FT HZ BKN022 OVC027 M07/M09 A3017 RMK AO2 PK WND 35030/1559 SLP235 T10671094 (NU),,,,,,,,,,3/26/2007
USW00014939,2023-02-16T11:14:00,40.8508,-96.7475,362.7,"LINCOLN AIRPORT, NE US",FM-16,343,1022,-9.4,-6.7,,HZ:7 |FU |HZ,,,81,BKN:07 6.1 OVC:08 7.92,,978.9,2.012,-7.5,360,,9.3,,,,,,,,,,,,,,,,,,,,,,,,,,,,,,,,,,,,,,,,,,,,,,,,,,,,,,,,,,,,,,,,,,,,,,,,,,,,,,,,,,,,,,,,,,,MET14102/16/23 11:14:02 SPECI KLNK 161714Z 36018KT 1 1/4SM R36/5000VP6000FT HZ BKN020 OVC026 M07/M09 A3018 RMK AO2 PK WND 34027/1706 T10671094 (NU),,,,,,,,,,3/26/2007
USW00014939,2023-02-16T11:54:00,40.8508,-96.7475,362.7,"LINCOLN AIRPORT, NE US",FM-15,343,1022,-8.9,-6.1,0,HZ:7 |FU |HZ,1.7,3,81,BKN:07 8.53 OVC:08 10.67,1024,978.9,2.414,-6.9,350,,8.8,,,,,,,,,,,,,,,,,,,,,,,,,,,,,,,,,,,,,,,,,,,,,,,,,,,,,,,,,,,,,,,,,,,,,,,,,,,,,,,,,,,,,,,,,,,MET17202/16/23 11:54:02 METAR KLNK 161754Z 35017KT 1 1/2SM R36/5000VP6000FT HZ BKN028 OVC035 M06/M09 A3018 RMK AO2 PK WND 34027/1706 SLP240 60001 T10611089 11061 21083 53017 (NU),,,,,,,,,,3/26/2007
USW00014939,2023-02-16T12:00:00,40.8508,-96.7475,362.7,"LINCOLN AIRPORT, NE US",FM-12,223,,-8.9,-6.1,,||HZ,1.7,3,81,,1024,978.7,,-6.9,350,,8.8,,,,,,,,,,,,,,,,,,,,,,,,,,,,,,,,,,,,,,,,,,,,,,,,,,,,,,,,,,,,,,,,,,,,,,,,,,,,,,,,,,,,,,,,,,,SYN09272551 11524 83517 11061 21089 39787 40240 53017 69931 705// 91754 333 11061 21083 555 91618=,,,,,,,,,,3/26/2007
USW00014939,2023-02-16T12:10:00,40.8508,-96.7475,362.7,"LINCOLN AIRPORT, NE US",FM-16,343,1022,-8.9,-5.6,,HZ:7 |FU |HZ,,,78,BKN:07 8.53 OVC:08 10.97,,978.9,3.219,-6.6,350,,10.3,,,,,,,,,,,,,,,,,,,,,,,,,,,,,,,,,,,,,,,,,,,,,,,,,,,,,,,,,,,,,,,,,,,,,,,,,,,,,,,,,,,,,,,,,,,MET10202/16/23 12:10:02 SPECI KLNK 161810Z 35020KT 2SM HZ BKN028 OVC036 M06/M09 A3018 RMK AO2 T10561089 (NU),,,,,,,,,,3/26/2007
USW00014939,2023-02-16T12:20:00,40.8508,-96.7475,362.7,"LINCOLN AIRPORT, NE US",FM-16,343,1022.4,-8.9,-6.1,,HZ:7 |FU |HZ,,,81,BKN:07 10.67 OVC:08 14.33,,979.3,4.023,-6.9,350,,9.8,,,,,,,,,,,,,,,,,,,,,,,,,,,,,,,,,,,,,,,,,,,,,,,,,,,,,,,,,,,,,,,,,,,,,,,,,,,,,,,,,,,,,,,,,,,MET10602/16/23 12:20:02 SPECI KLNK 161820Z 35019KT 2 1/2SM HZ BKN035 OVC047 M06/M09 A3019 RMK AO2 T10611089 (NU),,,,,,,,,,3/26/2007
USW00014939,2023-02-16T12:54:00,40.8508,-96.7475,362.7,"LINCOLN AIRPORT, NE US",FM-15,343,1022.7,-8.3,-5,T,HZ:7 |FU |HZ,,,78,BKN:07 10.67 OVC:08 13.41,1024.4,979.6,3.219,-6,340,,8.8,,,,,,,,,,,,,,,,,,,,,,,,,,,,,,,,,,,,,,,,,,,,,,,,,,,,,,,,,,,,,,,,,,,,,,,,,,,,,,,,,,,,,,,,,,,MET10902/16/23 12:54:02 METAR KLNK 161854Z 34017KT 2SM HZ BKN035 OVC044 M05/M08 A3020 RMK AO2 SLP244 T10501083 (NU),,,,,,,,,,3/26/2007
USW00014939,2023-02-16T13:06:00,40.8508,-96.7475,362.7,"LINCOLN AIRPORT, NE US",FM-16,343,1022.7,-7.8,-5,T,-SN:03 |SN |SN,,,81,BKN:07 8.53 OVC:08 11.58,,979.6,2.012,-5.9,340,11.8,9.3,,,,,,,,,,,,,,,,,,,,,,,,,,,,,,,,,,,,,,,,,,,,,,,,,,,,,,,,,,,,,,,,,,,,,,,,,,,,,,,,,,,,,,,,,,,MET14902/16/23 13:06:02 SPECI KLNK 161906Z 34018G23KT 1 1/4SM R36/5000VP6000FT -SN BKN028 OVC038 M05/M08 A3020 RMK AO2 UPB1859E06SNB06 P0000 T10501078 (NU),,,,,,,,,,3/26/2007
USW00014939,2023-02-16T13:37:00,40.8508,-96.7475,362.7,"LINCOLN AIRPORT, NE US",FM-16,343,1022.7,-7.8,-4.4,T,UP:09 |41 |,,,77,BKN:07 7.92 OVC:08 10.36,,979.6,4.828,-5.5,350,,8.2,,,,,,,,,,,,,,,,,,,,,,,,,,,,,,,,,,,,,,,,,,,,,,,,,,,,,,,,,,,,,,,,,,,,,,,,,,,,,,,,,,,,,,,,,,,MET14702/16/23 13:37:02 SPECI KLNK 161937Z 35016KT 3SM R36/5500VP6000FT UP BKN026 OVC034 M04/M08 A3020 RMK AO2 UPB1859E06B35SNB06E35 P0000 T10441078 (NU),,,,,,,,,,3/26/2007
USW00014939,2023-02-16T13:54:00,40.8508,-96.7475,362.7,"LINCOLN AIRPORT, NE US",FM-15,343,1022.7,-8.3,-3.3,T,,,,69,SCT:04 8.84 BKN:07 11.28 BKN:07 28.96,1024.5,979.6,16.093,-4.9,340,,8.2,,,,,,,,,,,,,,,,,,,,,,,,,,,,,,,,,,,,,,,,,,,,,,,,,,,,,,,,,,,,,,,,,,,,,,,,,,,,,,,,,,,,,,,,,,,MET14502/16/23 13:54:02 METAR KLNK 161954Z 34016KT 10SM SCT029 BKN037 BKN095 M03/M08 A3020 RMK AO2 UPB1859E06B35E41SNB06E35 SLP245 P0000 T10331083 (NU),,,,,,,,,,3/26/2007
USW00014939,2023-02-16T14:54:00,40.8508,-96.7475,362.7,"LINCOLN AIRPORT, NE US",FM-15,343,1023,-9.4,-2.8,0,,1,1,61,BKN:07 28.96,1024.8,979.9,16.093,-4.9,350,,7.2,,,,,,,,,,,,,,,,,,,,,,,,,,,,,,,,,,,,,,,,,,,,,,,,,,,,,,,,,,,,,,,,,,,,,,,,,,,,,,,,,,,,,,,,,,,MET10702/16/23 14:54:02 METAR KLNK 162054Z 35014KT 10SM BKN095 M03/M09 A3021 RMK AO2 SLP248 60000 T10281094 51010,,,,,,,,,,3/26/2007
USW00014939,2023-02-16T15:54:00,40.8508,-96.7475,362.7,"LINCOLN AIRPORT, NE US",FM-15,343,1023.4,-10,-2.8,0,,,,58,CLR:00,1025.1,980.3,16.093,-5,360,,5.1,,,,,,,,,,,,,,,,,,,,,,,,,,,,,,,,,,,,,,,,,,,,,,,,,,,,,,,,,,,,,,,,,,,,,,,,,,,,,,,,,,,,,,,,,,,MET09702/16/23 15:54:02 METAR KLNK 162154Z 36010KT 10SM CLR M03/M10 A3022 RMK AO2 SLP251 T10281100 (BV),,,,,,,,,,3/26/2007
USW00014939,2023-02-16T16:54:00,40.8508,-96.7475,362.7,"LINCOLN AIRPORT, NE US",FM-15,343,1023.7,-10,-3.9,0,,,,63,CLR:00,1025.7,980.6,16.093,-5.7,360,,3.6,,,,,,,,,,,,,,,,,,,,,,,,,,,,,,,,,,,,,,,,,,,,,,,,,,,,,,,,,,,,,,,,,,,,,,,,,,,,,,,,,,,,,,,,,,,MET09702/16/23 16:54:02 METAR KLNK 162254Z 36007KT 10SM CLR M04/M10 A3023 RMK AO2 SLP257 T10391100 (BV),,,,,,,,,,3/26/2007
USW00014939,2023-02-16T17:54:00,40.8508,-96.7475,362.7,"LINCOLN AIRPORT, NE US",FM-15,343,1024.4,-12.8,-7.2,0,,1.2,3,65,CLR:00,1026.3,981.2,16.093,-8.7,10,,3.6,,,,,,,,,,,,,,,,,,,,,,,,,,,,,,,,,,,,,,,,,,,,,,,,,,,,,,,,,,,,,,,,,,,,,,,,,,,,,,,,,,,,,,,,,,,MET12102/16/23 17:54:02 METAR KLNK 162354Z 01007KT 10SM CLR M07/M13 A3025 RMK AO2 SLP263 60000 T10721128 11028 21072 53012 (BV),,,,,,,,,,3/26/2007
USW00014939,2023-02-16T18:00:00,40.8508,-96.7475,362.7,"LINCOLN AIRPORT, NE US",FM-12,223,,-12.8,-7.2,,,1.2,3,65,,1026.3,981,,-8.7,10,,3.6,,,,,,,,,,,,,,,,,,,,,,,,,,,,,,,,,,,,,,,,,,,,,,,,,,,,,,,,,,,,,,,,,,,,,,,,,,,,,,,,,,,,,,,,,,,SYN08672551 12966 00107 11072 21128 39810 40263 53012 69901 92354 333 11028 21083 555 91700=,,,,,,,,,,3/26/2007
USW00014939,2023-02-16T18:54:00,40.8508,-96.7475,362.7,"LINCOLN AIRPORT, NE US",FM-15,343,1025.1,-12.2,-8.3,0,,,,74,CLR:00,1027.1,981.9,16.093,-9.4,,,0,,,,,,,,,,,,,,,,,,,,,,,,,,,,,,,,,,,,,,,,,,,,,,,,,,,,,,,,,,,,,,,,,,,,,,,,,,,,,,,,,,,,,,,,,,,MET09202/16/23 18:54:01 METAR KLNK 170054Z 00000KT 10SM CLR M08/M12 A3027 RMK AO2 SLP271 T10831122,,,,,,,,,,3/26/2007
USW00014939,2023-02-16T19:54:00,40.8508,-96.7475,362.7,"LINCOLN AIRPORT, NE US",FM-15,343,1025.7,-13.9,-12.8,0,,,,92,CLR:00,1027.9,982.5,16.093,-13,270,,1.5,,,,,,,,,,,,,,,,,,,,,,,,,,,,,,,,,,,,,,,,,,,,,,,,,,,,,,,,,,,,,,,,,,,,,,,,,,,,,,,,,,,,,,,,,,,MET09202/16/23 19:54:01 METAR KLNK 170154Z 27003KT 10SM CLR M13/M14 A3029 RMK AO2 SLP279 T11281139,,,,,,,,,,3/26/2007
USW00014939,2023-02-16T20:54:00,40.8508,-96.7475,362.7,"LINCOLN AIRPORT, NE US",FM-15,343,1026.1,-16.7,-15.6,0,,1.6,1,91,CLR:00,1028.5,982.9,16.093,-15.8,,,0,,,,,,,,,,,,,,,,,,,,,,,,,,,,,,,,,,,,,,,,,,,,,,,,,,,,,,,,,,,,,,,,,,,,,,,,,,,,,,,,,,,,,,,,,,,MET09802/16/23 20:54:01 METAR KLNK 170254Z 00000KT 10SM CLR M16/M17 A3030 RMK AO2 SLP285 T11561167 51016,,,,,,,,,,3/26/2007
USW00014939,2023-02-16T21:54:00,40.8508,-96.7475,362.7,"LINCOLN AIRPORT, NE US",FM-15,343,1026.4,-17.8,-17.2,0,,,,95,CLR:00,1029,983.2,16.093,-17.3,,,0,,,,,,,,,,,,,,,,,,,,,,,,,,,,,,,,,,,,,,,,,,,,,,,,,,,,,,,,,,,,,,,,,,,,,,,,,,,,,,,,,,,,,,,,,,,MET09802/16/23 21:54:01 METAR KLNK 170354Z 00000KT 10SM CLR M17/M18 A3031 RMK AO2 SLP290 I1000 T11721178,,,,,,,,,,3/26/2007
USW00014939,2023-02-16T22:54:00,40.8508,-96.7475,362.7,"LINCOLN AIRPORT, NE US",FM-15,343,1026.8,-16.7,-15.6,0,,,,91,CLR:00,1029.3,983.5,16.093,-15.8,,,0,,,,,,,,,,,,,,,,,,,,,,,,,,,,,,,,,,,,,,,,,,,,,,,,,,,,,,,,,,,,,,,,,,,,,,,,,,,,,,,,,,,,,,,,,,,MET09802/16/23 22:54:01 METAR KLNK 170454Z 00000KT 10SM CLR M16/M17 A3032 RMK AO2 SLP293 I1000 T11561167,,,,,,,,,,3/26/2007
USW00014939,2023-02-16T23:54:00,40.8508,-96.7475,362.7,"LINCOLN AIRPORT, NE US",FM-15,343,1027.1,-18.9,-17.8,0,,1.1,1,91,CLR:00,1029.6,983.9,16.093,-18,360,,2.1,,,,,,,,,,,,,,,,,,,,,,,,,,,,,,,,,,,,,,,,,,,,,,,,,,,,,,,,,,,,,,,,,,,,,,,,,,,,,,,,,,,,,,,,,,,MET12602/16/23 23:54:01 METAR KLNK 170554Z 36004KT 10SM CLR M18/M19 A3033 RMK AO2 SLP296 I6000 T11781189 11067 21183 410281183 51011,,,,,,,,,,3/26/2007
USW00014939,2023-02-17T00:00:00,40.8508,-96.7475,362.7,"LINCOLN AIRPORT, NE US",FM-12,223,,-18.9,-17.8,,,1.1,1,91,,1029.6,983.6,,-18,360,,2.1,,,,,,,,,,,,,,,,,,,,,,,,,,,,,,,,,,,,,,,,,,,,,,,,,,,,,,,,,,,,,,,,,,,,,,,,,,,,,,,,,,,,,,,,,,,SYN08072551 35966 03604 11178 21189 39836 40296 51011 90554 333 11067 21183 555 91706=,,,,,,,,,,3/26/2007
USW00014939,2023-02-17T00:00:00,40.8508,-96.7475,362.7,"LINCOLN AIRPORT, NE US",SOD,,,,,,,,,,,,,,,,,,720,1803,-12.8,-9.9,72,1026.4,980.7,-9.4,2.2,0,-8.79,28.2,2.8,-22.7,210,10.3,0,180,0,200,8.1,,,,,,,,,,,,,,,,,,,,,,,,,,,,,,,,,,,,,,,,,,,,,,,,,,,,,,,,,,,,,,,,,,,,,,,,,,,,,,,,3/26/2007
USW00014939,2023-02-17T00:54:00,40.8508,-96.7475,362.7,"LINCOLN AIRPORT, NE US",FM-15,343,1027.1,-21.1,-18.3,0,,,,79,CLR:00,1029.6,983.9,16.093,-18.7,,,0,,,,,,,,,,,,,,,,,,,,,,,,,,,,,,,,,,,,,,,,,,,,,,,,,,,,,,,,,,,,,,,,,,,,,,,,,,,,,,,,,,,,,,,,,,,MET09202/17/23 00:54:02 METAR KLNK 170654Z 00000KT 10SM CLR M18/M21 A3033 RMK AO2 SLP296 T11831211,,,,,,,,,,3/26/2007
USW00014939,2023-02-17T01:54:00,40.8508,-96.7475,362.7,"LINCOLN AIRPORT, NE US",FM-15,343,1027.1,-20.6,-20,0,,,,95,CLR:00,1029.5,983.9,16.093,-20.1,,,0,,,,,,,,,,,,,,,,,,,,,,,,,,,,,,,,,,,,,,,,,,,,,,,,,,,,,,,,,,,,,,,,,,,,,,,,,,,,,,,,,,,,,,,,,,,MET09802/17/23 01:54:02 METAR KLNK 170754Z 00000KT 10SM CLR M20/M21 A3033 RMK AO2 SLP295 I1000 T12001206,,,,,,,,,,3/26/2007
USW00014939,2023-02-17T02:54:00,40.8508,-96.7475,362.7,"LINCOLN AIRPORT, NE US",FM-15,343,1027.1,-21.7,-19.4,0,,0,5,82,CLR:00,1029.5,983.9,16.093,-19.8,,,0,,,,,,,,,,,,,,,,,,,,,,,,,,,,,,,,,,,,,,,,,,,,,,,,,,,,,,,,,,,,,,,,,,,,,,,,,,,,,,,,,,,,,,,,,,,MET10402/17/23 02:54:02 METAR KLNK 170854Z 00000KT 10SM CLR M19/M22 A3033 RMK AO2 SLP295 I3000 T11941217 55000,,,,,,,,,,3/26/2007
USW00014939,2023-02-17T03:54:00,40.8508,-96.7475,362.7,"LINCOLN AIRPORT, NE US",FM-15,343,1026.8,-21.1,-19.4,0,,,,86,CLR:00,1029.2,983.5,16.093,-19.7,,,0,,,,,,,,,,,,,,,,,,,,,,,,,,,,,,,,,,,,,,,,,,,,,,,,,,,,,,,,,,,,,,,,,,,,,,,,,,,,,,,,,,,,,,,,,,,MET09202/17/23 03:54:02 METAR KLNK 170954Z 00000KT 10SM CLR M19/M21 A3032 RMK AO2 SLP292 T11941211,,,,,,,,,,3/26/2007
USW00014939,2023-02-17T04:54:00,40.8508,-96.7475,362.7,"LINCOLN AIRPORT, NE US",FM-15,343,1026.8,-22.2,-19.4,0,,,,79,CLR:00,1029.2,983.5,16.093,-19.8,,,0,,,,,,,,,,,,,,,,,,,,,,,,,,,,,,,,,,,,,,,,,,,,,,,,,,,,,,,,,,,,,,,,,,,,,,,,,,,,,,,,,,,,,,,,,,,MET09802/17/23 04:54:02 METAR KLNK 171054Z 00000KT 10SM CLR M19/M22 A3032 RMK AO2 SLP292 I1000 T11941222,,,,,,,,,,3/26/2007
USW00014939,2023-02-17T05:54:00,40.8508,-96.7475,362.7,"LINCOLN AIRPORT, NE US",FM-15,343,1026.4,-23.3,-20.6,0,,-0.6,6,79,CLR:00,1029.2,983.2,16.093,-20.9,,,0,,,,,,,,,,,,,,,,,,,,,,,,,,,,,,,,,,,,,,,,,,,,,,,,,,,,,,,,,,,,,,,,,,,,,,,,,,,,,,,,,,,,,,,,,,,MET13302/17/23 05:54:02 METAR KLNK 171154Z 00000KT 10SM CLR M21/M23 A3031 RMK AO2 SLP292 70001 I1000 I6000 T12061233 11167 21222 56006 (AC),,,,,,,,,,3/26/2007
USW00014939,2023-02-17T06:00:00,40.8508,-96.7475,362.7,"LINCOLN AIRPORT, NE US",FM-12,223,,-23.3,-20.6,,,-0.6,6,79,,1029.2,982.9,,-20.9,,,0,,,,,,,,,,,,,,,,,,,,,,,,,,,,,,,,,,,,,,,,,,,,,,,,,,,,,,,,,,,,,,,,,,,,,,,,,,,,,,,,,,,,,,,,,,,SYN08672551 32966 00000 11206 21233 39829 40292 56006 91154 333 11028 21222 70003 555 91712=,,,,,,,,,,3/26/2007
USW00014939,2023-02-17T06:54:00,40.8508,-96.7475,362.7,"LINCOLN AIRPORT, NE US",FM-15,343,1026.4,-22.2,-20.6,0,,,,87,CLR:00,1029.2,983.2,16.093,-20.8,,,0,,,,,,,,,,,,,,,,,,,,,,,,,,,,,,,,,,,,,,,,,,,,,,,,,,,,,,,,,,,,,,,,,,,,,,,,,,,,,,,,,,,,,,,,,,,MET10302/17/23 06:54:02 METAR KLNK 171254Z 00000KT 10SM CLR M21/M22 A3031 RMK AO2 SLP292 I1000 T12061222 (AC),,,,,,,,,,3/26/2007
USW00014939,2023-02-17T07:54:00,40.8508,-96.7475,362.7,"LINCOLN AIRPORT, NE US",FM-15,343,1026.4,-21.7,-20.6,0,,,,91,CLR:00,1029.6,983.2,16.093,-20.7,,,0,,,,,,,,,,,,,,,,,,,,,,,,,,,,,,,,,,,,,,,,,,,,,,,,,,,,,,,,,,,,,,,,,,,,,,,,,,,,,,,,,,,,,,,,,,,MET09702/17/23 07:54:02 METAR KLNK 171354Z 00000KT 10SM CLR M21/M22 A3031 RMK AO2 SLP296 T12061217 (AC),,,,,,,,,,3/26/2007
USW00014939,2023-02-17T08:54:00,40.8508,-96.7475,362.7,"LINCOLN AIRPORT, NE US",FM-15,343,1026.4,-18.9,-16.7,0,,0.1,3,83,CLR:00,1029.6,983.2,16.093,-17,170,,2.6,,,,,,,,,,,,,,,,,,,,,,,,,,,,,,,,,,,,,,,,,,,,,,,,,,,,,,,,,,,,,,,,,,,,,,,,,,,,,,,,,,,,,,,,,,,MET11502/17/23 08:54:02 METAR KLNK 171454Z 17005KT 10SM CLR M17/M19 A3031 RMK AO2 SLP296 I1001 I3001 T11671189 53001 (RC),,,,,,,,,,3/26/2007
USW00014939,2023-02-17T09:54:00,40.8508,-96.7475,362.7,"LINCOLN AIRPORT, NE US",FM-15,343,1026.4,-13.9,-12.2,0,,,,87,CLR:00,1029.4,983.2,16.093,-12.6,210,,2.6,,,,,,,,,,,,,,,,,,,,,,,,,,,,,,,,,,,,,,,,,,,,,,,,,,,,,,,,,,,,,,,,,,,,,,,,,,,,,,,,,,,,,,,,,,,MET09702/17/23 09:54:02 METAR KLNK 171554Z 21005KT 10SM CLR M12/M14 A3031 RMK AO2 SLP294 T11221139 (RC),,,,,,,,,,3/26/2007
USW00014939,2023-02-17T10:54:00,40.8508,-96.7475,362.7,"LINCOLN AIRPORT, NE US",FM-15,343,1026.4,-11.7,-8.9,0,,,,80,CLR:00,1029,983.2,16.093,-9.6,200,,3.1,,,,,,,,,,,,,,,,,,,,,,,,,,,,,,,,,,,,,,,,,,,,,,,,,,,,,,,,,,,,,,,,,,,,,,,,,,,,,,,,,,,,,,,,,,,MET09702/17/23 10:54:02 METAR KLNK 171654Z 20006KT 10SM CLR M09/M12 A3031 RMK AO2 SLP290 T10891117 (RC),,,,,,,,,,3/26/2007
USW00014939,2023-02-17T11:54:00,40.8508,-96.7475,362.7,"LINCOLN AIRPORT, NE US",FM-15,343,1026.1,-10.6,-5,0,,-0.6,8,65,CLR:00,1028.4,982.9,16.093,-6.6,200,,3.1,,,,,,,,,,,,,,,,,,,,,,,,,,,,,,,,,,,,,,,,,,,,,,,,,,,,,,,,,,,,,,,,,,,,,,,,,,,,,,,,,,,,,,,,,,,MET12102/17/23 11:54:02 METAR KLNK 171754Z 20006KT 10SM CLR M05/M11 A3030 RMK AO2 SLP284 I6001 T10501106 11050 21228 58006 (RC),,,,,,,,,,3/26/2007
USW00014939,2023-02-17T12:00:00,40.8508,-96.7475,362.7,"LINCOLN AIRPORT, NE US",FM-12,223,,-10.6,-5,,,-0.6,8,65,,1028.4,982.6,,-6.6,200,,3.1,,,,,,,,,,,,,,,,,,,,,,,,,,,,,,,,,,,,,,,,,,,,,,,,,,,,,,,,,,,,,,,,,,,,,,,,,,,,,,,,,,,,,,,,,,,SYN08072551 32966 02006 11050 21106 39826 40284 58006 91754 333 11050 21228 555 91718=,,,,,,,,,,3/26/2007
USW00014939,2023-02-17T12:54:00,40.8508,-96.7475,362.7,"LINCOLN AIRPORT, NE US",FM-15,343,1025.1,-8.3,-2.2,0,,,,63,CLR:00,1027.2,981.9,16.093,-4.2,200,,5.1,,,,,,,,,,,,,,,,,,,,,,,,,,,,,,,,,,,,,,,,,,,,,,,,,,,,,,,,,,,,,,,,,,,,,,,,,,,,,,,,,,,,,,,,,,,MET09702/17/23 12:54:02 METAR KLNK 171854Z 20010KT 10SM CLR M02/M08 A3027 RMK AO2 SLP272 T10221083 (RC),,,,,,,,,,3/26/2007
USW00014939,2023-02-17T13:54:00,40.8508,-96.7475,362.7,"LINCOLN AIRPORT, NE US",FM-15,343,1023.7,-7.2,-0.6,0,,,,61,CLR:00,1026.1,980.6,16.093,-2.8,200,,5.1,,,,,,,,,,,,,,,,,,,,,,,,,,,,,,,,,,,,,,,,,,,,,,,,,,,,,,,,,,,,,,,,,,,,,,,,,,,,,,,,,,,,,,,,,,,MET09702/17/23 13:54:02 METAR KLNK 171954Z 20010KT 10SM CLR M01/M07 A3023 RMK AO2 SLP261 T10061072 (RC),,,,,,,,,,3/26/2007
USW00014939,2023-02-17T14:54:00,40.8508,-96.7475,362.7,"LINCOLN AIRPORT, NE US",FM-15,343,1023,-7.2,1.1,0,,-2.8,6,54,CLR:00,1025.2,979.9,16.093,-1.8,200,,6.2,,,,,,,,,,,,,,,,,,,,,,,,,,,,,,,,,,,,,,,,,,,,,,,,,,,,,,,,,,,,,,,,,,,,,,,,,,,,,,,,,,,,,,,,,,,MET10202/17/23 14:54:02 METAR KLNK 172054Z 20012KT 10SM CLR 01/M07 A3021 RMK AO2 SLP252 T00111072 56028 (RC),,,,,,,,,,3/26/2007
USW00014939,2023-02-17T15:54:00,40.8508,-96.7475,362.7,"LINCOLN AIRPORT, NE US",FM-15,343,1022.7,-6.1,2.2,0,,,,55,CLR:00,1024.7,979.6,16.093,-0.8,200,9.3,5.7,,,,,,,,,,,,,,,,,,,,,,,,,,,,,,,,,,,,,,,,,,,,,,,,,,,,,,,,,,,,,,,,,,,,,,,,,,,,,,,,,,,,,,,,,,,MET09902/17/23 15:54:02 METAR KLNK 172154Z 20011G18KT 10SM CLR 02/M06 A3020 RMK AO2 SLP247 T00221061 (RC),,,,,,,,,,3/26/2007
USW00014939,2023-02-17T16:54:00,40.8508,-96.7475,362.7,"LINCOLN AIRPORT, NE US",FM-15,343,1022.4,-5.6,2.8,0,,,,54,CLR:00,1024.4,979.3,16.093,-0.3,210,,6.7,,,,,,,,,,,,,,,,,,,,,,,,,,,,,,,,,,,,,,,,,,,,,,,,,,,,,,,,,,,,,,,,,,,,,,,,,,,,,,,,,,,,,,,,,,,MET09602/17/23 16:54:02 METAR KLNK 172254Z 21013KT 10SM CLR 03/M06 A3019 RMK AO2 SLP244 T00281056 (RC),,,,,,,,,,3/26/2007
USW00014939,2023-02-17T17:54:00,40.8508,-96.7475,362.7,"LINCOLN AIRPORT, NE US",FM-15,343,1022,-5,2.2,0,,-1,6,59,CLR:00,1024.2,978.9,16.093,-0.4,200,,4.6,,,,,,,,,,,,,,,,,,,,,,,,,,,,,,,,,,,,,,,,,,,,,,,,,,,,,,,,,,,,,,,,,,,,,,,,,,,,,,,,,,,,,,,,,,,MET11402/17/23 17:54:02 METAR KLNK 172354Z 20009KT 10SM CLR 02/M05 A3018 RMK AO2 SLP242 T00221050 10028 21050 56010 (RT),,,,,,,,,,3/26/2007
USW00014939,2023-02-17T18:00:00,40.8508,-96.7475,362.7,"LINCOLN AIRPORT, NE US",FM-12,223,,-5,2.2,,,-1,6,59,,1024.2,978.7,,-0.4,200,,4.6,,,,,,,,,,,,,,,,,,,,,,,,,,,,,,,,,,,,,,,,,,,,,,,,,,,,,,,,,,,,,,,,,,,,,,,,,,,,,,,,,,,,,,,,,,,SYN08072551 32966 02009 10022 21050 39787 40242 56010 92354 333 10028 21222 555 91800=,,,,,,,,,,3/26/2007
USW00014939,2023-02-17T18:54:00,40.8508,-96.7475,362.7,"LINCOLN AIRPORT, NE US",FM-15,343,1022,-5.6,0.6,0,,,,64,CLR:00,1024.4,978.9,16.093,-1.6,190,,2.6,,,,,,,,,,,,,,,,,,,,,,,,,,,,,,,,,,,,,,,,,,,,,,,,,,,,,,,,,,,,,,,,,,,,,,,,,,,,,,,,,,,,,,,,,,,MET09102/17/23 18:54:01 METAR KLNK 180054Z 19005KT 10SM CLR 01/M06 A3018 RMK AO2 SLP244 T00061056,,,,,,,,,,3/26/2007
USW00014939,2023-02-17T19:54:00,40.8508,-96.7475,362.7,"LINCOLN AIRPORT, NE US",FM-15,343,1022,-8.3,-5,0,,,,78,CLR:00,1024.5,978.9,16.093,-6,180,,2.6,,,,,,,,,,,,,,,,,,,,,,,,,,,,,,,,,,,,,,,,,,,,,,,,,,,,,,,,,,,,,,,,,,,,,,,,,,,,,,,,,,,,,,,,,,,MET09202/17/23 19:54:01 METAR KLNK 180154Z 18005KT 10SM CLR M05/M08 A3018 RMK AO2 SLP245 T10501083,,,,,,,,,,3/26/2007
USW00014939,2023-02-17T20:54:00,40.8508,-96.7475,362.7,"LINCOLN AIRPORT, NE US",FM-15,343,1021.7,-7.2,-2.2,0,,-0.5,8,69,CLR:00,1023.7,978.6,16.093,-3.9,150,,2.1,,,,,,,,,,,,,,,,,,,,,,,,,,,,,,,,,,,,,,,,,,,,,,,,,,,,,,,,,,,,,,,,,,,,,,,,,,,,,,,,,,,,,,,,,,,MET09802/17/23 20:54:01 METAR KLNK 180254Z 15004KT 10SM CLR M02/M07 A3017 RMK AO2 SLP237 T10221072 58005,,,,,,,,,,3/26/2007
USW00014939,2023-02-17T21:54:00,40.8508,-96.7475,362.7,"LINCOLN AIRPORT, NE US",FM-15,343,1022,-7.8,-2.8,0,,,,69,CLR:00,1023.8,978.9,16.093,-4.4,,,0,,,,,,,,,,,,,,,,,,,,,,,,,,,,,,,,,,,,,,,,,,,,,,,,,,,,,,,,,,,,,,,,,,,,,,,,,,,,,,,,,,,,,,,,,,,MET09202/17/23 21:54:01 METAR KLNK 180354Z 00000KT 10SM CLR M03/M08 A3018 RMK AO2 SLP238 T10281078,,,,,,,,,,3/26/2007
USW00014939,2023-02-17T22:54:00,40.8508,-96.7475,362.7,"LINCOLN AIRPORT, NE US",FM-15,343,1021.7,-7.8,-1.1,0,,,,61,CLR:00,1023.2,978.6,16.093,-3.3,,,0,,,,,,,,,,,,,,,,,,,,,,,,,,,,,,,,,,,,,,,,,,,,,,,,,,,,,,,,,,,,,,,,,,,,,,,,,,,,,,,,,,,,,,,,,,,MET09202/17/23 22:54:02 METAR KLNK 180454Z 00000KT 10SM CLR M01/M08 A3017 RMK AO2 SLP232 T10111078,,,,,,,,,,3/26/2007
USW00014939,2023-02-17T23:54:00,40.8508,-96.7475,362.7,"LINCOLN AIRPORT, NE US",FM-15,343,1021.3,-7.8,-1.7,0,,-0.3,8,63,CLR:00,1022.8,978.3,16.093,-3.7,250,,2.1,,,,,,,,,,,,,,,,,,,,,,,,,,,,,,,,,,,,,,,,,,,,,,,,,,,,,,,,,,,,,,,,,,,,,,,,,,,,,,,,,,,,,,,,,,,MET12002/17/23 23:54:02 METAR KLNK 180554Z 25004KT 10SM CLR M02/M08 A3016 RMK AO2 SLP228 T10171078 10022 21067 400281228 58003,,,,,,,,,,3/26/2007
USW00014939,2023-02-18T00:00:00,40.8508,-96.7475,362.7,"LINCOLN AIRPORT, NE US",FM-12,223,,-7.8,-1.7,,,-0.3,8,63,,1022.8,978,,-3.7,250,,2.1,,,,,,,,,,,,,,,,,,,,,,,,,,,,,,,,,,,,,,,,,,,,,,,,,,,,,,,,,,,,,,,,,,,,,,,,,,,,,,,,,,,,,,,,,,,SYN08072551 35966 02504 11017 21078 39780 40228 58003 90554 333 10022 21222 555 91806=,,,,,,,,,,3/26/2007
USW00014939,2023-02-18T00:00:00,40.8508,-96.7475,362.7,"LINCOLN AIRPORT, NE US",SOD,,,,,,,,,,,,,,,,,,719,1804,-6.7,-0.2,62,1015.9,971.6,-2.2,4.1,0,0.74,18.5,8.3,-8.8,200,13.4,0,180,0,200,9.4,,,,,,,,,,,,,,,,,,,,,,,,,,,,,,,,,,,,,,,,,,,,,,,,,,,,,,,,,,,,,,,,,,,,,,,,,,,,,,,,3/26/2007
USW00014939,2023-02-18T00:54:00,40.8508,-96.7475,362.7,"LINCOLN AIRPORT, NE US",FM-15,343,1021,-8.9,-3.9,0,,,,69,CLR:00,1022.6,978,16.093,-5.4,160,,1.5,,,,,,,,,,,,,,,,,,,,,,,,,,,,,,,,,,,,,,,,,,,,,,,,,,,,,,,,,,,,,,,,,,,,,,,,,,,,,,,,,,,,,,,,,,,MET09202/18/23 00:54:02 METAR KLNK 180654Z 16003KT 10SM CLR M04/M09 A3015 RMK AO2 SLP226 T10391089,,,,,,,,,,3/26/2007
USW00014939,2023-02-18T01:54:00,40.8508,-96.7475,362.7,"LINCOLN AIRPORT, NE US",FM-15,343,1021,-10.6,-6.1,0,,,,71,CLR:00,1022.6,978,16.093,-7.4,,,0,,,,,,,,,,,,,,,,,,,,,,,,,,,,,,,,,,,,,,,,,,,,,,,,,,,,,,,,,,,,,,,,,,,,,,,,,,,,,,,,,,,,,,,,,,,MET09202/18/23 01:54:02 METAR KLNK 180754Z 00000KT 10SM CLR M06/M11 A3015 RMK AO2 SLP226 T10611106,,,,,,,,,,3/26/2007
USW00014939,2023-02-18T02:54:00,40.8508,-96.7475,362.7,"LINCOLN AIRPORT, NE US",FM-15,343,1020.7,-9.4,-6.7,0,,-0.6,8,81,CLR:00,1022.1,977.6,16.093,-7.5,,,0,,,,,,,,,,,,,,,,,,,,,,,,,,,,,,,,,,,,,,,,,,,,,,,,,,,,,,,,,,,,,,,,,,,,,,,,,,,,,,,,,,,,,,,,,,,MET09802/18/23 02:54:02 METAR KLNK 180854Z 00000KT 10SM CLR M07/M09 A3014 RMK AO2 SLP221 T10671094 58006,,,,,,,,,,3/26/2007
USW00014939,2023-02-18T03:54:00,40.8508,-96.7475,362.7,"LINCOLN AIRPORT, NE US",FM-15,343,1020,-11.1,-8.3,0,,,,80,CLR:00,1021.5,977,16.093,-9.1,210,,1.5,,,,,,,,,,,,,,,,,,,,,,,,,,,,,,,,,,,,,,,,,,,,,,,,,,,,,,,,,,,,,,,,,,,,,,,,,,,,,,,,,,,,,,,,,,,MET09202/18/23 03:54:02 METAR KLNK 180954Z 21003KT 10SM CLR M08/M11 A3012 RMK AO2 SLP215 T10831111,,,,,,,,,,3/26/2007
USW00014939,2023-02-18T04:54:00,40.8508,-96.7475,362.7,"LINCOLN AIRPORT, NE US",FM-15,343,1019.3,-8.3,-4.4,0,,,,75,CLR:00,1020.6,976.3,16.093,-5.7,170,,1.5,,,,,,,,,,,,,,,,,,,,,,,,,,,,,,,,,,,,,,,,,,,,,,,,,,,,,,,,,,,,,,,,,,,,,,,,,,,,,,,,,,,,,,,,,,,MET09202/18/23 04:54:02 METAR KLNK 181054Z 17003KT 10SM CLR M04/M08 A3010 RMK AO2 SLP206 T10441083,,,,,,,,,,3/26/2007
USW00014939,2023-02-18T05:54:00,40.8508,-96.7475,362.7,"LINCOLN AIRPORT, NE US",FM-15,343,1019,-10.6,-7.2,0,,-1.6,6,77,CLR:00,1020.4,976,16.093,-8.2,150,,2.1,,,,,,,,,,,,,,,,,,,,,,,,,,,,,,,,,,,,,,,,,,,,,,,,,,,,,,,,,,,,,,,,,,,,,,,,,,,,,,,,,,,,,,,,,,,MET11002/18/23 05:54:02 METAR KLNK 181154Z 15004KT 10SM CLR M07/M11 A3009 RMK AO2 SLP204 T10721106 11017 21089 56016,,,,,,,,,,3/26/2007
USW00014939,2023-02-18T06:00:00,40.8508,-96.7475,362.7,"LINCOLN AIRPORT, NE US",FM-12,223,,-10.6,-7.2,,,-1.6,6,77,,1020.4,975.8,,-8.2,150,,2.1,,,,,,,,,,,,,,,,,,,,,,,,,,,,,,,,,,,,,,,,,,,,,,,,,,,,,,,,,,,,,,,,,,,,,,,,,,,,,,,,,,,,,,,,,,,SYN08072551 35966 01504 11072 21106 39758 40204 56016 91154 333 10028 21089 555 91812=,,,,,,,,,,3/26/2007
USW00014939,2023-02-18T06:54:00,40.8508,-96.7475,362.7,"LINCOLN AIRPORT, NE US",FM-15,343,1018.3,-10,-6.1,0,,,,74,CLR:00,1019.8,975.3,16.093,-7.2,160,,2.1,,,,,,,,,,,,,,,,,,,,,,,,,,,,,,,,,,,,,,,,,,,,,,,,,,,,,,,,,,,,,,,,,,,,,,,,,,,,,,,,,,,,,,,,,,,MET09702/18/23 06:54:02 METAR KLNK 181254Z 16004KT 10SM CLR M06/M10 A3007 RMK AO2 SLP198 T10611100 (HN),,,,,,,,,,3/26/2007
USW00014939,2023-02-18T07:54:00,40.8508,-96.7475,362.7,"LINCOLN AIRPORT, NE US",FM-15,343,1017.9,-10,-6.1,0,,,,74,CLR:00,1019.7,975,16.093,-7.2,,,0,,,,,,,,,,,,,,,,,,,,,,,,,,,,,,,,,,,,,,,,,,,,,,,,,,,,,,,,,,,,,,,,,,,,,,,,,,,,,,,,,,,,,,,,,,,MET09702/18/23 07:54:02 METAR KLNK 181354Z 00000KT 10SM CLR M06/M10 A3006 RMK AO2 SLP197 T10611100 (HN),,,,,,,,,,3/26/2007
USW00014939,2023-02-18T08:54:00,40.8508,-96.7475,362.7,"LINCOLN AIRPORT, NE US",FM-15,343,1017.6,-8.9,-4.4,0,,-1.4,6,71,CLR:00,1019.1,974.7,16.093,-5.8,140,,1.5,,,,,,,,,,,,,,,,,,,,,,,,,,,,,,,,,,,,,,,,,,,,,,,,,,,,,,,,,,,,,,,,,,,,,,,,,,,,,,,,,,,,,,,,,,,MET10302/18/23 08:54:02 METAR KLNK 181454Z 14003KT 10SM CLR M04/M09 A3005 RMK AO2 SLP191 T10441089 56014 (HN),,,,,,,,,,3/26/2007
USW00014939,2023-02-18T09:54:00,40.8508,-96.7475,362.7,"LINCOLN AIRPORT, NE US",FM-15,343,1016.9,-7.8,-2.2,0,,,,66,CLR:00,1018.4,974,16.093,-4,160,,2.6,,,,,,,,,,,,,,,,,,,,,,,,,,,,,,,,,,,,,,,,,,,,,,,,,,,,,,,,,,,,,,,,,,,,,,,,,,,,,,,,,,,,,,,,,,,MET09702/18/23 09:54:02 METAR KLNK 181554Z 16005KT 10SM CLR M02/M08 A3003 RMK AO2 SLP184 T10221078 (HN),,,,,,,,,,3/26/2007
USW00014939,2023-02-18T10:54:00,40.8508,-96.7475,362.7,"LINCOLN AIRPORT, NE US",FM-15,343,1016.6,-5,2.8,0,,,,57,CLR:00,1017.6,973.7,16.093,-0.1,210,,5.1,,,,,,,,,,,,,,,,,,,,,,,,,,,,,,,,,,,,,,,,,,,,,,,,,,,,,,,,,,,,,,,,,,,,,,,,,,,,,,,,,,,,,,,,,,,MET09602/18/23 10:54:02 METAR KLNK 181654Z 21010KT 10SM CLR 03/M05 A3002 RMK AO2 SLP176 T00281050 (HN),,,,,,,,,,3/26/2007
USW00014939,2023-02-18T11:54:00,40.8508,-96.7475,362.7,"LINCOLN AIRPORT, NE US",FM-15,343,1015.9,-3.3,4.4,0,,-1.8,8,58,CLR:00,1016.8,973.1,16.093,1.4,200,,4.6,,,,,,,,,,,,,,,,,,,,,,,,,,,,,,,,,,,,,,,,,,,,,,,,,,,,,,,,,,,,,,,,,,,,,,,,,,,,,,,,,,,,,,,,,,,MET11402/18/23 11:54:02 METAR KLNK 181754Z 20009KT 10SM CLR 04/M03 A3000 RMK AO2 SLP168 T00441033 10044 21083 58018 (HN),,,,,,,,,,3/26/2007
USW00014939,2023-02-18T12:00:00,40.8508,-96.7475,362.7,"LINCOLN AIRPORT, NE US",FM-12,223,,-3.3,4.4,,,-1.8,8,58,,1016.8,972.8,,1.4,200,,4.6,,,,,,,,,,,,,,,,,,,,,,,,,,,,,,,,,,,,,,,,,,,,,,,,,,,,,,,,,,,,,,,,,,,,,,,,,,,,,,,,,,,,,,,,,,,SYN08072551 32966 02009 10044 21033 39728 40168 58018 91754 333 10044 21083 555 91818=,,,,,,,,,,3/26/2007
USW00014939,2023-02-18T12:54:00,40.8508,-96.7475,362.7,"LINCOLN AIRPORT, NE US",FM-15,343,1014.6,-4.4,6.7,0,,,,45,CLR:00,1015.3,971.8,16.093,2.3,200,,5.7,,,,,,,,,,,,,,,,,,,,,,,,,,,,,,,,,,,,,,,,,,,,,,,,,,,,,,,,,,,,,,,,,,,,,,,,,,,,,,,,,,,,,,,,,,,MET09602/18/23 12:54:02 METAR KLNK 181854Z 20011KT 10SM CLR 07/M04 A2996 RMK AO2 SLP153 T00671044 (SD),,,,,,,,,,3/26/2007
USW00014939,2023-02-18T13:54:00,40.8508,-96.7475,362.7,"LINCOLN AIRPORT, NE US",FM-15,343,1012.9,-4.4,7.8,0,,,,42,CLR:00,1013.9,970.1,16.093,2.9,200,10.8,7.2,,,,,,,,,,,,,,,,,,,,,,,,,,,,,,,,,,,,,,,,,,,,,,,,,,,,,,,,,,,,,,,,,,,,,,,,,,,,,,,,,,,,,,,,,,,MET09902/18/23 13:54:02 METAR KLNK 181954Z 20014G21KT 10SM CLR 08/M04 A2991 RMK AO2 SLP139 T00781044 (BV),,,,,,,,,,3/26/2007
USW00014939,2023-02-18T14:54:00,40.8508,-96.7475,362.7,"LINCOLN AIRPORT, NE US",FM-15,343,1011.9,-3.3,7.8,0,,-3.9,6,46,CLR:00,1012.9,969.1,16.093,3.2,190,,4.6,,,,,,,,,,,,,,,,,,,,,,,,,,,,,,,,,,,,,,,,,,,,,,,,,,,,,,,,,,,,,,,,,,,,,,,,,,,,,,,,,,,,,,,,,,,MET19202/18/23 14:54:02 METAR KLNK 182054Z 19009KT 10SM CLR 08/M03 A2988 RMK AO2 SLP129 T00781033 56039 (BV) 1 56052,,,,,,,,,,3/26/2007
USW00014939,2023-02-18T15:54:00,40.8508,-96.7475,362.7,"LINCOLN AIRPORT, NE US",FM-15,343,1010.5,-1.7,7.2,0,,,,54,CLR:00,1011.6,967.8,16.093,3.5,170,,5.7,,,,,,,,,,,,,,,,,,,,,,,,,,,,,,,,,,,,,,,,,,,,,,,,,,,,,,,,,,,,,,,,,,,,,,,,,,,,,,,,,,,,,,,,,,,MET09102/18/23 15:54:02 METAR KLNK 182154Z 17011KT 10SM CLR 07/M02 A2984 RMK AO2 SLP116 T00721017,,,,,,,,,,3/26/2007
USW00014939,2023-02-18T16:54:00,40.8508,-96.7475,362.7,"LINCOLN AIRPORT, NE US",FM-15,343,1010.2,-1.1,6.1,0,,,,60,CLR:00,1010.9,967.5,16.093,3.1,180,,5.1,,,,,,,,,,,,,,,,,,,,,,,,,,,,,,,,,,,,,,,,,,,,,,,,,,,,,,,,,,,,,,,,,,,,,,,,,,,,,,,,,,,,,,,,,,,MET09102/18/23 16:54:02 METAR KLNK 182254Z 18010KT 10SM CLR 06/M01 A2983 RMK AO2 SLP109 T00611011,,,,,,,,,,3/26/2007
USW00014939,2023-02-18T17:54:00,40.8508,-96.7475,362.7,"LINCOLN AIRPORT, NE US",FM-15,343,1009.5,-2.8,5.6,0,,-2.3,6,55,CLR:00,1010.6,966.8,16.093,2.2,180,,6.2,,,,,,,,,,,,,,,,,,,,,,,,,,,,,,,,,,,,,,,,,,,,,,,,,,,,,,,,,,,,,,,,,,,,,,,,,,,,,,,,,,,,,,,,,,,MET10902/18/23 17:54:02 METAR KLNK 182354Z 18012KT 10SM CLR 06/M03 A2981 RMK AO2 SLP106 T00561028 10083 20044 56023,,,,,,,,,,3/26/2007
USW00014939,2023-02-18T18:00:00,40.8508,-96.7475,362.7,"LINCOLN AIRPORT, NE US",FM-12,223,,-2.8,5.6,,,-2.3,6,55,,1010.6,966.6,,2.2,180,,6.2,,,,,,,,,,,,,,,,,,,,,,,,,,,,,,,,,,,,,,,,,,,,,,,,,,,,,,,,,,,,,,,,,,,,,,,,,,,,,,,,,,,,,,,,,,,SYN08072551 32966 01812 10056 21028 39666 40106 56023 92354 333 10083 21088 555 91900=,,,,,,,,,,3/26/2007
USW00014939,2023-02-18T18:54:00,40.8508,-96.7475,362.7,"LINCOLN AIRPORT, NE US",FM-15,343,1009.1,-3.3,5.6,0,,,,53,CLR:00,1010.1,966.5,16.093,2,190,,8.2,,,,,,,,,,,,,,,,,,,,,,,,,,,,,,,,,,,,,,,,,,,,,,,,,,,,,,,,,,,,,,,,,,,,,,,,,,,,,,,,,,,,,,,,,,,MET09102/18/23 18:54:01 METAR KLNK 190054Z 19016KT 10SM CLR 06/M03 A2980 RMK AO2 SLP101 T00561033,,,,,,,,,,3/26/2007
USW00014939,2023-02-18T19:54:00,40.8508,-96.7475,362.7,"LINCOLN AIRPORT, NE US",FM-15,343,1009.1,-3.9,6.1,0,,,,49,CLR:00,1010.1,966.5,16.093,2.1,190,,7.2,,,,,,,,,,,,,,,,,,,,,,,,,,,,,,,,,,,,,,,,,,,,,,,,,,,,,,,,,,,,,,,,,,,,,,,,,,,,,,,,,,,,,,,,,,,MET09102/18/23 19:54:01 METAR KLNK 190154Z 19014KT 10SM CLR 06/M04 A2980 RMK AO2 SLP101 T00611039,,,,,,,,,,3/26/2007
USW00014939,2023-02-18T20:54:00,40.8508,-96.7475,362.7,"LINCOLN AIRPORT, NE US",FM-15,343,1009.1,-3.3,5,0,,-0.4,6,55,CLR:00,1010,966.5,16.093,1.7,190,,6.7,,,,,,,,,,,,,,,,,,,,,,,,,,,,,,,,,,,,,,,,,,,,,,,,,,,,,,,,,,,,,,,,,,,,,,,,,,,,,,,,,,,,,,,,,,,MET09702/18/23 20:54:01 METAR KLNK 190254Z 19013KT 10SM CLR 05/M03 A2980 RMK AO2 SLP100 T00501033 56004,,,,,,,,,,3/26/2007
USW00014939,2023-02-18T21:54:00,40.8508,-96.7475,362.7,"LINCOLN AIRPORT, NE US",FM-15,343,1008.8,-3.9,5,0,,,,53,CLR:00,1009.8,966.2,16.093,1.5,200,13.4,8.2,,,,,,,,,,,,,,,,,,,,,,,,,,,,,,,,,,,,,,,,,,,,,,,,,,,,,,,,,,,,,,,,,,,,,,,,,,,,,,,,,,,,,,,,,,,MET11202/18/23 21:54:01 METAR KLNK 190354Z 20016G26KT 10SM CLR 05/M04 A2979 RMK AO2 PK WND 20026/0347 SLP098 T00501039,,,,,,,,,,3/26/2007
USW00014939,2023-02-18T22:54:00,40.8508,-96.7475,362.7,"LINCOLN AIRPORT, NE US",FM-15,343,1009.1,-3.3,3.9,0,,,,60,CLR:00,1009.9,966.5,16.093,1.1,210,,5.7,,,,,,,,,,,,,,,,,,,,,,,,,,,,,,,,,,,,,,,,,,,,,,,,,,,,,,,,,,,,,,,,,,,,,,,,,,,,,,,,,,,,,,,,,,,MET09102/18/23 22:54:01 METAR KLNK 190454Z 21011KT 10SM CLR 04/M03 A2980 RMK AO2 SLP099 T00391033,,,,,,,,,,3/26/2007
USW00014939,2023-02-18T23:54:00,40.8508,-96.7475,362.7,"LINCOLN AIRPORT, NE US",FM-15,343,1009.5,-3.3,2.8,0,,0.5,3,65,CLR:00,1010.1,966.8,16.093,0.4,220,,5.1,,,,,,,,,,,,,,,,,,,,,,,,,,,,,,,,,,,,,,,,,,,,,,,,,,,,,,,,,,,,,,,,,,,,,,,,,,,,,,,,,,,,,,,,,,,MET11902/18/23 23:54:01 METAR KLNK 190554Z 22010KT 10SM CLR 03/M03 A2981 RMK AO2 SLP101 T00281033 10061 20028 400831089 53005,,,,,,,,,,3/26/2007
USW00014939,2023-02-19T00:00:00,40.8508,-96.7475,362.7,"LINCOLN AIRPORT, NE US",FM-12,223,,-3.3,2.8,,,0.5,3,65,,1010.1,966.6,,0.4,220,,5.1,,,,,,,,,,,,,,,,,,,,,,,,,,,,,,,,,,,,,,,,,,,,,,,,,,,,,,,,,,,,,,,,,,,,,,,,,,,,,,,,,,,,,,,,,,,SYN08072551 35966 02210 10028 21033 39666 40101 53005 90554 333 10061 21088 555 91906=,,,,,,,,,,3/26/2007
USW00014939,2023-02-19T00:00:00,40.8508,-96.7475,362.7,"LINCOLN AIRPORT, NE US",SOD,,,,,,,,,,,,,,,,,,717,1805,-2.8,1.4,71,1013.2,968.8,0,1.6,0,2.12,16.9,9.4,-6.6,210,8.9,0,80,0,210,6.3,,,,,,,,,,,,,,,,,,,,,,,,,,,,,,,,,,,,,,,,,,,,,,,,,,,,,,,,,,,,,,,,,,,,,,,,,,,,,,,,3/26/2007
USW00014939,2023-02-19T00:54:00,40.8508,-96.7475,362.7,"LINCOLN AIRPORT, NE US",FM-15,343,1009.8,-3.3,2.2,0,,,,67,CLR:00,1010.3,967.2,16.093,0.1,220,,3.1,,,,,,,,,,,,,,,,,,,,,,,,,,,,,,,,,,,,,,,,,,,,,,,,,,,,,,,,,,,,,,,,,,,,,,,,,,,,,,,,,,,,,,,,,,,MET09102/19/23 00:54:02 METAR KLNK 190654Z 22006KT 10SM CLR 02/M03 A2982 RMK AO2 SLP103 T00221033,,,,,,,,,,3/26/2007
USW00014939,2023-02-19T01:54:00,40.8508,-96.7475,362.7,"LINCOLN AIRPORT, NE US",FM-15,343,1009.5,-3.3,1.7,0,,,,70,CLR:00,1010,966.8,16.093,-0.2,210,,5.7,,,,,,,,,,,,,,,,,,,,,,,,,,,,,,,,,,,,,,,,,,,,,,,,,,,,,,,,,,,,,,,,,,,,,,,,,,,,,,,,,,,,,,,,,,,MET09102/19/23 01:54:02 METAR KLNK 190754Z 21011KT 10SM CLR 02/M03 A2981 RMK AO2 SLP100 T00171033,,,,,,,,,,3/26/2007
USW00014939,2023-02-19T02:54:00,40.8508,-96.7475,362.7,"LINCOLN AIRPORT, NE US",FM-15,343,1009.8,-3.9,0.6,0,,0.2,1,72,CLR:00,1010.3,967.2,16.093,-1.1,230,,2.1,,,,,,,,,,,,,,,,,,,,,,,,,,,,,,,,,,,,,,,,,,,,,,,,,,,,,,,,,,,,,,,,,,,,,,,,,,,,,,,,,,,,,,,,,,,MET09702/19/23 02:54:02 METAR KLNK 190854Z 23004KT 10SM CLR 01/M04 A2982 RMK AO2 SLP103 T00061039 51002,,,,,,,,,,3/26/2007
USW00014939,2023-02-19T03:54:00,40.8508,-96.7475,362.7,"LINCOLN AIRPORT, NE US",FM-15,343,1009.8,-4.4,0,0,,,,73,CLR:00,1010.4,967.2,16.093,-1.6,260,,2.6,,,,,,,,,,,,,,,,,,,,,,,,,,,,,,,,,,,,,,,,,,,,,,,,,,,,,,,,,,,,,,,,,,,,,,,,,,,,,,,,,,,,,,,,,,,MET09102/19/23 03:54:02 METAR KLNK 190954Z 26005KT 10SM CLR 00/M04 A2982 RMK AO2 SLP104 T00001044,,,,,,,,,,3/26/2007
USW00014939,2023-02-19T04:54:00,40.8508,-96.7475,362.7,"LINCOLN AIRPORT, NE US",FM-15,343,1009.8,-6.1,-2.2,0,,,,75,CLR:00,1010.8,967.2,16.093,-3.6,230,,1.5,,,,,,,,,,,,,,,,,,,,,,,,,,,,,,,,,,,,,,,,,,,,,,,,,,,,,,,,,,,,,,,,,,,,,,,,,,,,,,,,,,,,,,,,,,,MET09202/19/23 04:54:02 METAR KLNK 191054Z 23003KT 10SM CLR M02/M06 A2982 RMK AO2 SLP108 T10221061,,,,,,,,,,3/26/2007
USW00014939,2023-02-19T05:54:00,40.8508,-96.7475,362.7,"LINCOLN AIRPORT, NE US",FM-15,343,1010.5,-5.6,-2.8,0,,0.8,3,81,CLR:00,1011.5,967.8,16.093,-3.7,,,0,,,,,,,,,,,,,,,,,,,,,,,,,,,,,,,,,,,,,,,,,,,,,,,,,,,,,,,,,,,,,,,,,,,,,,,,,,,,,,,,,,,,,,,,,,,MET11002/19/23 05:54:02 METAR KLNK 191154Z 00000KT 10SM CLR M03/M06 A2984 RMK AO2 SLP115 T10281056 10028 21028 53008,,,,,,,,,,3/26/2007
USW00014939,2023-02-19T06:00:00,40.8508,-96.7475,362.7,"LINCOLN AIRPORT, NE US",FM-12,223,,-5.6,-2.8,,,0.8,3,81,,1011.5,967.6,,-3.7,,,0,,,,,,,,,,,,,,,,,,,,,,,,,,,,,,,,,,,,,,,,,,,,,,,,,,,,,,,,,,,,,,,,,,,,,,,,,,,,,,,,,,,,,,,,,,,SYN08072551 35966 00000 11028 21056 39676 40115 53008 91154 333 10083 21028 555 91912=,,,,,,,,,,3/26/2007
USW00014939,2023-02-19T06:54:00,40.8508,-96.7475,362.7,"LINCOLN AIRPORT, NE US",FM-15,343,1011.2,-7.8,-6.1,0,,,,88,CLR:00,1012.3,968.5,16.093,-6.6,,,0,,,,,,,,,,,,,,,,,,,,,,,,,,,,,,,,,,,,,,,,,,,,,,,,,,,,,,,,,,,,,,,,,,,,,,,,,,,,,,,,,,,,,,,,,,,MET09702/19/23 06:54:02 METAR KLNK 191254Z 00000KT 10SM CLR M06/M08 A2986 RMK AO2 SLP123 T10611078 (SD),,,,,,,,,,3/26/2007
USW00014939,2023-02-19T07:54:00,40.8508,-96.7475,362.7,"LINCOLN AIRPORT, NE US",FM-15,343,1012.5,-6.7,-5.6,0,,,,92,CLR:00,1013.5,969.8,14.484,-5.9,,,0,,,,,,,,,,,,,,,,,,,,,,,,,,,,,,,,,,,,,,,,,,,,,,,,,,,,,,,,,,,,,,,,,,,,,,,,,,,,,,,,,,,,,,,,,,,MET09602/19/23 07:54:02 METAR KLNK 191354Z 00000KT 9SM CLR M06/M07 A2990 RMK AO2 SLP135 T10561067 (SD),,,,,,,,,,3/26/2007
USW00014939,2023-02-19T08:54:00,40.8508,-96.7475,362.7,"LINCOLN AIRPORT, NE US",FM-15,343,1012.9,-3.9,-1.1,0,,2.3,1,82,CLR:00,1013.7,970.1,16.093,-2.1,,,0,,,,,,,,,,,,,,,,,,,,,,,,,,,,,,,,,,,,,,,,,,,,,,,,,,,,,,,,,,,,,,,,,,,,,,,,,,,,,,,,,,,,,,,,,,,MET10302/19/23 08:54:02 METAR KLNK 191454Z 00000KT 10SM CLR M01/M04 A2991 RMK AO2 SLP137 T10111039 51023 (SD),,,,,,,,,,3/26/2007
USW00014939,2023-02-19T09:54:00,40.8508,-96.7475,362.7,"LINCOLN AIRPORT, NE US",FM-15,343,1013.9,-3.3,2.8,0,,,,65,CLR:00,1014.4,971.1,16.093,0.4,,,0,,,,,,,,,,,,,,,,,,,,,,,,,,,,,,,,,,,,,,,,,,,,,,,,,,,,,,,,,,,,,,,,,,,,,,,,,,,,,,,,,,,,,,,,,,,MET09602/19/23 09:54:02 METAR KLNK 191554Z 00000KT 10SM CLR 03/M03 A2994 RMK AO2 SLP144 T00281033 (SD),,,,,,,,,,3/26/2007
USW00014939,2023-02-19T10:54:00,40.8508,-96.7475,362.7,"LINCOLN AIRPORT, NE US",FM-15,343,1013.9,-1.7,5.6,0,,,,60,CLR:00,1014.6,971.1,16.093,2.6,350,,2.1,,,,,,,,,,,,,,,,,,,,,,,,,,,,,,,,,,,,,,,,,,,,,,,,,,,,,,,,,,,,,,,,,,,,,,,,,,,,,,,,,,,,,,,,,,,MET09602/19/23 10:54:02 METAR KLNK 191654Z 35004KT 10SM CLR 06/M02 A2994 RMK AO2 SLP146 T00561017 (SD),,,,,,,,,,3/26/2007
USW00014939,2023-02-19T11:54:00,40.8508,-96.7475,362.7,"LINCOLN AIRPORT, NE US",FM-15,343,1013.5,-1.7,7.2,0,,0.6,0,54,CLR:00,1014,970.8,16.093,3.5,350,,4.1,,,,,,,,,,,,,,,,,,,,,,,,,,,,,,,,,,,,,,,,,,,,,,,,,,,,,,,,,,,,,,,,,,,,,,,,,,,,,,,,,,,,,,,,,,,MET11402/19/23 11:54:02 METAR KLNK 191754Z 35008KT 10SM CLR 07/M02 A2993 RMK AO2 SLP140 T00721017 10072 21067 50006 (SD),,,,,,,,,,3/26/2007
USW00014939,2023-02-19T12:00:00,40.8508,-96.7475,362.7,"LINCOLN AIRPORT, NE US",FM-12,223,,-1.7,7.2,,,0.6,9,54,,1014,970.5,,3.5,350,,4.1,,,,,,,,,,,,,,,,,,,,,,,,,,,,,,,,,,,,,,,,,,,,,,,,,,,,,,,,,,,,,,,,,,,,,,,,,,,,,,,,,,,,,,,,,,,SYN08072551 32966 03508 10072 21017 39705 40140 50006 91754 333 10072 21067 555 91918=,,,,,,,,,,3/26/2007
USW00014939,2023-02-19T12:54:00,40.8508,-96.7475,362.7,"LINCOLN AIRPORT, NE US",FM-15,343,1013.2,0,7.8,0,,,,58,CLR:00,1013.7,970.4,16.093,4.4,350,,4.1,,,,,,,,,,,,,,,,,,,,,,,,,,,,,,,,,,,,,,,,,,,,,,,,,,,,,,,,,,,,,,,,,,,,,,,,,,,,,,,,,,,,,,,,,,,MET09502/19/23 12:54:02 METAR KLNK 191854Z 35008KT 10SM CLR 08/00 A2992 RMK AO2 SLP137 T00780000 (BV),,,,,,,,,,3/26/2007
USW00014939,2023-02-19T13:54:00,40.8508,-96.7475,362.7,"LINCOLN AIRPORT, NE US",FM-15,343,1012.9,0,8.3,0,,,,56,CLR:00,1013.3,970.1,16.093,4.7,340,,3.1,,,,,,,,,,,,,,,,,,,,,,,,,,,,,,,,,,,,,,,,,,,,,,,,,,,,,,,,,,,,,,,,,,,,,,,,,,,,,,,,,,,,,,,,,,,MET09502/19/23 13:54:02 METAR KLNK 191954Z 34006KT 10SM CLR 08/00 A2991 RMK AO2 SLP133 T00830000 (NU),,,,,,,,,,3/26/2007
USW00014939,2023-02-19T14:54:00,40.8508,-96.7475,362.7,"LINCOLN AIRPORT, NE US",FM-15,343,1012.5,0,8.9,0,,-0.9,6,54,CLR:00,1013.1,969.8,16.093,5,330,,1.5,,,,,,,,,,,,,,,,,,,,,,,,,,,,,,,,,,,,,,,,,,,,,,,,,,,,,,,,,,,,,,,,,,,,,,,,,,,,,,,,,,,,,,,,,,,MET10102/19/23 14:54:02 METAR KLNK 192054Z 33003KT 10SM CLR 09/00 A2990 RMK AO2 SLP131 T00890000 56009 (NU),,,,,,,,,,3/26/2007
USW00014939,2023-02-19T15:54:00,40.8508,-96.7475,362.7,"LINCOLN AIRPORT, NE US",FM-15,343,1012.5,0,9.4,0,,,,52,CLR:00,1013,969.8,16.093,5.3,320,,1.5,,,,,,,,,,,,,,,,,,,,,,,,,,,,,,,,,,,,,,,,,,,,,,,,,,,,,,,,,,,,,,,,,,,,,,,,,,,,,,,,,,,,,,,,,,,MET09502/19/23 15:54:02 METAR KLNK 192154Z 32003KT 10SM CLR 09/00 A2990 RMK AO2 SLP130 T00940000 (NU),,,,,,,,,,3/26/2007
USW00014939,2023-02-19T16:54:00,40.8508,-96.7475,362.7,"LINCOLN AIRPORT, NE US",FM-15,343,1012.9,0.6,9.4,0,,,,55,CLR:00,1013.5,970.1,16.093,5.5,10,,2.1,,,,,,,,,,,,,,,,,,,,,,,,,,,,,,,,,,,,,,,,,,,,,,,,,,,,,,,,,,,,,,,,,,,,,,,,,,,,,,,,,,,,,,,,,,,MET09502/19/23 16:54:02 METAR KLNK 192254Z 01004KT 10SM CLR 09/01 A2991 RMK AO2 SLP135 T00940006 (NU),,,,,,,,,,3/26/2007
USW00014939,2023-02-19T17:54:00,40.8508,-96.7475,362.7,"LINCOLN AIRPORT, NE US",FM-15,343,1012.5,0,6.7,0,,0.1,0,63,CLR:00,1013.5,969.8,16.093,3.8,,,0,,,,,,,,,,,,,,,,,,,,,,,,,,,,,,,,,,,,,,,,,,,,,,,,,,,,,,,,,,,,,,,,,,,,,,,,,,,,,,,,,,,,,,,,,,,MET11302/19/23 17:54:02 METAR KLNK 192354Z 00000KT 10SM CLR 07/00 A2990 RMK AO2 SLP135 T00670000 10094 20067 50001 (NU),,,,,,,,,,3/26/2007
USW00014939,2023-02-19T18:00:00,40.8508,-96.7475,362.7,"LINCOLN AIRPORT, NE US",FM-12,223,,0,6.7,,,0.1,9,63,,1013.5,969.5,,3.8,,,0,,,,,,,,,,,,,,,,,,,,,,,,,,,,,,,,,,,,,,,,,,,,,,,,,,,,,,,,,,,,,,,,,,,,,,,,,,,,,,,,,,,,,,,,,,,SYN08072551 32966 00000 10067 20000 39695 40135 50001 92354 333 10094 21027 555 92000=,,,,,,,,,,3/26/2007
USW00014939,2023-02-19T18:54:00,40.8508,-96.7475,362.7,"LINCOLN AIRPORT, NE US",FM-15,343,1013.2,0,6.1,0,,,,65,FEW:02 36.58,1014.1,970.4,16.093,3.5,110,,2.1,,,,,,,,,,,,,,,,,,,,,,,,,,,,,,,,,,,,,,,,,,,,,,,,,,,,,,,,,,,,,,,,,,,,,,,,,,,,,,,,,,,,,,,,,,,MET09302/19/23 18:54:01 METAR KLNK 200054Z 11004KT 10SM FEW120 06/00 A2992 RMK AO2 SLP141 T00610000,,,,,,,,,,3/26/2007
USW00014939,2023-02-19T19:54:00,40.8508,-96.7475,362.7,"LINCOLN AIRPORT, NE US",FM-15,343,1012.9,-1.7,1.7,0,,,,78,CLR:00,1014.1,970.1,16.093,0.4,170,,2.1,,,,,,,,,,,,,,,,,,,,,,,,,,,,,,,,,,,,,,,,,,,,,,,,,,,,,,,,,,,,,,,,,,,,,,,,,,,,,,,,,,,,,,,,,,,MET09102/19/23 19:54:01 METAR KLNK 200154Z 17004KT 10SM CLR 02/M02 A2991 RMK AO2 SLP141 T00171017,,,,,,,,,,3/26/2007
USW00014939,2023-02-19T20:54:00,40.8508,-96.7475,362.7,"LINCOLN AIRPORT, NE US",FM-15,343,1012.5,-1.7,1.1,0,,-0.1,8,82,CLR:00,1013.6,969.8,16.093,0,,,0,,,,,,,,,,,,,,,,,,,,,,,,,,,,,,,,,,,,,,,,,,,,,,,,,,,,,,,,,,,,,,,,,,,,,,,,,,,,,,,,,,,,,,,,,,,MET09702/19/23 20:54:01 METAR KLNK 200254Z 00000KT 10SM CLR 01/M02 A2990 RMK AO2 SLP136 T00111017 58001,,,,,,,,,,3/26/2007
USW00014939,2023-02-19T21:54:00,40.8508,-96.7475,362.7,"LINCOLN AIRPORT, NE US",FM-15,343,1011.5,-1.7,0,0,,,,88,CLR:00,1012.3,968.8,16.093,-0.6,30,,1.5,,,,,,,,,,,,,,,,,,,,,,,,,,,,,,,,,,,,,,,,,,,,,,,,,,,,,,,,,,,,,,,,,,,,,,,,,,,,,,,,,,,,,,,,,,,MET09102/19/23 21:54:01 METAR KLNK 200354Z 03003KT 10SM CLR 00/M02 A2987 RMK AO2 SLP123 T00001017,,,,,,,,,,3/26/2007
USW00014939,2023-02-19T22:54:00,40.8508,-96.7475,362.7,"LINCOLN AIRPORT, NE US",FM-15,343,1011.2,-2.2,-1.1,0,,,,92,CLR:00,1012.1,968.5,16.093,-1.5,,,0,,,,,,,,,,,,,,,,,,,,,,,,,,,,,,,,,,,,,,,,,,,,,,,,,,,,,,,,,,,,,,,,,,,,,,,,,,,,,,,,,,,,,,,,,,,MET09202/19/23 22:54:01 METAR KLNK 200454Z 00000KT 10SM CLR M01/M02 A2986 RMK AO2 SLP121 T10111022,,,,,,,,,,3/26/2007
USW00014939,2023-02-19T23:54:00,40.8508,-96.7475,362.7,"LINCOLN AIRPORT, NE US",FM-15,343,1010.5,-3.9,-2.2,0,,-2,6,88,CLR:00,1011.3,967.8,16.093,-2.8,,,0,,,,,,,,,,,,,,,,,,,,,,,,,,,,,,,,,,,,,,,,,,,,,,,,,,,,,,,,,,,,,,,,,,,,,,,,,,,,,,,,,,,,,,,,,,,MET12002/19/23 23:54:01 METAR KLNK 200554Z 00000KT 10SM CLR M02/M04 A2984 RMK AO2 SLP113 T10221039 10067 21028 400941067 56020,,,,,,,,,,3/26/2007
USW00014939,2023-02-20T00:00:00,40.8508,-96.7475,362.7,"LINCOLN AIRPORT, NE US",FM-12,223,,-3.9,-2.2,,,-2,6,88,,1011.3,967.6,,-2.8,,,0,,,,,,,,,,,,,,,,,,,,,,,,,,,,,,,,,,,,,,,,,,,,,,,,,,,,,,,,,,,,,,,,,,,,,,,,,,,,,,,,,,,,,,,,,,,SYN08072551 35966 00000 11022 21039 39676 40113 56020 90554 333 10067 21028 555 92006=,,,,,,,,,,3/26/2007
USW00014939,2023-02-20T00:00:00,40.8508,-96.7475,362.7,"LINCOLN AIRPORT, NE US",SOD,,,,,,,,,,,,,,,,,,716,1806,-2.2,3.4,68,1009.1,966.1,1.7,3.2,0,3.9,14.9,11.7,-4.9,290,12.1,0,T,0,300,8.9,,,,,,,,,,,,,,,,,,,,,,,,,,,,,,,,,,,,,,,,,,,,,,,,,,,,,,,,,,,,,,,,,,,,,,,,,,,,,,,,3/26/2007
USW00014939,2023-02-20T00:54:00,40.8508,-96.7475,362.7,"LINCOLN AIRPORT, NE US",FM-15,343,1010.5,-5,-3.3,0,,,,88,CLR:00,1011.3,967.8,12.875,-3.9,,,0,,,,,,,,,,,,,,,,,,,,,,,,,,,,,,,,,,,,,,,,,,,,,,,,,,,,,,,,,,,,,,,,,,,,,,,,,,,,,,,,,,,,,,,,,,,MET09102/20/23 00:54:02 METAR KLNK 200654Z 00000KT 8SM CLR M03/M05 A2984 RMK AO2 SLP113 T10331050,,,,,,,,,,3/26/2007
USW00014939,2023-02-20T01:54:00,40.8508,-96.7475,362.7,"LINCOLN AIRPORT, NE US",FM-15,343,1009.5,-5,-3.3,0,,,,88,CLR:00,1010.2,966.8,12.875,-3.9,170,,1.5,,,,,,,,,,,,,,,,,,,,,,,,,,,,,,,,,,,,,,,,,,,,,,,,,,,,,,,,,,,,,,,,,,,,,,,,,,,,,,,,,,,,,,,,,,,MET09102/20/23 01:54:02 METAR KLNK 200754Z 17003KT 8SM CLR M03/M05 A2981 RMK AO2 SLP102 T10331050,,,,,,,,,,3/26/2007
USW00014939,2023-02-20T02:54:00,40.8508,-96.7475,362.7,"LINCOLN AIRPORT, NE US",FM-15,343,1009.1,-4.4,-3.3,0,,-1.4,8,92,CLR:00,1009.8,966.5,11.265,-3.7,160,,2.6,,,,,,,,,,,,,,,,,,,,,,,,,,,,,,,,,,,,,,,,,,,,,,,,,,,,,,,,,,,,,,,,,,,,,,,,,,,,,,,,,,,,,,,,,,,MET10902/20/23 02:54:02 METAR KLNK 200854Z 16005KT 7SM CLR M03/M04 A2980 RMK AO2 SLP098 I1000 I3000 T10331044 58014,,,,,,,,,,3/26/2007
USW00014939,2023-02-20T03:54:00,40.8508,-96.7475,362.7,"LINCOLN AIRPORT, NE US",FM-15,343,1008.5,-4.4,-2.8,0,,,,89,CLR:00,1009.2,965.9,16.093,-3.4,140,,2.1,,,,,,,,,,,,,,,,,,,,,,,,,,,,,,,,,,,,,,,,,,,,,,,,,,,,,,,,,,,,,,,,,,,,,,,,,,,,,,,,,,,,,,,,,,,MET09802/20/23 03:54:02 METAR KLNK 200954Z 14004KT 10SM CLR M03/M04 A2978 RMK AO2 SLP092 I1000 T10281044,,,,,,,,,,3/26/2007
USW00014939,2023-02-20T04:54:00,40.8508,-96.7475,362.7,"LINCOLN AIRPORT, NE US",FM-15,343,1008.1,-4.4,-2.8,0,,,,89,CLR:00,1008.7,965.5,16.093,-3.4,160,,2.1,,,,,,,,,,,,,,,,,,,,,,,,,,,,,,,,,,,,,,,,,,,,,,,,,,,,,,,,,,,,,,,,,,,,,,,,,,,,,,,,,,,,,,,,,,,MET09202/20/23 04:54:02 METAR KLNK 201054Z 16004KT 10SM CLR M03/M04 A2977 RMK AO2 SLP087 T10281044,,,,,,,,,,3/26/2007
USW00014939,2023-02-20T05:54:00,40.8508,-96.7475,362.7,"LINCOLN AIRPORT, NE US",FM-15,343,1008.1,-4.4,-2.2,0,,-1,6,85,CLR:00,1008.8,965.5,16.093,-3,160,,3.1,,,,,,,,,,,,,,,,,,,,,,,,,,,,,,,,,,,,,,,,,,,,,,,,,,,,,,,,,,,,,,,,,,,,,,,,,,,,,,,,,,,,,,,,,,,MET12102/20/23 05:54:02 METAR KLNK 201154Z 16006KT 10SM CLR M02/M04 A2977 RMK AO2 SLP088 I6000 T10221044 11011 21050 56010 (CD),,,,,,,,,,3/26/2007
USW00014939,2023-02-20T06:00:00,40.8508,-96.7475,362.7,"LINCOLN AIRPORT, NE US",FM-12,223,,-4.4,-2.2,,,-1,6,85,,1008.8,965.3,,-3,160,,3.1,,,,,,,,,,,,,,,,,,,,,,,,,,,,,,,,,,,,,,,,,,,,,,,,,,,,,,,,,,,,,,,,,,,,,,,,,,,,,,,,,,,,,,,,,,,SYN08072551 32966 01606 11022 21044 39653 40088 56010 91154 333 10094 21050 555 92012=,,,,,,,,,,3/26/2007
USW00014939,2023-02-20T06:54:00,40.8508,-96.7475,362.7,"LINCOLN AIRPORT, NE US",FM-15,343,1007.5,-5,-2.8,0,,,,85,CLR:00,1008.4,964.9,16.093,-3.6,140,,2.1,,,,,,,,,,,,,,,,,,,,,,,,,,,,,,,,,,,,,,,,,,,,,,,,,,,,,,,,,,,,,,,,,,,,,,,,,,,,,,,,,,,,,,,,,,,MET09702/20/23 06:54:02 METAR KLNK 201254Z 14004KT 10SM CLR M03/M05 A2975 RMK AO2 SLP084 T10281050 (CD),,,,,,,,,,3/26/2007
USW00014939,2023-02-20T07:54:00,40.8508,-96.7475,362.7,"LINCOLN AIRPORT, NE US",FM-15,343,1007.5,-3.3,-1.1,0,,,,85,CLR:00,1008.6,964.9,16.093,-1.9,170,,2.1,,,,,,,,,,,,,,,,,,,,,,,,,,,,,,,,,,,,,,,,,,,,,,,,,,,,,,,,,,,,,,,,,,,,,,,,,,,,,,,,,,,,,,,,,,,MET09702/20/23 07:54:02 METAR KLNK 201354Z 17004KT 10SM CLR M01/M03 A2975 RMK AO2 SLP086 T10111033 (CD),,,,,,,,,,3/26/2007
USW00014939,2023-02-20T08:54:00,40.8508,-96.7475,362.7,"LINCOLN AIRPORT, NE US",FM-15,343,1007.8,-1.7,2.2,0,,-0.3,5,76,CLR:00,1008.5,965.2,16.093,0.7,250,,1.5,,,,,,,,,,,,,,,,,,,,,,,,,,,,,,,,,,,,,,,,,,,,,,,,,,,,,,,,,,,,,,,,,,,,,,,,,,,,,,,,,,,,,,,,,,,MET10202/20/23 08:54:02 METAR KLNK 201454Z 25003KT 10SM CLR 02/M02 A2976 RMK AO2 SLP085 T00221017 55003 (CD),,,,,,,,,,3/26/2007
USW00014939,2023-02-20T09:54:00,40.8508,-96.7475,362.7,"LINCOLN AIRPORT, NE US",FM-15,343,1007.5,-1.1,6.1,0,,,,60,CLR:00,1008.3,964.9,16.093,3.1,270,,4.6,,,,,,,,,,,,,,,,,,,,,,,,,,,,,,,,,,,,,,,,,,,,,,,,,,,,,,,,,,,,,,,,,,,,,,,,,,,,,,,,,,,,,,,,,,,MET09602/20/23 09:54:02 METAR KLNK 201554Z 27009KT 10SM CLR 06/M01 A2975 RMK AO2 SLP083 T00611011 (CD),,,,,,,,,,3/26/2007
USW00014939,2023-02-20T10:54:00,40.8508,-96.7475,362.7,"LINCOLN AIRPORT, NE US",FM-15,343,1007.8,-1.1,9.4,0,,,,48,CLR:00,1008.4,965.2,16.093,4.9,270,,4.6,,,,,,,,,,,,,,,,,,,,,,,,,,,,,,,,,,,,,,,,,,,,,,,,,,,,,,,,,,,,,,,,,,,,,,,,,,,,,,,,,,,,,,,,,,,MET09602/20/23 10:54:02 METAR KLNK 201654Z 27009KT 10SM CLR 09/M01 A2976 RMK AO2 SLP084 T00941011 (CD),,,,,,,,,,3/26/2007
USW00014939,2023-02-20T11:54:00,40.8508,-96.7475,362.7,"LINCOLN AIRPORT, NE US",FM-15,343,1008.1,0,10.6,0,,0.4,3,48,CLR:00,1008.6,965.5,16.093,5.8,280,,7.2,,,,,,,,,,,,,,,,,,,,,,,,,,,,,,,,,,,,,,,,,,,,,,,,,,,,,,,,,,,,,,,,,,,,,,,,,,,,,,,,,,,,,,,,,,,MET11302/20/23 11:54:02 METAR KLNK 201754Z 28014KT 10SM CLR 11/00 A2977 RMK AO2 SLP086 T01060000 10111 21033 53004 (CD),,,,,,,,,,3/26/2007
USW00014939,2023-02-20T12:00:00,40.8508,-96.7475,362.7,"LINCOLN AIRPORT, NE US",FM-12,223,,0,10.6,,,0.4,3,48,,1008.6,965.3,,5.8,280,,7.2,,,,,,,,,,,,,,,,,,,,,,,,,,,,,,,,,,,,,,,,,,,,,,,,,,,,,,,,,,,,,,,,,,,,,,,,,,,,,,,,,,,,,,,,,,,SYN08072551 32966 02814 10106 20000 39653 40086 53004 91754 333 10111 21033 555 92018=,,,,,,,,,,3/26/2007
USW00014939,2023-02-20T12:54:00,40.8508,-96.7475,362.7,"LINCOLN AIRPORT, NE US",FM-15,343,1007.8,-0.6,11.1,0,,,,45,CLR:00,1008.2,965.2,16.093,5.9,280,,7.2,,,,,,,,,,,,,,,,,,,,,,,,,,,,,,,,,,,,,,,,,,,,,,,,,,,,,,,,,,,,,,,,,,,,,,,,,,,,,,,,,,,,,,,,,,,MET09602/20/23 12:54:02 METAR KLNK 201854Z 28014KT 10SM CLR 11/M01 A2976 RMK AO2 SLP082 T01111006 (BV),,,,,,,,,,3/26/2007
USW00014939,2023-02-20T13:54:00,40.8508,-96.7475,362.7,"LINCOLN AIRPORT, NE US",FM-15,343,1007.1,-1.1,11.1,0,,,,43,CLR:00,1007.6,964.6,16.093,5.7,290,,5.7,,,,,,,,,,,,,,,,,,,,,,,,,,,,,,,,,,,,,,,,,,,,,,,,,,,,,,,,,,,,,,,,,,,,,,,,,,,,,,,,,,,,,,,,,,,MET09602/20/23 13:54:02 METAR KLNK 201954Z 29011KT 10SM CLR 11/M01 A2974 RMK AO2 SLP076 T01111011 (BV),,,,,,,,,,3/26/2007
USW00014939,2023-02-20T14:54:00,40.8508,-96.7475,362.7,"LINCOLN AIRPORT, NE US",FM-15,343,1006.8,-1.1,11.7,0,,-1.2,6,41,CLR:00,1007.4,964.2,16.093,6,270,9.8,5.7,,,,,,,,,,,,,,,,,,,,,,,,,,,,,,,,,,,,,,,,,,,,,,,,,,,,,,,,,,,,,,,,,,,,,,,,,,,,,,,,,,,,,,,,,,,MET10502/20/23 14:54:02 METAR KLNK 202054Z 27011G19KT 10SM CLR 12/M01 A2973 RMK AO2 SLP074 T01171011 56012 (BV),,,,,,,,,,3/26/2007
USW00014939,2023-02-20T15:54:00,40.8508,-96.7475,362.7,"LINCOLN AIRPORT, NE US",FM-15,343,1007.5,-1.1,11.7,0,,,,41,CLR:00,1008,964.9,16.093,6,290,,4.6,,,,,,,,,,,,,,,,,,,,,,,,,,,,,,,,,,,,,,,,,,,,,,,,,,,,,,,,,,,,,,,,,,,,,,,,,,,,,,,,,,,,,,,,,,,MET09602/20/23 15:54:02 METAR KLNK 202154Z 29009KT 10SM CLR 12/M01 A2975 RMK AO2 SLP080 T01171011 (BV),,,,,,,,,,3/26/2007
USW00014939,2023-02-20T16:54:00,40.8508,-96.7475,362.7,"LINCOLN AIRPORT, NE US",FM-15,343,1007.8,-1.1,10.6,0,,,,44,CLR:00,1008.4,965.2,16.093,5.4,310,,3.6,,,,,,,,,,,,,,,,,,,,,,,,,,,,,,,,,,,,,,,,,,,,,,,,,,,,,,,,,,,,,,,,,,,,,,,,,,,,,,,,,,,,,,,,,,,MET09602/20/23 16:54:02 METAR KLNK 202254Z 31007KT 10SM CLR 11/M01 A2976 RMK AO2 SLP084 T01061011 (BV),,,,,,,,,,3/26/2007
USW00014939,2023-02-20T17:54:00,40.8508,-96.7475,362.7,"LINCOLN AIRPORT, NE US",FM-15,343,1008.5,-0.6,8.9,0,,1.6,3,52,CLR:00,1009.2,965.9,16.093,4.8,310,,3.1,,,,,,,,,,,,,,,,,,,,,,,,,,,,,,,,,,,,,,,,,,,,,,,,,,,,,,,,,,,,,,,,,,,,,,,,,,,,,,,,,,,,,,,,,,,MET11402/20/23 17:54:02 METAR KLNK 202354Z 31006KT 10SM CLR 09/M01 A2978 RMK AO2 SLP092 T00891006 10117 20089 53016 (BV),,,,,,,,,,3/26/2007
USW00014939,2023-02-20T18:00:00,40.8508,-96.7475,362.7,"LINCOLN AIRPORT, NE US",FM-12,223,,-0.6,8.9,,,1.6,3,52,,1009.2,965.6,,4.8,310,,3.1,,,,,,,,,,,,,,,,,,,,,,,,,,,,,,,,,,,,,,,,,,,,,,,,,,,,,,,,,,,,,,,,,,,,,,,,,,,,,,,,,,,,,,,,,,,SYN08072551 32966 03106 10089 21006 39656 40092 53016 92354 333 10117 21049 555 92100=,,,,,,,,,,3/26/2007
USW00014939,2023-02-20T18:54:00,40.8508,-96.7475,362.7,"LINCOLN AIRPORT, NE US",FM-15,343,1009.1,-0.6,6.7,0,,,,60,FEW:02 33.53,1010.1,966.5,16.093,3.6,310,,2.1,,,,,,,,,,,,,,,,,,,,,,,,,,,,,,,,,,,,,,,,,,,,,,,,,,,,,,,,,,,,,,,,,,,,,,,,,,,,,,,,,,,,,,,,,,,MET09402/20/23 18:54:01 METAR KLNK 210054Z 31004KT 10SM FEW110 07/M01 A2980 RMK AO2 SLP101 T00671006,,,,,,,,,,3/26/2007
USW00014939,2023-02-20T19:54:00,40.8508,-96.7475,362.7,"LINCOLN AIRPORT, NE US",FM-15,343,1009.8,-1.1,2.8,0,,,,76,CLR:00,1010.6,967.2,16.093,1.2,330,,2.1,,,,,,,,,,,,,,,,,,,,,,,,,,,,,,,,,,,,,,,,,,,,,,,,,,,,,,,,,,,,,,,,,,,,,,,,,,,,,,,,,,,,,,,,,,,MET09102/20/23 19:54:01 METAR KLNK 210154Z 33004KT 10SM CLR 03/M01 A2982 RMK AO2 SLP106 T00281011,,,,,,,,,,3/26/2007
USW00014939,2023-02-20T20:54:00,40.8508,-96.7475,362.7,"LINCOLN AIRPORT, NE US",FM-15,343,1009.8,-2.2,0,0,,1.4,1,85,CLR:00,1010.8,967.2,16.093,-0.8,330,,2.1,,,,,,,,,,,,,,,,,,,,,,,,,,,,,,,,,,,,,,,,,,,,,,,,,,,,,,,,,,,,,,,,,,,,,,,,,,,,,,,,,,,,,,,,,,,MET09702/20/23 20:54:01 METAR KLNK 210254Z 33004KT 10SM CLR 00/M02 A2982 RMK AO2 SLP108 T00001022 51014,,,,,,,,,,3/26/2007
USW00014939,2023-02-20T21:54:00,40.8508,-96.7475,362.7,"LINCOLN AIRPORT, NE US",FM-15,343,1010.5,-1.1,1.7,0,,,,82,OVC:08 15.24,1011.1,967.8,16.093,0.6,,,0,,,,,,,,,,,,,,,,,,,,,,,,,,,,,,,,,,,,,,,,,,,,,,,,,,,,,,,,,,,,,,,,,,,,,,,,,,,,,,,,,,,,,,,,,,,MET09402/20/23 21:54:01 METAR KLNK 210354Z 00000KT 10SM OVC050 02/M01 A2984 RMK AO2 SLP111 T00171011,,,,,,,,,,3/26/2007
USW00014939,2023-02-20T22:54:00,40.8508,-96.7475,362.7,"LINCOLN AIRPORT, NE US",FM-15,343,1010.8,-0.6,3.9,0,,,,73,BKN:07 18.29 OVC:08 24.38,1011.2,968.2,16.093,2.1,350,,3.6,,,,,,,,,,,,,,,,,,,,,,,,,,,,,,,,,,,,,,,,,,,,,,,,,,,,,,,,,,,,,,,,,,,,,,,,,,,,,,,,,,,,,,,,,,,MET10102/20/23 22:54:01 METAR KLNK 210454Z 35007KT 10SM BKN060 OVC080 04/M01 A2985 RMK AO2 SLP112 T00391006,,,,,,,,,,3/26/2007
USW00014939,2023-02-20T23:54:00,40.8508,-96.7475,362.7,"LINCOLN AIRPORT, NE US",FM-15,343,1011.2,-1.1,3.9,0,,1.3,1,70,OVC:08 15.24,1011.6,968.5,16.093,1.8,340,,4.6,,,,,,,,,,,,,,,,,,,,,,,,,,,,,,,,,,,,,,,,,,,,,,,,,,,,,,,,,,,,,,,,,,,,,,,,,,,,,,,,,,,,,,,,,,,MET12202/20/23 23:54:01 METAR KLNK 210554Z 34009KT 10SM OVC050 04/M01 A2986 RMK AO2 SLP116 T00391011 10089 20000 401171050 51013,,,,,,,,,,3/26/2007
USW00014939,2023-02-21T00:00:00,40.8508,-96.7475,362.7,"LINCOLN AIRPORT, NE US",FM-12,223,,-1.1,3.9,,,1.3,1,70,,1011.6,968.2,,1.8,340,,4.6,,,,,,,,,,,,,,,,,,,,,,,,,,,,,,,,,,,,,,,,,,,,,,,,,,,,,,,,,,,,,,,,,,,,,,,,,,,,,,,,,,,,,,,,,,,SYN08072551 35766 83409 10039 21011 39682 40116 51013 90554 333 10089 21049 555 92106=,,,,,,,,,,3/26/2007
USW00014939,2023-02-21T00:00:00,40.8508,-96.7475,362.7,"LINCOLN AIRPORT, NE US",SOD,,,,,,,,,,,,,,,,,,715,1808,-2.8,4.8,65,1004.1,959,1.1,4.3,0,5.13,13.5,12.8,-3.2,120,11.2,0,0,0,160,8.9,,,,,,,,,,,,,,,,,,,,,,,,,,,,,,,,,,,,,,,,,,,,,,,,,,,,,,,,,,,,,,,,,,,,,,,,,,,,,,,,3/26/2007
USW00014939,2023-02-21T00:54:00,40.8508,-96.7475,362.7,"LINCOLN AIRPORT, NE US",FM-15,343,1011.2,-3.3,1.1,0,,,,73,CLR:00,1011.4,968.5,16.093,-0.6,360,,2.1,,,,,,,,,,,,,,,,,,,,,,,,,,,,,,,,,,,,,,,,,,,,,,,,,,,,,,,,,,,,,,,,,,,,,,,,,,,,,,,,,,,,,,,,,,,MET09102/21/23 00:54:02 METAR KLNK 210654Z 36004KT 10SM CLR 01/M03 A2986 RMK AO2 SLP114 T00111033,,,,,,,,,,3/26/2007
USW00014939,2023-02-21T01:54:00,40.8508,-96.7475,362.7,"LINCOLN AIRPORT, NE US",FM-15,343,1011.2,-3.3,0.6,0,,,,75,OVC:08 18.29,1011.7,968.5,16.093,-0.9,,,0,,,,,,,,,,,,,,,,,,,,,,,,,,,,,,,,,,,,,,,,,,,,,,,,,,,,,,,,,,,,,,,,,,,,,,,,,,,,,,,,,,,,,,,,,,,MET09402/21/23 01:54:02 METAR KLNK 210754Z 00000KT 10SM OVC060 01/M03 A2986 RMK AO2 SLP117 T00061033,,,,,,,,,,3/26/2007
USW00014939,2023-02-21T02:54:00,40.8508,-96.7475,362.7,"LINCOLN AIRPORT, NE US",FM-15,343,1011.5,-3.3,0,0,,0.3,3,79,FEW:02 18.29 SCT:04 36.58,1012,968.8,16.093,-1.2,10,,4.6,,,,,,,,,,,,,,,,,,,,,,,,,,,,,,,,,,,,,,,,,,,,,,,,,,,,,,,,,,,,,,,,,,,,,,,,,,,,,,,,,,,,,,,,,,,MET10702/21/23 02:54:02 METAR KLNK 210854Z 01009KT 10SM FEW060 SCT120 00/M03 A2987 RMK AO2 SLP120 T00001033 53003,,,,,,,,,,3/26/2007
USW00014939,2023-02-21T03:54:00,40.8508,-96.7475,362.7,"LINCOLN AIRPORT, NE US",FM-15,343,1011.5,-4.4,-2.8,0,,,,89,FEW:02 33.53,1012.1,968.8,14.484,-3.4,30,,3.6,,,,,,,,,,,,,,,,,,,,,,,,,,,,,,,,,,,,,,,,,,,,,,,,,,,,,,,,,,,,,,,,,,,,,,,,,,,,,,,,,,,,,,,,,,,MET09402/21/23 03:54:02 METAR KLNK 210954Z 03007KT 9SM FEW110 M03/M04 A2987 RMK AO2 SLP121 T10281044,,,,,,,,,,3/26/2007
USW00014939,2023-02-21T04:54:00,40.8508,-96.7475,362.7,"LINCOLN AIRPORT, NE US",FM-15,343,1009.5,-5,-2.8,0,,,,85,CLR:00,1010.1,966.8,16.093,-3.5,70,,2.6,,,,,,,,,,,,,,,,,,,,,,,,,,,,,,,,,,,,,,,,,,,,,,,,,,,,,,,,,,,,,,,,,,,,,,,,,,,,,,,,,,,,,,,,,,,MET09202/21/23 04:54:02 METAR KLNK 211054Z 07005KT 10SM CLR M03/M05 A2981 RMK AO2 SLP101 T10281050,,,,,,,,,,3/26/2007
USW00014939,2023-02-21T05:54:00,40.8508,-96.7475,362.7,"LINCOLN AIRPORT, NE US",FM-15,343,1009.5,-5.6,-2.8,0,,-2,5,81,CLR:00,1010.3,966.8,16.093,-3.7,70,,3.1,,,,,,,,,,,,,,,,,,,,,,,,,,,,,,,,,,,,,,,,,,,,,,,,,,,,,,,,,,,,,,,,,,,,,,,,,,,,,,,,,,,,,,,,,,,MET11502/21/23 05:54:02 METAR KLNK 211154Z 07006KT 10SM CLR M03/M06 A2981 RMK AO2 SLP103 T10281056 10039 21033 55020 (RT),,,,,,,,,,3/26/2007
USW00014939,2023-02-21T06:00:00,40.8508,-96.7475,362.7,"LINCOLN AIRPORT, NE US",FM-12,223,,-5.6,-2.8,,,-2,5,81,,1010.3,966.6,,-3.7,70,,3.1,,,,,,,,,,,,,,,,,,,,,,,,,,,,,,,,,,,,,,,,,,,,,,,,,,,,,,,,,,,,,,,,,,,,,,,,,,,,,,,,,,,,,,,,,,,SYN08072551 32966 00706 11028 21056 39666 40103 55020 91154 333 10117 21033 555 92112=,,,,,,,,,,3/26/2007
USW00014939,2023-02-21T06:54:00,40.8508,-96.7475,362.7,"LINCOLN AIRPORT, NE US",FM-15,343,1008.5,-6.7,-2.8,0,,,,75,FEW:02 36.58,1009.3,965.9,16.093,-4.1,60,,2.6,,,,,,,,,,,,,,,,,,,,,,,,,,,,,,,,,,,,,,,,,,,,,,,,,,,,,,,,,,,,,,,,,,,,,,,,,,,,,,,,,,,,,,,,,,,MET10002/21/23 06:54:02 METAR KLNK 211254Z 06005KT 10SM FEW120 M03/M07 A2978 RMK AO2 SLP093 T10281067 (RT),,,,,,,,,,3/26/2007
USW00014939,2023-02-21T07:54:00,40.8508,-96.7475,362.7,"LINCOLN AIRPORT, NE US",FM-15,343,1009.5,-7.8,-2.2,0,,,,66,CLR:00,1010.7,966.8,16.093,-4.1,110,,3.6,,,,,,,,,,,,,,,,,,,,,,,,,,,,,,,,,,,,,,,,,,,,,,,,,,,,,,,,,,,,,,,,,,,,,,,,,,,,,,,,,,,,,,,,,,,MET09702/21/23 07:54:02 METAR KLNK 211354Z 11007KT 10SM CLR M02/M08 A2981 RMK AO2 SLP107 T10221078 (RT),,,,,,,,,,3/26/2007
USW00014939,2023-02-21T08:54:00,40.8508,-96.7475,362.7,"LINCOLN AIRPORT, NE US",FM-15,343,1008.8,-7.8,-1.1,0,,-0.6,6,61,CLR:00,1010,966.2,16.093,-3.3,120,,5.1,,,,,,,,,,,,,,,,,,,,,,,,,,,,,,,,,,,,,,,,,,,,,,,,,,,,,,,,,,,,,,,,,,,,,,,,,,,,,,,,,,,,,,,,,,,MET10302/21/23 08:54:02 METAR KLNK 211454Z 12010KT 10SM CLR M01/M08 A2979 RMK AO2 SLP100 T10111078 56006 (RT),,,,,,,,,,3/26/2007
USW00014939,2023-02-21T09:54:00,40.8508,-96.7475,362.7,"LINCOLN AIRPORT, NE US",FM-15,343,1007.5,-7.2,0.6,0,,,,56,CLR:00,1008.3,964.9,16.093,-2.1,130,,7.2,,,,,,,,,,,,,,,,,,,,,,,,,,,,,,,,,,,,,,,,,,,,,,,,,,,,,,,,,,,,,,,,,,,,,,,,,,,,,,,,,,,,,,,,,,,MET09602/21/23 09:54:02 METAR KLNK 211554Z 13014KT 10SM CLR 01/M07 A2975 RMK AO2 SLP083 T00061072 (RC),,,,,,,,,,3/26/2007
USW00014939,2023-02-21T10:54:00,40.8508,-96.7475,362.7,"LINCOLN AIRPORT, NE US",FM-15,343,1005.8,-4.4,2.2,0,,,,62,CLR:00,1006.6,963.2,16.093,-0.3,130,11.3,6.7,,,,,,,,,,,,,,,,,,,,,,,,,,,,,,,,,,,,,,,,,,,,,,,,,,,,,,,,,,,,,,,,,,,,,,,,,,,,,,,,,,,,,,,,,,,MET10602/21/23 10:54:02 METAR KLNK 211654Z 13013G22KT 10SM CLR 02/M04 A2970 RMK AO2 PRESFR SLP066 T00221044 (RC),,,,,,,,,,3/26/2007
USW00014939,2023-02-21T11:54:00,40.8508,-96.7475,362.7,"LINCOLN AIRPORT, NE US",FM-15,343,1004.7,-3.9,3.9,0,,-4.1,6,57,CLR:00,1005.3,962.3,16.093,0.9,140,,5.7,,,,,,,,,,,,,,,,,,,,,,,,,,,,,,,,,,,,,,,,,,,,,,,,,,,,,,,,,,,,,,,,,,,,,,,,,,,,,,,,,,,,,,,,,,,MET11402/21/23 11:54:02 METAR KLNK 211754Z 14011KT 10SM CLR 04/M04 A2967 RMK AO2 SLP053 T00391039 10044 21028 56041 (RC),,,,,,,,,,3/26/2007
USW00014939,2023-02-21T12:00:00,40.8508,-96.7475,362.7,"LINCOLN AIRPORT, NE US",FM-12,223,,-3.9,3.9,,,-4.1,6,57,,1005.3,962,,0.9,140,,5.7,,,,,,,,,,,,,,,,,,,,,,,,,,,,,,,,,,,,,,,,,,,,,,,,,,,,,,,,,,,,,,,,,,,,,,,,,,,,,,,,,,,,,,,,,,,SYN08072551 32966 01411 10039 21039 39620 40053 56041 91754 333 10044 21028 555 92118=,,,,,,,,,,3/26/2007
USW00014939,2023-02-21T12:54:00,40.8508,-96.7475,362.7,"LINCOLN AIRPORT, NE US",FM-15,343,1002.7,-2.2,6.1,0,,,,56,CLR:00,1003.3,960.3,16.093,2.7,130,,7.2,,,,,,,,,,,,,,,,,,,,,,,,,,,,,,,,,,,,,,,,,,,,,,,,,,,,,,,,,,,,,,,,,,,,,,,,,,,,,,,,,,,,,,,,,,,MET09602/21/23 12:54:02 METAR KLNK 211854Z 13014KT 10SM CLR 06/M02 A2961 RMK AO2 SLP033 T00611022 (RC),,,,,,,,,,3/26/2007
USW00014939,2023-02-21T13:54:00,40.8508,-96.7475,362.7,"LINCOLN AIRPORT, NE US",FM-15,343,1000.3,0,8.3,0,,,,56,CLR:00,1000.8,958,16.093,4.7,140,,6.7,,,,,,,,,,,,,,,,,,,,,,,,,,,,,,,,,,,,,,,,,,,,,,,,,,,,,,,,,,,,,,,,,,,,,,,,,,,,,,,,,,,,,,,,,,,MET09502/21/23 13:54:02 METAR KLNK 211954Z 14013KT 10SM CLR 08/00 A2954 RMK AO2 SLP008 T00830000 (NU),,,,,,,,,,3/26/2007
USW00014939,2023-02-21T14:54:00,40.8508,-96.7475,362.7,"LINCOLN AIRPORT, NE US",FM-15,343,998.3,1.1,10.6,0,,-6.2,6,52,CLR:00,998.8,956.1,16.093,6.2,130,9.8,7.7,,,,,,,,,,,,,,,,,,,,,,,,,,,,,,,,,,,,,,,,,,,,,,,,,,,,,,,,,,,,,,,,,,,,,,,,,,,,,,,,,,,,,,,,,,,MET10402/21/23 14:54:02 METAR KLNK 212054Z 13015G19KT 10SM CLR 11/01 A2948 RMK AO2 SLP988 T01060011 56062 (NU),,,,,,,,,,3/26/2007
USW00014939,2023-02-21T15:54:00,40.8508,-96.7475,362.7,"LINCOLN AIRPORT, NE US",FM-15,343,997.6,2.2,12.2,0,,,,51,CLR:00,998,955.4,16.093,7.5,140,,5.1,,,,,,,,,,,,,,,,,,,,,,,,,,,,,,,,,,,,,,,,,,,,,,,,,,,,,,,,,,,,,,,,,,,,,,,,,,,,,,,,,,,,,,,,,,,MET09502/21/23 15:54:02 METAR KLNK 212154Z 14010KT 10SM CLR 12/02 A2946 RMK AO2 SLP980 T01220022 (NU),,,,,,,,,,3/26/2007
USW00014939,2023-02-21T16:54:00,40.8508,-96.7475,362.7,"LINCOLN AIRPORT, NE US",FM-15,343,997,2.2,12.8,0,,,,49,CLR:00,997.2,954.7,16.093,7.8,130,,5.1,,,,,,,,,,,,,,,,,,,,,,,,,,,,,,,,,,,,,,,,,,,,,,,,,,,,,,,,,,,,,,,,,,,,,,,,,,,,,,,,,,,,,,,,,,,MET09502/21/23 16:54:02 METAR KLNK 212254Z 13010KT 10SM CLR 13/02 A2944 RMK AO2 SLP972 T01280022 (NU),,,,,,,,,,3/26/2007
USW00014939,2023-02-21T17:54:00,40.8508,-96.7475,362.7,"LINCOLN AIRPORT, NE US",FM-15,343,996.6,0.6,10.6,0,,-1.7,6,50,CLR:00,997.1,954.4,16.093,6,130,,4.1,,,,,,,,,,,,,,,,,,,,,,,,,,,,,,,,,,,,,,,,,,,,,,,,,,,,,,,,,,,,,,,,,,,,,,,,,,,,,,,,,,,,,,,,,,,MET11302/21/23 17:54:02 METAR KLNK 212354Z 13008KT 10SM CLR 11/01 A2943 RMK AO2 SLP971 T01060006 10128 20039 56017 (NU),,,,,,,,,,3/26/2007
USW00014939,2023-02-21T18:00:00,40.8508,-96.7475,362.7,"LINCOLN AIRPORT, NE US",FM-12,223,,0.6,10.6,,,-1.7,6,50,,997.1,954.2,,6,130,,4.1,,,,,,,,,,,,,,,,,,,,,,,,,,,,,,,,,,,,,,,,,,,,,,,,,,,,,,,,,,,,,,,,,,,,,,,,,,,,,,,,,,,,,,,,,,,SYN08072551 32966 01308 10106 20006 39542 49971 56017 92354 333 10128 21032 555 92200=,,,,,,,,,,3/26/2007
USW00014939,2023-02-21T18:54:00,40.8508,-96.7475,362.7,"LINCOLN AIRPORT, NE US",FM-15,343,997,0.6,9.4,0,,,,55,CLR:00,997.6,954.7,16.093,5.5,120,,5.1,,,,,,,,,,,,,,,,,,,,,,,,,,,,,,,,,,,,,,,,,,,,,,,,,,,,,,,,,,,,,,,,,,,,,,,,,,,,,,,,,,,,,,,,,,,MET09002/21/23 18:54:01 METAR KLNK 220054Z 12010KT 10SM CLR 09/01 A2944 RMK AO2 SLP976 T00940006,,,,,,,,,,3/26/2007
USW00014939,2023-02-21T19:54:00,40.8508,-96.7475,362.7,"LINCOLN AIRPORT, NE US",FM-15,343,997,0,7.2,0,,,,61,CLR:00,997.5,954.7,16.093,4.1,100,,5.1,,,,,,,,,,,,,,,,,,,,,,,,,,,,,,,,,,,,,,,,,,,,,,,,,,,,,,,,,,,,,,,,,,,,,,,,,,,,,,,,,,,,,,,,,,,MET09002/21/23 19:54:01 METAR KLNK 220154Z 10010KT 10SM CLR 07/00 A2944 RMK AO2 SLP975 T00720000,,,,,,,,,,3/26/2007
USW00014939,2023-02-21T20:54:00,40.8508,-96.7475,362.7,"LINCOLN AIRPORT, NE US",FM-15,343,996.6,-1.1,5.6,0,,0,0,62,CLR:00,997.4,954.4,16.093,2.8,60,,2.6,,,,,,,,,,,,,,,,,,,,,,,,,,,,,,,,,,,,,,,,,,,,,,,,,,,,,,,,,,,,,,,,,,,,,,,,,,,,,,,,,,,,,,,,,,,MET09702/21/23 20:54:01 METAR KLNK 220254Z 06005KT 10SM CLR 06/M01 A2943 RMK AO2 SLP974 T00561011 50000,,,,,,,,,,3/26/2007
USW00014939,2023-02-21T21:54:00,40.8508,-96.7475,362.7,"LINCOLN AIRPORT, NE US",FM-15,343,995.9,-1.1,3.3,0,,,,73,CLR:00,996.7,953.8,16.093,1.5,80,,2.6,,,,,,,,,,,,,,,,,,,,,,,,,,,,,,,,,,,,,,,,,,,,,,,,,,,,,,,,,,,,,,,,,,,,,,,,,,,,,,,,,,,,,,,,,,,MET09102/21/23 21:54:01 METAR KLNK 220354Z 08005KT 10SM CLR 03/M01 A2941 RMK AO2 SLP967 T00331011,,,,,,,,,,3/26/2007
USW00014939,2023-02-21T22:54:00,40.8508,-96.7475,362.7,"LINCOLN AIRPORT, NE US",FM-15,343,995.3,-1.7,4.4,0,,,,65,CLR:00,995.9,953.1,16.093,1.9,110,,2.6,,,,,,,,,,,,,,,,,,,,,,,,,,,,,,,,,,,,,,,,,,,,,,,,,,,,,,,,,,,,,,,,,,,,,,,,,,,,,,,,,,,,,,,,,,,MET09102/21/23 22:54:02 METAR KLNK 220454Z 11005KT 10SM CLR 04/M02 A2939 RMK AO2 SLP959 T00441017,,,,,,,,,,3/26/2007
USW00014939,2023-02-21T23:54:00,40.8508,-96.7475,362.7,"LINCOLN AIRPORT, NE US",FM-15,343,995.3,-1.7,3.3,0,,-1.5,6,70,CLR:00,995.7,953.1,16.093,1.3,90,,2.6,,,,,,,,,,,,,,,,,,,,,,,,,,,,,,,,,,,,,,,,,,,,,,,,,,,,,,,,,,,,,,,,,,,,,,,,,,,,,,,,,,,,,,,,,,,MET11902/21/23 23:54:02 METAR KLNK 220554Z 09005KT 10SM CLR 03/M02 A2939 RMK AO2 SLP957 T00331017 10106 20033 401281033 56015,,,,,,,,,,3/26/2007
USW00014939,2023-02-22T00:00:00,40.8508,-96.7475,362.7,"LINCOLN AIRPORT, NE US",FM-12,223,,-1.7,3.3,,,-1.5,6,70,,995.7,952.9,,1.3,90,,2.6,,,,,,,,,,,,,,,,,,,,,,,,,,,,,,,,,,,,,,,,,,,,,,,,,,,,,,,,,,,,,,,,,,,,,,,,,,,,,,,,,,,,,,,,,,,SYN08072551 35966 00905 10033 21017 39529 49957 56015 90554 333 10106 21032 555 92206=,,,,,,,,,,3/26/2007
USW00014939,2023-02-22T00:00:00,40.8508,-96.7475,362.7,"LINCOLN AIRPORT, NE US",SOD,,,,,,,,,,,,,,,,,,713,1809,-6.1,-2.2,82,1002,959.4,-4.4,8.3,0,-2.09,20.5,3.3,-7.7,30,18.8,T,0,T,40,13.4,BR SN,,,,,,,,,,,,,,,,,,,,,,,,,,,,,,,,,,,,,,,,,,,,,,,,,,,,,,,,,,,,,,,,,,,,,,,,,,,,,,,3/26/2007
USW00014939,2023-02-22T00:54:00,40.8508,-96.7475,362.7,"LINCOLN AIRPORT, NE US",FM-15,343,995.3,-1.7,1.7,0,,,,78,OVC:08 27.43,995.7,953.1,16.093,0.3,350,,5.7,,,,,,,,,,,,,,,,,,,,,,,,,,,,,,,,,,,,,,,,,,,,,,,,,,,,,,,,,,,,,,,,,,,,,,,,,,,,,,,,,,,,,,,,,,,MET09402/22/23 00:54:02 METAR KLNK 220654Z 35011KT 10SM OVC090 02/M02 A2939 RMK AO2 SLP957 T00171017,,,,,,,,,,3/26/2007
USW00014939,2023-02-22T01:54:00,40.8508,-96.7475,362.7,"LINCOLN AIRPORT, NE US",FM-15,343,995.3,-2.2,1.7,0,,,,76,OVC:08 24.38,995.6,953.1,16.093,0.1,20,,6.2,,,,,,,,,,,,,,,,,,,,,,,,,,,,,,,,,,,,,,,,,,,,,,,,,,,,,,,,,,,,,,,,,,,,,,,,,,,,,,,,,,,,,,,,,,,MET09402/22/23 01:54:02 METAR KLNK 220754Z 02012KT 10SM OVC080 02/M02 A2939 RMK AO2 SLP956 T00171022,,,,,,,,,,3/26/2007
USW00014939,2023-02-22T02:54:00,40.8508,-96.7475,362.7,"LINCOLN AIRPORT, NE US",FM-15,343,995.9,-3.3,0.6,0,,0.6,3,75,FEW:02 33.53,996.2,953.8,16.093,-0.9,20,12.4,8.2,,,,,,,,,,,,,,,,,,,,,,,,,,,,,,,,,,,,,,,,,,,,,,,,,,,,,,,,,,,,,,,,,,,,,,,,,,,,,,,,,,,,,,,,,,,MET12102/22/23 02:54:02 METAR KLNK 220854Z 02016G24KT 10SM FEW110 01/M03 A2941 RMK AO2 PK WND 04026/0841 SLP962 T00061033 53006,,,,,,,,,,3/26/2007
USW00014939,2023-02-22T03:54:00,40.8508,-96.7475,362.7,"LINCOLN AIRPORT, NE US",FM-15,343,996.6,-5,-1.1,0,,,,75,BKN:07 33.53,996.9,954.4,16.093,-2.5,20,14.4,11.8,,,,,,,,,,,,,,,,,,,,,,,,,,,,,,,,,,,,,,,,,,,,,,,,,,,,,,,,,,,,,,,,,,,,,,,,,,,,,,,,,,,,,,,,,,,MET11602/22/23 03:54:02 METAR KLNK 220954Z 02023G28KT 10SM BKN110 M01/M05 A2943 RMK AO2 PK WND 02028/0953 SLP969 T10111050,,,,,,,,,,3/26/2007
USW00014939,2023-02-22T04:54:00,40.8508,-96.7475,362.7,"LINCOLN AIRPORT, NE US",FM-15,343,997.3,-6.1,-2.2,0,,,,75,FEW:02 16.76 BKN:07 21.34,997.8,955.1,16.093,-3.6,20,16.5,8.8,,,,,,,,,,,,,,,,,,,,,,,,,,,,,,,,,,,,,,,,,,,,,,,,,,,,,,,,,,,,,,,,,,,,,,,,,,,,,,,,,,,,,,,,,,,MET12302/22/23 04:54:02 METAR KLNK 221054Z 02017G32KT 10SM FEW055 BKN070 M02/M06 A2945 RMK AO2 PK WND 01032/1049 SLP978 T10221061,,,,,,,,,,3/26/2007
USW00014939,2023-02-22T05:52:00,40.8508,-96.7475,362.7,"LINCOLN AIRPORT, NE US",FM-16,343,997.6,-6,-2,,,,,74,BKN:07 4.88 OVC:08 14.94,,955.4,16.093,-3.6,20,17.5,11.3,,,,,,,,,,,,,,,,,,,,,,,,,,,,,,,,,,,,,,,,,,,,,,,,,,,,,,,,,,,,,,,,,,,,,,,,,,,,,,,,,,,,,,,,,,,MET11102/22/23 05:52:02 SPECI KLNK 221152Z 02022G34KT 10SM BKN016 OVC049 M02/M06 A2946 RMK AO2 PK WND 03036/1139 (CK),,,,,,,,,,3/26/2007
USW00014939,2023-02-22T05:54:00,40.8508,-96.7475,362.7,"LINCOLN AIRPORT, NE US",FM-15,343,997.6,-6.1,-2.2,0,,1.1,1,75,BKN:07 4.88 OVC:08 14.94,998.1,955.4,16.093,-3.6,30,17.5,12.4,,,,,,,,,,,,,,,,,,,,,,,,,,,,,,,,,,,,,,,,,,,,,,,,,,,,,,,,,,,,,,,,,,,,,,,,,,,,,,,,,,,,,,,,,,,MET14602/22/23 05:54:02 METAR KLNK 221154Z 03024G34KT 10SM BKN016 OVC049 M02/M06 A2946 RMK AO2 PK WND 03036/1139 SLP981 T10221061 10033 21022 51011 (CK),,,,,,,,,,3/26/2007
USW00014939,2023-02-22T06:00:00,40.8508,-96.7475,362.7,"LINCOLN AIRPORT, NE US",FM-12,223,,-6.1,-2.2,,,1.1,1,75,,998.1,955.2,,-3.6,30,,12.4,,,,,,,,,,,,,,,,,,,,,,,,,,,,,,,,,,,,,,,,,,,,,,,,,,,,,,,,,,,,,,,,,,,,,,,,,,,,,,,,,,,,,,,,,,,SYN08672551 32466 80324 11022 21061 39552 49981 51011 91154 333 10128 21022 91034 555 92212=,,,,,,,,,,3/26/2007
USW00014939,2023-02-22T06:54:00,40.8508,-96.7475,362.7,"LINCOLN AIRPORT, NE US",FM-15,343,997.6,-6.1,-2.2,0,,,,75,OVC:08 4.88,998.2,955.4,16.093,-3.6,30,17,9.3,,,,,,,,,,,,,,,,,,,,,,,,,,,,,,,,,,,,,,,,,,,,,,,,,,,,,,,,,,,,,,,,,,,,,,,,,,,,,,,,,,,,,,,,,,,MET12102/22/23 06:54:02 METAR KLNK 221254Z 03018G33KT 10SM OVC016 M02/M06 A2946 RMK AO2 PK WND 02034/1226 SLP982 T10221061 (CK),,,,,,,,,,3/26/2007
USW00014939,2023-02-22T07:54:00,40.8508,-96.7475,362.7,"LINCOLN AIRPORT, NE US",FM-15,343,997.6,-6.1,-2.8,0,,,,78,OVC:08 4.57,998.2,955.4,16.093,-3.9,30,13.9,9.3,,,,,,,,,,,,,,,,,,,,,,,,,,,,,,,,,,,,,,,,,,,,,,,,,,,,,,,,,,,,,,,,,,,,,,,,,,,,,,,,,,,,,,,,,,,MET12102/22/23 07:54:02 METAR KLNK 221354Z 03018G27KT 10SM OVC015 M03/M06 A2946 RMK AO2 PK WND 03030/1259 SLP982 T10281061 (CK),,,,,,,,,,3/26/2007
USW00014939,2023-02-22T08:07:00,40.8508,-96.7475,362.7,"LINCOLN AIRPORT, NE US",FM-16,343,998,-6.1,-2.8,,,,,78,OVC:08 4.27,,955.7,16.093,-3.9,40,14.4,10.8,,,,,,,,,,,,,,,,,,,,,,,,,,,,,,,,,,,,,,,,,,,,,,,,,,,,,,,,,,,,,,,,,,,,,,,,,,,,,,,,,,,,,,,,,,,MET11402/22/23 08:07:02 SPECI KLNK 221407Z 04021G28KT 10SM OVC014 M03/M06 A2947 RMK AO2 PK WND 03028/1406 T10281061 (CK),,,,,,,,,,3/26/2007
USW00014939,2023-02-22T08:32:00,40.8508,-96.7475,362.7,"LINCOLN AIRPORT, NE US",FM-16,343,998.3,-6.1,-2.2,,,,,75,OVC:08 4.57,,956.1,16.093,-3.6,30,14.4,7.7,,,,,,,,,,,,,,,,,,,,,,,,,,,,,,,,,,,,,,,,,,,,,,,,,,,,,,,,,,,,,,,,,,,,,,,,,,,,,,,,,,,,,,,,,,,MET11402/22/23 08:32:02 SPECI KLNK 221432Z 03015G28KT 10SM OVC015 M02/M06 A2948 RMK AO2 PK WND 04033/1416 T10221061 (CK),,,,,,,,,,3/26/2007
USW00014939,2023-02-22T08:54:00,40.8508,-96.7475,362.7,"LINCOLN AIRPORT, NE US",FM-15,343,998.6,-6.1,-2.2,0,,1,3,75,OVC:08 4.57,999.5,956.4,16.093,-3.6,20,13.9,8.8,,,,,,,,,,,,,,,,,,,,,,,,,,,,,,,,,,,,,,,,,,,,,,,,,,,,,,,,,,,,,,,,,,,,,,,,,,,,,,,,,,,,,,,,,,,MET12702/22/23 08:54:02 METAR KLNK 221454Z 02017G27KT 10SM OVC015 M02/M06 A2949 RMK AO2 PK WND 04033/1416 SLP995 T10221061 53010 (CK),,,,,,,,,,3/26/2007
USW00014939,2023-02-22T09:54:00,40.8508,-96.7475,362.7,"LINCOLN AIRPORT, NE US",FM-15,343,998.6,-6.1,-2.2,0,,,,75,OVC:08 4.57,999.6,956.4,16.093,-3.6,20,13.9,9.3,,,,,,,,,,,,,,,,,,,,,,,,,,,,,,,,,,,,,,,,,,,,,,,,,,,,,,,,,,,,,,,,,,,,,,,,,,,,,,,,,,,,,,,,,,,MET12102/22/23 09:54:02 METAR KLNK 221554Z 02018G27KT 10SM OVC015 M02/M06 A2949 RMK AO2 PK WND 03027/1551 SLP996 T10221061 (CK),,,,,,,,,,3/26/2007
USW00014939,2023-02-22T10:36:00,40.8508,-96.7475,362.7,"LINCOLN AIRPORT, NE US",FM-16,343,998.3,-6.1,-2.2,,,,,75,OVC:08 4.27,,956.1,16.093,-3.6,20,12.4,9.3,,,,,,,,,,,,,,,,,,,,,,,,,,,,,,,,,,,,,,,,,,,,,,,,,,,,,,,,,,,,,,,,,,,,,,,,,,,,,,,,,,,,,,,,,,,MET11402/22/23 10:36:02 SPECI KLNK 221636Z 02018G24KT 10SM OVC014 M02/M06 A2948 RMK AO2 PK WND 03029/1601 T10221061 (CK),,,,,,,,,,3/26/2007
USW00014939,2023-02-22T10:54:00,40.8508,-96.7475,362.7,"LINCOLN AIRPORT, NE US",FM-15,343,998.3,-6.1,-2.2,0,,,,75,OVC:08 3.96,999.1,956.1,16.093,-3.6,10,11.8,8.8,,,,,,,,,,,,,,,,,,,,,,,,,,,,,,,,,,,,,,,,,,,,,,,,,,,,,,,,,,,,,,,,,,,,,,,,,,,,,,,,,,,,,,,,,,,MET12102/22/23 10:54:02 METAR KLNK 221654Z 01017G23KT 10SM OVC013 M02/M06 A2948 RMK AO2 PK WND 03029/1601 SLP991 T10221061 (CK),,,,,,,,,,3/26/2007
USW00014939,2023-02-22T11:54:00,40.8508,-96.7475,362.7,"LINCOLN AIRPORT, NE US",FM-15,343,999,-6.1,-2.8,0,,0.4,3,78,OVC:08 3.66,1000,956.7,16.093,-3.9,20,12.9,8.8,,,,,,,,,,,,,,,,,,,,,,,,,,,,,,,,,,,,,,,,,,,,,,,,,,,,,,,,,,,,,,,,,,,,,,,,,,,,,,,,,,,,,,,,,,,MET13902/22/23 11:54:02 METAR KLNK 221754Z 02017G25KT 10SM OVC012 M03/M06 A2950 RMK AO2 PK WND 02027/1744 SLP000 T10281061 11022 21028 53004 (CK),,,,,,,,,,3/26/2007
USW00014939,2023-02-22T12:00:00,40.8508,-96.7475,362.7,"LINCOLN AIRPORT, NE US",FM-12,223,,-6.1,-2.8,,,0.4,3,78,,1000,956.5,,-3.9,20,,8.8,,,,,,,,,,,,,,,,,,,,,,,,,,,,,,,,,,,,,,,,,,,,,,,,,,,,,,,,,,,,,,,,,,,,,,,,,,,,,,,,,,,,,,,,,,,SYN08672551 32466 80217 11028 21061 39565 40000 53004 91754 333 10033 21028 91025 555 92218=,,,,,,,,,,3/26/2007
USW00014939,2023-02-22T12:54:00,40.8508,-96.7475,362.7,"LINCOLN AIRPORT, NE US",FM-15,343,998,-5.6,-3.3,T,-SN:03 |SN |SN,,,84,OVC:08 3.05,999,955.7,6.437,-4.1,10,13.9,8.2,,,,,,,,,,,,,,,,,,,,,,,,,,,,,,,,,,,,,,,,,,,,,,,,,,,,,,,,,,,,,,,,,,,,,,,,,,,,,,,,,,,,,,,,,,,MET13602/22/23 12:54:02 METAR KLNK 221854Z 01016G27KT 4SM -SN OVC010 M03/M06 A2947 RMK AO2 PK WND 02027/1848 SNB54 SLP990 T10331056 PNO $ (AC),,,,,,,,,,3/26/2007
USW00014939,2023-02-22T13:04:00,40.8508,-96.7475,362.7,"LINCOLN AIRPORT, NE US",FM-16,343,998.6,-5.6,-3.3,T,-SN:03 |SN |SN,,,84,OVC:08 2.74,,956.4,4.023,-4.1,360,,9.3,,,,,,,,,,,,,,,,,,,,,,,,,,,,,,,,,,,,,,,,,,,,,,,,,,,,,,,,,,,,,,,,,,,,,,,,,,,,,,,,,,,,,,,,,,,MET10802/22/23 13:04:02 SPECI KLNK 221904Z 36018KT 2 1/2SM -SN OVC009 M03/M06 A2949 RMK AO2 P0000 T10331056 $ (AC),,,,,,,,,,3/26/2007
USW00014939,2023-02-22T13:26:00,40.8508,-96.7475,362.7,"LINCOLN AIRPORT, NE US",FM-16,343,998.3,-5.6,-3.9,T,-SN:03 |SN |SN,,,88,OVC:08 2.44,,956.1,2.816,-4.5,360,12.9,8.2,,,,,,,,,,,,,,,,,,,,,,,,,,,,,,,,,,,,,,,,,,,,,,,,,,,,,,,,,,,,,,,,,,,,,,,,,,,,,,,,,,,,,,,,,,,MET10902/22/23 13:26:02 SPECI KLNK 221926Z 36016G25KT 1 3/4SM -SN OVC008 M04/M06 A2948 RMK AO2 P0000 T10391056 (AC),,,,,,,,,,3/26/2007
USW00014939,2023-02-22T13:54:00,40.8508,-96.7475,362.7,"LINCOLN AIRPORT, NE US",FM-15,343,998.6,-5.6,-3.9,T,BR:1 |BR |,,,88,OVC:08 2.13,999.7,956.4,2.414,-4.5,360,12.9,10.3,,,,,,,,,,,,,,,,,,,,,,,,,,,,,,,,,,,,,,,,,,,,,,,,,,,,,,,,,,,,,,,,,,,,,,,,,,,,,,,,,,,,,,,,,,,MET13302/22/23 13:54:02 METAR KLNK 221954Z 36020G25KT 1 1/2SM BR OVC007 M04/M06 A2949 RMK AO2 SNE50 CIG 005V010 SLP997 P0000 T10391056 (AC),,,,,,,,,,3/26/2007
USW00014939,2023-02-22T14:27:00,40.8508,-96.7475,362.7,"LINCOLN AIRPORT, NE US",FM-16,343,998.6,-5.6,-3.9,,BR:1 |BR |,,,88,OVC:08 2.74,,956.4,3.219,-4.5,10,13.9,9.8,,,,,,,,,,,,,,,,,,,,,,,,,,,,,,,,,,,,,,,,,,,,,,,,,,,,,,,,,,,,,,,,,,,,,,,,,,,,,,,,,,,,,,,,,,,MET13402/22/23 14:27:02 SPECI KLNK 222027Z 01019G27KT 2SM BR OVC009 M04/M06 A2949 RMK AO2 PK WND 36029/2003 CIG 005V011 I1002 T10391056 (AC),,,,,,,,,,3/26/2007
USW00014939,2023-02-22T14:54:00,40.8508,-96.7475,362.7,"LINCOLN AIRPORT, NE US",FM-15,343,998.6,-5.6,-3.9,0,BR:1 |BR |,-0.4,5,88,BKN:07 1.83 OVC:08 3.05,999.8,956.4,4.023,-4.5,10,13.9,9.8,,,,,,,,,,,,,,,,,,,,,,,,,,,,,,,,,,,,,,,,,,,,,,,,,,,,,,,,,,,,,,,,,,,,,,,,,,,,,,,,,,,,,,,,,,,MET15802/22/23 14:54:02 METAR KLNK 222054Z 01019G27KT 2 1/2SM BR BKN006 OVC010 M04/M06 A2949 RMK AO2 PK WND 36029/2003 SLP998 6//// I1004 I3004 T10391056 55004 (AC),,,,,,,,,,3/26/2007
USW00014939,2023-02-22T15:03:00,40.8508,-96.7475,362.7,"LINCOLN AIRPORT, NE US",FM-16,343,999.3,-6.1,-3.9,,BR:1 |BR |,,,85,OVC:08 2.44,,957,4.828,-4.6,360,13.9,8.8,,,,,,,,,,,,,,,,,,,,,,,,,,,,,,,,,,,,,,,,,,,,,,,,,,,,,,,,,,,,,,,,,,,,,,,,,,,,,,,,,,,,,,,,,,,MET13402/22/23 15:03:02 SPECI KLNK 222103Z 36017G27KT 3SM BR OVC008 M04/M06 A2951 RMK AO2 PK WND 01027/2055 CIG 005V012 I1000 T10391061 (AC),,,,,,,,,,3/26/2007
USW00014939,2023-02-22T15:54:00,40.8508,-96.7475,362.7,"LINCOLN AIRPORT, NE US",FM-15,343,1001.4,-6.1,-4.4,0,BR:1 |BR |,,,88,OVC:08 2.44,1002.4,959,6.437,-5,350,12.9,8.8,,,,,,,,,,,,,,,,,,,,,,,,,,,,,,,,,,,,,,,,,,,,,,,,,,,,,,,,,,,,,,,,,,,,,,,,,,,,,,,,,,,,,,,,,,,MET14102/22/23 15:54:02 METAR KLNK 222154Z 35017G25KT 4SM BR OVC008 M04/M06 A2957 RMK AO2 PK WND 01027/2055 CIG 007V012 SLP024 I1001 T10441061 (AC),,,,,,,,,,3/26/2007
USW00014939,2023-02-22T16:18:00,40.8508,-96.7475,362.7,"LINCOLN AIRPORT, NE US",FM-16,343,1001,-6.1,-4.4,,BR:1 |BR |,,,88,BKN:07 2.44 OVC:08 3.66,,958.7,4.023,-5,360,,8.2,,,,,,,,,,,,,,,,,,,,,,,,,,,,,,,,,,,,,,,,,,,,,,,,,,,,,,,,,,,,,,,,,,,,,,,,,,,,,,,,,,,,,,,,,,,MET12402/22/23 16:18:02 SPECI KLNK 222218Z 36016KT 2 1/2SM BR BKN008 OVC012 M04/M06 A2956 RMK AO2 CIG 006V010 I1001 T10441061 (AC),,,,,,,,,,3/26/2007
USW00014939,2023-02-22T16:50:00,40.8508,-96.7475,362.7,"LINCOLN AIRPORT, NE US",FM-16,343,1001.4,-7,-4,,BR:1 |BR |,,,80,OVC:08 2.44,,959,4.828,-5,350,,9.3,,,,,,,,,,,,,,,,,,,,,,,,,,,,,,,,,,,,,,,,,,,,,,,,,,,,,,,,,,,,,,,,,,,,,,,,,,,,,,,,,,,,,,,,,,,MET10302/22/23 16:50:02 SPECI KLNK 222250Z 35018KT 3SM BR OVC008 M04/M07 A2957 RMK AO2 CIG 006V012 I1002 (AC),,,,,,,,,,3/26/2007
USW00014939,2023-02-22T16:54:00,40.8508,-96.7475,362.7,"LINCOLN AIRPORT, NE US",FM-15,343,1001.4,-6.7,-5,0,BR:1 |BR |,,,88,OVC:08 2.44,1002.7,959,4.828,-5.5,350,,9.3,,,,,,,,,,,,,,,,,,,,,,,,,,,,,,,,,,,,,,,,,,,,,,,,,,,,,,,,,,,,,,,,,,,,,,,,,,,,,,,,,,,,,,,,,,,MET12002/22/23 16:54:02 METAR KLNK 222254Z 35018KT 3SM BR OVC008 M05/M07 A2957 RMK AO2 CIG 006V012 SLP027 I1002 T10501067 (AC),,,,,,,,,,3/26/2007
USW00014939,2023-02-22T17:32:00,40.8508,-96.7475,362.7,"LINCOLN AIRPORT, NE US",FM-16,343,1002.7,-7.2,-5,,BR:1 |BR |,,,85,OVC:08 2.44,,960.3,4.023,-5.7,330,11.3,7.7,,,,,,,,,,,,,,,,,,,,,,,,,,,,,,,,,,,,,,,,,,,,,,,,,,,,,,,,,,,,,,,,,,,,,,,,,,,,,,,,,,,,,,,,,,,MET12002/22/23 17:32:02 SPECI KLNK 222332Z 33015G22KT 2 1/2SM BR OVC008 M05/M07 A2961 RMK AO2 CIG 007V011 I1003 T10501072 (CR),,,,,,,,,,3/26/2007
USW00014939,2023-02-22T17:54:00,40.8508,-96.7475,362.7,"LINCOLN AIRPORT, NE US",FM-15,343,1003.4,-7.2,-5.6,0,BR:1 |BR |,2.1,3,89,OVC:08 2.44,1004.7,961,3.219,-6.1,320,11.8,7.2,,,,,,,,,,,,,,,,,,,,,,,,,,,,,,,,,,,,,,,,,,,,,,,,,,,,,,,,,,,,,,,,,,,,,,,,,,,,,,,,,,,,,,,,,,,MET15302/22/23 17:54:02 METAR KLNK 222354Z 32014G23KT 2SM BR OVC008 M06/M07 A2963 RMK AO2 CIG 005V011 SLP047 6//// I1004 I6011 T10561072 11022 21056 53021 (CR),,,,,,,,,,3/26/2007
USW00014939,2023-02-22T18:00:00,40.8508,-96.7475,362.7,"LINCOLN AIRPORT, NE US",FM-12,223,,-7.2,-5.6,,||BR,2.1,3,89,,1004.7,960.7,,-6.1,320,,7.2,,,,,,,,,,,,,,,,,,,,,,,,,,,,,,,,,,,,,,,,,,,,,,,,,,,,,,,,,,,,,,,,,,,,,,,,,,,,,,,,,,,,,,,,,,,SYN09272551 31332 83214 11056 21072 39607 40047 53021 710// 92354 333 11022 21056 91023 555 92300=,,,,,,,,,,3/26/2007
USW00014939,2023-02-22T18:12:00,40.8508,-96.7475,362.7,"LINCOLN AIRPORT, NE US",FM-16,343,1003,-7.8,-5.6,,BR:1 |BR |,,,85,OVC:08 2.13,,960.6,4.828,-6.3,350,,8.8,,,,,,,,,,,,,,,,,,,,,,,,,,,,,,,,,,,,,,,,,,,,,,,,,,,,,,,,,,,,,,,,,,,,,,,,,,,,,,,,,,,,,,,,,,,MET10802/22/23 18:12:01 SPECI KLNK 230012Z 35017KT 3SM BR OVC007 M06/M08 A2962 RMK AO2 CIG 006V011 I1001 T10561078,,,,,,,,,,3/26/2007
USW00014939,2023-02-22T18:54:00,40.8508,-96.7475,362.7,"LINCOLN AIRPORT, NE US",FM-15,343,1004.4,-7.8,-6.1,0,BR:1 |BR |,,,88,OVC:08 2.74,1005.7,961.9,9.656,-6.6,350,,8.8,,,,,,,,,,,,,,,,,,,,,,,,,,,,,,,,,,,,,,,,,,,,,,,,,,,,,,,,,,,,,,,,,,,,,,,,,,,,,,,,,,,,,,,,,,,MET11502/22/23 18:54:01 METAR KLNK 230054Z 35017KT 6SM BR OVC009 M06/M08 A2966 RMK AO2 CIG 006V011 SLP057 I1002 T10611078,,,,,,,,,,3/26/2007
USW00014939,2023-02-22T19:54:00,40.8508,-96.7475,362.7,"LINCOLN AIRPORT, NE US",FM-15,343,1005.4,-8.3,-6.7,0,,,,89,OVC:08 2.74,1006.8,962.9,16.093,-7.2,340,,7.2,,,,,,,,,,,,,,,,,,,,,,,,,,,,,,,,,,,,,,,,,,,,,,,,,,,,,,,,,,,,,,,,,,,,,,,,,,,,,,,,,,,,,,,,,,,MET10102/22/23 19:54:01 METAR KLNK 230154Z 34014KT 10SM OVC009 M07/M08 A2969 RMK AO2 SLP068 I1000 T10671083,,,,,,,,,,3/26/2007
USW00014939,2023-02-22T20:54:00,40.8508,-96.7475,362.7,"LINCOLN AIRPORT, NE US",FM-15,343,1005.4,-8.9,-6.7,0,,1.8,0,85,OVC:08 2.44,1006.7,962.9,16.093,-7.3,340,,6.7,,,,,,,,,,,,,,,,,,,,,,,,,,,,,,,,,,,,,,,,,,,,,,,,,,,,,,,,,,,,,,,,,,,,,,,,,,,,,,,,,,,,,,,,,,,MET11302/22/23 20:54:02 METAR KLNK 230254Z 34013KT 10SM OVC008 M07/M09 A2969 RMK AO2 SLP067 I1000 I3002 T10671089 50018,,,,,,,,,,3/26/2007
USW00014939,2023-02-22T21:54:00,40.8508,-96.7475,362.7,"LINCOLN AIRPORT, NE US",FM-15,343,1006.8,-8.9,-7.2,0,,,,88,OVC:08 2.44,1008.1,964.2,16.093,-7.7,320,,5.1,,,,,,,,,,,,,,,,,,,,,,,,,,,,,,,,,,,,,,,,,,,,,,,,,,,,,,,,,,,,,,,,,,,,,,,,,,,,,,,,,,,,,,,,,,,MET10202/22/23 21:54:02 METAR KLNK 230354Z 32010KT 10SM OVC008 M07/M09 A2973 RMK AO2 PRESRR SLP081 T10721089,,,,,,,,,,3/26/2007
USW00014939,2023-02-22T22:54:00,40.8508,-96.7475,362.7,"LINCOLN AIRPORT, NE US",FM-15,343,1008.1,-8.9,-6.7,0,,,,85,OVC:08 2.74,1009.6,965.5,16.093,-7.3,310,,5.1,,,,,,,,,,,,,,,,,,,,,,,,,,,,,,,,,,,,,,,,,,,,,,,,,,,,,,,,,,,,,,,,,,,,,,,,,,,,,,,,,,,,,,,,,,,MET09502/22/23 22:54:02 METAR KLNK 230454Z 31010KT 10SM OVC009 M07/M09 A2977 RMK AO2 SLP096 T10671089,,,,,,,,,,3/26/2007
USW00014939,2023-02-22T23:54:00,40.8508,-96.7475,362.7,"LINCOLN AIRPORT, NE US",FM-15,343,1007.8,-9.4,-7.8,0,BR:1 |BR |,2.3,0,88,OVC:08 2.44,1009.2,965.2,6.437,-8.3,310,,6.2,,,,,,,,,,,,,,,,,,,,,,,,,,,,,,,,,,,,,,,,,,,,,,,,,,,,,,,,,,,,,,,,,,,,,,,,,,,,,,,,,,,,,,,,,,,MET14302/22/23 23:54:02 METAR KLNK 230554Z 31012KT 4SM BR OVC008 M08/M09 A2976 RMK AO2 CIG 006V010 SLP092 I6002 T10781094 11056 21078 400331078 50023,,,,,,,,,,3/26/2007
USW00014939,2023-02-23T00:00:00,40.8508,-96.7475,362.7,"LINCOLN AIRPORT, NE US",FM-12,223,,-9.4,-7.8,,||BR,2.3,9,88,,1009.2,965,,-8.3,310,,6.2,,,,,,,,,,,,,,,,,,,,,,,,,,,,,,,,,,,,,,,,,,,,,,,,,,,,,,,,,,,,,,,,,,,,,,,,,,,,,,,,,,,,,,,,,,,SYN08672551 31356 83112 11078 21094 39650 40092 50023 710// 90554 333 10033 21078 555 92306=,,,,,,,,,,3/26/2007
USW00014939,2023-02-23T00:00:00,40.8508,-96.7475,362.7,"LINCOLN AIRPORT, NE US",SOD,,,,,,,,,,,,,,,,,,712,1810,-17.2,-11.8,66,1027.1,985.4,-13.3,6.8,0,-11.91,30.1,-7.7,-16,290,15.7,0.3,30,13,320,11.2,BR HZ,,,,,,,,,,,,,,,,,,,,,,,,,,,,,,,,,,,,,,,,,,,,,,,,,,,,,,,,,,,,,,,,,,,,,,,,,,,,,,,3/26/2007
USW00014939,2023-02-23T00:09:00,40.8508,-96.7475,362.7,"LINCOLN AIRPORT, NE US",FM-16,343,1005.8,-10,-7.8,,BR:1 |BR |,,,84,BKN:07 2.44 OVC:08 4.57,,963.2,3.219,-8.4,340,,5.7,,,,,,,,,,,,,,,,,,,,,,,,,,,,,,,,,,,,,,,,,,,,,,,,,,,,,,,,,,,,,,,,,,,,,,,,,,,,,,,,,,,,,,,,,,,MET10902/23/23 00:09:02 SPECI KLNK 230609Z 34011KT 2SM BR BKN008 OVC015 M08/M10 A2970 RMK AO2 PRESFR T10781100 (CR),,,,,,,,,,3/26/2007
USW00014939,2023-02-23T00:21:00,40.8508,-96.7475,362.7,"LINCOLN AIRPORT, NE US",FM-16,343,1008.1,-10,-7.8,,BR:1 |BR |,,,84,SCT:04 2.44 OVC:08 5.18,,965.5,4.828,-8.4,290,9.8,7.2,,,,,,,,,,,,,,,,,,,,,,,,,,,,,,,,,,,,,,,,,,,,,,,,,,,,,,,,,,,,,,,,,,,,,,,,,,,,,,,,,,,,,,,,,,,MET10502/23/23 00:21:02 SPECI KLNK 230621Z 29014G19KT 3SM BR SCT008 OVC017 M08/M10 A2977 RMK AO2 T10781100 (CR),,,,,,,,,,3/26/2007
USW00014939,2023-02-23T00:52:00,40.8508,-96.7475,362.7,"LINCOLN AIRPORT, NE US",FM-16,343,1009.8,-12,-9,0.2,HZ:7 |FU |HZ,,,79,FEW:02 4.27 OVC:08 5.79,,967.2,3.219,-9.8,280,11.8,8.8,,,,,,,,,,,,,,,,,,,,,,,,,,,,,,,,,,,,,,,,,,,,,,,,,,,,,,,,,,,,,,,,,,,,,,,,,,,,,,,,,,,,,,,,,,,MET10102/23/23 00:52:02 SPECI KLNK 230652Z 28017G23KT 2SM HZ FEW014 OVC019 M09/M12 A2982 RMK AO2 P0001 (CR),,,,,,,,,,3/26/2007
USW00014939,2023-02-23T00:54:00,40.8508,-96.7475,362.7,"LINCOLN AIRPORT, NE US",FM-15,343,1009.8,-11.7,-8.9,0.3,HZ:7 |FU |HZ,,,80,SCT:04 3.66 OVC:08 5.79,1011.5,967.2,2.414,-9.6,290,,8.2,,,,,,,,,,,,,,,,,,,,,,,,,,,,,,,,,,,,,,,,,,,,,,,,,,,,,,,,,,,,,,,,,,,,,,,,,,,,,,,,,,,,,,,,,,,MET11902/23/23 00:54:02 METAR KLNK 230654Z 29016KT 1 1/2SM HZ SCT012 OVC019 M09/M12 A2982 RMK AO2 SLP115 P0001 T10891117 (CR),,,,,,,,,,3/26/2007
USW00014939,2023-02-23T01:04:00,40.8508,-96.7475,362.7,"LINCOLN AIRPORT, NE US",FM-16,343,1010.5,-11.7,-9.4,,BR:1 |BR |,,,84,BKN:07 3.66 OVC:08 5.79,,967.8,2.012,-10,280,12.4,9.3,,,,,,,,,,,,,,,,,,,,,,,,,,,,,,,,,,,,,,,,,,,,,,,,,,,,,,,,,,,,,,,,,,,,,,,,,,,,,,,,,,,,,,,,,,,MET11602/23/23 01:04:02 SPECI KLNK 230704Z 28018G24KT 1 1/4SM BR BKN012 OVC019 M09/M12 A2984 RMK AO2 PRESRR T10941117 (CR),,,,,,,,,,3/26/2007
USW00014939,2023-02-23T01:18:00,40.8508,-96.7475,362.7,"LINCOLN AIRPORT, NE US",FM-16,343,1010.8,-12.8,-10,,HZ:7 |FU |HZ,,,80,BKN:07 3.66 OVC:08 7.92,,968.2,4.828,-10.7,300,13.4,7.2,,,,,,,,,,,,,,,,,,,,,,,,,,,,,,,,,,,,,,,,,,,,,,,,,,,,,,,,,,,,,,,,,,,,,,,,,,,,,,,,,,,,,,,,,,,MET12302/23/23 01:18:02 SPECI KLNK 230718Z 30014G26KT 3SM HZ BKN012 OVC026 M10/M13 A2985 RMK AO2 PK WND 29030/0707 T11001128 (CR),,,,,,,,,,3/26/2007
USW00014939,2023-02-23T01:25:00,40.8508,-96.7475,362.7,"LINCOLN AIRPORT, NE US",FM-16,343,1010.8,-13.3,-10,,HZ:7 |FU |HZ,,,77,SCT:04 3.66 OVC:08 7.92,,968.2,8.047,-10.8,290,12.9,10.3,,,,,,,,,,,,,,,,,,,,,,,,,,,,,,,,,,,,,,,,,,,,,,,,,,,,,,,,,,,,,,,,,,,,,,,,,,,,,,,,,,,,,,,,,,,MET12302/23/23 01:25:02 SPECI KLNK 230725Z 29020G25KT 5SM HZ SCT012 OVC026 M10/M13 A2985 RMK AO2 PK WND 29030/0707 T11001133 (CR),,,,,,,,,,3/26/2007
USW00014939,2023-02-23T01:54:00,40.8508,-96.7475,362.7,"LINCOLN AIRPORT, NE US",FM-15,343,1011.5,-13.9,-11.1,0,HZ:7 |FU |HZ,,,80,SCT:04 4.27 OVC:08 8.23,1013.3,968.8,9.656,-11.8,290,,5.7,,,,,,,,,,,,,,,,,,,,,,,,,,,,,,,,,,,,,,,,,,,,,,,,,,,,,,,,,,,,,,,,,,,,,,,,,,,,,,,,,,,,,,,,,,,MET12702/23/23 01:54:02 METAR KLNK 230754Z 29011KT 6SM HZ SCT014 OVC027 M11/M14 A2987 RMK AO2 PK WND 29030/0707 SLP133 T11111139 (CR),,,,,,,,,,3/26/2007
USW00014939,2023-02-23T02:14:00,40.8508,-96.7475,362.7,"LINCOLN AIRPORT, NE US",FM-16,343,1011.9,-16.1,-12.2,,HZ:7 |FU |HZ,,,73,BKN:07 4.27 OVC:08 8.23,,969.1,9.656,-13.1,290,14.4,8.8,,,,,,,,,,,,,,,,,,,,,,,,,,,,,,,,,,,,,,,,,,,,,,,,,,,,,,,,,,,,,,,,,,,,,,,,,,,,,,,,,,,,,,,,,,,MET12302/23/23 02:14:02 SPECI KLNK 230814Z 29017G28KT 6SM HZ BKN014 OVC027 M12/M16 A2988 RMK AO2 PK WND 29028/0802 T11221161 (CR),,,,,,,,,,3/26/2007
USW00014939,2023-02-23T02:26:00,40.8508,-96.7475,362.7,"LINCOLN AIRPORT, NE US",FM-16,343,1012.2,-16.7,-12.8,,,,,73,SCT:04 4.27 SCT:04 8.23,,969.5,16.093,-13.6,300,11.3,7.7,,,,,,,,,,,,,,,,,,,,,,,,,,,,,,,,,,,,,,,,,,,,,,,,,,,,,,,,,,,,,,,,,,,,,,,,,,,,,,,,,,,,,,,,,,,MET12102/23/23 02:26:02 SPECI KLNK 230826Z 30015G22KT 10SM SCT014 SCT027 M13/M17 A2989 RMK AO2 PK WND 29028/0802 T11281167 (CR),,,,,,,,,,3/26/2007
USW00014939,2023-02-23T02:54:00,40.8508,-96.7475,362.7,"LINCOLN AIRPORT, NE US",FM-15,343,1012.9,-16.7,-12.8,0,,5.1,1,73,FEW:02 4.88,1014.9,970.1,16.093,-13.6,300,12.4,6.7,,,,,,,,,,,,,,,,,,,,,,,,,,,,,,,,,,,,,,,,,,,,,,,,,,,,,,,,,,,,,,,,,,,,,,,,,,,,,,,,,,,,,,,,,,,MET13302/23/23 02:54:02 METAR KLNK 230854Z 30013G24KT 10SM FEW016 M13/M17 A2991 RMK AO2 PK WND 29028/0802 SLP149 60001 T11281167 51051 (CR),,,,,,,,,,3/26/2007
USW00014939,2023-02-23T03:54:00,40.8508,-96.7475,362.7,"LINCOLN AIRPORT, NE US",FM-15,343,1014.2,-17.8,-13.9,0,,,,73,FEW:02 4.27,1016.4,971.4,16.093,-14.7,300,13.9,6.7,,,,,,,,,,,,,,,,,,,,,,,,,,,,,,,,,,,,,,,,,,,,,,,,,,,,,,,,,,,,,,,,,,,,,,,,,,,,,,,,,,,,,,,,,,,MET12102/23/23 03:54:02 METAR KLNK 230954Z 30013G27KT 10SM FEW014 M14/M18 A2995 RMK AO2 PK WND 30027/0937 SLP164 T11391178 (CR),,,,,,,,,,3/26/2007
USW00014939,2023-02-23T04:54:00,40.8508,-96.7475,362.7,"LINCOLN AIRPORT, NE US",FM-15,343,1015.6,-18.3,-14.4,0,,,,73,BKN:07 4.88,1017.8,972.7,16.093,-15.2,300,10.8,8.8,,,,,,,,,,,,,,,,,,,,,,,,,,,,,,,,,,,,,,,,,,,,,,,,,,,,,,,,,,,,,,,,,,,,,,,,,,,,,,,,,,,,,,,,,,,MET12102/23/23 04:54:02 METAR KLNK 231054Z 30017G21KT 10SM BKN016 M14/M18 A2999 RMK AO2 PK WND 31026/1018 SLP178 T11441183 (CR),,,,,,,,,,3/26/2007
USW00014939,2023-02-23T05:08:00,40.8508,-96.7475,362.7,"LINCOLN AIRPORT, NE US",FM-16,343,1016.6,-18.9,-15,,,,,72,SCT:04 4.57,,973.7,16.093,-15.7,300,13.9,7.7,,,,,,,,,,,,,,,,,,,,,,,,,,,,,,,,,,,,,,,,,,,,,,,,,,,,,,,,,,,,,,,,,,,,,,,,,,,,,,,,,,,,,,,,,,,MET12102/23/23 05:08:02 SPECI KLNK 231108Z 30015G27KT 10SM SCT015 M15/M19 A3002 RMK AO2 PK WND 31027/1100 PRESRR T11501189 (CR),,,,,,,,,,3/26/2007
USW00014939,2023-02-23T05:54:00,40.8508,-96.7475,362.7,"LINCOLN AIRPORT, NE US",FM-15,343,1018.3,-20,-15.6,0,,5.2,3,69,CLR:00,1020.6,975.3,16.093,-16.3,300,12.4,7.7,,,,,,,,,,,,,,,,,,,,,,,,,,,,,,,,,,,,,,,,,,,,,,,,,,,,,,,,,,,,,,,,,,,,,,,,,,,,,,,,,,,,,,,,,,,MET14802/23/23 05:54:02 METAR KLNK 231154Z 30015G24KT 10SM CLR M16/M20 A3007 RMK AO2 PK WND 31027/1100 SLP206 60001 7//// T11561200 11078 21156 53052 (NU),,,,,,,,,,3/26/2007
USW00014939,2023-02-23T06:00:00,40.8508,-96.7475,362.7,"LINCOLN AIRPORT, NE US",FM-12,223,,-20,-15.6,,,5.2,3,69,,1020.6,975.1,,-16.3,300,,7.7,,,,,,,,,,,,,,,,,,,,,,,,,,,,,,,,,,,,,,,,,,,,,,,,,,,,,,,,,,,,,,,,,,,,,,,,,,,,,,,,,,,,,,,,,,,SYN09272551 12966 03015 11156 21200 39751 40206 53052 69931 91154 333 10033 21156 91024 555 92312=,,,,,,,,,,3/26/2007
USW00014939,2023-02-23T06:54:00,40.8508,-96.7475,362.7,"LINCOLN AIRPORT, NE US",FM-15,343,1019,-20,-15.6,0,,,,69,CLR:00,1021.4,976,16.093,-16.3,310,11.8,8.2,,,,,,,,,,,,,,,,,,,,,,,,,,,,,,,,,,,,,,,,,,,,,,,,,,,,,,,,,,,,,,,,,,,,,,,,,,,,,,,,,,,,,,,,,,,MET10002/23/23 06:54:02 METAR KLNK 231254Z 31016G23KT 10SM CLR M16/M20 A3009 RMK AO2 SLP214 T11561200 (NU),,,,,,,,,,3/26/2007
USW00014939,2023-02-23T07:54:00,40.8508,-96.7475,362.7,"LINCOLN AIRPORT, NE US",FM-15,343,1020.7,-20,-15.6,0,,,,69,CLR:00,1023.2,977.6,16.093,-16.3,300,13.9,8.8,,,,,,,,,,,,,,,,,,,,,,,,,,,,,,,,,,,,,,,,,,,,,,,,,,,,,,,,,,,,,,,,,,,,,,,,,,,,,,,,,,,,,,,,,,,MET11802/23/23 07:54:02 METAR KLNK 231354Z 30017G27KT 10SM CLR M16/M20 A3014 RMK AO2 PK WND 31028/1326 SLP232 T11561200 (NU),,,,,,,,,,3/26/2007
USW00014939,2023-02-23T08:52:00,40.8508,-96.7475,362.7,"LINCOLN AIRPORT, NE US",FM-16,343,1022.4,-19,-14,,,,,66,BKN:07 4.57,,979.3,16.093,-14.8,320,14.4,9.3,,,,,,,,,,,,,,,,,,,,,,,,,,,,,,,,,,,,,,,,,,,,,,,,,,,,,,,,,,,,,,,,,,,,,,,,,,,,,,,,,,,,,,,,,,,MET10902/23/23 08:52:02 SPECI KLNK 231452Z 32018G28KT 10SM BKN015 M14/M19 A3019 RMK AO2 PK WND 32028/1449 FIBI (NU),,,,,,,,,,3/26/2007
USW00014939,2023-02-23T08:54:00,40.8508,-96.7475,362.7,"LINCOLN AIRPORT, NE US",FM-15,343,1022.4,-18.9,-14.4,0,,3.2,1,69,BKN:07 4.57,1024.8,979.3,16.093,-15.3,310,15.4,8.8,,,,,,,,,,,,,,,,,,,,,,,,,,,,,,,,,,,,,,,,,,,,,,,,,,,,,,,,,,,,,,,,,,,,,,,,,,,,,,,,,,,,,,,,,,,MET12702/23/23 08:54:02 METAR KLNK 231454Z 31017G30KT 10SM BKN015 M14/M19 A3019 RMK AO2 PK WND 31030/1454 SLP248 T11441189 51032 (NU),,,,,,,,,,3/26/2007
USW00014939,2023-02-23T09:21:00,40.8508,-96.7475,362.7,"LINCOLN AIRPORT, NE US",FM-16,343,1023.4,-18.9,-13.9,,,,,66,SCT:04 4.57,,980.3,16.093,-14.8,310,13.4,9.3,,,,,,,,,,,,,,,,,,,,,,,,,,,,,,,,,,,,,,,,,,,,,,,,,,,,,,,,,,,,,,,,,,,,,,,,,,,,,,,,,,,,,,,,,,,MET11402/23/23 09:21:02 SPECI KLNK 231521Z 31018G26KT 10SM SCT015 M14/M19 A3022 RMK AO2 PK WND 31030/1455 T11391189 (NU),,,,,,,,,,3/26/2007
USW00014939,2023-02-23T09:43:00,40.8508,-96.7475,362.7,"LINCOLN AIRPORT, NE US",FM-16,343,1023.7,-18.3,-13.9,,,,,70,BKN:07 4.57,,980.6,16.093,-14.7,310,13.9,10.3,,,,,,,,,,,,,,,,,,,,,,,,,,,,,,,,,,,,,,,,,,,,,,,,,,,,,,,,,,,,,,,,,,,,,,,,,,,,,,,,,,,,,,,,,,,MET11402/23/23 09:43:02 SPECI KLNK 231543Z 31020G27KT 10SM BKN015 M14/M18 A3023 RMK AO2 PK WND 31030/1455 T11391183 (NU),,,,,,,,,,3/26/2007
USW00014939,2023-02-23T09:52:00,40.8508,-96.7475,362.7,"LINCOLN AIRPORT, NE US",FM-16,343,1024,-18,-13,,,,,66,SCT:04 4.88,,980.9,16.093,-13.8,320,12.9,8.2,,,,,,,,,,,,,,,,,,,,,,,,,,,,,,,,,,,,,,,,,,,,,,,,,,,,,,,,,,,,,,,,,,,,,,,,,,,,,,,,,,,,,,,,,,,MET10902/23/23 09:52:02 SPECI KLNK 231552Z 32016G25KT 10SM SCT016 M13/M18 A3024 RMK AO2 PK WND 31030/1455 FIBI (NU),,,,,,,,,,3/26/2007
USW00014939,2023-02-23T09:54:00,40.8508,-96.7475,362.7,"LINCOLN AIRPORT, NE US",FM-15,343,1024,-17.8,-13.3,0,,,,69,SCT:04 4.88,1026.3,980.9,16.093,-14.2,310,12.9,8.2,,,,,,,,,,,,,,,,,,,,,,,,,,,,,,,,,,,,,,,,,,,,,,,,,,,,,,,,,,,,,,,,,,,,,,,,,,,,,,,,,,,,,,,,,,,MET12102/23/23 09:54:02 METAR KLNK 231554Z 31016G25KT 10SM SCT016 M13/M18 A3024 RMK AO2 PK WND 31030/1455 SLP263 T11331178 (NU),,,,,,,,,,3/26/2007
USW00014939,2023-02-23T10:54:00,40.8508,-96.7475,362.7,"LINCOLN AIRPORT, NE US",FM-15,343,1025.7,-17.8,-12.2,0,,,,63,CLR:00,1028,982.5,16.093,-13.4,320,,8.2,,,,,,,,,,,,,,,,,,,,,,,,,,,,,,,,,,,,,,,,,,,,,,,,,,,,,,,,,,,,,,,,,,,,,,,,,,,,,,,,,,,,,,,,,,,MET09702/23/23 10:54:02 METAR KLNK 231654Z 32016KT 10SM CLR M12/M18 A3029 RMK AO2 SLP280 T11221178 (NU),,,,,,,,,,3/26/2007
USW00014939,2023-02-23T11:40:00,40.8508,-96.7475,362.7,"LINCOLN AIRPORT, NE US",FM-16,343,1027.1,-16.7,-11.7,,,,,67,BKN:07 5.79,,983.9,16.093,-12.7,310,10.3,7.2,,,,,,,,,,,,,,,,,,,,,,,,,,,,,,,,,,,,,,,,,,,,,,,,,,,,,,,,,,,,,,,,,,,,,,,,,,,,,,,,,,,,,,,,,,,MET09602/23/23 11:40:02 SPECI KLNK 231740Z 31014G20KT 10SM BKN019 M12/M17 A3033 RMK AO2 T11171167 (NU),,,,,,,,,,3/26/2007
USW00014939,2023-02-23T11:54:00,40.8508,-96.7475,362.7,"LINCOLN AIRPORT, NE US",FM-15,343,1027.4,-17.2,-11.7,0,,4.7,1,64,BKN:07 5.79,1029.5,984.2,16.093,-12.8,330,10.8,8.8,,,,,,,,,,,,,,,,,,,,,,,,,,,,,,,,,,,,,,,,,,,,,,,,,,,,,,,,,,,,,,,,,,,,,,,,,,,,,,,,,,,,,,,,,,,MET12102/23/23 11:54:02 METAR KLNK 231754Z 33017G21KT 10SM BKN019 M12/M17 A3034 RMK AO2 SLP295 T11171172 11117 21156 51047 (NU),,,,,,,,,,3/26/2007
USW00014939,2023-02-23T12:00:00,40.8508,-96.7475,362.7,"LINCOLN AIRPORT, NE US",FM-12,223,,-17.2,-11.7,,,4.7,1,64,,1029.5,983.9,,-12.8,330,,8.8,,,,,,,,,,,,,,,,,,,,,,,,,,,,,,,,,,,,,,,,,,,,,,,,,,,,,,,,,,,,,,,,,,,,,,,,,,,,,,,,,,,,,,,,,,,SYN08672551 32466 63317 11117 21172 39839 40295 51047 91754 333 11078 21156 91021 555 92318=,,,,,,,,,,3/26/2007
USW00014939,2023-02-23T12:49:00,40.8508,-96.7475,362.7,"LINCOLN AIRPORT, NE US",FM-16,343,1026.8,-16,-11,,,,,67,SCT:04 6.1,,983.5,16.093,-12.2,330,11.3,7.7,,,,,,,,,,,,,,,,,,,,,,,,,,,,,,,,,,,,,,,,,,,,,,,,,,,,,,,,,,,,,,,,,,,,,,,,,,,,,,,,,,,,,,,,,,,MET08602/23/23 12:49:02 SPECI KLNK 231849Z 33015G22KT 10SM SCT020 M11/M16 A3032 RMK AO2 (NU),,,,,,,,,,3/26/2007
USW00014939,2023-02-23T12:54:00,40.8508,-96.7475,362.7,"LINCOLN AIRPORT, NE US",FM-15,343,1026.8,-16.1,-10.6,0,,,,64,FEW:02 6.1,1028.8,983.5,16.093,-11.8,330,,7.2,,,,,,,,,,,,,,,,,,,,,,,,,,,,,,,,,,,,,,,,,,,,,,,,,,,,,,,,,,,,,,,,,,,,,,,,,,,,,,,,,,,,,,,,,,,MET10002/23/23 12:54:02 METAR KLNK 231854Z 33014KT 10SM FEW020 M11/M16 A3032 RMK AO2 SLP288 T11061161 (NU),,,,,,,,,,3/26/2007
USW00014939,2023-02-23T13:54:00,40.8508,-96.7475,362.7,"LINCOLN AIRPORT, NE US",FM-15,343,1027.8,-15.6,-8.9,0,,,,59,FEW:02 5.79,1030.2,984.5,16.093,-10.5,340,,6.7,,,,,,,,,,,,,,,,,,,,,,,,,,,,,,,,,,,,,,,,,,,,,,,,,,,,,,,,,,,,,,,,,,,,,,,,,,,,,,,,,,,,,,,,,,,MET10002/23/23 13:54:02 METAR KLNK 231954Z 34013KT 10SM FEW019 M09/M16 A3035 RMK AO2 SLP302 T10891156 (NU),,,,,,,,,,3/26/2007
USW00014939,2023-02-23T14:54:00,40.8508,-96.7475,362.7,"LINCOLN AIRPORT, NE US",FM-15,343,1028.1,-15.6,-8.9,0,,1.3,3,59,SCT:04 6.4,1030.5,984.8,16.093,-10.5,320,,7.2,,,,,,,,,,,,,,,,,,,,,,,,,,,,,,,,,,,,,,,,,,,,,,,,,,,,,,,,,,,,,,,,,,,,,,,,,,,,,,,,,,,,,,,,,,,MET10602/23/23 14:54:02 METAR KLNK 232054Z 32014KT 10SM SCT021 M09/M16 A3036 RMK AO2 SLP305 T10891156 53013 (BV),,,,,,,,,,3/26/2007
USW00014939,2023-02-23T15:49:00,40.8508,-96.7475,362.7,"LINCOLN AIRPORT, NE US",FM-16,343,1029.5,-16,-9,,,,,57,BKN:07 7.62,,986.1,16.093,-10.6,320,,5.7,,,,,,,,,,,,,,,,,,,,,,,,,,,,,,,,,,,,,,,,,,,,,,,,,,,,,,,,,,,,,,,,,,,,,,,,,,,,,,,,,,,,,,,,,,,MET08302/23/23 15:49:02 SPECI KLNK 232149Z 32011KT 10SM BKN025 M09/M16 A3040 RMK AO2 (BV),,,,,,,,,,3/26/2007
USW00014939,2023-02-23T15:54:00,40.8508,-96.7475,362.7,"LINCOLN AIRPORT, NE US",FM-15,343,1029.8,-16.1,-8.9,0,,,,56,BKN:07 7.62,1032.1,986.5,16.093,-10.6,330,,3.6,,,,,,,,,,,,,,,,,,,,,,,,,,,,,,,,,,,,,,,,,,,,,,,,,,,,,,,,,,,,,,,,,,,,,,,,,,,,,,,,,,,,,,,,,,,MET10002/23/23 15:54:02 METAR KLNK 232154Z 33007KT 10SM BKN025 M09/M16 A3041 RMK AO2 SLP321 T10891161 (BV),,,,,,,,,,3/26/2007
USW00014939,2023-02-23T16:54:00,40.8508,-96.7475,362.7,"LINCOLN AIRPORT, NE US",FM-15,343,1030.5,-16.1,-9.4,0,,,,59,BKN:07 7.01,1033,987.1,16.093,-11,310,,5.1,,,,,,,,,,,,,,,,,,,,,,,,,,,,,,,,,,,,,,,,,,,,,,,,,,,,,,,,,,,,,,,,,,,,,,,,,,,,,,,,,,,,,,,,,,,MET10002/23/23 16:54:02 METAR KLNK 232254Z 31010KT 10SM BKN023 M09/M16 A3043 RMK AO2 SLP330 T10941161 (BV),,,,,,,,,,3/26/2007
USW00014939,2023-02-23T17:10:00,40.8508,-96.7475,362.7,"LINCOLN AIRPORT, NE US",FM-16,343,1030.8,-16.7,-10,,,,,58,SCT:04 7.01,,987.4,16.093,-11.5,330,,5.1,,,,,,,,,,,,,,,,,,,,,,,,,,,,,,,,,,,,,,,,,,,,,,,,,,,,,,,,,,,,,,,,,,,,,,,,,,,,,,,,,,,,,,,,,,,MET09302/23/23 17:10:02 SPECI KLNK 232310Z 33010KT 10SM SCT023 M10/M17 A3044 RMK AO2 T11001167 (BV),,,,,,,,,,3/26/2007
USW00014939,2023-02-23T17:54:00,40.8508,-96.7475,362.7,"LINCOLN AIRPORT, NE US",FM-15,343,1031.8,-16.7,-10.6,0,,2.4,3,61,CLR:00,1034.5,988.4,16.093,-11.9,330,,5.1,,,,,,,,,,,,,,,,,,,,,,,,,,,,,,,,,,,,,,,,,,,,,,,,,,,,,,,,,,,,,,,,,,,,,,,,,,,,,,,,,,,,,,,,,,,MET11502/23/23 17:54:02 METAR KLNK 232354Z 33010KT 10SM CLR M11/M17 A3047 RMK AO2 SLP345 T11061167 11083 21117 53024 (BV),,,,,,,,,,3/26/2007
USW00014939,2023-02-23T18:00:00,40.8508,-96.7475,362.7,"LINCOLN AIRPORT, NE US",FM-12,223,,-16.7,-10.6,,,2.4,3,61,,1034.5,988.2,,-11.9,330,,5.1,,,,,,,,,,,,,,,,,,,,,,,,,,,,,,,,,,,,,,,,,,,,,,,,,,,,,,,,,,,,,,,,,,,,,,,,,,,,,,,,,,,,,,,,,,,SYN08072551 32966 03310 11106 21167 39882 40345 53024 92354 333 11083 21156 555 92400=,,,,,,,,,,3/26/2007
USW00014939,2023-02-23T18:54:00,40.8508,-96.7475,362.7,"LINCOLN AIRPORT, NE US",FM-15,343,1032.8,-17.8,-12.2,0,,,,63,CLR:00,1035.6,989.4,16.093,-13.3,350,,5.7,,,,,,,,,,,,,,,,,,,,,,,,,,,,,,,,,,,,,,,,,,,,,,,,,,,,,,,,,,,,,,,,,,,,,,,,,,,,,,,,,,,,,,,,,,,MET09202/23/23 18:54:01 METAR KLNK 240054Z 35011KT 10SM CLR M12/M18 A3050 RMK AO2 SLP356 T11221178,,,,,,,,,,3/26/2007
USW00014939,2023-02-23T19:54:00,40.8508,-96.7475,362.7,"LINCOLN AIRPORT, NE US",FM-15,343,1033.2,-18.3,-12.8,0,,,,64,CLR:00,1036,989.7,16.093,-13.9,350,,6.7,,,,,,,,,,,,,,,,,,,,,,,,,,,,,,,,,,,,,,,,,,,,,,,,,,,,,,,,,,,,,,,,,,,,,,,,,,,,,,,,,,,,,,,,,,,MET09202/23/23 19:54:01 METAR KLNK 240154Z 35013KT 10SM CLR M13/M18 A3051 RMK AO2 SLP360 T11281183,,,,,,,,,,3/26/2007
USW00014939,2023-02-23T20:54:00,40.8508,-96.7475,362.7,"LINCOLN AIRPORT, NE US",FM-15,343,1034.9,-18.3,-13.3,0,,2.8,3,66,CLR:00,1037.5,991.4,16.093,-14.3,340,,4.1,,,,,,,,,,,,,,,,,,,,,,,,,,,,,,,,,,,,,,,,,,,,,,,,,,,,,,,,,,,,,,,,,,,,,,,,,,,,,,,,,,,,,,,,,,,MET09802/23/23 20:54:01 METAR KLNK 240254Z 34008KT 10SM CLR M13/M18 A3056 RMK AO2 SLP375 T11331183 53028,,,,,,,,,,3/26/2007
USW00014939,2023-02-23T21:54:00,40.8508,-96.7475,362.7,"LINCOLN AIRPORT, NE US",FM-15,343,1035.6,-18.9,-15,0,,,,72,CLR:00,1038.5,992,16.093,-15.7,30,,4.6,,,,,,,,,,,,,,,,,,,,,,,,,,,,,,,,,,,,,,,,,,,,,,,,,,,,,,,,,,,,,,,,,,,,,,,,,,,,,,,,,,,,,,,,,,,MET09202/23/23 21:54:01 METAR KLNK 240354Z 03009KT 10SM CLR M15/M19 A3058 RMK AO2 SLP385 T11501189,,,,,,,,,,3/26/2007
USW00014939,2023-02-23T22:54:00,40.8508,-96.7475,362.7,"LINCOLN AIRPORT, NE US",FM-15,343,1036.6,-20.6,-15.6,0,,,,66,CLR:00,1039.5,993,16.093,-16.4,10,,5.7,,,,,,,,,,,,,,,,,,,,,,,,,,,,,,,,,,,,,,,,,,,,,,,,,,,,,,,,,,,,,,,,,,,,,,,,,,,,,,,,,,,,,,,,,,,MET09202/23/23 22:54:02 METAR KLNK 240454Z 01011KT 10SM CLR M16/M21 A3061 RMK AO2 SLP395 T11561206,,,,,,,,,,3/26/2007
USW00014939,2023-02-23T23:54:00,40.8508,-96.7475,362.7,"LINCOLN AIRPORT, NE US",FM-15,343,1037.3,-21.1,-16.1,0,,2.3,1,66,CLR:00,1040,993.7,16.093,-16.9,350,,7.2,,,,,,,,,,,,,,,,,,,,,,,,,,,,,,,,,,,,,,,,,,,,,,,,,,,,,,,,,,,,,,,,,,,,,,,,,,,,,,,,,,,,,,,,,,,MET12002/23/23 23:54:02 METAR KLNK 240554Z 35014KT 10SM CLR M16/M21 A3063 RMK AO2 SLP400 T11611211 11111 21161 410781161 51023,,,,,,,,,,3/26/2007
USW00014939,2023-02-24T00:00:00,40.8508,-96.7475,362.7,"LINCOLN AIRPORT, NE US",FM-12,223,,-21.1,-16.1,,,2.3,1,66,,1040,993.4,,-16.9,350,,7.2,,,,,,,,,,,,,,,,,,,,,,,,,,,,,,,,,,,,,,,,,,,,,,,,,,,,,,,,,,,,,,,,,,,,,,,,,,,,,,,,,,,,,,,,,,,SYN08072551 35966 03514 11161 21211 39934 40400 51023 90554 333 11078 21161 555 92406=,,,,,,,,,,3/26/2007
USW00014939,2023-02-24T00:00:00,40.8508,-96.7475,362.7,"LINCOLN AIRPORT, NE US",SOD,,,,,,,,,,,,,,,,,,710,1811,-16.1,-11.6,70,1035.9,989.8,-12.8,2.8,0,-11.93,29.9,-6.6,-16.6,20,11.2,1,T,5,20,9.4,SN,,,,,,,,,,,,,,,,,,,,,,,,,,,,,,,,,,,,,,,,,,,,,,,,,,,,,,,,,,,,,,,,,,,,,,,,,,,,,,,3/26/2007
USW00014939,2023-02-24T00:54:00,40.8508,-96.7475,362.7,"LINCOLN AIRPORT, NE US",FM-15,343,1037.6,-21.1,-16.1,0,,,,66,SCT:04 33.53,1040.5,994,16.093,-16.9,360,,6.7,,,,,,,,,,,,,,,,,,,,,,,,,,,,,,,,,,,,,,,,,,,,,,,,,,,,,,,,,,,,,,,,,,,,,,,,,,,,,,,,,,,,,,,,,,,MET09502/24/23 00:54:02 METAR KLNK 240654Z 36013KT 10SM SCT110 M16/M21 A3064 RMK AO2 SLP405 T11611211,,,,,,,,,,3/26/2007
USW00014939,2023-02-24T01:54:00,40.8508,-96.7475,362.7,"LINCOLN AIRPORT, NE US",FM-15,343,1038.3,-21.1,-16.1,0,,,,66,OVC:08 30.48,1040.9,994.6,16.093,-16.9,360,,5.1,,,,,,,,,,,,,,,,,,,,,,,,,,,,,,,,,,,,,,,,,,,,,,,,,,,,,,,,,,,,,,,,,,,,,,,,,,,,,,,,,,,,,,,,,,,MET09502/24/23 01:54:02 METAR KLNK 240754Z 36010KT 10SM OVC100 M16/M21 A3066 RMK AO2 SLP409 T11611211,,,,,,,,,,3/26/2007
USW00014939,2023-02-24T02:54:00,40.8508,-96.7475,362.7,"LINCOLN AIRPORT, NE US",FM-15,343,1038.9,-21.1,-15.6,0,,1.8,3,63,OVC:08 21.34,1041.8,995.3,16.093,-16.4,340,,4.6,,,,,,,,,,,,,,,,,,,,,,,,,,,,,,,,,,,,,,,,,,,,,,,,,,,,,,,,,,,,,,,,,,,,,,,,,,,,,,,,,,,,,,,,,,,MET10102/24/23 02:54:02 METAR KLNK 240854Z 34009KT 10SM OVC070 M16/M21 A3068 RMK AO2 SLP418 T11561211 53018,,,,,,,,,,3/26/2007
USW00014939,2023-02-24T03:54:00,40.8508,-96.7475,362.7,"LINCOLN AIRPORT, NE US",FM-15,343,1037.3,-20.6,-16.1,T,,,,69,OVC:08 10.36,1039.8,993.7,12.875,-16.8,20,,7.2,,,,,,,,,,,,,,,,,,,,,,,,,,,,,,,,,,,,,,,,,,,,,,,,,,,,,,,,,,,,,,,,,,,,,,,,,,,,,,,,,,,,,,,,,,,MET10102/24/23 03:54:02 METAR KLNK 240954Z 02014KT 8SM OVC034 M16/M21 A3063 RMK AO2 PRESFR SLP398 T11611206,,,,,,,,,,3/26/2007
USW00014939,2023-02-24T04:03:00,40.8508,-96.7475,362.7,"LINCOLN AIRPORT, NE US",FM-16,343,1036.9,-20.6,-16.1,T,-SN:03 |SN |SN,,,69,OVC:08 7.92,,993.3,4.023,-16.8,10,,6.7,,,,,,,,,,,,,,,,,,,,,,,,,,,,,,,,,,,,,,,,,,,,,,,,,,,,,,,,,,,,,,,,,,,,,,,,,,,,,,,,,,,,,,,,,,,MET10902/24/23 04:03:02 SPECI KLNK 241003Z 01013KT 2 1/2SM -SN OVC026 M16/M21 A3062 RMK AO2 SNB0955 P0000 T11611206,,,,,,,,,,3/26/2007
USW00014939,2023-02-24T04:11:00,40.8508,-96.7475,362.7,"LINCOLN AIRPORT, NE US",FM-16,343,1036.9,-20,-16.1,T,-SN:03 |SN |SN,,,72,OVC:08 5.49,,993.3,2.012,-16.8,10,,6.7,,,,,,,,,,,,,,,,,,,,,,,,,,,,,,,,,,,,,,,,,,,,,,,,,,,,,,,,,,,,,,,,,,,,,,,,,,,,,,,,,,,,,,,,,,,MET10902/24/23 04:11:02 SPECI KLNK 241011Z 01013KT 1 1/4SM -SN OVC018 M16/M20 A3062 RMK AO2 SNB0955 P0000 T11611200,,,,,,,,,,3/26/2007
USW00014939,2023-02-24T04:20:00,40.8508,-96.7475,362.7,"LINCOLN AIRPORT, NE US",FM-16,343,1036.6,-20,-16.1,0.2,-SN:03 |SN |SN,,,72,VV:09 3.96,,993,1.207,-16.8,30,10.3,7.2,,,,,,,,,,,,,,,,,,,,,,,,,,,,,,,,,,,,,,,,,,,,,,,,,,,,,,,,,,,,,,,,,,,,,,,,,,,,,,,,,,,,,,,,,,,MET12602/24/23 04:20:02 SPECI KLNK 241020Z 03014G20KT 3/4SM R36/5500VP6000FT -SN VV013 M16/M20 A3061 RMK AO2 SNB0955 P0001 T11611200,,,,,,,,,,3/26/2007
USW00014939,2023-02-24T04:37:00,40.8508,-96.7475,362.7,"LINCOLN AIRPORT, NE US",FM-16,343,1036.2,-19.4,-16.1,0.5,-SN:03 |SN |SN,,,76,OVC:08 3.96,,992.7,2.012,-16.7,20,,6.7,,,,,,,,,,,,,,,,,,,,,,,,,,,,,,,,,,,,,,,,,,,,,,,,,,,,,,,,,,,,,,,,,,,,,,,,,,,,,,,,,,,,,,,,,,,MET10902/24/23 04:37:02 SPECI KLNK 241037Z 02013KT 1 1/4SM -SN OVC013 M16/M19 A3060 RMK AO2 SNB0955 P0002 T11611194,,,,,,,,,,3/26/2007
USW00014939,2023-02-24T04:45:00,40.8508,-96.7475,362.7,"LINCOLN AIRPORT, NE US",FM-16,343,1035.9,-19.4,-16.1,0.5,-SN:03 |SN |SN,,,76,OVC:08 5.18,,992.4,2.414,-16.7,20,,8.2,,,,,,,,,,,,,,,,,,,,,,,,,,,,,,,,,,,,,,,,,,,,,,,,,,,,,,,,,,,,,,,,,,,,,,,,,,,,,,,,,,,,,,,,,,,MET11602/24/23 04:45:02 SPECI KLNK 241045Z 02016KT 1 1/2SM -SN OVC017 M16/M19 A3059 RMK AO2 SNB0955 PRESFR P0002 T11611194,,,,,,,,,,3/26/2007
USW00014939,2023-02-24T04:52:00,40.8508,-96.7475,362.7,"LINCOLN AIRPORT, NE US",FM-16,343,1035.9,-19,-16,0.5,-SN:03 |SN |SN,,,78,OVC:08 5.79,,992.4,3.219,-16.6,30,,6.7,,,,,,,,,,,,,,,,,,,,,,,,,,,,,,,,,,,,,,,,,,,,,,,,,,,,,,,,,,,,,,,,,,,,,,,,,,,,,,,,,,,,,,,,,,,MET09502/24/23 04:52:02 SPECI KLNK 241052Z 03013KT 2SM -SN OVC019 M16/M19 A3059 RMK AO2 SNB0955 P0002,,,,,,,,,,3/26/2007
USW00014939,2023-02-24T04:54:00,40.8508,-96.7475,362.7,"LINCOLN AIRPORT, NE US",FM-15,343,1035.9,-19.4,-16.1,0.5,-SN:03 |SN |SN,,,76,OVC:08 6.4,1038.7,992.4,3.219,-16.7,20,,7.7,,,,,,,,,,,,,,,,,,,,,,,,,,,,,,,,,,,,,,,,,,,,,,,,,,,,,,,,,,,,,,,,,,,,,,,,,,,,,,,,,,,,,,,,,,,MET11202/24/23 04:54:02 METAR KLNK 241054Z 02015KT 2SM -SN OVC021 M16/M19 A3059 RMK AO2 SNB0955 SLP387 P0002 T11611194,,,,,,,,,,3/26/2007
USW00014939,2023-02-24T05:09:00,40.8508,-96.7475,362.7,"LINCOLN AIRPORT, NE US",FM-16,343,1035.9,-19.4,-16.1,T,-SN:03 |SN |SN,,,76,OVC:08 5.79,,992.4,2.816,-16.7,20,,7.7,,,,,,,,,,,,,,,,,,,,,,,,,,,,,,,,,,,,,,,,,,,,,,,,,,,,,,,,,,,,,,,,,,,,,,,,,,,,,,,,,,,,,,,,,,,MET11802/24/23 05:09:02 SPECI KLNK 241109Z 02015KT 1 3/4SM R36/5000VP6000FT -SN OVC019 M16/M19 A3059 RMK AO2 P0000 T11611194,,,,,,,,,,3/26/2007
USW00014939,2023-02-24T05:17:00,40.8508,-96.7475,362.7,"LINCOLN AIRPORT, NE US",FM-16,343,1036.6,-19.4,-16.7,0.2,-SN:03 |SN |SN,,,80,OVC:08 4.57,,993,2.012,-17.1,30,10.8,5.1,,,,,,,,,,,,,,,,,,,,,,,,,,,,,,,,,,,,,,,,,,,,,,,,,,,,,,,,,,,,,,,,,,,,,,,,,,,,,,,,,,,,,,,,,,,MET12102/24/23 05:17:02 SPECI KLNK 241117Z 03010G21KT 1 1/4SM R36/5000VP6000FT -SN OVC015 M17/M19 A3061 RMK AO2 P0001 T11671194,,,,,,,,,,3/26/2007
USW00014939,2023-02-24T05:50:00,40.8508,-96.7475,362.7,"LINCOLN AIRPORT, NE US",FM-16,343,1036.9,-19,-16,0.5,-SN:03 |SN |SN,,,78,BKN:07 5.79 OVC:08 10.06,,993.3,3.219,-16.6,40,,3.1,,,,,,,,,,,,,,,,,,,,,,,,,,,,,,,,,,,,,,,,,,,,,,,,,,,,,,,,,,,,,,,,,,,,,,,,,,,,,,,,,,,,,,,,,,,MET09402/24/23 05:50:02 SPECI KLNK 241150Z 04006KT 2SM -SN BKN019 OVC033 M16/M19 A3062 RMK AO2 P0002,,,,,,,,,,3/26/2007
USW00014939,2023-02-24T05:51:00,40.8508,-96.7475,362.7,"LINCOLN AIRPORT, NE US",FM-15,343,1036.9,-19.4,-16.1,0.5,-SN:03 |SN |SN,-0.1,5,76,BKN:07 5.79 OVC:08 10.06,1039.8,993.3,3.219,-16.7,40,,3.6,,,,,,,,,,,,,,,,,,,,,,,,,,,,,,,,,,,,,,,,,,,,,,,,,,,,,,,,,,,,,,,,,,,,,,,,,,,,,,,,,,,,,,,,,,,MET14602/24/23 05:51:02 METAR KLNK 241151Z 04007KT 2SM -SN BKN019 OVC033 M16/M19 A3062 RMK AO2 SLP398 P0002 60004 70004 T11611194 11156 21167 55001 (DS),,,,,,,,,,3/26/2007
USW00014939,2023-02-24T05:58:00,40.8508,-96.7475,362.7,"LINCOLN AIRPORT, NE US",FM-16,343,1036.9,-19.4,-16.1,T,-SN:03 |SN |SN,,,76,SCT:04 5.79 OVC:08 10.06,,993.3,4.828,-16.7,40,,3.6,,,,,,,,,,,,,,,,,,,,,,,,,,,,,,,,,,,,,,,,,,,,,,,,,,,,,,,,,,,,,,,,,,,,,,,,,,,,,,,,,,,,,,,,,,,MET10902/24/23 05:58:02 SPECI KLNK 241158Z 04007KT 3SM -SN SCT019 OVC033 M16/M19 A3062 RMK AO2 P0000 T11611194 (DS),,,,,,,,,,3/26/2007
USW00014939,2023-02-24T06:00:00,40.8508,-96.7475,362.7,"LINCOLN AIRPORT, NE US",FM-12,223,,-19.4,-16.1,,||SN,-0.1,5,76,,1039.8,993.1,,-16.7,40,,3.6,,,,,,,,,,,,,,,,,,,,,,,,,,,,,,,,,,,,,,,,,,,,,,,,,,,,,,,,,,,,,,,,,,,,,,,,,,,,,,,,,,,,,,,,,,,SYN09872551 11432 80407 11161 21194 39931 40398 55001 60011 771// 91151 333 11078 21167 70010 555 92412=,,,,,,,,,,3/26/2007
USW00014939,2023-02-24T06:54:00,40.8508,-96.7475,362.7,"LINCOLN AIRPORT, NE US",FM-15,343,1036.9,-19.4,-16.1,T,,,,76,OVC:08 9.14,1039.8,993.3,16.093,-16.7,40,,2.6,,,,,,,,,,,,,,,,,,,,,,,,,,,,,,,,,,,,,,,,,,,,,,,,,,,,,,,,,,,,,,,,,,,,,,,,,,,,,,,,,,,,,,,,,,,MET11202/24/23 06:54:02 METAR KLNK 241254Z 04005KT 10SM OVC030 M16/M19 A3062 RMK AO2 SNE23 SLP398 P0000 T11611194 (DS),,,,,,,,,,3/26/2007
USW00014939,2023-02-24T07:54:00,40.8508,-96.7475,362.7,"LINCOLN AIRPORT, NE US",FM-15,343,1037.9,-19.4,-15.6,0,,,,73,OVC:08 9.45,1040.7,994.3,14.484,-16.2,350,,2.1,,,,,,,,,,,,,,,,,,,,,,,,,,,,,,,,,,,,,,,,,,,,,,,,,,,,,,,,,,,,,,,,,,,,,,,,,,,,,,,,,,,,,,,,,,,MET09902/24/23 07:54:02 METAR KLNK 241354Z 35004KT 9SM OVC031 M16/M19 A3065 RMK AO2 SLP407 T11561194 (DS),,,,,,,,,,3/26/2007
USW00014939,2023-02-24T08:40:00,40.8508,-96.7475,362.7,"LINCOLN AIRPORT, NE US",FM-16,343,1037.6,-18.9,-15,,,,,72,OVC:08 8.53,,994,14.484,-15.7,40,,3.6,,,,,,,,,,,,,,,,,,,,,,,,,,,,,,,,,,,,,,,,,,,,,,,,,,,,,,,,,,,,,,,,,,,,,,,,,,,,,,,,,,,,,,,,,,,MET09202/24/23 08:40:02 SPECI KLNK 241440Z 04007KT 9SM OVC028 M15/M19 A3064 RMK AO2 T11501189 (DS),,,,,,,,,,3/26/2007
USW00014939,2023-02-24T08:54:00,40.8508,-96.7475,362.7,"LINCOLN AIRPORT, NE US",FM-15,343,1037.3,-18.9,-15,0,,0.2,0,72,OVC:08 8.23,1039.9,993.7,16.093,-15.7,20,,3.6,,,,,,,,,,,,,,,,,,,,,,,,,,,,,,,,,,,,,,,,,,,,,,,,,,,,,,,,,,,,,,,,,,,,,,,,,,,,,,,,,,,,,,,,,,,MET11202/24/23 08:54:02 METAR KLNK 241454Z 02007KT 10SM OVC027 M15/M19 A3063 RMK AO2 SLP399 60000 T11501189 50002 (DS),,,,,,,,,,3/26/2007
USW00014939,2023-02-24T09:33:00,40.8508,-96.7475,362.7,"LINCOLN AIRPORT, NE US",FM-16,343,1036.9,-18.3,-14.4,,,,,73,SCT:04 7.92 OVC:08 11.28,,993.3,16.093,-15.2,20,,3.6,,,,,,,,,,,,,,,,,,,,,,,,,,,,,,,,,,,,,,,,,,,,,,,,,,,,,,,,,,,,,,,,,,,,,,,,,,,,,,,,,,,,,,,,,,,MET10002/24/23 09:33:02 SPECI KLNK 241533Z 02007KT 10SM SCT026 OVC037 M14/M18 A3062 RMK AO2 T11441183 (DS),,,,,,,,,,3/26/2007
USW00014939,2023-02-24T09:43:00,40.8508,-96.7475,362.7,"LINCOLN AIRPORT, NE US",FM-16,343,1036.6,-18.3,-14.4,,,,,73,BKN:07 7.62 OVC:08 11.28,,993,16.093,-15.2,30,,3.6,,,,,,,,,,,,,,,,,,,,,,,,,,,,,,,,,,,,,,,,,,,,,,,,,,,,,,,,,,,,,,,,,,,,,,,,,,,,,,,,,,,,,,,,,,,MET10002/24/23 09:43:02 SPECI KLNK 241543Z 03007KT 10SM BKN025 OVC037 M14/M18 A3061 RMK AO2 T11441183 (DS),,,,,,,,,,3/26/2007
USW00014939,2023-02-24T09:54:00,40.8508,-96.7475,362.7,"LINCOLN AIRPORT, NE US",FM-15,343,1036.9,-18.9,-14.4,0,,,,69,BKN:07 7.01 OVC:08 11.28,1039.8,993.3,16.093,-15.3,30,,3.1,,,,,,,,,,,,,,,,,,,,,,,,,,,,,,,,,,,,,,,,,,,,,,,,,,,,,,,,,,,,,,,,,,,,,,,,,,,,,,,,,,,,,,,,,,,MET10702/24/23 09:54:02 METAR KLNK 241554Z 03006KT 10SM BKN023 OVC037 M14/M19 A3062 RMK AO2 SLP398 T11441189 (DS),,,,,,,,,,3/26/2007
USW00014939,2023-02-24T10:52:00,40.8508,-96.7475,362.7,"LINCOLN AIRPORT, NE US",FM-16,343,1036.9,-17,-13,,,,,72,SCT:04 6.1 BKN:07 36.58,,993.3,16.093,-13.7,20,,2.1,,,,,,,,,,,,,,,,,,,,,,,,,,,,,,,,,,,,,,,,,,,,,,,,,,,,,,,,,,,,,,,,,,,,,,,,,,,,,,,,,,,,,,,,,,,MET09502/24/23 10:52:02 SPECI KLNK 241652Z 02004KT 10SM SCT020 BKN120 M13/M17 A3062 RMK AO2 FIBI (DS),,,,,,,,,,3/26/2007
USW00014939,2023-02-24T10:54:00,40.8508,-96.7475,362.7,"LINCOLN AIRPORT, NE US",FM-15,343,1036.9,-17.8,-12.8,0,,,,66,SCT:04 6.1 BKN:07 11.89 BKN:07 36.58,1039.7,993.3,16.093,-13.8,10,,2.1,,,,,,,,,,,,,,,,,,,,,,,,,,,,,,,,,,,,,,,,,,,,,,,,,,,,,,,,,,,,,,,,,,,,,,,,,,,,,,,,,,,,,,,,,,,MET11402/24/23 10:54:02 METAR KLNK 241654Z 01004KT 10SM SCT020 BKN039 BKN120 M13/M18 A3062 RMK AO2 SLP397 T11281178 (DS),,,,,,,,,,3/26/2007
USW00014939,2023-02-24T11:54:00,40.8508,-96.7475,362.7,"LINCOLN AIRPORT, NE US",FM-15,343,1035.9,-16.7,-12.2,0,,-1.3,8,69,OVC:08 33.53,1038.7,992.4,16.093,-13.2,80,,2.1,,,,,,,,,,,,,,,,,,,,,,,,,,,,,,,,,,,,,,,,,,,,,,,,,,,,,,,,,,,,,,,,,,,,,,,,,,,,,,,,,,,,,,,,,,,MET12402/24/23 11:54:02 METAR KLNK 241754Z 08004KT 10SM OVC110 M12/M17 A3059 RMK AO2 SLP387 60000 T11221167 11122 21161 58013 (DS),,,,,,,,,,3/26/2007
USW00014939,2023-02-24T12:00:00,40.8508,-96.7475,362.7,"LINCOLN AIRPORT, NE US",FM-12,223,,-16.7,-12.2,,,-1.3,8,69,,1038.7,992.1,,-13.2,80,,2.1,,,,,,,,,,,,,,,,,,,,,,,,,,,,,,,,,,,,,,,,,,,,,,,,,,,,,,,,,,,,,,,,,,,,,,,,,,,,,,,,,,,,,,,,,,,SYN08672551 12966 80804 11122 21167 39921 40387 58013 69901 91754 333 11122 21161 555 92418=,,,,,,,,,,3/26/2007
USW00014939,2023-02-24T12:54:00,40.8508,-96.7475,362.7,"LINCOLN AIRPORT, NE US",FM-15,343,1034.2,-16.1,-11.1,0,,,,67,OVC:08 30.48,1036.9,990.7,16.093,-12.2,70,,2.1,,,,,,,,,,,,,,,,,,,,,,,,,,,,,,,,,,,,,,,,,,,,,,,,,,,,,,,,,,,,,,,,,,,,,,,,,,,,,,,,,,,,,,,,,,,MET10002/24/23 12:54:02 METAR KLNK 241854Z 07004KT 10SM OVC100 M11/M16 A3054 RMK AO2 SLP369 T11111161 (DS),,,,,,,,,,3/26/2007
USW00014939,2023-02-24T13:54:00,40.8508,-96.7475,362.7,"LINCOLN AIRPORT, NE US",FM-15,343,1033.2,-14.4,-9.4,0,,,,67,FEW:02 33.53,1035.7,989.7,16.093,-10.6,90,,2.6,,,,,,,,,,,,,,,,,,,,,,,,,,,,,,,,,,,,,,,,,,,,,,,,,,,,,,,,,,,,,,,,,,,,,,,,,,,,,,,,,,,,,,,,,,,MET10002/24/23 13:54:02 METAR KLNK 241954Z 09005KT 10SM FEW110 M09/M14 A3051 RMK AO2 SLP357 T10941144 (SD),,,,,,,,,,3/26/2007
USW00014939,2023-02-24T14:54:00,40.8508,-96.7475,362.7,"LINCOLN AIRPORT, NE US",FM-15,343,1031.5,-13.9,-8.3,0,,-4.2,6,64,SCT:04 5.79,1034.1,988.1,16.093,-9.7,100,,3.1,,,,,,,,,,,,,,,,,,,,,,,,,,,,,,,,,,,,,,,,,,,,,,,,,,,,,,,,,,,,,,,,,,,,,,,,,,,,,,,,,,,,,,,,,,,MET10602/24/23 14:54:02 METAR KLNK 242054Z 10006KT 10SM SCT019 M08/M14 A3046 RMK AO2 SLP341 T10831139 56042 (SD),,,,,,,,,,3/26/2007
USW00014939,2023-02-24T15:54:00,40.8508,-96.7475,362.7,"LINCOLN AIRPORT, NE US",FM-15,343,1030.8,-13.3,-8.3,0,,,,68,CLR:00,1033.5,987.4,16.093,-9.6,120,,1.5,,,,,,,,,,,,,,,,,,,,,,,,,,,,,,,,,,,,,,,,,,,,,,,,,,,,,,,,,,,,,,,,,,,,,,,,,,,,,,,,,,,,,,,,,,,MET09702/24/23 15:54:02 METAR KLNK 242154Z 12003KT 10SM CLR M08/M13 A3044 RMK AO2 SLP335 T10831133 (RT),,,,,,,,,,3/26/2007
USW00014939,2023-02-24T16:54:00,40.8508,-96.7475,362.7,"LINCOLN AIRPORT, NE US",FM-15,343,1030.8,-12.8,-7.2,0,,,,65,FEW:02 6.1,1033.4,987.4,16.093,-8.7,70,,2.1,,,,,,,,,,,,,,,,,,,,,,,,,,,,,,,,,,,,,,,,,,,,,,,,,,,,,,,,,,,,,,,,,,,,,,,,,,,,,,,,,,,,,,,,,,,MET10002/24/23 16:54:02 METAR KLNK 242254Z 07004KT 10SM FEW020 M07/M13 A3044 RMK AO2 SLP334 T10721128 (RT),,,,,,,,,,3/26/2007
USW00014939,2023-02-24T17:54:00,40.8508,-96.7475,362.7,"LINCOLN AIRPORT, NE US",FM-15,343,1031.2,-13.3,-7.8,0,,-0.4,5,65,CLR:00,1033.7,987.8,16.093,-9.2,340,,1.5,,,,,,,,,,,,,,,,,,,,,,,,,,,,,,,,,,,,,,,,,,,,,,,,,,,,,,,,,,,,,,,,,,,,,,,,,,,,,,,,,,,,,,,,,,,MET11502/24/23 17:54:02 METAR KLNK 242354Z 34003KT 10SM CLR M08/M13 A3045 RMK AO2 SLP337 T10781133 11067 21122 55004 (RT),,,,,,,,,,3/26/2007
USW00014939,2023-02-24T18:00:00,40.8508,-96.7475,362.7,"LINCOLN AIRPORT, NE US",FM-12,223,,-13.3,-7.8,,,-0.4,5,65,,1033.7,987.5,,-9.2,340,,1.5,,,,,,,,,,,,,,,,,,,,,,,,,,,,,,,,,,,,,,,,,,,,,,,,,,,,,,,,,,,,,,,,,,,,,,,,,,,,,,,,,,,,,,,,,,,SYN08072551 32966 03403 11078 21133 39875 40337 55004 92354 333 11067 21167 555 92500=,,,,,,,,,,3/26/2007
USW00014939,2023-02-24T18:54:00,40.8508,-96.7475,362.7,"LINCOLN AIRPORT, NE US",FM-15,343,1031.5,-13.3,-8.9,0,,,,71,CLR:00,1034,988.1,16.093,-10,330,,1.5,,,,,,,,,,,,,,,,,,,,,,,,,,,,,,,,,,,,,,,,,,,,,,,,,,,,,,,,,,,,,,,,,,,,,,,,,,,,,,,,,,,,,,,,,,,MET09202/24/23 18:54:01 METAR KLNK 250054Z 33003KT 10SM CLR M09/M13 A3046 RMK AO2 SLP340 T10891133,,,,,,,,,,3/26/2007
USW00014939,2023-02-24T19:54:00,40.8508,-96.7475,362.7,"LINCOLN AIRPORT, NE US",FM-15,343,1031.2,-13.9,-9.4,0,,,,70,CLR:00,1034,987.8,16.093,-10.5,200,,1.5,,,,,,,,,,,,,,,,,,,,,,,,,,,,,,,,,,,,,,,,,,,,,,,,,,,,,,,,,,,,,,,,,,,,,,,,,,,,,,,,,,,,,,,,,,,MET09202/24/23 19:54:01 METAR KLNK 250154Z 20003KT 10SM CLR M09/M14 A3045 RMK AO2 SLP340 T10941139,,,,,,,,,,3/26/2007
USW00014939,2023-02-24T20:54:00,40.8508,-96.7475,362.7,"LINCOLN AIRPORT, NE US",FM-15,343,1030.8,-14.4,-9.4,0,,-0.5,8,67,CLR:00,1033.3,987.4,16.093,-10.6,190,,1.5,,,,,,,,,,,,,,,,,,,,,,,,,,,,,,,,,,,,,,,,,,,,,,,,,,,,,,,,,,,,,,,,,,,,,,,,,,,,,,,,,,,,,,,,,,,MET09802/24/23 20:54:01 METAR KLNK 250254Z 19003KT 10SM CLR M09/M14 A3044 RMK AO2 SLP333 T10941144 58005,,,,,,,,,,3/26/2007
USW00014939,2023-02-24T21:54:00,40.8508,-96.7475,362.7,"LINCOLN AIRPORT, NE US",FM-15,343,1030.8,-13.9,-10,0,,,,73,CLR:00,1033.4,987.4,16.093,-10.9,,,0,,,,,,,,,,,,,,,,,,,,,,,,,,,,,,,,,,,,,,,,,,,,,,,,,,,,,,,,,,,,,,,,,,,,,,,,,,,,,,,,,,,,,,,,,,,MET09202/24/23 21:54:01 METAR KLNK 250354Z 00000KT 10SM CLR M10/M14 A3044 RMK AO2 SLP334 T11001139,,,,,,,,,,3/26/2007
USW00014939,2023-02-24T22:54:00,40.8508,-96.7475,362.7,"LINCOLN AIRPORT, NE US",FM-15,343,1030.1,-14.4,-10.6,0,,,,74,CLR:00,1032.7,986.8,16.093,-11.5,,,0,,,,,,,,,,,,,,,,,,,,,,,,,,,,,,,,,,,,,,,,,,,,,,,,,,,,,,,,,,,,,,,,,,,,,,,,,,,,,,,,,,,,,,,,,,,MET09202/24/23 22:54:02 METAR KLNK 250454Z 00000KT 10SM CLR M11/M14 A3042 RMK AO2 SLP327 T11061144,,,,,,,,,,3/26/2007
USW00014939,2023-02-24T23:54:00,40.8508,-96.7475,362.7,"LINCOLN AIRPORT, NE US",FM-15,343,1029.1,-15,-11.7,0,,-1.5,8,77,CLR:00,1031.7,985.8,16.093,-12.4,,,0,,,,,,,,,,,,,,,,,,,,,,,,,,,,,,,,,,,,,,,,,,,,,,,,,,,,,,,,,,,,,,,,,,,,,,,,,,,,,,,,,,,,,,,,,,,MET12002/24/23 23:54:02 METAR KLNK 250554Z 00000KT 10SM CLR M12/M15 A3039 RMK AO2 SLP317 T11171150 11078 21122 410671167 58015,,,,,,,,,,3/26/2007
USW00014939,2023-02-25T00:00:00,40.8508,-96.7475,362.7,"LINCOLN AIRPORT, NE US",FM-12,223,,-15,-11.7,,,-1.5,8,77,,1031.7,985.6,,-12.4,,,0,,,,,,,,,,,,,,,,,,,,,,,,,,,,,,,,,,,,,,,,,,,,,,,,,,,,,,,,,,,,,,,,,,,,,,,,,,,,,,,,,,,,,,,,,,,SYN08072551 35966 00000 11117 21150 39856 40317 58015 90554 333 11078 21167 555 92506=,,,,,,,,,,3/26/2007
USW00014939,2023-02-25T00:00:00,40.8508,-96.7475,362.7,"LINCOLN AIRPORT, NE US",SOD,,,,,,,,,,,,,,,,,,709,1812,-9.4,-1.9,60,1024,977,-5,3.4,0,-2.46,20.2,10,-13.8,210,11.6,0,T,0,220,9.4,,,,,,,,,,,,,,,,,,,,,,,,,,,,,,,,,,,,,,,,,,,,,,,,,,,,,,,,,,,,,,,,,,,,,,,,,,,,,,,,3/26/2007
USW00014939,2023-02-25T00:54:00,40.8508,-96.7475,362.7,"LINCOLN AIRPORT, NE US",FM-15,343,1028.8,-15.6,-12.8,0,,,,80,CLR:00,1031.2,985.5,16.093,-13.4,200,,1.5,,,,,,,,,,,,,,,,,,,,,,,,,,,,,,,,,,,,,,,,,,,,,,,,,,,,,,,,,,,,,,,,,,,,,,,,,,,,,,,,,,,,,,,,,,,MET09202/25/23 00:54:02 METAR KLNK 250654Z 20003KT 10SM CLR M13/M16 A3038 RMK AO2 SLP312 T11281156,,,,,,,,,,3/26/2007
USW00014939,2023-02-25T01:54:00,40.8508,-96.7475,362.7,"LINCOLN AIRPORT, NE US",FM-15,343,1027.8,-15.6,-12.2,0,,,,76,CLR:00,1030.3,984.5,16.093,-13,,,0,,,,,,,,,,,,,,,,,,,,,,,,,,,,,,,,,,,,,,,,,,,,,,,,,,,,,,,,,,,,,,,,,,,,,,,,,,,,,,,,,,,,,,,,,,,MET09202/25/23 01:54:02 METAR KLNK 250754Z 00000KT 10SM CLR M12/M16 A3035 RMK AO2 SLP303 T11221156,,,,,,,,,,3/26/2007
USW00014939,2023-02-25T02:54:00,40.8508,-96.7475,362.7,"LINCOLN AIRPORT, NE US",FM-15,343,1027.4,-15.6,-12.8,0,,-1.8,8,80,CLR:00,1029.8,984.2,16.093,-13.4,,,0,,,,,,,,,,,,,,,,,,,,,,,,,,,,,,,,,,,,,,,,,,,,,,,,,,,,,,,,,,,,,,,,,,,,,,,,,,,,,,,,,,,,,,,,,,,MET09802/25/23 02:54:02 METAR KLNK 250854Z 00000KT 10SM CLR M13/M16 A3034 RMK AO2 SLP298 T11281156 58018,,,,,,,,,,3/26/2007
USW00014939,2023-02-25T03:54:00,40.8508,-96.7475,362.7,"LINCOLN AIRPORT, NE US",FM-15,343,1026.8,-15.6,-12.8,0,,,,80,CLR:00,1029,983.5,16.093,-13.4,160,,1.5,,,,,,,,,,,,,,,,,,,,,,,,,,,,,,,,,,,,,,,,,,,,,,,,,,,,,,,,,,,,,,,,,,,,,,,,,,,,,,,,,,,,,,,,,,,MET09202/25/23 03:54:02 METAR KLNK 250954Z 16003KT 10SM CLR M13/M16 A3032 RMK AO2 SLP290 T11281156,,,,,,,,,,3/26/2007
USW00014939,2023-02-25T04:54:00,40.8508,-96.7475,362.7,"LINCOLN AIRPORT, NE US",FM-15,343,1026.1,-15.6,-13.3,0,,,,83,CLR:00,1028.4,982.9,16.093,-13.8,190,,2.6,,,,,,,,,,,,,,,,,,,,,,,,,,,,,,,,,,,,,,,,,,,,,,,,,,,,,,,,,,,,,,,,,,,,,,,,,,,,,,,,,,,,,,,,,,,MET09202/25/23 04:54:02 METAR KLNK 251054Z 19005KT 10SM CLR M13/M16 A3030 RMK AO2 SLP284 T11331156,,,,,,,,,,3/26/2007
USW00014939,2023-02-25T05:54:00,40.8508,-96.7475,362.7,"LINCOLN AIRPORT, NE US",FM-15,343,1025.4,-16.1,-13.3,0,,-1.8,6,80,CLR:00,1027.9,982.2,16.093,-13.9,190,,2.1,,,,,,,,,,,,,,,,,,,,,,,,,,,,,,,,,,,,,,,,,,,,,,,,,,,,,,,,,,,,,,,,,,,,,,,,,,,,,,,,,,,,,,,,,,,MET11002/25/23 05:54:02 METAR KLNK 251154Z 19004KT 10SM CLR M13/M16 A3028 RMK AO2 SLP279 T11331161 11117 21133 56018,,,,,,,,,,3/26/2007
USW00014939,2023-02-25T06:00:00,40.8508,-96.7475,362.7,"LINCOLN AIRPORT, NE US",FM-12,223,,-16.1,-13.3,,,-1.8,6,80,,1027.9,982,,-13.9,190,,2.1,,,,,,,,,,,,,,,,,,,,,,,,,,,,,,,,,,,,,,,,,,,,,,,,,,,,,,,,,,,,,,,,,,,,,,,,,,,,,,,,,,,,,,,,,,,SYN08072551 35966 01904 11133 21161 39820 40279 56018 91154 333 11067 21133 555 92512=,,,,,,,,,,3/26/2007
USW00014939,2023-02-25T06:54:00,40.8508,-96.7475,362.7,"LINCOLN AIRPORT, NE US",FM-15,343,1025.1,-15.6,-12.8,0,,,,80,CLR:00,1027.4,981.9,16.093,-13.4,180,,3.1,,,,,,,,,,,,,,,,,,,,,,,,,,,,,,,,,,,,,,,,,,,,,,,,,,,,,,,,,,,,,,,,,,,,,,,,,,,,,,,,,,,,,,,,,,,MET09202/25/23 06:54:02 METAR KLNK 251254Z 18006KT 10SM CLR M13/M16 A3027 RMK AO2 SLP274 T11281156,,,,,,,,,,3/26/2007
USW00014939,2023-02-25T07:54:00,40.8508,-96.7475,362.7,"LINCOLN AIRPORT, NE US",FM-15,343,1024.7,-13.3,-10.6,0,,,,81,CLR:00,1027,981.6,16.093,-11.2,150,,1.5,,,,,,,,,,,,,,,,,,,,,,,,,,,,,,,,,,,,,,,,,,,,,,,,,,,,,,,,,,,,,,,,,,,,,,,,,,,,,,,,,,,,,,,,,,,MET09702/25/23 07:54:02 METAR KLNK 251354Z 15003KT 10SM CLR M11/M13 A3026 RMK AO2 SLP270 T11061133 (HN),,,,,,,,,,3/26/2007
USW00014939,2023-02-25T08:54:00,40.8508,-96.7475,362.7,"LINCOLN AIRPORT, NE US",FM-15,343,1024.7,-11.1,-7.2,0,,-0.9,6,74,CLR:00,1026.6,981.6,16.093,-8.3,210,,3.1,,,,,,,,,,,,,,,,,,,,,,,,,,,,,,,,,,,,,,,,,,,,,,,,,,,,,,,,,,,,,,,,,,,,,,,,,,,,,,,,,,,,,,,,,,,MET10302/25/23 08:54:02 METAR KLNK 251454Z 21006KT 10SM CLR M07/M11 A3026 RMK AO2 SLP266 T10721111 56009 (HN),,,,,,,,,,3/26/2007
USW00014939,2023-02-25T09:54:00,40.8508,-96.7475,362.7,"LINCOLN AIRPORT, NE US",FM-15,343,1023.7,-10,-3.9,0,,,,63,CLR:00,1025.4,980.6,16.093,-5.7,210,,5.1,,,,,,,,,,,,,,,,,,,,,,,,,,,,,,,,,,,,,,,,,,,,,,,,,,,,,,,,,,,,,,,,,,,,,,,,,,,,,,,,,,,,,,,,,,,MET09702/25/23 09:54:02 METAR KLNK 251554Z 21010KT 10SM CLR M04/M10 A3023 RMK AO2 SLP254 T10391100 (HN),,,,,,,,,,3/26/2007
USW00014939,2023-02-25T10:54:00,40.8508,-96.7475,362.7,"LINCOLN AIRPORT, NE US",FM-15,343,1023.4,-8.3,0,0,,,,54,CLR:00,1025,980.3,16.093,-2.8,200,,6.7,,,,,,,,,,,,,,,,,,,,,,,,,,,,,,,,,,,,,,,,,,,,,,,,,,,,,,,,,,,,,,,,,,,,,,,,,,,,,,,,,,,,,,,,,,,MET09602/25/23 10:54:02 METAR KLNK 251654Z 20013KT 10SM CLR 00/M08 A3022 RMK AO2 SLP250 T00001083 (HN),,,,,,,,,,3/26/2007
USW00014939,2023-02-25T11:54:00,40.8508,-96.7475,362.7,"LINCOLN AIRPORT, NE US",FM-15,343,1022.7,-6.1,3.3,0,,-2,6,51,CLR:00,1024.1,979.6,16.093,-0.1,200,,7.7,,,,,,,,,,,,,,,,,,,,,,,,,,,,,,,,,,,,,,,,,,,,,,,,,,,,,,,,,,,,,,,,,,,,,,,,,,,,,,,,,,,,,,,,,,,MET11402/25/23 11:54:02 METAR KLNK 251754Z 20015KT 10SM CLR 03/M06 A3020 RMK AO2 SLP241 T00331061 10033 21139 56020 (HN),,,,,,,,,,3/26/2007
USW00014939,2023-02-25T12:00:00,40.8508,-96.7475,362.7,"LINCOLN AIRPORT, NE US",FM-12,223,,-6.1,3.3,,,-2,6,51,,1024.1,979.4,,-0.1,200,,7.7,,,,,,,,,,,,,,,,,,,,,,,,,,,,,,,,,,,,,,,,,,,,,,,,,,,,,,,,,,,,,,,,,,,,,,,,,,,,,,,,,,,,,,,,,,,SYN08072551 32966 02015 10033 21061 39794 40241 56020 91754 333 10033 21139 555 92518=,,,,,,,,,,3/26/2007
USW00014939,2023-02-25T12:54:00,40.8508,-96.7475,362.7,"LINCOLN AIRPORT, NE US",FM-15,343,1021.3,-5.6,5.6,0,,,,45,CLR:00,1022.9,978.3,16.093,1.3,220,,6.2,,,,,,,,,,,,,,,,,,,,,,,,,,,,,,,,,,,,,,,,,,,,,,,,,,,,,,,,,,,,,,,,,,,,,,,,,,,,,,,,,,,,,,,,,,,MET09602/25/23 12:54:02 METAR KLNK 251854Z 22012KT 10SM CLR 06/M06 A3016 RMK AO2 SLP229 T00561056 (BV),,,,,,,,,,3/26/2007
USW00014939,2023-02-25T13:54:00,40.8508,-96.7475,362.7,"LINCOLN AIRPORT, NE US",FM-15,343,1019.6,-5,7.8,0,,,,40,CLR:00,1021.2,976.7,16.093,2.7,220,,7.2,,,,,,,,,,,,,,,,,,,,,,,,,,,,,,,,,,,,,,,,,,,,,,,,,,,,,,,,,,,,,,,,,,,,,,,,,,,,,,,,,,,,,,,,,,,MET09602/25/23 13:54:02 METAR KLNK 251954Z 22014KT 10SM CLR 08/M05 A3011 RMK AO2 SLP212 T00781050 (BV),,,,,,,,,,3/26/2007
USW00014939,2023-02-25T14:54:00,40.8508,-96.7475,362.7,"LINCOLN AIRPORT, NE US",FM-15,343,1019,-5,8.3,0,,-3.4,6,39,CLR:00,1020.4,976,16.093,3,210,11.3,7.2,,,,,,,,,,,,,,,,,,,,,,,,,,,,,,,,,,,,,,,,,,,,,,,,,,,,,,,,,,,,,,,,,,,,,,,,,,,,,,,,,,,,,,,,,,,MET10502/25/23 14:54:02 METAR KLNK 252054Z 21014G22KT 10SM CLR 08/M05 A3009 RMK AO2 SLP204 T00831050 56034 (BV),,,,,,,,,,3/26/2007
USW00014939,2023-02-25T15:54:00,40.8508,-96.7475,362.7,"LINCOLN AIRPORT, NE US",FM-15,343,1017.9,-5,9.4,0,,,,36,CLR:00,1019.2,975,16.093,3.6,200,,5.7,,,,,,,,,,,,,,,,,,,,,,,,,,,,,,,,,,,,,,,,,,,,,,,,,,,,,,,,,,,,,,,,,,,,,,,,,,,,,,,,,,,,,,,,,,,MET09602/25/23 15:54:02 METAR KLNK 252154Z 20011KT 10SM CLR 09/M05 A3006 RMK AO2 SLP192 T00941050 (CK),,,,,,,,,,3/26/2007
USW00014939,2023-02-25T16:54:00,40.8508,-96.7475,362.7,"LINCOLN AIRPORT, NE US",FM-15,343,1017.9,-5,9.4,0,,,,36,CLR:00,1019.1,975,16.093,3.6,220,,4.6,,,,,,,,,,,,,,,,,,,,,,,,,,,,,,,,,,,,,,,,,,,,,,,,,,,,,,,,,,,,,,,,,,,,,,,,,,,,,,,,,,,,,,,,,,,MET09602/25/23 16:54:02 METAR KLNK 252254Z 22009KT 10SM CLR 09/M05 A3006 RMK AO2 SLP191 T00941050 (CK),,,,,,,,,,3/26/2007
USW00014939,2023-02-25T17:54:00,40.8508,-96.7475,362.7,"LINCOLN AIRPORT, NE US",FM-15,343,1016.9,-4.4,7.8,0,,-2,6,42,CLR:00,1018.4,974,16.093,2.9,220,,4.6,,,,,,,,,,,,,,,,,,,,,,,,,,,,,,,,,,,,,,,,,,,,,,,,,,,,,,,,,,,,,,,,,,,,,,,,,,,,,,,,,,,,,,,,,,,MET11402/25/23 17:54:02 METAR KLNK 252354Z 22009KT 10SM CLR 08/M04 A3003 RMK AO2 SLP184 T00781044 10100 20033 56020 (CK),,,,,,,,,,3/26/2007
USW00014939,2023-02-25T18:00:00,40.8508,-96.7475,362.7,"LINCOLN AIRPORT, NE US",FM-12,223,,-4.4,7.8,,,-2,6,42,,1018.4,973.8,,2.9,220,,4.6,,,,,,,,,,,,,,,,,,,,,,,,,,,,,,,,,,,,,,,,,,,,,,,,,,,,,,,,,,,,,,,,,,,,,,,,,,,,,,,,,,,,,,,,,,,SYN08072551 32966 02209 10078 21044 39738 40184 56020 92354 333 10100 21132 555 92600=,,,,,,,,,,3/26/2007
USW00014939,2023-02-25T18:54:00,40.8508,-96.7475,362.7,"LINCOLN AIRPORT, NE US",FM-15,343,1017.3,-6.1,3.9,0,,,,48,CLR:00,1018.7,974.4,16.093,0.2,180,,3.6,,,,,,,,,,,,,,,,,,,,,,,,,,,,,,,,,,,,,,,,,,,,,,,,,,,,,,,,,,,,,,,,,,,,,,,,,,,,,,,,,,,,,,,,,,,MET09102/25/23 18:54:01 METAR KLNK 260054Z 18007KT 10SM CLR 04/M06 A3004 RMK AO2 SLP187 T00391061,,,,,,,,,,3/26/2007
USW00014939,2023-02-25T19:54:00,40.8508,-96.7475,362.7,"LINCOLN AIRPORT, NE US",FM-15,343,1017.3,-6.1,3.3,0,,,,51,CLR:00,1018.8,974.4,16.093,-0.1,140,,2.1,,,,,,,,,,,,,,,,,,,,,,,,,,,,,,,,,,,,,,,,,,,,,,,,,,,,,,,,,,,,,,,,,,,,,,,,,,,,,,,,,,,,,,,,,,,MET09102/25/23 19:54:01 METAR KLNK 260154Z 14004KT 10SM CLR 03/M06 A3004 RMK AO2 SLP188 T00331061,,,,,,,,,,3/26/2007
USW00014939,2023-02-25T20:54:00,40.8508,-96.7475,362.7,"LINCOLN AIRPORT, NE US",FM-15,343,1017.6,-5.6,1.7,0,,0.6,3,59,CLR:00,1019,974.7,16.093,-1,180,,1.5,,,,,,,,,,,,,,,,,,,,,,,,,,,,,,,,,,,,,,,,,,,,,,,,,,,,,,,,,,,,,,,,,,,,,,,,,,,,,,,,,,,,,,,,,,,MET09702/25/23 20:54:01 METAR KLNK 260254Z 18003KT 10SM CLR 02/M06 A3005 RMK AO2 SLP190 T00171056 53006,,,,,,,,,,3/26/2007
USW00014939,2023-02-25T21:54:00,40.8508,-96.7475,362.7,"LINCOLN AIRPORT, NE US",FM-15,343,1017.3,-6.1,1.1,0,,,,59,CLR:00,1018.5,974.4,16.093,-1.5,180,,2.1,,,,,,,,,,,,,,,,,,,,,,,,,,,,,,,,,,,,,,,,,,,,,,,,,,,,,,,,,,,,,,,,,,,,,,,,,,,,,,,,,,,,,,,,,,,MET09102/25/23 21:54:01 METAR KLNK 260354Z 18004KT 10SM CLR 01/M06 A3004 RMK AO2 SLP185 T00111061,,,,,,,,,,3/26/2007
USW00014939,2023-02-25T22:54:00,40.8508,-96.7475,362.7,"LINCOLN AIRPORT, NE US",FM-15,343,1016.9,-6.7,0.6,0,,,,58,CLR:00,1017.9,974,16.093,-2,160,,2.1,,,,,,,,,,,,,,,,,,,,,,,,,,,,,,,,,,,,,,,,,,,,,,,,,,,,,,,,,,,,,,,,,,,,,,,,,,,,,,,,,,,,,,,,,,,MET09102/25/23 22:54:02 METAR KLNK 260454Z 16004KT 10SM CLR 01/M07 A3003 RMK AO2 SLP179 T00061067,,,,,,,,,,3/26/2007
USW00014939,2023-02-25T23:54:00,40.8508,-96.7475,362.7,"LINCOLN AIRPORT, NE US",FM-15,343,1016.3,-6.7,-2.8,0,,-1.2,8,75,CLR:00,1017.4,973.4,16.093,-4.1,,,0,,,,,,,,,,,,,,,,,,,,,,,,,,,,,,,,,,,,,,,,,,,,,,,,,,,,,,,,,,,,,,,,,,,,,,,,,,,,,,,,,,,,,,,,,,,MET12002/25/23 23:54:02 METAR KLNK 260554Z 00000KT 10SM CLR M03/M07 A3001 RMK AO2 SLP174 T10281067 10078 21028 401001139 58012,,,,,,,,,,3/26/2007
USW00014939,2023-02-26T00:00:00,40.8508,-96.7475,362.7,"LINCOLN AIRPORT, NE US",FM-12,223,,-6.7,-2.8,,,-1.2,8,75,,1017.4,973.1,,-4.1,,,0,,,,,,,,,,,,,,,,,,,,,,,,,,,,,,,,,,,,,,,,,,,,,,,,,,,,,,,,,,,,,,,,,,,,,,,,,,,,,,,,,,,,,,,,,,,SYN08072551 35966 00000 11028 21067 39731 40174 58012 90554 333 10078 21133 555 92606=,,,,,,,,,,3/26/2007
USW00014939,2023-02-26T00:00:00,40.8508,-96.7475,362.7,"LINCOLN AIRPORT, NE US",SOD,,,,,,,,,,,,,,,,,,708,1813,-0.6,3.1,77,1007.1,960.4,1.7,3.8,0,2.32,15.2,11.7,-5.5,160,14.8,7.6,0,0,150,11.2,BR HZ TS RA,,,,,,,,,,,,,,,,,,,,,,,,,,,,,,,,,,,,,,,,,,,,,,,,,,,,,,,,,,,,,,,,,,,,,,,,,,,,,,,3/26/2007
USW00014939,2023-02-26T00:54:00,40.8508,-96.7475,362.7,"LINCOLN AIRPORT, NE US",FM-15,343,1016.3,-7.2,-3.3,0,,,,75,CLR:00,1017.1,973.4,16.093,-4.6,,,0,,,,,,,,,,,,,,,,,,,,,,,,,,,,,,,,,,,,,,,,,,,,,,,,,,,,,,,,,,,,,,,,,,,,,,,,,,,,,,,,,,,,,,,,,,,MET09202/26/23 00:54:02 METAR KLNK 260654Z 00000KT 10SM CLR M03/M07 A3001 RMK AO2 SLP171 T10331072,,,,,,,,,,3/26/2007
USW00014939,2023-02-26T01:54:00,40.8508,-96.7475,362.7,"LINCOLN AIRPORT, NE US",FM-15,343,1015.6,-6.7,-4.4,0,,,,84,CLR:00,1016.7,972.7,16.093,-5.2,,,0,,,,,,,,,,,,,,,,,,,,,,,,,,,,,,,,,,,,,,,,,,,,,,,,,,,,,,,,,,,,,,,,,,,,,,,,,,,,,,,,,,,,,,,,,,,MET09202/26/23 01:54:02 METAR KLNK 260754Z 00000KT 10SM CLR M04/M07 A2999 RMK AO2 SLP167 T10441067,,,,,,,,,,3/26/2007
USW00014939,2023-02-26T02:54:00,40.8508,-96.7475,362.7,"LINCOLN AIRPORT, NE US",FM-15,343,1015.2,-7.2,-4.4,0,,-1,8,81,CLR:00,1016.1,972.4,16.093,-5.3,,,0,,,,,,,,,,,,,,,,,,,,,,,,,,,,,,,,,,,,,,,,,,,,,,,,,,,,,,,,,,,,,,,,,,,,,,,,,,,,,,,,,,,,,,,,,,,MET09802/26/23 02:54:02 METAR KLNK 260854Z 00000KT 10SM CLR M04/M07 A2998 RMK AO2 SLP161 T10441072 58010,,,,,,,,,,3/26/2007
USW00014939,2023-02-26T03:54:00,40.8508,-96.7475,362.7,"LINCOLN AIRPORT, NE US",FM-15,343,1014.2,-8.3,-5.6,0,,,,82,CLR:00,1015.3,971.4,16.093,-6.4,160,,2.6,,,,,,,,,,,,,,,,,,,,,,,,,,,,,,,,,,,,,,,,,,,,,,,,,,,,,,,,,,,,,,,,,,,,,,,,,,,,,,,,,,,,,,,,,,,MET09202/26/23 03:54:02 METAR KLNK 260954Z 16005KT 10SM CLR M06/M08 A2995 RMK AO2 SLP153 T10561083,,,,,,,,,,3/26/2007
USW00014939,2023-02-26T04:54:00,40.8508,-96.7475,362.7,"LINCOLN AIRPORT, NE US",FM-15,343,1013.9,-7.2,-2.8,0,,,,72,CLR:00,1014.7,971.1,16.093,-4.2,170,,2.1,,,,,,,,,,,,,,,,,,,,,,,,,,,,,,,,,,,,,,,,,,,,,,,,,,,,,,,,,,,,,,,,,,,,,,,,,,,,,,,,,,,,,,,,,,,MET09202/26/23 04:54:02 METAR KLNK 261054Z 17004KT 10SM CLR M03/M07 A2994 RMK AO2 SLP147 T10281072,,,,,,,,,,3/26/2007
USW00014939,2023-02-26T05:54:00,40.8508,-96.7475,362.7,"LINCOLN AIRPORT, NE US",FM-15,343,1013.5,-7.8,-3.9,0,,-1.5,6,75,CLR:00,1014.6,970.8,16.093,-5.1,,,0,,,,,,,,,,,,,,,,,,,,,,,,,,,,,,,,,,,,,,,,,,,,,,,,,,,,,,,,,,,,,,,,,,,,,,,,,,,,,,,,,,,,,,,,,,,MET11502/26/23 05:54:02 METAR KLNK 261154Z 00000KT 10SM CLR M04/M08 A2993 RMK AO2 SLP146 T10391078 11017 21056 56015 (CR),,,,,,,,,,3/26/2007
USW00014939,2023-02-26T06:00:00,40.8508,-96.7475,362.7,"LINCOLN AIRPORT, NE US",FM-12,223,,-7.8,-3.9,,,-1.5,6,75,,1014.6,970.5,,-5.1,,,0,,,,,,,,,,,,,,,,,,,,,,,,,,,,,,,,,,,,,,,,,,,,,,,,,,,,,,,,,,,,,,,,,,,,,,,,,,,,,,,,,,,,,,,,,,,SYN08072551 32966 00000 11039 21078 39705 40146 56015 91154 333 10100 21056 555 92612=,,,,,,,,,,3/26/2007
USW00014939,2023-02-26T06:54:00,40.8508,-96.7475,362.7,"LINCOLN AIRPORT, NE US",FM-15,343,1013.2,-7.8,-5,0,,,,81,CLR:00,1014.4,970.4,16.093,-5.9,,,0,,,,,,,,,,,,,,,,,,,,,,,,,,,,,,,,,,,,,,,,,,,,,,,,,,,,,,,,,,,,,,,,,,,,,,,,,,,,,,,,,,,,,,,,,,,MET09702/26/23 06:54:02 METAR KLNK 261254Z 00000KT 10SM CLR M05/M08 A2992 RMK AO2 SLP144 T10501078 (CR),,,,,,,,,,3/26/2007
USW00014939,2023-02-26T07:54:00,40.8508,-96.7475,362.7,"LINCOLN AIRPORT, NE US",FM-15,343,1012.5,-7.2,-3.9,0,,,,78,CLR:00,1013.4,969.8,16.093,-5,350,,1.5,,,,,,,,,,,,,,,,,,,,,,,,,,,,,,,,,,,,,,,,,,,,,,,,,,,,,,,,,,,,,,,,,,,,,,,,,,,,,,,,,,,,,,,,,,,MET09702/26/23 07:54:02 METAR KLNK 261354Z 35003KT 10SM CLR M04/M07 A2990 RMK AO2 SLP134 T10391072 (CR),,,,,,,,,,3/26/2007
USW00014939,2023-02-26T08:54:00,40.8508,-96.7475,362.7,"LINCOLN AIRPORT, NE US",FM-15,343,1011.9,-4.4,0,0,,-1.8,8,73,CLR:00,1012.8,969.1,16.093,-1.6,,,0,,,,,,,,,,,,,,,,,,,,,,,,,,,,,,,,,,,,,,,,,,,,,,,,,,,,,,,,,,,,,,,,,,,,,,,,,,,,,,,,,,,,,,,,,,,MET10202/26/23 08:54:02 METAR KLNK 261454Z 00000KT 10SM CLR 00/M04 A2988 RMK AO2 SLP128 T00001044 58018 (CR),,,,,,,,,,3/26/2007
USW00014939,2023-02-26T09:54:00,40.8508,-96.7475,362.7,"LINCOLN AIRPORT, NE US",FM-15,343,1011.9,-1.7,4.4,0,,,,65,CLR:00,1012.7,969.1,16.093,2,170,,4.6,,,,,,,,,,,,,,,,,,,,,,,,,,,,,,,,,,,,,,,,,,,,,,,,,,,,,,,,,,,,,,,,,,,,,,,,,,,,,,,,,,,,,,,,,,,MET09602/26/23 09:54:02 METAR KLNK 261554Z 17009KT 10SM CLR 04/M02 A2988 RMK AO2 SLP127 T00441017 (CR),,,,,,,,,,3/26/2007
USW00014939,2023-02-26T10:54:00,40.8508,-96.7475,362.7,"LINCOLN AIRPORT, NE US",FM-15,343,1010.5,1.1,7.8,0,,,,63,CLR:00,1011.1,967.8,12.875,4.8,170,,5.1,,,,,,,,,,,,,,,,,,,,,,,,,,,,,,,,,,,,,,,,,,,,,,,,,,,,,,,,,,,,,,,,,,,,,,,,,,,,,,,,,,,,,,,,,,,MET09402/26/23 10:54:02 METAR KLNK 261654Z 17010KT 8SM CLR 08/01 A2984 RMK AO2 SLP111 T00780011 (CR),,,,,,,,,,3/26/2007
USW00014939,2023-02-26T11:54:00,40.8508,-96.7475,362.7,"LINCOLN AIRPORT, NE US",FM-15,343,1008.8,0.6,10.6,0,,-2.9,8,50,BKN:07 12.8,1009.5,966.2,16.093,6,160,,7.7,,,,,,,,,,,,,,,,,,,,,,,,,,,,,,,,,,,,,,,,,,,,,,,,,,,,,,,,,,,,,,,,,,,,,,,,,,,,,,,,,,,,,,,,,,,MET11602/26/23 11:54:02 METAR KLNK 261754Z 16015KT 10SM BKN042 11/01 A2979 RMK AO2 SLP095 T01060006 10111 21050 58029 (CR),,,,,,,,,,3/26/2007
USW00014939,2023-02-26T12:00:00,40.8508,-96.7475,362.7,"LINCOLN AIRPORT, NE US",FM-12,223,,0.6,10.6,,,-2.9,8,50,,1009.5,965.9,,6,160,,7.7,,,,,,,,,,,,,,,,,,,,,,,,,,,,,,,,,,,,,,,,,,,,,,,,,,,,,,,,,,,,,,,,,,,,,,,,,,,,,,,,,,,,,,,,,,,SYN08072551 32666 61615 10106 20006 39659 40095 58029 91754 333 10111 21050 555 92618=,,,,,,,,,,3/26/2007
USW00014939,2023-02-26T12:54:00,40.8508,-96.7475,362.7,"LINCOLN AIRPORT, NE US",FM-15,343,1006.8,2.8,10,0,,,,61,BKN:07 7.01 OVC:08 9.75,1007.4,964.2,12.875,6.6,170,,7.2,,,,,,,,,,,,,,,,,,,,,,,,,,,,,,,,,,,,,,,,,,,,,,,,,,,,,,,,,,,,,,,,,,,,,,,,,,,,,,,,,,,,,,,,,,,MET11102/26/23 12:54:02 METAR KLNK 261854Z 17014KT 8SM BKN023 OVC032 10/03 A2973 RMK AO2 PRESFR SLP074 T01000028 (CR),,,,,,,,,,3/26/2007
USW00014939,2023-02-26T13:36:00,40.8508,-96.7475,362.7,"LINCOLN AIRPORT, NE US",FM-16,343,1005.1,3.3,11.1,,,,,59,SCT:04 6.4 BKN:07 9.14,,962.6,11.265,7.4,140,,6.2,,,,,,,,,,,,,,,,,,,,,,,,,,,,,,,,,,,,,,,,,,,,,,,,,,,,,,,,,,,,,,,,,,,,,,,,,,,,,,,,,,,,,,,,,,,MET09702/26/23 13:36:02 SPECI KLNK 261936Z 14012KT 7SM SCT021 BKN030 11/03 A2968 RMK AO2 T01110033 (CR),,,,,,,,,,3/26/2007
